{
"type": "FeatureCollection",
"name": "DACOR_105_cycling",
"crs": { "type": "name", "properties": { "name": "urn:ogc:def:crs:OGC:1.3:CRS84" } },
"features": [
{"type":"Feature","properties":{"highway":"cycleway","name":null,"category":"Dedicated cycleway"},"geometry":{"type":"MultiLineString","coordinates":[[[-0.4616591,51.7478157],[-0.4613291,51.7479044]]]}},
{"type":"Feature","properties":{"highway":"cycleway","name":null,"category":"Dedicated cycleway"},"geometry":{"type":"MultiLineString","coordinates":[[[-0.4465396,51.7474407],[-0.4464975,51.7476864],[-0.4464026,51.7478783],[-0.4463122,51.7480183],[-0.4460982,51.7481692],[-0.4458065,51.7482937]]]}},
{"type":"Feature","properties":{"highway":"cycleway","name":null,"category":"Dedicated cycleway"},"geometry":{"type":"MultiLineString","coordinates":[[[-0.4466444,51.7470377],[-0.4466755,51.7469086],[-0.4468132,51.7467294],[-0.4473155,51.7461903],[-0.447431,51.7458254],[-0.4474175,51.7455546]]]}},
{"type":"Feature","properties":{"highway":"cycleway","name":null,"category":"Dedicated cycleway"},"geometry":{"type":"MultiLineString","coordinates":[[[-0.450546,51.7503899],[-0.4505237,51.7502117],[-0.4505659,51.7501091],[-0.4505826,51.7500672],[-0.4504578,51.7497348],[-0.4500786,51.7494458],[-0.4500517,51.7493758]]]}},
{"type":"Feature","properties":{"highway":"path","name":null,"category":"Shared path"},"geometry":{"type":"MultiLineString","coordinates":[[[-0.4500405,51.7462281],[-0.4498706,51.7462641]]]}},
{"type":"Feature","properties":{"highway":"path","name":null,"category":"Shared path"},"geometry":{"type":"MultiLineString","coordinates":[[[-0.4496703,51.745965],[-0.4498566,51.7459248],[-0.4500068,51.7461805],[-0.4500405,51.7462281],[-0.4500739,51.7462752],[-0.4501302,51.7463815],[-0.4501758,51.7464861],[-0.4502348,51.746594],[-0.4503072,51.7467369]]]}},
{"type":"Feature","properties":{"highway":"path","name":null,"category":"Shared path"},"geometry":{"type":"MultiLineString","coordinates":[[[-0.4496205,51.7458906],[-0.4496703,51.745965],[-0.4498706,51.7462641],[-0.4500149,51.7464794],[-0.4500767,51.7465702],[-0.4501931,51.7467554]]]}},
{"type":"Feature","properties":{"highway":"track","name":null,"category":"Track"},"geometry":{"type":"MultiLineString","coordinates":[[[-0.4517873,51.7507659],[-0.453225,51.7507958],[-0.4533388,51.7509068]]]}},
{"type":"Feature","properties":{"highway":"track","name":null,"category":"Track"},"geometry":{"type":"MultiLineString","coordinates":[[[-0.4477506,51.7516175],[-0.447941,51.7517124],[-0.4478686,51.7517721],[-0.4479893,51.7518369],[-0.4481234,51.7518933],[-0.448287,51.7519681],[-0.4487752,51.7521308]]]}},
{"type":"Feature","properties":{"highway":"track","name":null,"category":"Track"},"geometry":{"type":"MultiLineString","coordinates":[[[-0.457391,51.7517569],[-0.4574935,51.7517464],[-0.4579549,51.7517547]]]}},
{"type":"Feature","properties":{"highway":"path","name":null,"category":"Shared path"},"geometry":{"type":"MultiLineString","coordinates":[[[-0.4485149,51.7454038],[-0.4486844,51.7453004],[-0.4487171,51.7452165],[-0.4487609,51.7450769],[-0.4494667,51.7448253],[-0.4497178,51.7446907],[-0.4497188,51.7445849]]]}},
{"type":"Feature","properties":{"highway":"path","name":null,"category":"Shared path"},"geometry":{"type":"MultiLineString","coordinates":[[[-0.4477027,51.7469502],[-0.4475304,51.7472406]]]}},
{"type":"Feature","properties":{"highway":"path","name":null,"category":"Shared path"},"geometry":{"type":"MultiLineString","coordinates":[[[-0.4498351,51.74681],[-0.4495828,51.746692],[-0.4493141,51.7466307]]]}},
{"type":"Feature","properties":{"highway":"path","name":null,"category":"Shared path"},"geometry":{"type":"MultiLineString","coordinates":[[[-0.4494935,51.7457337],[-0.4492728,51.7453722]]]}},
{"type":"Feature","properties":{"highway":"path","name":null,"category":"Shared path"},"geometry":{"type":"MultiLineString","coordinates":[[[-0.4553152,51.7523048],[-0.4554158,51.7523582]]]}},
{"type":"Feature","properties":{"highway":"path","name":null,"category":"Shared path"},"geometry":{"type":"MultiLineString","coordinates":[[[-0.459713,51.7472272],[-0.4593523,51.7474031],[-0.4592439,51.7475034]]]}},
{"type":"Feature","properties":{"highway":"cycleway","name":null,"category":"Dedicated cycleway"},"geometry":{"type":"MultiLineString","coordinates":[[[-0.4504009,51.7492131],[-0.4505716,51.7492542],[-0.4512617,51.7491343],[-0.4513025,51.7490884],[-0.4513666,51.7489732]]]}},
{"type":"Feature","properties":{"highway":"cycleway","name":null,"category":"Dedicated cycleway"},"geometry":{"type":"MultiLineString","coordinates":[[[-0.4500517,51.7493758],[-0.4500761,51.7493348],[-0.4500969,51.7492997],[-0.4501081,51.7492819],[-0.4503237,51.7493316],[-0.450331,51.7493196],[-0.4503553,51.7492795],[-0.4504009,51.7492131]]]}},
{"type":"Feature","properties":{"highway":"cycleway","name":null,"category":"Dedicated cycleway"},"geometry":{"type":"MultiLineString","coordinates":[[[-0.4513666,51.7489732],[-0.4514178,51.7488113],[-0.4514307,51.7487421]]]}},
{"type":"Feature","properties":{"highway":"path","name":null,"category":"Shared path"},"geometry":{"type":"MultiLineString","coordinates":[[[-0.4546109,51.7468102],[-0.4546597,51.7468674],[-0.4546945,51.7469081]]]}},
{"type":"Feature","properties":{"highway":"path","name":null,"category":"Shared path"},"geometry":{"type":"MultiLineString","coordinates":[[[-0.4586784,51.7442315],[-0.458625,51.7441641],[-0.4584577,51.7440702],[-0.4580552,51.7439078],[-0.4572996,51.7436919],[-0.4569792,51.7436006],[-0.4566773,51.7435128],[-0.4558793,51.743148]]]}},
{"type":"Feature","properties":{"highway":"path","name":null,"category":"Shared path"},"geometry":{"type":"MultiLineString","coordinates":[[[-0.4588179,51.7444073],[-0.4586784,51.7442315]]]}},
{"type":"Feature","properties":{"highway":"path","name":null,"category":"Shared path"},"geometry":{"type":"MultiLineString","coordinates":[[[-0.4454793,51.7498201],[-0.4454589,51.7498278],[-0.445503,51.7498642]]]}},
{"type":"Feature","properties":{"highway":"path","name":null,"category":"Shared path"},"geometry":{"type":"MultiLineString","coordinates":[[[-0.445857,51.7496929],[-0.4458904,51.7496928],[-0.4459881,51.7496925],[-0.4463739,51.7496719],[-0.446398,51.7496385],[-0.4463882,51.7495739]]]}},
{"type":"Feature","properties":{"highway":"path","name":null,"category":"Shared path"},"geometry":{"type":"MultiLineString","coordinates":[[[-0.4456861,51.7497679],[-0.4458469,51.7499536],[-0.4458616,51.7499707],[-0.4458722,51.7500083]]]}},
{"type":"Feature","properties":{"highway":"path","name":null,"category":"Shared path"},"geometry":{"type":"MultiLineString","coordinates":[[[-0.4458828,51.7500133],[-0.4459159,51.7500239],[-0.4458828,51.7501041],[-0.44594,51.750179]]]}},
{"type":"Feature","properties":{"highway":"path","name":null,"category":"Shared path"},"geometry":{"type":"MultiLineString","coordinates":[[[-0.4458469,51.7499536],[-0.4457177,51.7500023],[-0.4456061,51.7500444],[-0.4453025,51.7501581],[-0.4452479,51.7501795],[-0.4452029,51.7502524]]]}},
{"type":"Feature","properties":{"highway":"path","name":null,"category":"Shared path"},"geometry":{"type":"MultiLineString","coordinates":[[[-0.4456061,51.7500444],[-0.4457749,51.7502398]]]}},
{"type":"Feature","properties":{"highway":"path","name":null,"category":"Shared path"},"geometry":{"type":"MultiLineString","coordinates":[[[-0.4457177,51.7500023],[-0.4458828,51.7500133]]]}},
{"type":"Feature","properties":{"highway":"path","name":null,"category":"Shared path"},"geometry":{"type":"MultiLineString","coordinates":[[[-0.4459159,51.7500239],[-0.4460307,51.7499953],[-0.4465204,51.7498733],[-0.4466888,51.749824]]]}},
{"type":"Feature","properties":{"highway":"path","name":null,"category":"Shared path"},"geometry":{"type":"MultiLineString","coordinates":[[[-0.4465204,51.7498733],[-0.4465744,51.7499557]]]}},
{"type":"Feature","properties":{"highway":"path","name":null,"category":"Shared path"},"geometry":{"type":"MultiLineString","coordinates":[[[-0.4460307,51.7499953],[-0.4461172,51.7501138]]]}},
{"type":"Feature","properties":{"highway":"path","name":null,"category":"Shared path"},"geometry":{"type":"MultiLineString","coordinates":[[[-0.4463762,51.7513209],[-0.4464171,51.7512766],[-0.4461889,51.7511169],[-0.445846,51.7512891]]]}},
{"type":"Feature","properties":{"highway":"path","name":null,"category":"Shared path"},"geometry":{"type":"MultiLineString","coordinates":[[[-0.4550586,51.7554624],[-0.4549688,51.7553778],[-0.4549092,51.7553216],[-0.4547187,51.7553887],[-0.4543576,51.7550189]]]}},
{"type":"Feature","properties":{"highway":"path","name":null,"category":"Shared path"},"geometry":{"type":"MultiLineString","coordinates":[[[-0.4555227,51.7551748],[-0.4549688,51.7553778]]]}},
{"type":"Feature","properties":{"highway":"path","name":null,"category":"Shared path"},"geometry":{"type":"MultiLineString","coordinates":[[[-0.4555227,51.7551748],[-0.4559973,51.7549994],[-0.4561638,51.7549932]]]}},
{"type":"Feature","properties":{"highway":"path","name":null,"category":"Shared path"},"geometry":{"type":"MultiLineString","coordinates":[[[-0.4552413,51.7554181],[-0.4553619,51.7556279],[-0.4554421,51.7557676]]]}},
{"type":"Feature","properties":{"highway":"path","name":null,"category":"Shared path"},"geometry":{"type":"MultiLineString","coordinates":[[[-0.4545989,51.7556226],[-0.4547302,51.7558773],[-0.4547882,51.7559898]]]}},
{"type":"Feature","properties":{"highway":"path","name":null,"category":"Shared path"},"geometry":{"type":"MultiLineString","coordinates":[[[-0.4547302,51.7558773],[-0.4545069,51.7559186]]]}},
{"type":"Feature","properties":{"highway":"path","name":null,"category":"Shared path"},"geometry":{"type":"MultiLineString","coordinates":[[[-0.4549158,51.7555114],[-0.4550453,51.7557434],[-0.4551112,51.7558614]]]}},
{"type":"Feature","properties":{"highway":"path","name":null,"category":"Shared path"},"geometry":{"type":"MultiLineString","coordinates":[[[-0.4550453,51.7557434],[-0.4548471,51.755781]]]}},
{"type":"Feature","properties":{"highway":"path","name":null,"category":"Shared path"},"geometry":{"type":"MultiLineString","coordinates":[[[-0.4553619,51.7556279],[-0.4551874,51.7556642]]]}},
{"type":"Feature","properties":{"highway":"path","name":null,"category":"Shared path"},"geometry":{"type":"MultiLineString","coordinates":[[[-0.4554421,51.7557676],[-0.455244,51.7558191],[-0.4551112,51.7558614],[-0.454985,51.7559073],[-0.4548239,51.7559748],[-0.4547985,51.7559854],[-0.4547882,51.7559898]]]}},
{"type":"Feature","properties":{"highway":"path","name":null,"category":"Shared path"},"geometry":{"type":"MultiLineString","coordinates":[[[-0.4547882,51.7559898],[-0.4544698,51.7561291]]]}}
]
}
