{
"type": "FeatureCollection",
"name": "MALDO_31_NACH_800m",
"crs": { "type": "name", "properties": { "name": "urn:ogc:def:crs:OGC:1.3:CRS84" } },
"features": [
{ "type": "Feature", "properties": { "id": 8534, "nach": 0.0 }, "geometry": { "type": "LineString", "coordinates": [ [ 0.6402251, 51.774050400000014 ], [ 0.6403, 51.773811200000011 ], [ 0.6402583, 51.7737992 ], [ 0.6396562, 51.7736259 ], [ 0.6395234, 51.7736167 ], [ 0.639423, 51.7735823 ], [ 0.6391109, 51.773411800000012 ], [ 0.639034, 51.773373600000014 ], [ 0.6388398, 51.7732279 ], [ 0.6386398, 51.77305 ], [ 0.6386085, 51.773007800000016 ], [ 0.6386151, 51.77294710000001 ], [ 0.638548, 51.7729047 ], [ 0.6383239, 51.7726911 ], [ 0.6382734, 51.7726415 ], [ 0.6382504, 51.772604299999983 ], [ 0.6382453, 51.7725762 ], [ 0.6382343, 51.7722309 ], [ 0.6379381, 51.771980099999986 ], [ 0.6378809, 51.7718682 ], [ 0.6378066, 51.771823300000015 ], [ 0.6377937, 51.7717796 ], [ 0.6376292, 51.7717155 ], [ 0.6375361, 51.771681 ], [ 0.6371652, 51.7714996 ], [ 0.6369453, 51.77136990000001 ], [ 0.6369108, 51.77135 ], [ 0.6368708, 51.7713413 ], [ 0.6367605, 51.7713489 ], [ 0.6367444, 51.7713222 ], [ 0.6360398, 51.7705708 ], [ 0.6351144, 51.769584 ], [ 0.6351069, 51.7695324 ], [ 0.633321, 51.7675534 ], [ 0.6332314, 51.7675046 ] ] } },
{ "type": "Feature", "properties": { "id": 9708, "nach": 0.0 }, "geometry": { "type": "LineString", "coordinates": [ [ 0.6089158, 51.766835899999982 ], [ 0.6089948, 51.766845400000015 ], [ 0.6094167, 51.7667164 ], [ 0.6096714, 51.766685 ], [ 0.6098555, 51.7666601 ], [ 0.6111349, 51.7664806 ], [ 0.6118952, 51.7663772 ], [ 0.6119247, 51.7663102 ], [ 0.6129237, 51.7661323 ], [ 0.6137661, 51.765981 ], [ 0.6142501, 51.7659237 ], [ 0.6150024, 51.7658501 ], [ 0.6157494, 51.7657763 ], [ 0.6162027, 51.7657295 ], [ 0.6163341, 51.7657218 ], [ 0.6164387, 51.765742700000011 ], [ 0.6164554, 51.765737799999989 ], [ 0.616489, 51.7657097 ], [ 0.6165729, 51.7656395 ], [ 0.6163918, 51.7646809 ], [ 0.6164106, 51.764637300000011 ], [ 0.6164438, 51.7646142 ], [ 0.6166171, 51.7645992 ], [ 0.6169374, 51.764567 ], [ 0.6175614, 51.7645222 ], [ 0.6182425, 51.764496 ], [ 0.6183696, 51.7644916 ] ] } },
{ "type": "Feature", "properties": { "id": 27051, "nach": 0.3899033656768422 }, "geometry": { "type": "LineString", "coordinates": [ [ 0.6183114, 51.7648984 ], [ 0.6183038, 51.764831 ], [ 0.6182967, 51.7647562 ], [ 0.6182984, 51.7646579 ], [ 0.618325, 51.7645617 ], [ 0.6183696, 51.7644916 ] ] } },
{ "type": "Feature", "properties": { "id": 906, "nach": 0.39883047708168473 }, "geometry": { "type": "LineString", "coordinates": [ [ 0.6185432, 51.764358 ], [ 0.6184746, 51.7643976 ], [ 0.6184183, 51.7644437 ], [ 0.6183696, 51.7644916 ] ] } },
{ "type": "Feature", "properties": { "id": 9711, "nach": 0.31561706800376049 }, "geometry": { "type": "LineString", "coordinates": [ [ 0.6088836, 51.7664228 ], [ 0.6089087, 51.766556800000011 ], [ 0.608912, 51.7666256 ], [ 0.6089152, 51.7667562 ], [ 0.6089158, 51.766835899999982 ] ] } },
{ "type": "Feature", "properties": { "id": 29316, "nach": 0.38481116711147551 }, "geometry": { "type": "LineString", "coordinates": [ [ 0.6185793, 51.7657764 ], [ 0.6185126, 51.7655689 ], [ 0.6184111, 51.76527020000001 ], [ 0.6183637, 51.7651313 ], [ 0.6183173, 51.7649506 ], [ 0.6183114, 51.7648984 ] ] } },
{ "type": "Feature", "properties": { "id": 27053, "nach": 0.30707550251461524 }, "geometry": { "type": "LineString", "coordinates": [ [ 0.6176215, 51.7650067 ], [ 0.6178148, 51.7649847 ], [ 0.6180662, 51.7649403 ], [ 0.6183114, 51.7648984 ] ] } },
{ "type": "Feature", "properties": { "id": 12317, "nach": 0.3863757876547545 }, "geometry": { "type": "LineString", "coordinates": [ [ 0.6186401, 51.7643291 ], [ 0.6185432, 51.764358 ] ] } },
{ "type": "Feature", "properties": { "id": 911, "nach": 0.36809339411013975 }, "geometry": { "type": "LineString", "coordinates": [ [ 0.6121005, 51.7629179 ], [ 0.6122888, 51.76298460000001 ], [ 0.6124314, 51.7630344 ], [ 0.6126654, 51.7631318 ], [ 0.612908, 51.7632441 ], [ 0.6130258, 51.76329 ], [ 0.6131376, 51.763312 ], [ 0.6132525, 51.7633195 ], [ 0.6134246, 51.7633181 ], [ 0.6136592, 51.7633019 ], [ 0.6139946, 51.7632693 ], [ 0.6142373, 51.7632495 ], [ 0.6144752, 51.7632425 ], [ 0.6148906, 51.76322 ], [ 0.6152502, 51.7631907 ], [ 0.6156464, 51.763149800000015 ], [ 0.6159332, 51.7631203 ], [ 0.6161316, 51.7631083 ], [ 0.6163092, 51.76311470000001 ], [ 0.616559, 51.7631341 ], [ 0.6167867, 51.7631606 ], [ 0.6169057, 51.7631773 ], [ 0.6169846, 51.7632052 ], [ 0.6170707, 51.7632487 ], [ 0.6171332, 51.7632917 ], [ 0.6172151, 51.7633573 ], [ 0.6172722, 51.7634119 ], [ 0.6173522, 51.7634861 ], [ 0.6174783, 51.7636296 ], [ 0.6175778, 51.7637324 ], [ 0.6176376, 51.7637935 ], [ 0.6176858, 51.7638357 ], [ 0.6177707, 51.7638942 ], [ 0.6178719, 51.7639631 ], [ 0.6180481, 51.7640603 ], [ 0.6182454, 51.7641646 ], [ 0.6184033, 51.76426 ], [ 0.6185432, 51.764358 ] ] } },
{ "type": "Feature", "properties": { "id": 33822, "nach": 0.23147592965938435 }, "geometry": { "type": "LineString", "coordinates": [ [ 0.626226, 51.767251200000011 ], [ 0.6262243, 51.7672155 ], [ 0.6262406, 51.7671552 ], [ 0.6262294, 51.7671012 ], [ 0.6262285, 51.76693130000001 ], [ 0.6261109, 51.7667006 ], [ 0.6259774, 51.766568800000023 ], [ 0.6257917, 51.7664761 ], [ 0.6255541, 51.7664285 ], [ 0.6254136, 51.7664131 ], [ 0.6254517, 51.7663357 ], [ 0.6254488, 51.7662642 ], [ 0.6254012, 51.7662055 ], [ 0.6252905, 51.76610620000001 ], [ 0.6250654, 51.766019 ], [ 0.6247305, 51.7659115 ], [ 0.624367, 51.7658571 ], [ 0.6241126, 51.765756100000011 ], [ 0.6239642, 51.7656496 ], [ 0.6238928, 51.7655306 ], [ 0.6238978, 51.765422 ], [ 0.624102, 51.76431 ], [ 0.6241767, 51.7638776 ], [ 0.6241928, 51.763743100000013 ], [ 0.6241936, 51.7637031 ], [ 0.6241967, 51.7635597 ] ] } },
{ "type": "Feature", "properties": { "id": 12865, "nach": 0.39734721735526929 }, "geometry": { "type": "LineString", "coordinates": [ [ 0.6213576, 51.7641535 ], [ 0.6216599, 51.7640909 ], [ 0.6221746, 51.7639858 ], [ 0.6226681, 51.7638809 ], [ 0.6231797, 51.7637736 ], [ 0.6236674, 51.7636743 ], [ 0.6241967, 51.7635597 ] ] } },
{ "type": "Feature", "properties": { "id": 249, "nach": 0.42362870394905811 }, "geometry": { "type": "LineString", "coordinates": [ [ 0.627249, 51.7627802 ], [ 0.6268467, 51.7628525 ], [ 0.6266207, 51.76290059999998 ], [ 0.6262596, 51.7629946 ], [ 0.6258077, 51.7631265 ], [ 0.6255066, 51.7632197 ], [ 0.6251636, 51.7633206 ], [ 0.6246691, 51.7634511 ], [ 0.6244329, 51.7635054 ], [ 0.6241967, 51.7635597 ] ] } },
{ "type": "Feature", "properties": { "id": 33823, "nach": 0.39280273116980136 }, "geometry": { "type": "LineString", "coordinates": [ [ 0.626226, 51.767251200000011 ], [ 0.626232, 51.767311 ], [ 0.6263923, 51.7680702 ], [ 0.6264142, 51.76828840000001 ] ] } },
{ "type": "Feature", "properties": { "id": 33825, "nach": 0.33431475787064446 }, "geometry": { "type": "LineString", "coordinates": [ [ 0.626226, 51.767251200000011 ], [ 0.6261349, 51.7672705 ], [ 0.6256695, 51.767353499999984 ], [ 0.625467, 51.7673651 ], [ 0.6248045, 51.7673651 ] ] } },
{ "type": "Feature", "properties": { "id": 33824, "nach": 0.28398017801153813 }, "geometry": { "type": "LineString", "coordinates": [ [ 0.626226, 51.767251200000011 ], [ 0.626269, 51.7672415 ], [ 0.6269399, 51.7670455 ], [ 0.6270817, 51.767017399999986 ], [ 0.6275739, 51.7669584 ], [ 0.6283772, 51.7668464 ], [ 0.6292342, 51.766736 ], [ 0.6294681, 51.7667003 ], [ 0.6295118, 51.7666962 ], [ 0.6295748, 51.766704500000017 ], [ 0.6296338, 51.7667202 ], [ 0.6296701, 51.7667526 ], [ 0.6296942, 51.7667958 ], [ 0.6297344, 51.7668555 ], [ 0.6297626, 51.7668945 ], [ 0.6297948, 51.7669211 ], [ 0.6298337, 51.7669427 ], [ 0.6298819, 51.7669576 ], [ 0.629941, 51.7669643 ], [ 0.6300281, 51.7669601 ], [ 0.6303098, 51.7669087 ], [ 0.6308838, 51.7667916 ], [ 0.6314081, 51.766692900000017 ], [ 0.6319499, 51.7665974 ], [ 0.632143, 51.7665584 ], [ 0.6323213, 51.7665069 ], [ 0.6324125, 51.7664713 ], [ 0.6324944, 51.7664555 ], [ 0.6326244, 51.766443 ], [ 0.6327076, 51.7664356 ], [ 0.6327612, 51.766421500000014 ], [ 0.6328109, 51.766397400000017 ], [ 0.6328466, 51.7663632 ] ] } },
{ "type": "Feature", "properties": { "id": 12864, "nach": 0.36976174058234806 }, "geometry": { "type": "LineString", "coordinates": [ [ 0.6213576, 51.7641535 ], [ 0.6211613, 51.7641942 ], [ 0.6207031, 51.764281399999987 ], [ 0.6204941, 51.7643156 ], [ 0.6203451, 51.7643361 ], [ 0.6201775, 51.7643486 ], [ 0.6200005, 51.7643521 ], [ 0.6198662, 51.7643486 ], [ 0.6197192, 51.7643411 ], [ 0.6192861, 51.764307399999986 ], [ 0.619006, 51.7642912 ], [ 0.6188725, 51.7642956 ], [ 0.6187177, 51.764309 ], [ 0.6186401, 51.7643291 ] ] } },
{ "type": "Feature", "properties": { "id": 12878, "nach": 0.30348188057861192 }, "geometry": { "type": "LineString", "coordinates": [ [ 0.6206032, 51.7670887 ], [ 0.6206015, 51.7670613 ], [ 0.6206176, 51.7669833 ], [ 0.6206337, 51.7666845 ], [ 0.6206605, 51.7665999 ], [ 0.6206793, 51.766492 ], [ 0.6207561, 51.7661027 ], [ 0.6208232, 51.7658454 ], [ 0.6208714, 51.765701 ], [ 0.6208831, 51.76562220000001 ], [ 0.6208818, 51.7656147 ], [ 0.620859, 51.7655259 ], [ 0.620859, 51.76546110000001 ], [ 0.6208965, 51.7653715 ], [ 0.6210306, 51.7650877 ], [ 0.6211943, 51.7647225 ], [ 0.621264, 51.7645432 ], [ 0.6213328, 51.7643465 ], [ 0.6213542, 51.7642535 ], [ 0.6213576, 51.7641535 ] ] } },
{ "type": "Feature", "properties": { "id": 20273, "nach": 0.44988567725662199 }, "geometry": { "type": "LineString", "coordinates": [ [ 0.6273264, 51.762963899999988 ], [ 0.627249, 51.7627802 ] ] } },
{ "type": "Feature", "properties": { "id": 23207, "nach": 0.48923668081910476 }, "geometry": { "type": "LineString", "coordinates": [ [ 0.6280966, 51.762641 ], [ 0.6277814, 51.7626948 ], [ 0.627249, 51.7627802 ] ] } },
{ "type": "Feature", "properties": { "id": 20274, "nach": 0.37034894958848574 }, "geometry": { "type": "LineString", "coordinates": [ [ 0.6273264, 51.762963899999988 ], [ 0.6270575, 51.7630062 ] ] } },
{ "type": "Feature", "properties": { "id": 20272, "nach": 0.37034894958848574 }, "geometry": { "type": "LineString", "coordinates": [ [ 0.6273264, 51.762963899999988 ], [ 0.6273847, 51.763102500000016 ] ] } },
{ "type": "Feature", "properties": { "id": 23206, "nach": 0.5103505443211267 }, "geometry": { "type": "LineString", "coordinates": [ [ 0.6280966, 51.762641 ], [ 0.628279, 51.7626109 ] ] } },
{ "type": "Feature", "properties": { "id": 23208, "nach": 0.39718329568230754 }, "geometry": { "type": "LineString", "coordinates": [ [ 0.6280966, 51.762641 ], [ 0.6280204, 51.762421799999984 ], [ 0.6279268, 51.7622285 ] ] } },
{ "type": "Feature", "properties": { "id": 8367, "nach": 0.56198561442853601 }, "geometry": { "type": "LineString", "coordinates": [ [ 0.6293933, 51.7622633 ], [ 0.6291367, 51.7623829 ], [ 0.6289702, 51.76244410000001 ], [ 0.6288479, 51.762482299999988 ], [ 0.6287167, 51.7625164 ], [ 0.6285463, 51.7625565 ], [ 0.6283938, 51.762589 ], [ 0.628279, 51.7626109 ] ] } },
{ "type": "Feature", "properties": { "id": 27554, "nach": 0.56310902019975029 }, "geometry": { "type": "LineString", "coordinates": [ [ 0.6282908, 51.7628213 ], [ 0.6282828, 51.7626876 ], [ 0.628279, 51.7626109 ] ] } },
{ "type": "Feature", "properties": { "id": 33498, "nach": 0.55216364984580002 }, "geometry": { "type": "LineString", "coordinates": [ [ 0.6297326, 51.7620407 ], [ 0.6297035, 51.76206590000001 ], [ 0.6295316, 51.7621839 ], [ 0.6293933, 51.7622633 ] ] } },
{ "type": "Feature", "properties": { "id": 30825, "nach": 0.44537650717073474 }, "geometry": { "type": "LineString", "coordinates": [ [ 0.6297283, 51.7623587 ], [ 0.629641, 51.762368 ], [ 0.6295468, 51.7623494 ], [ 0.6293933, 51.7622633 ] ] } },
{ "type": "Feature", "properties": { "id": 27553, "nach": 0.55968336703854371 }, "geometry": { "type": "LineString", "coordinates": [ [ 0.6282908, 51.7628213 ], [ 0.6283002, 51.7629884 ], [ 0.6282691, 51.7631718 ] ] } },
{ "type": "Feature", "properties": { "id": 27556, "nach": 0.36562047365532147 }, "geometry": { "type": "LineString", "coordinates": [ [ 0.6285906, 51.7633113 ], [ 0.6284881, 51.76330810000001 ], [ 0.6284189, 51.7632907 ], [ 0.628383, 51.7632653 ], [ 0.6283728, 51.7628814 ], [ 0.6282908, 51.7628213 ] ] } },
{ "type": "Feature", "properties": { "id": 33496, "nach": 0.55369758322803564 }, "geometry": { "type": "LineString", "coordinates": [ [ 0.6297326, 51.7620407 ], [ 0.6298253, 51.7619601 ] ] } },
{ "type": "Feature", "properties": { "id": 257, "nach": 0.54508447363301038 }, "geometry": { "type": "LineString", "coordinates": [ [ 0.6301195, 51.7616307 ], [ 0.6298253, 51.7619601 ] ] } },
{ "type": "Feature", "properties": { "id": 12860, "nach": 0.38612841048035035 }, "geometry": { "type": "LineString", "coordinates": [ [ 0.6299963, 51.7619294 ], [ 0.6299105, 51.7619493 ], [ 0.6298253, 51.7619601 ] ] } },
{ "type": "Feature", "properties": { "id": 33497, "nach": 0.32291234746341663 }, "geometry": { "type": "LineString", "coordinates": [ [ 0.6297326, 51.7620407 ], [ 0.6302117, 51.7622989 ] ] } },
{ "type": "Feature", "properties": { "id": 260, "nach": 0.54085453201697764 }, "geometry": { "type": "LineString", "coordinates": [ [ 0.6303163, 51.7613928 ], [ 0.6301195, 51.7616307 ] ] } },
{ "type": "Feature", "properties": { "id": 28332, "nach": 0.3687272632990482 }, "geometry": { "type": "LineString", "coordinates": [ [ 0.6296333, 51.761863 ], [ 0.6297898, 51.7616535 ], [ 0.6298337, 51.7616037 ], [ 0.6298666, 51.7615867 ], [ 0.6298959, 51.761581 ], [ 0.6299252, 51.761581 ], [ 0.6299517, 51.7615844 ], [ 0.6301195, 51.7616307 ] ] } },
{ "type": "Feature", "properties": { "id": 12861, "nach": 0.2801235598139637 }, "geometry": { "type": "LineString", "coordinates": [ [ 0.6299963, 51.7619294 ], [ 0.6300875, 51.7618763 ], [ 0.6301707, 51.7617883 ], [ 0.630235, 51.7616987 ], [ 0.6302806, 51.7616256 ], [ 0.6303021, 51.7615576 ], [ 0.6303128, 51.761484500000016 ], [ 0.6303163, 51.7613928 ] ] } },
{ "type": "Feature", "properties": { "id": 12862, "nach": 0.33652232644278596 }, "geometry": { "type": "LineString", "coordinates": [ [ 0.6299963, 51.7619294 ], [ 0.6300714, 51.7619095 ], [ 0.6302148, 51.7618944 ], [ 0.630314, 51.76188040000001 ], [ 0.6304504, 51.7618506 ], [ 0.6305551, 51.7618075 ] ] } },
{ "type": "Feature", "properties": { "id": 3132, "nach": 0.54104540729578054 }, "geometry": { "type": "LineString", "coordinates": [ [ 0.6305582, 51.7611561 ], [ 0.6304664, 51.7612321 ], [ 0.6303163, 51.7613928 ] ] } },
{ "type": "Feature", "properties": { "id": 8959, "nach": 0.50192145324052051 }, "geometry": { "type": "LineString", "coordinates": [ [ 0.6314119, 51.7607195 ], [ 0.6311746, 51.7608059 ], [ 0.6309141, 51.7609473 ], [ 0.6305582, 51.7611561 ] ] } },
{ "type": "Feature", "properties": { "id": 3694, "nach": 0.45182364145041254 }, "geometry": { "type": "LineString", "coordinates": [ [ 0.6300319, 51.760989 ], [ 0.6300992, 51.7610207 ], [ 0.6302782, 51.761072 ], [ 0.6305582, 51.7611561 ] ] } },
{ "type": "Feature", "properties": { "id": 8988, "nach": 0.44521048753911863 }, "geometry": { "type": "LineString", "coordinates": [ [ 0.6307677, 51.7612304 ], [ 0.6307059, 51.761212899999983 ], [ 0.6306262, 51.761180900000014 ], [ 0.6305582, 51.7611561 ] ] } },
{ "type": "Feature", "properties": { "id": 28771, "nach": 0.39966124012267956 }, "geometry": { "type": "LineString", "coordinates": [ [ 0.6306413, 51.760783400000015 ], [ 0.6305414, 51.760889 ], [ 0.6305024, 51.7609479 ], [ 0.6304916, 51.7609888 ], [ 0.6304853, 51.7610444 ], [ 0.6304973, 51.761083700000022 ], [ 0.6305582, 51.7611561 ] ] } },
{ "type": "Feature", "properties": { "id": 8989, "nach": 0.33368067280392227 }, "geometry": { "type": "LineString", "coordinates": [ [ 0.6333344, 51.7600965 ], [ 0.633138, 51.7599547 ] ] } },
{ "type": "Feature", "properties": { "id": 8960, "nach": 0.4920003752654013 }, "geometry": { "type": "LineString", "coordinates": [ [ 0.6314119, 51.7607195 ], [ 0.6316352, 51.7606381 ], [ 0.6320762, 51.7604869 ], [ 0.632297, 51.7604071 ], [ 0.6325141, 51.7603199 ], [ 0.6326804, 51.7602438 ], [ 0.6328182, 51.7601706 ], [ 0.6329195, 51.7601115 ], [ 0.633138, 51.7599547 ] ] } },
{ "type": "Feature", "properties": { "id": 9041, "nach": 0.49428417581113349 }, "geometry": { "type": "LineString", "coordinates": [ [ 0.6333881, 51.7596767 ], [ 0.6333547, 51.7597228 ], [ 0.6333201, 51.7597739 ], [ 0.6332692, 51.7598298 ], [ 0.633208, 51.759888 ], [ 0.633138, 51.7599547 ] ] } },
{ "type": "Feature", "properties": { "id": 8990, "nach": 0.28326408521356183 }, "geometry": { "type": "LineString", "coordinates": [ [ 0.6333344, 51.7600965 ], [ 0.6334575, 51.760215 ], [ 0.6335496, 51.7603379 ], [ 0.6336346, 51.7604903 ], [ 0.6336827, 51.7606445 ], [ 0.633743, 51.7612996 ], [ 0.6336978, 51.7617876 ], [ 0.6336387, 51.762056800000018 ], [ 0.633585, 51.7624525 ], [ 0.6334815, 51.7628116 ], [ 0.6334107, 51.762996200000018 ] ] } },
{ "type": "Feature", "properties": { "id": 9048, "nach": 0.34782786080577244 }, "geometry": { "type": "LineString", "coordinates": [ [ 0.6314704, 51.76074040000001 ], [ 0.6315398, 51.7607391 ], [ 0.6316253, 51.7607224 ], [ 0.6325131, 51.7603931 ], [ 0.6330066, 51.7602171 ], [ 0.6333344, 51.7600965 ] ] } },
{ "type": "Feature", "properties": { "id": 9046, "nach": 0.42615462374576846 }, "geometry": { "type": "LineString", "coordinates": [ [ 0.6314704, 51.76074040000001 ], [ 0.6314119, 51.7607195 ] ] } },
{ "type": "Feature", "properties": { "id": 28769, "nach": 0.31789186255707996 }, "geometry": { "type": "LineString", "coordinates": [ [ 0.6306413, 51.760783400000015 ], [ 0.6310825, 51.7606175 ], [ 0.6311476, 51.7605955 ], [ 0.6311908, 51.7605857 ], [ 0.6312111, 51.7605889 ], [ 0.631235, 51.7605927 ], [ 0.6313017, 51.7606215 ], [ 0.6313586, 51.76065650000001 ], [ 0.6314119, 51.7607195 ] ] } },
{ "type": "Feature", "properties": { "id": 12547, "nach": 0.37101837056723019 }, "geometry": { "type": "LineString", "coordinates": [ [ 0.633568, 51.7590639 ], [ 0.6335377, 51.7591247 ], [ 0.6334599, 51.7593306 ], [ 0.6333928, 51.7595282 ], [ 0.6333821, 51.7595796 ], [ 0.6333881, 51.7596767 ] ] } },
{ "type": "Feature", "properties": { "id": 12543, "nach": 0.47214241447814403 }, "geometry": { "type": "LineString", "coordinates": [ [ 0.6336847, 51.7590826 ], [ 0.633667, 51.7591191 ], [ 0.6335859, 51.7593023 ], [ 0.6335376, 51.7594035 ], [ 0.6334677, 51.75954560000001 ], [ 0.6333881, 51.7596767 ] ] } },
{ "type": "Feature", "properties": { "id": 939, "nach": 0.31520756367345665 }, "geometry": { "type": "LineString", "coordinates": [ [ 0.6085557, 51.7626828 ], [ 0.6088947, 51.7628363 ], [ 0.6092142, 51.7629836 ], [ 0.6096579, 51.763177 ], [ 0.6099972, 51.7633344 ], [ 0.610266, 51.763449 ], [ 0.6104932, 51.7635472 ], [ 0.6107483, 51.7636689 ] ] } },
{ "type": "Feature", "properties": { "id": 22997, "nach": 0.47730376632396343 }, "geometry": { "type": "LineString", "coordinates": [ [ 0.6096246, 51.7644745 ], [ 0.6097192, 51.7643937 ], [ 0.6098389, 51.7643001 ], [ 0.6100918, 51.7641161 ], [ 0.6103851, 51.7639136 ], [ 0.6107483, 51.7636689 ] ] } },
{ "type": "Feature", "properties": { "id": 941, "nach": 0.47497819001734404 }, "geometry": { "type": "LineString", "coordinates": [ [ 0.6116413, 51.763147100000012 ], [ 0.6114525, 51.7632291 ], [ 0.6113208, 51.7632878 ], [ 0.6112029, 51.7633539 ], [ 0.611073, 51.763436299999988 ], [ 0.6109552, 51.7635139 ], [ 0.6107483, 51.7636689 ] ] } },
{ "type": "Feature", "properties": { "id": 22996, "nach": 0.48245206238521582 }, "geometry": { "type": "LineString", "coordinates": [ [ 0.6096246, 51.7644745 ], [ 0.6095627, 51.764527500000014 ] ] } },
{ "type": "Feature", "properties": { "id": 23001, "nach": 0.3428660136797782 }, "geometry": { "type": "LineString", "coordinates": [ [ 0.6100709, 51.764523 ], [ 0.6098309, 51.7644845 ], [ 0.6096246, 51.7644745 ] ] } },
{ "type": "Feature", "properties": { "id": 942, "nach": 0.46108311360516296 }, "geometry": { "type": "LineString", "coordinates": [ [ 0.6116413, 51.763147100000012 ], [ 0.6118633, 51.763043599999989 ], [ 0.6121005, 51.7629179 ] ] } },
{ "type": "Feature", "properties": { "id": 28821, "nach": 0.44759154353475511 }, "geometry": { "type": "LineString", "coordinates": [ [ 0.6097589, 51.7623335 ], [ 0.610114, 51.762490500000013 ], [ 0.610385, 51.7625993 ], [ 0.6108559, 51.7627968 ], [ 0.6116413, 51.763147100000012 ] ] } },
{ "type": "Feature", "properties": { "id": 24280, "nach": 0.43210150786719392 }, "geometry": { "type": "LineString", "coordinates": [ [ 0.6089843, 51.7659367 ], [ 0.6090096, 51.7658906 ], [ 0.6090585, 51.7657922 ], [ 0.6091238, 51.765661400000013 ], [ 0.6092127, 51.765461 ], [ 0.6092624, 51.7653422 ], [ 0.6093605, 51.7650871 ], [ 0.6094483, 51.7648201 ], [ 0.6094916, 51.7646729 ], [ 0.6095308, 51.7645847 ], [ 0.6095627, 51.764527500000014 ] ] } },
{ "type": "Feature", "properties": { "id": 929, "nach": 0.48186034431226604 }, "geometry": { "type": "LineString", "coordinates": [ [ 0.6091355, 51.7640818 ], [ 0.6093434, 51.7643739 ], [ 0.6093982, 51.7644263 ], [ 0.6094446, 51.764467 ], [ 0.6094953, 51.7644945 ], [ 0.6095627, 51.764527500000014 ] ] } },
{ "type": "Feature", "properties": { "id": 24279, "nach": 0.39524856453617357 }, "geometry": { "type": "LineString", "coordinates": [ [ 0.6089843, 51.7659367 ], [ 0.6089506, 51.7660086 ], [ 0.6089361, 51.7661748 ], [ 0.6088994, 51.7663596 ], [ 0.6088836, 51.7664228 ] ] } },
{ "type": "Feature", "properties": { "id": 24281, "nach": 0.32768306940786918 }, "geometry": { "type": "LineString", "coordinates": [ [ 0.6083769, 51.7658076 ], [ 0.6089843, 51.7659367 ] ] } },
{ "type": "Feature", "properties": { "id": 22630, "nach": 0.48295459019973458 }, "geometry": { "type": "LineString", "coordinates": [ [ 0.6077328, 51.7633861 ], [ 0.6079088, 51.7634444 ], [ 0.6080756, 51.7635067 ], [ 0.6082429, 51.7635864 ], [ 0.6091355, 51.7640818 ] ] } },
{ "type": "Feature", "properties": { "id": 27387, "nach": 0.34260904371477757 }, "geometry": { "type": "LineString", "coordinates": [ [ 0.6085915, 51.7644005 ], [ 0.6087655, 51.7642383 ], [ 0.6088416, 51.764184 ], [ 0.6089244, 51.7641536 ], [ 0.6090139, 51.7641317 ], [ 0.6091355, 51.7640818 ] ] } },
{ "type": "Feature", "properties": { "id": 9709, "nach": 0.30910572519327773 }, "geometry": { "type": "LineString", "coordinates": [ [ 0.6088836, 51.7664228 ], [ 0.6088469, 51.766546 ], [ 0.608785, 51.7667034 ], [ 0.6086997, 51.7668239 ], [ 0.6085793, 51.7669176 ], [ 0.6084246, 51.7670114 ], [ 0.608273, 51.7670956 ], [ 0.6079222, 51.7672239 ] ] } },
{ "type": "Feature", "properties": { "id": 12319, "nach": 0.0 }, "geometry": { "type": "LineString", "coordinates": [ [ 0.6186401, 51.7643291 ], [ 0.618665, 51.764178 ], [ 0.6186891, 51.7639863 ], [ 0.618665, 51.7632653 ], [ 0.6186824, 51.7627102 ], [ 0.6186666, 51.7626315 ], [ 0.6185214, 51.7626173 ], [ 0.618626, 51.7620192 ], [ 0.6187119, 51.7615686 ], [ 0.6187529, 51.7611385 ], [ 0.6187347, 51.7610515 ], [ 0.6185831, 51.7609884 ], [ 0.6183203, 51.7609609 ], [ 0.6181325, 51.7609418 ], [ 0.6181389, 51.7608378 ], [ 0.6181209, 51.7604933 ], [ 0.6181369, 51.7602501 ], [ 0.6182476, 51.7598723 ], [ 0.6183429, 51.7594645 ], [ 0.6184433, 51.7592741 ], [ 0.6184925, 51.7590967 ], [ 0.6185845, 51.758734900000015 ], [ 0.6186757, 51.758585800000013 ], [ 0.6198692, 51.7564779 ], [ 0.6199242, 51.7562728 ] ] } },
{ "type": "Feature", "properties": { "id": 28599, "nach": 0.44918822127660457 }, "geometry": { "type": "LineString", "coordinates": [ [ 0.6121749, 51.7628576 ], [ 0.6121005, 51.7629179 ] ] } },
{ "type": "Feature", "properties": { "id": 28602, "nach": 0.33803137547526874 }, "geometry": { "type": "LineString", "coordinates": [ [ 0.611757, 51.7627065 ], [ 0.6121749, 51.7628576 ] ] } },
{ "type": "Feature", "properties": { "id": 28664, "nach": 0.4229035547963686 }, "geometry": { "type": "LineString", "coordinates": [ [ 0.6127701, 51.7623285 ], [ 0.6125067, 51.762571199999982 ], [ 0.6122679, 51.7627822 ], [ 0.6121749, 51.7628576 ] ] } },
{ "type": "Feature", "properties": { "id": 8501, "nach": 0.0 }, "geometry": { "type": "LineString", "coordinates": [ [ 0.6142104, 51.760673900000015 ], [ 0.6139281, 51.7606141 ], [ 0.6137477, 51.7605688 ], [ 0.6135248, 51.7605474 ], [ 0.6130762, 51.7605058 ], [ 0.6126621, 51.7604636 ], [ 0.6124466, 51.7604561 ], [ 0.6120267, 51.760438 ], [ 0.6117285, 51.760403599999989 ], [ 0.6113655, 51.7603571 ], [ 0.6112063, 51.7602967 ], [ 0.6109468, 51.7602547 ], [ 0.6106543, 51.7601889 ], [ 0.6104142, 51.760112299999989 ], [ 0.6099007, 51.7599261 ], [ 0.6096752, 51.7598713 ], [ 0.6096244, 51.7598819 ], [ 0.60945, 51.7599202 ], [ 0.6092743, 51.7599926 ], [ 0.6088525, 51.76017 ], [ 0.6084965, 51.7603172 ], [ 0.6082521, 51.7604297 ], [ 0.6081529, 51.7604578 ], [ 0.6079855, 51.7605271 ], [ 0.6078271, 51.7606538 ], [ 0.6076328, 51.7607532 ], [ 0.6073623, 51.7609083 ], [ 0.6071421, 51.7610075 ], [ 0.6068442, 51.7612146 ], [ 0.6064899, 51.7614486 ], [ 0.6063933, 51.7615252 ], [ 0.6063118, 51.7615802 ], [ 0.6063203, 51.7616137 ], [ 0.6063541, 51.7617119 ], [ 0.6062924, 51.7617551 ], [ 0.6061385, 51.76184150000001 ], [ 0.6057791, 51.762062300000011 ], [ 0.6054143, 51.762306500000015 ], [ 0.6052635, 51.7624684 ], [ 0.6051515, 51.7625794 ], [ 0.6051005, 51.7626421 ], [ 0.6049911, 51.7626664 ], [ 0.6049616, 51.7626769 ], [ 0.6049259, 51.7627179 ], [ 0.6048617, 51.762794 ], [ 0.6048146, 51.762851 ], [ 0.6047764, 51.7629513 ] ] } },
{ "type": "Feature", "properties": { "id": 927, "nach": 0.31829575697331353 }, "geometry": { "type": "LineString", "coordinates": [ [ 0.6085919, 51.7645663 ], [ 0.6083294, 51.76459710000001 ], [ 0.6079542, 51.764641600000012 ] ] } },
{ "type": "Feature", "properties": { "id": 28828, "nach": 0.42536906407915342 }, "geometry": { "type": "LineString", "coordinates": [ [ 0.6095482, 51.7622403 ], [ 0.6097589, 51.7623335 ] ] } },
{ "type": "Feature", "properties": { "id": 28822, "nach": 0.31912478264279975 }, "geometry": { "type": "LineString", "coordinates": [ [ 0.6095807, 51.7624856 ], [ 0.6097589, 51.7623335 ] ] } },
{ "type": "Feature", "properties": { "id": 12916, "nach": 0.39239069875205934 }, "geometry": { "type": "LineString", "coordinates": [ [ 0.6138757, 51.7584819 ], [ 0.6138698, 51.7582908 ], [ 0.6138566, 51.7581384 ], [ 0.6138416, 51.758025600000011 ], [ 0.6137826, 51.7579192 ], [ 0.6137036, 51.7578183 ], [ 0.6136269, 51.7577177 ], [ 0.6135542, 51.7576502 ] ] } },
{ "type": "Feature", "properties": { "id": 12914, "nach": 0.24834252943046059 }, "geometry": { "type": "LineString", "coordinates": [ [ 0.6138757, 51.7584819 ], [ 0.6138154, 51.7585103 ], [ 0.6137855, 51.7585918 ], [ 0.6137828, 51.7586847 ], [ 0.6138043, 51.7587976 ], [ 0.6137855, 51.7589653 ], [ 0.6137564, 51.7590482 ], [ 0.6137641, 51.7591894 ], [ 0.6137966, 51.759377 ], [ 0.6138101, 51.7594965 ], [ 0.6138472, 51.7596873 ], [ 0.6138655, 51.7598365 ], [ 0.6138865, 51.7599531 ], [ 0.6139143, 51.760067699999986 ], [ 0.6139915, 51.7602401 ], [ 0.61408, 51.7604242 ], [ 0.614153, 51.760589 ], [ 0.6142104, 51.760673900000015 ] ] } },
{ "type": "Feature", "properties": { "id": 12915, "nach": 0.37383473201454737 }, "geometry": { "type": "LineString", "coordinates": [ [ 0.6138757, 51.7584819 ], [ 0.6138727, 51.758605800000012 ], [ 0.6138924, 51.7589544 ] ] } },
{ "type": "Feature", "properties": { "id": 8499, "nach": 0.29781386852706965 }, "geometry": { "type": "LineString", "coordinates": [ [ 0.6142104, 51.760673900000015 ], [ 0.6143355, 51.7607125 ] ] } },
{ "type": "Feature", "properties": { "id": 28665, "nach": 0.38959220143075329 }, "geometry": { "type": "LineString", "coordinates": [ [ 0.6127701, 51.7623285 ], [ 0.6142292, 51.7609838 ], [ 0.6143081, 51.7608917 ], [ 0.6143363, 51.7607918 ], [ 0.6143355, 51.7607125 ] ] } },
{ "type": "Feature", "properties": { "id": 12910, "nach": 0.360222924055557 }, "geometry": { "type": "LineString", "coordinates": [ [ 0.6138924, 51.7589544 ], [ 0.6138905, 51.759196 ], [ 0.61387, 51.7594464 ], [ 0.6138916, 51.7596068 ], [ 0.6139194, 51.7598387 ], [ 0.6139401, 51.7599595 ], [ 0.6139624, 51.76005270000001 ], [ 0.6139965, 51.760123900000011 ], [ 0.6140397, 51.7602335 ], [ 0.6141335, 51.7603512 ], [ 0.6142033, 51.760451 ], [ 0.6143001, 51.76056830000001 ], [ 0.6143355, 51.7607125 ] ] } },
{ "type": "Feature", "properties": { "id": 28667, "nach": 0.32130218574438096 }, "geometry": { "type": "LineString", "coordinates": [ [ 0.6116465, 51.76193330000001 ], [ 0.6117006, 51.7619726 ], [ 0.6117876, 51.762010100000012 ], [ 0.6127701, 51.7623285 ] ] } },
{ "type": "Feature", "properties": { "id": 12913, "nach": 0.28958254697954194 }, "geometry": { "type": "LineString", "coordinates": [ [ 0.6153886, 51.7597663 ], [ 0.6154194, 51.7595082 ], [ 0.6154463, 51.7592683 ], [ 0.6154467, 51.7592063 ], [ 0.6154288, 51.7591662 ], [ 0.6153819, 51.7591454 ], [ 0.6153122, 51.7591321 ], [ 0.6151955, 51.759118 ], [ 0.6149916, 51.7590973 ], [ 0.6146429, 51.7590558 ], [ 0.6140641, 51.7589839 ], [ 0.6138924, 51.7589544 ] ] } },
{ "type": "Feature", "properties": { "id": 12392, "nach": 0.30351033500060198 }, "geometry": { "type": "LineString", "coordinates": [ [ 0.6220334, 51.7573632 ], [ 0.6217407, 51.7572808 ], [ 0.6213602, 51.7571922 ], [ 0.6210135, 51.7570968 ], [ 0.6208171, 51.7570262 ], [ 0.620628, 51.7569569 ], [ 0.6205, 51.7568901 ], [ 0.6204131, 51.7568273 ], [ 0.620352, 51.7567527 ], [ 0.620294, 51.756654 ], [ 0.6202454, 51.7565218 ], [ 0.6202064, 51.7563904 ], [ 0.6201841, 51.756337700000017 ] ] } },
{ "type": "Feature", "properties": { "id": 12391, "nach": 0.27030948505694508 }, "geometry": { "type": "LineString", "coordinates": [ [ 0.6220334, 51.7573632 ], [ 0.6231397, 51.7577358 ] ] } },
{ "type": "Feature", "properties": { "id": 29597, "nach": 0.24832730540846798 }, "geometry": { "type": "LineString", "coordinates": [ [ 0.6218242, 51.7577763 ], [ 0.621903, 51.7576009 ], [ 0.6219668, 51.7574639 ], [ 0.6220334, 51.7573632 ] ] } },
{ "type": "Feature", "properties": { "id": 9109, "nach": 0.37382054457737357 }, "geometry": { "type": "LineString", "coordinates": [ [ 0.6296991, 51.7595339 ], [ 0.629496, 51.7596857 ] ] } },
{ "type": "Feature", "properties": { "id": 3695, "nach": 0.41590952979509133 }, "geometry": { "type": "LineString", "coordinates": [ [ 0.6300319, 51.760989 ], [ 0.6299507, 51.7609036 ], [ 0.6299059, 51.7608235 ], [ 0.6298595, 51.7606826 ], [ 0.6298089, 51.7604713 ], [ 0.6296844, 51.7599032 ], [ 0.6296689, 51.7598537 ], [ 0.6296464, 51.7597914 ], [ 0.6296218, 51.7597547 ], [ 0.6295837, 51.7597262 ], [ 0.6295416, 51.7596997 ], [ 0.629496, 51.7596857 ] ] } },
{ "type": "Feature", "properties": { "id": 12404, "nach": 0.29593527708670919 }, "geometry": { "type": "LineString", "coordinates": [ [ 0.6238668, 51.7579403 ], [ 0.6241319, 51.7580184 ], [ 0.6243206, 51.7580796 ], [ 0.6244574, 51.7581272 ], [ 0.6246784, 51.7582208 ], [ 0.6248252, 51.7582981 ], [ 0.6249587, 51.7583836 ], [ 0.6250546, 51.7584469 ], [ 0.6251335, 51.7585134 ], [ 0.6252645, 51.7586499 ], [ 0.6256695, 51.759037 ], [ 0.6259144, 51.7592552 ], [ 0.6261242, 51.75940150000001 ], [ 0.6262487, 51.7594715 ], [ 0.626439, 51.759553 ], [ 0.6266485, 51.7596172 ], [ 0.6268186, 51.7596572 ], [ 0.6272158, 51.7597225 ], [ 0.627587, 51.7597653 ], [ 0.6277331, 51.7597806 ], [ 0.6278262, 51.7597798 ], [ 0.6279542, 51.7597707 ], [ 0.6283448, 51.7597369 ], [ 0.6288496, 51.7597014 ], [ 0.6292097, 51.7596731 ], [ 0.6293542, 51.7596664 ], [ 0.6294335, 51.759671 ], [ 0.629496, 51.7596857 ] ] } },
{ "type": "Feature", "properties": { "id": 9110, "nach": 0.11911673423987224 }, "geometry": { "type": "LineString", "coordinates": [ [ 0.6296991, 51.7595339 ], [ 0.6297294, 51.7594779 ], [ 0.6297518, 51.759388399999985 ], [ 0.6297852, 51.7592234 ], [ 0.6299106, 51.7586134 ], [ 0.6300823, 51.7578962 ], [ 0.6303284, 51.7567277 ], [ 0.6304698, 51.756087899999983 ], [ 0.6306339, 51.7553451 ], [ 0.6307774, 51.754582 ], [ 0.6311237, 51.7529068 ] ] } },
{ "type": "Feature", "properties": { "id": 9111, "nach": 0.29621572400825497 }, "geometry": { "type": "LineString", "coordinates": [ [ 0.6296991, 51.7595339 ], [ 0.6298035, 51.7595191 ], [ 0.6300891, 51.759505 ], [ 0.6305036, 51.7594809 ], [ 0.6310118, 51.7594494 ], [ 0.6311445, 51.7594324 ], [ 0.631277, 51.759412 ], [ 0.6316773, 51.759326500000014 ], [ 0.6325917, 51.7591349 ], [ 0.6330377, 51.7590377 ], [ 0.6330972, 51.7590237 ], [ 0.6331303, 51.7590075 ], [ 0.6331474, 51.7589886 ], [ 0.6331675, 51.758942100000013 ], [ 0.633225, 51.7587496 ], [ 0.6332869, 51.7585005 ], [ 0.6333201, 51.758379300000016 ], [ 0.6333588, 51.7583587 ], [ 0.6334143, 51.7583643 ], [ 0.6335457, 51.758376 ], [ 0.6336342, 51.7583876 ], [ 0.6336906, 51.7584009 ], [ 0.6337362, 51.7584258 ], [ 0.6337683, 51.7584457 ], [ 0.6337898, 51.7584689 ], [ 0.6337898, 51.758500500000011 ], [ 0.6338314, 51.7585079 ], [ 0.6339185, 51.758537 ] ] } },
{ "type": "Feature", "properties": { "id": 28773, "nach": 0.31241953716681353 }, "geometry": { "type": "LineString", "coordinates": [ [ 0.6289438, 51.7614765 ], [ 0.6288829, 51.761188900000015 ], [ 0.6288909, 51.7611673 ], [ 0.6289097, 51.761159 ], [ 0.6290358, 51.7611407 ], [ 0.6300319, 51.760989 ] ] } },
{ "type": "Feature", "properties": { "id": 12403, "nach": 0.26233472381143497 }, "geometry": { "type": "LineString", "coordinates": [ [ 0.6238668, 51.7579403 ], [ 0.6239067, 51.757896100000011 ], [ 0.6240394, 51.7577062 ], [ 0.6240394, 51.757686 ], [ 0.624022, 51.7576644 ], [ 0.6239785, 51.7576456 ], [ 0.6234911, 51.757501499999989 ], [ 0.6234509, 51.75748930000001 ], [ 0.6233976, 51.757488 ], [ 0.6233475, 51.75749540000001 ], [ 0.6233105, 51.7575176 ], [ 0.6232738, 51.7575486 ], [ 0.6232238, 51.7576184 ], [ 0.6231737, 51.7576882 ], [ 0.6231397, 51.7577358 ] ] } },
{ "type": "Feature", "properties": { "id": 24835, "nach": 0.40179517475838467 }, "geometry": { "type": "LineString", "coordinates": [ [ 0.6315856, 51.7610076 ], [ 0.6315743, 51.7610206 ], [ 0.6314563, 51.7610671 ], [ 0.6311988, 51.7611468 ], [ 0.6309896, 51.7612165 ], [ 0.6307677, 51.7612304 ] ] } },
{ "type": "Feature", "properties": { "id": 9082, "nach": 0.36730821857405621 }, "geometry": { "type": "LineString", "coordinates": [ [ 0.6305551, 51.7618075 ], [ 0.6306516, 51.7616913 ], [ 0.6308126, 51.761429 ], [ 0.6308555, 51.7613327 ], [ 0.6308501, 51.7612829 ], [ 0.6307677, 51.7612304 ] ] } },
{ "type": "Feature", "properties": { "id": 28772, "nach": 0.36716037461323042 }, "geometry": { "type": "LineString", "coordinates": [ [ 0.6301538, 51.7603142 ], [ 0.6302793, 51.7604017 ], [ 0.6303902, 51.7604923 ], [ 0.6305584, 51.7606748 ], [ 0.6306413, 51.760783400000015 ] ] } },
{ "type": "Feature", "properties": { "id": 8427, "nach": 0.42802005626631545 }, "geometry": { "type": "LineString", "coordinates": [ [ 0.6242719, 51.7690921 ], [ 0.6242685, 51.7690164 ] ] } },
{ "type": "Feature", "properties": { "id": 11554, "nach": 0.46167242504482392 }, "geometry": { "type": "LineString", "coordinates": [ [ 0.6246932, 51.7688914 ], [ 0.6244329, 51.7689032 ], [ 0.6244045, 51.768911499999987 ], [ 0.6243198, 51.76896570000001 ], [ 0.6242685, 51.7690164 ] ] } },
{ "type": "Feature", "properties": { "id": 11578, "nach": 0.42355151906071675 }, "geometry": { "type": "LineString", "coordinates": [ [ 0.6220454, 51.7687594 ], [ 0.6221655, 51.7687615 ], [ 0.6228984, 51.76884050000001 ], [ 0.624219, 51.7690203 ], [ 0.6242685, 51.7690164 ] ] } },
{ "type": "Feature", "properties": { "id": 8428, "nach": 0.32808510746215253 }, "geometry": { "type": "LineString", "coordinates": [ [ 0.6242719, 51.7690921 ], [ 0.6221274, 51.7696712 ] ] } },
{ "type": "Feature", "properties": { "id": 8460, "nach": 0.40091663370829778 }, "geometry": { "type": "LineString", "coordinates": [ [ 0.6243196, 51.7703646 ], [ 0.6242502, 51.7695463 ], [ 0.6242719, 51.7690921 ] ] } },
{ "type": "Feature", "properties": { "id": 11555, "nach": 0.39212567350221911 }, "geometry": { "type": "LineString", "coordinates": [ [ 0.6246932, 51.7688914 ], [ 0.6248246, 51.7689396 ], [ 0.6249627, 51.7689902 ], [ 0.6251505, 51.7690699 ], [ 0.625235, 51.7691213 ], [ 0.6254133, 51.7692276 ] ] } },
{ "type": "Feature", "properties": { "id": 11571, "nach": 0.42764776779010549 }, "geometry": { "type": "LineString", "coordinates": [ [ 0.6258801, 51.7688492 ], [ 0.6246932, 51.7688914 ] ] } },
{ "type": "Feature", "properties": { "id": 12870, "nach": 0.44461045035196856 }, "geometry": { "type": "LineString", "coordinates": [ [ 0.6219471, 51.7687852 ], [ 0.6220454, 51.7687594 ] ] } },
{ "type": "Feature", "properties": { "id": 12876, "nach": 0.33876249439821543 }, "geometry": { "type": "LineString", "coordinates": [ [ 0.6243369, 51.7686756 ], [ 0.6242037, 51.7686714 ], [ 0.6240133, 51.76866480000001 ], [ 0.6237638, 51.7686565 ], [ 0.62356, 51.7686482 ], [ 0.6232461, 51.7686299 ], [ 0.6229296, 51.7686 ], [ 0.6227741, 51.7685984 ], [ 0.6226453, 51.76861 ], [ 0.6224593, 51.768644 ], [ 0.6221625, 51.7687279 ], [ 0.6220454, 51.7687594 ] ] } },
{ "type": "Feature", "properties": { "id": 8358, "nach": 0.35000058341577844 }, "geometry": { "type": "LineString", "coordinates": [ [ 0.6331027, 51.7674752 ], [ 0.6327273, 51.7675078 ], [ 0.632187, 51.767571 ], [ 0.6314293, 51.767691 ], [ 0.6303401, 51.7679082 ], [ 0.6302608, 51.7679407 ], [ 0.6294496, 51.768081099999989 ], [ 0.6273893, 51.7682302 ], [ 0.6264142, 51.76828840000001 ] ] } },
{ "type": "Feature", "properties": { "id": 11572, "nach": 0.42733129935493547 }, "geometry": { "type": "LineString", "coordinates": [ [ 0.6258801, 51.7688492 ], [ 0.6263066, 51.7688341 ], [ 0.6264142, 51.76828840000001 ] ] } },
{ "type": "Feature", "properties": { "id": 8357, "nach": 0.26214692764500458 }, "geometry": { "type": "LineString", "coordinates": [ [ 0.6331027, 51.7674752 ], [ 0.6332314, 51.7675046 ] ] } },
{ "type": "Feature", "properties": { "id": 12395, "nach": 0.32393881477086545 }, "geometry": { "type": "LineString", "coordinates": [ [ 0.6332278, 51.7674791 ], [ 0.6331027, 51.7674752 ] ] } },
{ "type": "Feature", "properties": { "id": 12419, "nach": 0.30764353059045763 }, "geometry": { "type": "LineString", "coordinates": [ [ 0.6332759, 51.7663365 ], [ 0.6332728, 51.7664454 ], [ 0.6332524, 51.7666015 ], [ 0.6332304, 51.7667504 ], [ 0.6332062, 51.7668942 ], [ 0.6331686, 51.767013900000016 ], [ 0.6331363, 51.7671209 ], [ 0.6331216, 51.7672157 ], [ 0.6331034, 51.767326100000012 ], [ 0.6331027, 51.7674752 ] ] } },
{ "type": "Feature", "properties": { "id": 25469, "nach": 0.3604092920623983 }, "geometry": { "type": "LineString", "coordinates": [ [ 0.6329417, 51.768254399999975 ], [ 0.6329827, 51.7681548 ], [ 0.6330408, 51.767973 ], [ 0.633081, 51.7677756 ], [ 0.6331027, 51.7674752 ] ] } },
{ "type": "Feature", "properties": { "id": 11573, "nach": 0.29505621277511923 }, "geometry": { "type": "LineString", "coordinates": [ [ 0.6258801, 51.7688492 ], [ 0.6259324, 51.7689222 ], [ 0.6259699, 51.76899520000002 ], [ 0.6259981, 51.7690649 ], [ 0.626012, 51.7691042 ], [ 0.6260195, 51.7691306 ], [ 0.6260101, 51.7692068 ], [ 0.6259739, 51.7693114 ], [ 0.6259592, 51.7693828 ], [ 0.6259417, 51.7694467 ], [ 0.6259511, 51.7695131 ], [ 0.6259967, 51.769572800000013 ], [ 0.626041, 51.7696201 ], [ 0.6260745, 51.7696807 ], [ 0.6260893, 51.7697504 ], [ 0.6261007, 51.7698248 ] ] } },
{ "type": "Feature", "properties": { "id": 12394, "nach": 0.20880972223411365 }, "geometry": { "type": "LineString", "coordinates": [ [ 0.6332278, 51.7674791 ], [ 0.6332314, 51.7675046 ] ] } },
{ "type": "Feature", "properties": { "id": 12420, "nach": 0.26600069814705612 }, "geometry": { "type": "LineString", "coordinates": [ [ 0.6332759, 51.7663365 ], [ 0.6333138, 51.7664024 ], [ 0.6333406, 51.7664887 ], [ 0.6332213, 51.7674266 ], [ 0.6332278, 51.7674791 ] ] } },
{ "type": "Feature", "properties": { "id": 12415, "nach": 0.32884121038054642 }, "geometry": { "type": "LineString", "coordinates": [ [ 0.635994, 51.7675495 ], [ 0.6359263, 51.7676581 ], [ 0.6358887, 51.7677171 ], [ 0.6358673, 51.7677602 ], [ 0.635827, 51.7677785 ], [ 0.635756, 51.767788400000015 ], [ 0.6356835, 51.7677884 ], [ 0.6356473, 51.7677876 ], [ 0.6355213, 51.7677743 ], [ 0.6353528, 51.767743 ], [ 0.6352249, 51.7677196 ], [ 0.6348484, 51.767664 ], [ 0.6343736, 51.7675949 ], [ 0.6338637, 51.7675295 ], [ 0.6336223, 51.7675054 ], [ 0.6332839, 51.7674814 ], [ 0.6332278, 51.7674791 ] ] } },
{ "type": "Feature", "properties": { "id": 9701, "nach": 0.29127934641371772 }, "geometry": { "type": "LineString", "coordinates": [ [ 0.6383907, 51.753649199999984 ], [ 0.6383388, 51.7541173 ], [ 0.6382905, 51.7544427 ], [ 0.6381618, 51.755419 ], [ 0.6380974, 51.756279 ], [ 0.6380974, 51.7565812 ], [ 0.6381135, 51.7567273 ], [ 0.6381254, 51.7567823 ], [ 0.6381371, 51.7568183 ], [ 0.638163, 51.7568724 ] ] } },
{ "type": "Feature", "properties": { "id": 28775, "nach": 0.330915384404251 }, "geometry": { "type": "LineString", "coordinates": [ [ 0.6289438, 51.7614765 ], [ 0.6282844, 51.761581 ], [ 0.6281556, 51.7616137 ], [ 0.6279451, 51.7616723 ], [ 0.6278007, 51.7617427 ], [ 0.6277724, 51.761785300000014 ], [ 0.627766, 51.7618321 ], [ 0.6278371, 51.7620331 ], [ 0.6279268, 51.7622285 ] ] } },
{ "type": "Feature", "properties": { "id": 26675, "nach": 0.31372973654467895 }, "geometry": { "type": "LineString", "coordinates": [ [ 0.6332721, 51.7662797 ], [ 0.6332759, 51.7663365 ] ] } },
{ "type": "Feature", "properties": { "id": 25470, "nach": 0.32869122671254569 }, "geometry": { "type": "LineString", "coordinates": [ [ 0.6329417, 51.768254399999975 ], [ 0.6329144, 51.7683207 ], [ 0.6328504, 51.7684887 ], [ 0.632769, 51.7686379 ], [ 0.6326789, 51.76879550000001 ], [ 0.6325883, 51.7689381 ], [ 0.6324926, 51.7690917 ], [ 0.6324436, 51.7692251 ], [ 0.6324368, 51.7693109 ], [ 0.6324402, 51.769437 ], [ 0.6324645, 51.7695719 ], [ 0.6324938, 51.769679099999983 ], [ 0.6325694, 51.7699462 ], [ 0.6326219, 51.770148 ], [ 0.6327096, 51.7704017 ], [ 0.6327382, 51.7705611 ], [ 0.6327509, 51.770742 ], [ 0.6327623, 51.7708981 ] ] } },
{ "type": "Feature", "properties": { "id": 25472, "nach": 0.27331714206766389 }, "geometry": { "type": "LineString", "coordinates": [ [ 0.6319933, 51.7681343 ], [ 0.6322241, 51.7681598 ], [ 0.6323479, 51.7681704 ], [ 0.6324937, 51.768186900000011 ], [ 0.6327244, 51.768223 ], [ 0.6329417, 51.768254399999975 ] ] } },
{ "type": "Feature", "properties": { "id": 12867, "nach": 0.45314638604091717 }, "geometry": { "type": "LineString", "coordinates": [ [ 0.6186649, 51.7684851 ], [ 0.6186604, 51.7685028 ] ] } },
{ "type": "Feature", "properties": { "id": 12874, "nach": 0.46000847149520729 }, "geometry": { "type": "LineString", "coordinates": [ [ 0.6215831, 51.7687863 ], [ 0.6215286, 51.7687776 ], [ 0.6202236, 51.7686415 ], [ 0.6191642, 51.7685086 ], [ 0.6189504, 51.7684942 ], [ 0.6186604, 51.7685028 ] ] } },
{ "type": "Feature", "properties": { "id": 30167, "nach": 0.44488288013445931 }, "geometry": { "type": "LineString", "coordinates": [ [ 0.6186184, 51.7675225 ], [ 0.6186331, 51.7676903 ], [ 0.6186612, 51.7679988 ], [ 0.6186903, 51.768296 ], [ 0.6186778, 51.7684342 ], [ 0.6186649, 51.7684851 ] ] } },
{ "type": "Feature", "properties": { "id": 12877, "nach": 0.2373055241102579 }, "geometry": { "type": "LineString", "coordinates": [ [ 0.6206032, 51.7670887 ], [ 0.6205666, 51.767155899999985 ], [ 0.6204701, 51.7672705 ], [ 0.6203306, 51.7674614 ], [ 0.6201401, 51.767717 ], [ 0.6200489, 51.7678232 ], [ 0.6199792, 51.76791450000001 ], [ 0.619821, 51.7680805 ], [ 0.6195849, 51.7682847 ], [ 0.619306, 51.7683992 ], [ 0.6190485, 51.768459 ], [ 0.6188688, 51.7684839 ], [ 0.6186649, 51.7684851 ] ] } },
{ "type": "Feature", "properties": { "id": 12873, "nach": 0.4809409581749286 }, "geometry": { "type": "LineString", "coordinates": [ [ 0.6215831, 51.7687863 ], [ 0.6216876, 51.7688031 ], [ 0.62185, 51.7688134 ] ] } },
{ "type": "Feature", "properties": { "id": 12879, "nach": 0.34851882057259925 }, "geometry": { "type": "LineString", "coordinates": [ [ 0.6206032, 51.7670887 ], [ 0.6206095, 51.7671925 ], [ 0.6206793, 51.7672788 ], [ 0.6207678, 51.7674497 ], [ 0.6212791, 51.768360199999982 ], [ 0.6215108, 51.7687162 ], [ 0.6215831, 51.7687863 ] ] } },
{ "type": "Feature", "properties": { "id": 30826, "nach": 0.39532481808150932 }, "geometry": { "type": "LineString", "coordinates": [ [ 0.6297283, 51.7623587 ], [ 0.6300159, 51.7623281 ], [ 0.6302117, 51.7622989 ] ] } },
{ "type": "Feature", "properties": { "id": 8372, "nach": 0.40576145392554253 }, "geometry": { "type": "LineString", "coordinates": [ [ 0.6334107, 51.762996200000018 ], [ 0.6311912, 51.7628699 ], [ 0.6306762, 51.7625446 ], [ 0.6302117, 51.7622989 ] ] } },
{ "type": "Feature", "properties": { "id": 9081, "nach": 0.3476826050029469 }, "geometry": { "type": "LineString", "coordinates": [ [ 0.6305551, 51.7618075 ], [ 0.63048, 51.7619503 ], [ 0.6303995, 51.7621396 ], [ 0.6303618, 51.7621998 ], [ 0.6303249, 51.7622408 ], [ 0.6302707, 51.762282299999988 ], [ 0.6302117, 51.7622989 ] ] } },
{ "type": "Feature", "properties": { "id": 30827, "nach": 0.36919963574478093 }, "geometry": { "type": "LineString", "coordinates": [ [ 0.6297641, 51.7624894 ], [ 0.6297283, 51.7623587 ] ] } },
{ "type": "Feature", "properties": { "id": 12537, "nach": 0.37651315233803678 }, "geometry": { "type": "LineString", "coordinates": [ [ 0.6332715, 51.7662709 ], [ 0.6332596, 51.7661957 ], [ 0.6332483, 51.7661261 ], [ 0.6332338, 51.766041800000011 ], [ 0.6332232, 51.7659004 ], [ 0.6332261, 51.7656404 ], [ 0.6332196, 51.7653003 ], [ 0.6332549, 51.764956399999988 ], [ 0.633272, 51.764753 ], [ 0.6332904, 51.7643758 ], [ 0.6332832, 51.76372030000001 ], [ 0.6333093, 51.7634527 ], [ 0.6333747, 51.7631033 ], [ 0.6334107, 51.762996200000018 ] ] } },
{ "type": "Feature", "properties": { "id": 12541, "nach": 0.36528990004023182 }, "geometry": { "type": "LineString", "coordinates": [ [ 0.6328317, 51.7663076 ], [ 0.633056, 51.7662844 ], [ 0.6332715, 51.7662709 ] ] } },
{ "type": "Feature", "properties": { "id": 8454, "nach": 0.42650103071277207 }, "geometry": { "type": "LineString", "coordinates": [ [ 0.6220071, 51.7697356 ], [ 0.6221274, 51.7696712 ] ] } },
{ "type": "Feature", "properties": { "id": 11588, "nach": 0.47430650084524367 }, "geometry": { "type": "LineString", "coordinates": [ [ 0.6219059, 51.768796 ], [ 0.6219841, 51.7688583 ], [ 0.6220558, 51.7689061 ], [ 0.6220848, 51.7689466 ], [ 0.6221274, 51.7696712 ] ] } },
{ "type": "Feature", "properties": { "id": 8462, "nach": 0.45511413722210492 }, "geometry": { "type": "LineString", "coordinates": [ [ 0.6243196, 51.7703646 ], [ 0.6241448, 51.7703276 ], [ 0.6236512, 51.7702545 ], [ 0.6234354, 51.7701846 ], [ 0.6231792, 51.7700022 ], [ 0.6228144, 51.7697832 ], [ 0.6221274, 51.7696712 ] ] } },
{ "type": "Feature", "properties": { "id": 11598, "nach": 0.38126187366275383 }, "geometry": { "type": "LineString", "coordinates": [ [ 0.6211474, 51.7712705 ], [ 0.6211835, 51.7711745 ], [ 0.6211862, 51.7710948 ], [ 0.6211755, 51.7710119 ], [ 0.6211352, 51.7708741 ], [ 0.6210978, 51.77063960000001 ], [ 0.6211729, 51.7703342 ], [ 0.6213016, 51.7701616 ], [ 0.6220071, 51.7697356 ] ] } },
{ "type": "Feature", "properties": { "id": 11560, "nach": 0.30614532634029773 }, "geometry": { "type": "LineString", "coordinates": [ [ 0.6237482, 51.7711861 ], [ 0.6236309, 51.7712078 ], [ 0.6230933, 51.7710712 ], [ 0.6229296, 51.771033 ], [ 0.6225676, 51.7708919 ], [ 0.6220165, 51.7705804 ], [ 0.6219815, 51.7705185 ], [ 0.621881, 51.770307699999989 ], [ 0.6220194, 51.7700093 ], [ 0.6220071, 51.7697356 ] ] } },
{ "type": "Feature", "properties": { "id": 11587, "nach": 0.48597401886791242 }, "geometry": { "type": "LineString", "coordinates": [ [ 0.6219059, 51.768796 ], [ 0.62185, 51.7688134 ] ] } },
{ "type": "Feature", "properties": { "id": 12871, "nach": 0.46088232419258179 }, "geometry": { "type": "LineString", "coordinates": [ [ 0.6219471, 51.7687852 ], [ 0.6219059, 51.768796 ] ] } },
{ "type": "Feature", "properties": { "id": 12324, "nach": 0.48474132394144359 }, "geometry": { "type": "LineString", "coordinates": [ [ 0.6244358, 51.770422 ], [ 0.6243937, 51.7703946 ], [ 0.6243196, 51.7703646 ] ] } },
{ "type": "Feature", "properties": { "id": 8457, "nach": 0.38014031528160808 }, "geometry": { "type": "LineString", "coordinates": [ [ 0.624484, 51.770473800000012 ], [ 0.6246614, 51.7703812 ] ] } },
{ "type": "Feature", "properties": { "id": 8434, "nach": 0.20779892188797822 }, "geometry": { "type": "LineString", "coordinates": [ [ 0.6244741, 51.7698098 ], [ 0.6245811, 51.7701937 ], [ 0.6246614, 51.7703812 ] ] } },
{ "type": "Feature", "properties": { "id": 11556, "nach": 0.33827967619970944 }, "geometry": { "type": "LineString", "coordinates": [ [ 0.6249665, 51.7706673 ], [ 0.6248972, 51.7706314 ], [ 0.6248375, 51.7705779 ], [ 0.6246614, 51.7703812 ] ] } },
{ "type": "Feature", "properties": { "id": 11584, "nach": 0.48092130737463012 }, "geometry": { "type": "LineString", "coordinates": [ [ 0.6245146, 51.770686700000013 ], [ 0.6245354, 51.7705964 ], [ 0.6245303, 51.7705276 ], [ 0.624484, 51.770473800000012 ] ] } },
{ "type": "Feature", "properties": { "id": 12323, "nach": 0.4910557470714107 }, "geometry": { "type": "LineString", "coordinates": [ [ 0.6244358, 51.770422 ], [ 0.6244475, 51.7704296 ], [ 0.624484, 51.770473800000012 ] ] } },
{ "type": "Feature", "properties": { "id": 8437, "nach": 0.33892074453461712 }, "geometry": { "type": "LineString", "coordinates": [ [ 0.6254133, 51.7692276 ], [ 0.6253763, 51.7692213 ], [ 0.6251687, 51.769233 ], [ 0.6250465, 51.7692583 ], [ 0.6249371, 51.7693016 ], [ 0.6247223, 51.7694526 ], [ 0.6245654, 51.7695671 ], [ 0.6245099, 51.76965220000001 ], [ 0.6244888, 51.7697148 ], [ 0.6244778, 51.7697742 ], [ 0.6244741, 51.7698098 ] ] } },
{ "type": "Feature", "properties": { "id": 12325, "nach": 0.3661653679526447 }, "geometry": { "type": "LineString", "coordinates": [ [ 0.6244358, 51.770422 ], [ 0.6244484, 51.7702599 ], [ 0.6244524, 51.770118 ], [ 0.6244741, 51.7698098 ] ] } },
{ "type": "Feature", "properties": { "id": 11568, "nach": 0.33849194379626552 }, "geometry": { "type": "LineString", "coordinates": [ [ 0.626922, 51.770559800000015 ], [ 0.6268372, 51.77057 ], [ 0.6267444, 51.7705689 ], [ 0.6266479, 51.7705549 ], [ 0.6266055, 51.7705435 ], [ 0.6265658, 51.770527800000011 ], [ 0.6264896, 51.7704954 ], [ 0.6264222, 51.7704781 ], [ 0.626313, 51.7704689 ], [ 0.6261932, 51.7704675 ], [ 0.6260098, 51.7704769 ], [ 0.6259356, 51.7704782 ], [ 0.6257532, 51.770477300000017 ], [ 0.6256812, 51.7704768 ], [ 0.6256435, 51.7704839 ], [ 0.6256101, 51.7704947 ], [ 0.6255743, 51.770516 ], [ 0.6255451, 51.7705444 ], [ 0.6255284, 51.7705736 ], [ 0.6255158, 51.7706017 ], [ 0.6254978, 51.7706268 ], [ 0.6254679, 51.7706493 ], [ 0.6254423, 51.77066760000001 ], [ 0.6254077, 51.7706833 ], [ 0.6253447, 51.7706924 ], [ 0.6252744, 51.7706938 ], [ 0.6251765, 51.7706906 ], [ 0.6249665, 51.7706673 ] ] } },
{ "type": "Feature", "properties": { "id": 11585, "nach": 0.33358503264421735 }, "geometry": { "type": "LineString", "coordinates": [ [ 0.6245146, 51.770686700000013 ], [ 0.6246279, 51.770685 ], [ 0.6247424, 51.7706824 ], [ 0.6248668, 51.77067490000001 ], [ 0.6249665, 51.7706673 ] ] } },
{ "type": "Feature", "properties": { "id": 11563, "nach": 0.38061314421647913 }, "geometry": { "type": "LineString", "coordinates": [ [ 0.6261007, 51.7698248 ], [ 0.626063, 51.7697945 ], [ 0.6259668, 51.7696907 ], [ 0.6258967, 51.7696361 ], [ 0.6258354, 51.7695489 ], [ 0.6257346, 51.7694358 ], [ 0.6256914, 51.7693845 ], [ 0.6256611, 51.7693589 ], [ 0.6255996, 51.7693248 ], [ 0.6254133, 51.7692276 ] ] } },
{ "type": "Feature", "properties": { "id": 11562, "nach": 0.37179671328419317 }, "geometry": { "type": "LineString", "coordinates": [ [ 0.6261007, 51.7698248 ], [ 0.6261362, 51.7698415 ], [ 0.6262264, 51.7698632 ], [ 0.6263669, 51.7699111 ], [ 0.626448, 51.76995 ], [ 0.6265485, 51.7700149 ], [ 0.6266038, 51.7700418 ], [ 0.6269322, 51.770103399999989 ], [ 0.6270586, 51.7701256 ], [ 0.6271874, 51.7701616 ], [ 0.6272283, 51.7701792 ], [ 0.627259, 51.7702145 ], [ 0.6272582, 51.7702486 ], [ 0.6272488, 51.7702956 ] ] } },
{ "type": "Feature", "properties": { "id": 11569, "nach": 0.31706435659728888 }, "geometry": { "type": "LineString", "coordinates": [ [ 0.626922, 51.770559800000015 ], [ 0.6269706, 51.7705356 ], [ 0.6270445, 51.7704787 ], [ 0.6271823, 51.7703662 ], [ 0.6272488, 51.7702956 ] ] } },
{ "type": "Feature", "properties": { "id": 11593, "nach": 0.33442479689120841 }, "geometry": { "type": "LineString", "coordinates": [ [ 0.6271336, 51.7709297 ], [ 0.6271673, 51.7706744 ], [ 0.6272488, 51.7702956 ] ] } },
{ "type": "Feature", "properties": { "id": 11592, "nach": 0.28256475506763745 }, "geometry": { "type": "LineString", "coordinates": [ [ 0.6271336, 51.7709297 ], [ 0.627024, 51.7706641 ], [ 0.626922, 51.770559800000015 ] ] } },
{ "type": "Feature", "properties": { "id": 8449, "nach": 0.34470364840289869 }, "geometry": { "type": "LineString", "coordinates": [ [ 0.6242246, 51.7708893 ], [ 0.6245153, 51.770921 ] ] } },
{ "type": "Feature", "properties": { "id": 8463, "nach": 0.45835176743171274 }, "geometry": { "type": "LineString", "coordinates": [ [ 0.6245212, 51.771201499999982 ], [ 0.6245573, 51.7710169 ], [ 0.6245362, 51.7709754 ], [ 0.6245153, 51.770921 ] ] } },
{ "type": "Feature", "properties": { "id": 11583, "nach": 0.48751935753875708 }, "geometry": { "type": "LineString", "coordinates": [ [ 0.6245146, 51.770686700000013 ], [ 0.6244968, 51.7707843 ], [ 0.624496, 51.7708494 ], [ 0.6245153, 51.770921 ] ] } },
{ "type": "Feature", "properties": { "id": 11561, "nach": 0.38557369558172094 }, "geometry": { "type": "LineString", "coordinates": [ [ 0.6237482, 51.7711861 ], [ 0.6238184, 51.771122 ], [ 0.6239194, 51.7710717 ], [ 0.6241662, 51.7710446 ], [ 0.6245153, 51.770921 ] ] } },
{ "type": "Feature", "properties": { "id": 11574, "nach": 0.32867510366179081 }, "geometry": { "type": "LineString", "coordinates": [ [ 0.6238507, 51.7712493 ], [ 0.6239564, 51.77126 ], [ 0.6240995, 51.7712756 ], [ 0.6241904, 51.7712713 ], [ 0.6242548, 51.77123550000001 ], [ 0.6243172, 51.771182 ], [ 0.6243912, 51.7711348 ], [ 0.624433, 51.7711398 ], [ 0.6244825, 51.7711646 ], [ 0.6245212, 51.771201499999982 ] ] } },
{ "type": "Feature", "properties": { "id": 11576, "nach": 0.39483197643421064 }, "geometry": { "type": "LineString", "coordinates": [ [ 0.6238507, 51.7712493 ], [ 0.6238094, 51.771217700000015 ], [ 0.6237482, 51.7711861 ] ] } },
{ "type": "Feature", "properties": { "id": 11575, "nach": 0.37578065336107808 }, "geometry": { "type": "LineString", "coordinates": [ [ 0.6238507, 51.7712493 ], [ 0.6237916, 51.7712543 ], [ 0.6237579, 51.771276 ], [ 0.6237195, 51.7714833 ], [ 0.6236974, 51.7717721 ], [ 0.6235929, 51.771942 ], [ 0.6234454, 51.7719929 ], [ 0.62295, 51.7719567 ], [ 0.6224925, 51.7720072 ], [ 0.6223114, 51.7719097 ], [ 0.6221109, 51.7718346 ], [ 0.6220603, 51.77184110000001 ] ] } },
{ "type": "Feature", "properties": { "id": 11599, "nach": 0.37679555231543033 }, "geometry": { "type": "LineString", "coordinates": [ [ 0.6211474, 51.7712705 ], [ 0.6211949, 51.771476800000016 ], [ 0.6212422, 51.771626500000011 ], [ 0.6212903, 51.771690600000014 ], [ 0.6213764, 51.771728500000016 ], [ 0.6214599, 51.7717539 ], [ 0.6215519, 51.7717658 ], [ 0.6216395, 51.7717717 ], [ 0.6219567, 51.7718104 ], [ 0.6220603, 51.77184110000001 ] ] } },
{ "type": "Feature", "properties": { "id": 9019, "nach": 0.41049170462110729 }, "geometry": { "type": "LineString", "coordinates": [ [ 0.6395512, 51.7577848 ], [ 0.6395512, 51.7579094 ], [ 0.6395566, 51.7581767 ], [ 0.639541, 51.7582194 ] ] } },
{ "type": "Feature", "properties": { "id": 9036, "nach": 0.43423705161690063 }, "geometry": { "type": "LineString", "coordinates": [ [ 0.6393933, 51.7583788 ], [ 0.6394466, 51.758346299999985 ], [ 0.6395136, 51.758294600000013 ], [ 0.639541, 51.7582194 ] ] } },
{ "type": "Feature", "properties": { "id": 9033, "nach": 0.32728707854452338 }, "geometry": { "type": "LineString", "coordinates": [ [ 0.639288, 51.7580988 ], [ 0.6393098, 51.758117 ], [ 0.6393849, 51.7581718 ], [ 0.6394707, 51.7582033 ], [ 0.639541, 51.7582194 ] ] } },
{ "type": "Feature", "properties": { "id": 9103, "nach": 0.29561850803515055 }, "geometry": { "type": "LineString", "coordinates": [ [ 0.6393297, 51.7579337 ], [ 0.6394385, 51.757862 ], [ 0.6395512, 51.7577848 ] ] } },
{ "type": "Feature", "properties": { "id": 9037, "nach": 0.42010671993448495 }, "geometry": { "type": "LineString", "coordinates": [ [ 0.6393632, 51.7564962 ], [ 0.63946, 51.7569345 ], [ 0.639519, 51.757311699999988 ], [ 0.6395512, 51.7576471 ], [ 0.6395512, 51.7577848 ] ] } },
{ "type": "Feature", "properties": { "id": 9035, "nach": 0.43686119238487142 }, "geometry": { "type": "LineString", "coordinates": [ [ 0.6393933, 51.7583788 ], [ 0.6394196, 51.7584104 ], [ 0.6394251, 51.7584526 ], [ 0.6393972, 51.7584966 ], [ 0.6393576, 51.7585209 ], [ 0.6393278, 51.758531 ], [ 0.6392734, 51.7585385 ], [ 0.6392182, 51.758534 ], [ 0.6391904, 51.7585268 ], [ 0.6391467, 51.7585055 ] ] } },
{ "type": "Feature", "properties": { "id": 9105, "nach": 0.31402837149272833 }, "geometry": { "type": "LineString", "coordinates": [ [ 0.6393297, 51.7579337 ], [ 0.6393393, 51.7579386 ], [ 0.6393731, 51.7579898 ], [ 0.6393628, 51.7580446 ], [ 0.6393222, 51.7580833 ], [ 0.639288, 51.7580988 ] ] } },
{ "type": "Feature", "properties": { "id": 24834, "nach": 0.33802152257490564 }, "geometry": { "type": "LineString", "coordinates": [ [ 0.6315856, 51.7610076 ], [ 0.6316118, 51.76097750000001 ], [ 0.631585, 51.7609144 ], [ 0.6315153, 51.7608081 ], [ 0.6314704, 51.76074040000001 ] ] } },
{ "type": "Feature", "properties": { "id": 9008, "nach": 0.44537900813509446 }, "geometry": { "type": "LineString", "coordinates": [ [ 0.6384247, 51.7586565 ], [ 0.6387143, 51.7586399 ] ] } },
{ "type": "Feature", "properties": { "id": 9056, "nach": 0.32651053616944659 }, "geometry": { "type": "LineString", "coordinates": [ [ 0.6387948, 51.7587462 ], [ 0.6387841, 51.7586931 ], [ 0.6387143, 51.7586399 ] ] } },
{ "type": "Feature", "properties": { "id": 8994, "nach": 0.43967284710535681 }, "geometry": { "type": "LineString", "coordinates": [ [ 0.6391467, 51.7585055 ], [ 0.6390416, 51.7585636 ], [ 0.6388753, 51.7586067 ], [ 0.6387143, 51.7586399 ] ] } },
{ "type": "Feature", "properties": { "id": 9102, "nach": 0.37327327407739491 }, "geometry": { "type": "LineString", "coordinates": [ [ 0.6383227, 51.7587562 ], [ 0.6383174, 51.758703400000016 ], [ 0.6383516, 51.7586765 ], [ 0.6384247, 51.7586565 ] ] } },
{ "type": "Feature", "properties": { "id": 9065, "nach": 0.4165281049411248 }, "geometry": { "type": "LineString", "coordinates": [ [ 0.6381835, 51.7586125 ], [ 0.638253, 51.75864330000001 ], [ 0.6384247, 51.7586565 ] ] } },
{ "type": "Feature", "properties": { "id": 24837, "nach": 0.36682174862933653 }, "geometry": { "type": "LineString", "coordinates": [ [ 0.6326388, 51.7610418 ], [ 0.6319534, 51.761076 ], [ 0.6318039, 51.76108 ], [ 0.6317227, 51.7610659 ], [ 0.6315856, 51.7610076 ] ] } },
{ "type": "Feature", "properties": { "id": 12531, "nach": 0.45065401609372263 }, "geometry": { "type": "LineString", "coordinates": [ [ 0.634461, 51.758304099999989 ], [ 0.6344227, 51.7582907 ] ] } },
{ "type": "Feature", "properties": { "id": 12553, "nach": 0.48282621924809016 }, "geometry": { "type": "LineString", "coordinates": [ [ 0.6342695, 51.7583841 ], [ 0.6343467, 51.7583361 ], [ 0.6344227, 51.7582907 ] ] } },
{ "type": "Feature", "properties": { "id": 12549, "nach": 0.3961618733122429 }, "geometry": { "type": "LineString", "coordinates": [ [ 0.6353529, 51.757854899999984 ], [ 0.6351765, 51.7579276 ], [ 0.6349975, 51.7580035 ], [ 0.6347412, 51.75812220000001 ], [ 0.6346167, 51.758184 ], [ 0.6345231, 51.7582344 ], [ 0.6344227, 51.7582907 ] ] } },
{ "type": "Feature", "properties": { "id": 12532, "nach": 0.44482572584575314 }, "geometry": { "type": "LineString", "coordinates": [ [ 0.634461, 51.758304099999989 ], [ 0.6346198, 51.7583598 ], [ 0.6347153, 51.7583883 ], [ 0.6348841, 51.7584175 ], [ 0.6352006, 51.7584341 ], [ 0.6354367, 51.7583909 ], [ 0.6358605, 51.7582913 ], [ 0.6364023, 51.7582016 ], [ 0.6369012, 51.7581485 ], [ 0.6375275, 51.7581198 ], [ 0.6376511, 51.7581225 ], [ 0.6377541, 51.7581386 ], [ 0.6378261, 51.7581602 ], [ 0.6379183, 51.7582029 ], [ 0.6379667, 51.75824 ], [ 0.6379906, 51.7582703 ], [ 0.6380214, 51.7583248 ], [ 0.6380547, 51.7584125 ], [ 0.63809, 51.7584871 ], [ 0.6381296, 51.7585569 ], [ 0.6381835, 51.7586125 ] ] } },
{ "type": "Feature", "properties": { "id": 12548, "nach": 0.27790416643376609 }, "geometry": { "type": "LineString", "coordinates": [ [ 0.6353529, 51.757854899999984 ], [ 0.6353214, 51.7579044 ], [ 0.6352913, 51.757955 ], [ 0.6352745, 51.7579787 ], [ 0.6352457, 51.7579974 ], [ 0.6352121, 51.7580161 ], [ 0.6351062, 51.7580625 ], [ 0.6350391, 51.7580957 ], [ 0.6349486, 51.7581289 ], [ 0.6348809, 51.7581534 ], [ 0.6347756, 51.7581933 ], [ 0.6346495, 51.7582501 ], [ 0.6345677, 51.7582842 ], [ 0.634496, 51.7583024 ], [ 0.634461, 51.758304099999989 ] ] } },
{ "type": "Feature", "properties": { "id": 12551, "nach": 0.36840366406018554 }, "geometry": { "type": "LineString", "coordinates": [ [ 0.6342695, 51.7583841 ], [ 0.6341721, 51.7584058 ], [ 0.6340392, 51.7584507 ], [ 0.6339185, 51.758537 ] ] } },
{ "type": "Feature", "properties": { "id": 12552, "nach": 0.46883420327387054 }, "geometry": { "type": "LineString", "coordinates": [ [ 0.6342695, 51.7583841 ], [ 0.6341805, 51.7584447 ], [ 0.6341155, 51.758495 ], [ 0.6340602, 51.7585406 ], [ 0.6340082, 51.7585903 ], [ 0.6339599, 51.7586405 ], [ 0.6338895, 51.7587227 ], [ 0.6338488, 51.7587799 ], [ 0.6338057, 51.7588467 ], [ 0.6337348, 51.7589794 ], [ 0.6336847, 51.7590826 ] ] } },
{ "type": "Feature", "properties": { "id": 12550, "nach": 0.38700348189697747 }, "geometry": { "type": "LineString", "coordinates": [ [ 0.6353529, 51.757854899999984 ], [ 0.6355596, 51.7577756 ], [ 0.6361639, 51.7575563 ], [ 0.6368027, 51.75732630000001 ], [ 0.6377345, 51.757012 ], [ 0.638163, 51.7568724 ] ] } },
{ "type": "Feature", "properties": { "id": 12546, "nach": 0.36323381596813797 }, "geometry": { "type": "LineString", "coordinates": [ [ 0.633568, 51.7590639 ], [ 0.6336906, 51.7588176 ], [ 0.6337657, 51.7587097 ], [ 0.63383, 51.758615 ], [ 0.6339185, 51.758537 ] ] } },
{ "type": "Feature", "properties": { "id": 12545, "nach": 0.16203935486108031 }, "geometry": { "type": "LineString", "coordinates": [ [ 0.633568, 51.7590639 ], [ 0.6336847, 51.7590826 ] ] } },
{ "type": "Feature", "properties": { "id": 9100, "nach": 0.36146632996033351 }, "geometry": { "type": "LineString", "coordinates": [ [ 0.6383227, 51.7587562 ], [ 0.6381835, 51.7586125 ] ] } },
{ "type": "Feature", "properties": { "id": 9101, "nach": 0.39658620904892983 }, "geometry": { "type": "LineString", "coordinates": [ [ 0.6383227, 51.7587562 ], [ 0.6384032, 51.7589454 ], [ 0.6384193, 51.7591679 ], [ 0.6384676, 51.759324 ], [ 0.6385953, 51.759461 ] ] } },
{ "type": "Feature", "properties": { "id": 9038, "nach": 0.39520502133761726 }, "geometry": { "type": "LineString", "coordinates": [ [ 0.6393632, 51.7564962 ], [ 0.6390982, 51.756577200000024 ], [ 0.6386372, 51.7567204 ], [ 0.638163, 51.7568724 ] ] } },
{ "type": "Feature", "properties": { "id": 32589, "nach": 0.43717347010879204 }, "geometry": { "type": "LineString", "coordinates": [ [ 0.6405612, 51.7561544 ], [ 0.6401436, 51.7562691 ], [ 0.6393632, 51.7564962 ] ] } },
{ "type": "Feature", "properties": { "id": 32593, "nach": 0.43358204117361454 }, "geometry": { "type": "LineString", "coordinates": [ [ 0.6414742, 51.7559025 ], [ 0.6412828, 51.7559563 ], [ 0.6405612, 51.7561544 ] ] } },
{ "type": "Feature", "properties": { "id": 32592, "nach": 0.34210606368427571 }, "geometry": { "type": "LineString", "coordinates": [ [ 0.6410204, 51.755847 ], [ 0.6410097, 51.7559018 ], [ 0.6410017, 51.7559226 ], [ 0.6409547, 51.7559392 ], [ 0.6409145, 51.7559516 ], [ 0.6408367, 51.7559707 ], [ 0.6407107, 51.7559998 ], [ 0.6406342, 51.7560172 ], [ 0.6405725, 51.7560313 ], [ 0.6405068, 51.7560479 ], [ 0.6405095, 51.7560745 ], [ 0.6405612, 51.7561544 ] ] } },
{ "type": "Feature", "properties": { "id": 9086, "nach": 0.30449671864010536 }, "geometry": { "type": "LineString", "coordinates": [ [ 0.6385953, 51.759461 ], [ 0.6385695, 51.7595763 ], [ 0.6385212, 51.759662600000013 ], [ 0.6384568, 51.7597622 ], [ 0.6383657, 51.7598619 ], [ 0.6382959, 51.7599316 ], [ 0.6382691, 51.7600013 ], [ 0.6383013, 51.7601175 ] ] } },
{ "type": "Feature", "properties": { "id": 30285, "nach": 0.34872545075408906 }, "geometry": { "type": "LineString", "coordinates": [ [ 0.6399037, 51.760024 ], [ 0.6397687, 51.7600153 ], [ 0.6394439, 51.7599548 ], [ 0.639063, 51.7597921 ], [ 0.6386285, 51.7594966 ], [ 0.6385953, 51.759461 ] ] } },
{ "type": "Feature", "properties": { "id": 30286, "nach": 0.19877003502090806 }, "geometry": { "type": "LineString", "coordinates": [ [ 0.6399037, 51.760024 ], [ 0.6402217, 51.7600445 ], [ 0.6408762, 51.7600644 ], [ 0.6414985, 51.760091 ], [ 0.6418901, 51.7601474 ], [ 0.6424909, 51.7602404 ], [ 0.6430542, 51.760336699999989 ], [ 0.6436603, 51.7604429 ], [ 0.6441002, 51.7605292 ], [ 0.6444167, 51.7606189 ], [ 0.6445669, 51.76071850000001 ], [ 0.6447654, 51.7608015 ], [ 0.6450014, 51.7608281 ], [ 0.6452589, 51.7608247 ], [ 0.6455164, 51.760821400000012 ], [ 0.6457364, 51.7608712 ], [ 0.6459348, 51.760987400000012 ], [ 0.646187, 51.7611435 ], [ 0.6464284, 51.761243100000016 ], [ 0.6466805, 51.7613361 ], [ 0.6468441, 51.7614189 ], [ 0.6469701, 51.7615019 ], [ 0.6470774, 51.761551699999984 ], [ 0.6471284, 51.7615816 ], [ 0.6472215, 51.761685400000012 ], [ 0.6472939, 51.7617817 ] ] } },
{ "type": "Feature", "properties": { "id": 30287, "nach": 0.2885947677021003 }, "geometry": { "type": "LineString", "coordinates": [ [ 0.6399037, 51.760024 ], [ 0.6399529, 51.7600798 ], [ 0.6399689, 51.7601351 ], [ 0.6399497, 51.7607699 ], [ 0.6399393, 51.7612421 ], [ 0.6399339, 51.7612604 ], [ 0.6399355, 51.7613646 ], [ 0.6399473, 51.76140980000001 ] ] } },
{ "type": "Feature", "properties": { "id": 12872, "nach": 0.33439452303104117 }, "geometry": { "type": "LineString", "coordinates": [ [ 0.6219471, 51.7687852 ], [ 0.6220847, 51.7687113 ], [ 0.6222162, 51.7686415 ], [ 0.6224656, 51.7685287 ], [ 0.6231147, 51.7682332 ], [ 0.6236163, 51.7680108 ], [ 0.6240776, 51.7678332 ], [ 0.6243619, 51.7677402 ], [ 0.6245011, 51.7677032 ] ] } },
{ "type": "Feature", "properties": { "id": 12414, "nach": 0.30919752265017053 }, "geometry": { "type": "LineString", "coordinates": [ [ 0.635994, 51.7675495 ], [ 0.636043, 51.7675303 ], [ 0.6360711, 51.7675245 ], [ 0.6361623, 51.7675345 ], [ 0.6362642, 51.7675519 ], [ 0.6363568, 51.7675577 ], [ 0.6364319, 51.7675536 ], [ 0.6364589, 51.7675446 ], [ 0.6364842, 51.7675361 ], [ 0.6365284, 51.7675046 ], [ 0.63657, 51.7674648 ], [ 0.6365928, 51.7674349 ], [ 0.6366076, 51.767395 ], [ 0.6365942, 51.7673602 ] ] } },
{ "type": "Feature", "properties": { "id": 12406, "nach": 0.24204913471731671 }, "geometry": { "type": "LineString", "coordinates": [ [ 0.6374471, 51.7653508 ], [ 0.6373867, 51.7654396 ], [ 0.6372915, 51.7655766 ], [ 0.6372017, 51.7656969 ], [ 0.6370515, 51.7658978 ], [ 0.6369603, 51.7660273 ], [ 0.6368463, 51.7661783 ], [ 0.6367819, 51.7662646 ], [ 0.6367283, 51.7663551 ], [ 0.6367095, 51.7663966 ], [ 0.6366974, 51.7664364 ], [ 0.6366854, 51.7665003 ], [ 0.6366854, 51.7665342 ], [ 0.6366854, 51.7665435 ], [ 0.6367108, 51.7665759 ], [ 0.6368155, 51.7666796 ], [ 0.6368906, 51.7667759 ], [ 0.6369282, 51.7668705 ], [ 0.6369147, 51.7669983 ], [ 0.6367672, 51.7672208 ], [ 0.6367189, 51.7672954 ], [ 0.6366841, 51.7673303 ], [ 0.6366385, 51.7673502 ], [ 0.6365942, 51.7673602 ] ] } },
{ "type": "Feature", "properties": { "id": 19601, "nach": 0.23027338933851932 }, "geometry": { "type": "LineString", "coordinates": [ [ 0.6382283, 51.767756 ], [ 0.638086, 51.7677384 ], [ 0.6377201, 51.7677057 ], [ 0.6372607, 51.7676856 ], [ 0.6370697, 51.7676554 ], [ 0.6369396, 51.767627700000013 ], [ 0.6369558, 51.7674944 ], [ 0.6369518, 51.7674265 ], [ 0.6368013, 51.7673786 ], [ 0.6365942, 51.7673602 ] ] } },
{ "type": "Feature", "properties": { "id": 12412, "nach": 0.080580267504264946 }, "geometry": { "type": "LineString", "coordinates": [ [ 0.6449733, 51.764232 ], [ 0.6449223, 51.764284300000014 ], [ 0.6448781, 51.7643216 ], [ 0.644803, 51.7643739 ], [ 0.6447561, 51.7644046 ], [ 0.6446947, 51.7644541 ], [ 0.6446394, 51.7645167 ], [ 0.6446005, 51.7645715 ], [ 0.6445535, 51.7646561 ], [ 0.6445214, 51.76472170000001 ], [ 0.6444986, 51.76478310000001 ], [ 0.6444956, 51.7648325 ], [ 0.6444972, 51.76493 ], [ 0.6444932, 51.7650346 ], [ 0.6444892, 51.7650919 ], [ 0.6444744, 51.7651566 ], [ 0.644453, 51.7652056 ], [ 0.6444087, 51.7652811 ], [ 0.6443685, 51.7653268 ], [ 0.6443256, 51.7653757 ], [ 0.6442491, 51.7654571 ], [ 0.6441754, 51.7655359 ], [ 0.6441177, 51.7656098 ], [ 0.6440681, 51.765692799999989 ], [ 0.6440453, 51.7657351 ], [ 0.6440198, 51.7657899 ], [ 0.6439822, 51.7658721 ], [ 0.6439568, 51.7659385 ], [ 0.643934, 51.7659775 ], [ 0.6439071, 51.7660098 ], [ 0.6438723, 51.76604050000001 ], [ 0.6437945, 51.7661003 ], [ 0.6437086, 51.7661692 ], [ 0.6436014, 51.76626550000001 ], [ 0.6435424, 51.7663402 ], [ 0.6435061, 51.766391600000013 ], [ 0.643474, 51.7664605 ], [ 0.6434391, 51.7665643 ], [ 0.6434176, 51.7666423 ], [ 0.6433908, 51.7666863 ], [ 0.6433626, 51.7667269 ], [ 0.6433251, 51.766749299999979 ], [ 0.6432755, 51.7667734 ], [ 0.6432124, 51.7667883 ], [ 0.64314, 51.766795 ], [ 0.6430689, 51.7667925 ], [ 0.6429724, 51.7667792 ], [ 0.6428477, 51.7667759 ], [ 0.6427337, 51.7667776 ], [ 0.6426533, 51.7667817 ], [ 0.6425634, 51.7667917 ], [ 0.6424856, 51.7668174 ], [ 0.6424132, 51.7668481 ], [ 0.6423462, 51.766880499999985 ], [ 0.6422858, 51.7668971 ], [ 0.642145, 51.7669162 ], [ 0.6420323, 51.7669236 ], [ 0.6419009, 51.7669286 ], [ 0.6418124, 51.76693190000001 ], [ 0.6417212, 51.7669162 ], [ 0.6416045, 51.7668738 ], [ 0.6414181, 51.766797500000017 ], [ 0.6412505, 51.7667327 ], [ 0.6409715, 51.7666149 ], [ 0.6406148, 51.7664705 ], [ 0.640427, 51.7664016 ], [ 0.6401494, 51.7663036 ], [ 0.6395553, 51.7660646 ], [ 0.6387842, 51.7657584 ], [ 0.6383041, 51.7655683 ], [ 0.6378749, 51.765394 ], [ 0.6377408, 51.76534 ], [ 0.637667, 51.7653143 ], [ 0.6375986, 51.7653044 ], [ 0.6375316, 51.7653102 ], [ 0.6374846, 51.7653317 ], [ 0.6374471, 51.7653508 ] ] } },
{ "type": "Feature", "properties": { "id": 12408, "nach": 0.14272729512268453 }, "geometry": { "type": "LineString", "coordinates": [ [ 0.6397418, 51.7613792 ], [ 0.6397257, 51.7614124 ], [ 0.6396882, 51.7615269 ], [ 0.6396238, 51.761673 ], [ 0.639546, 51.7618307 ], [ 0.6394468, 51.7620067 ], [ 0.6393851, 51.7621993 ], [ 0.6393019, 51.7624815 ], [ 0.6391812, 51.7629247 ], [ 0.6391303, 51.7630874 ], [ 0.6390766, 51.7632169 ], [ 0.6390149, 51.7633796 ], [ 0.6389559, 51.7634808 ], [ 0.6388915, 51.7635921 ], [ 0.6386206, 51.7639257 ], [ 0.6381298, 51.7644752 ], [ 0.6378079, 51.764857 ], [ 0.6375638, 51.765185700000011 ], [ 0.6374471, 51.7653508 ] ] } },
{ "type": "Feature", "properties": { "id": 26677, "nach": 0.26541132122754496 }, "geometry": { "type": "LineString", "coordinates": [ [ 0.6341783, 51.7662349 ], [ 0.6339774, 51.7662344 ], [ 0.6337036, 51.7662386 ], [ 0.6335118, 51.7662509 ], [ 0.6332721, 51.7662797 ] ] } },
{ "type": "Feature", "properties": { "id": 12535, "nach": 0.28359669078490246 }, "geometry": { "type": "LineString", "coordinates": [ [ 0.6328466, 51.7663632 ], [ 0.6328784, 51.7664825 ] ] } },
{ "type": "Feature", "properties": { "id": 12540, "nach": 0.34145004492486924 }, "geometry": { "type": "LineString", "coordinates": [ [ 0.6328317, 51.7663076 ], [ 0.6328466, 51.7663632 ] ] } },
{ "type": "Feature", "properties": { "id": 12554, "nach": 0.27677547040338579 }, "geometry": { "type": "LineString", "coordinates": [ [ 0.6327706, 51.7660671 ], [ 0.6328317, 51.7663076 ] ] } },
{ "type": "Feature", "properties": { "id": 30168, "nach": 0.42435847118901049 }, "geometry": { "type": "LineString", "coordinates": [ [ 0.6186184, 51.7675225 ], [ 0.6186068, 51.7673898 ], [ 0.6185978, 51.7672348 ] ] } },
{ "type": "Feature", "properties": { "id": 30170, "nach": 0.33483243151254344 }, "geometry": { "type": "LineString", "coordinates": [ [ 0.6188635, 51.7673704 ], [ 0.6188795, 51.7675099 ], [ 0.6186184, 51.7675225 ] ] } },
{ "type": "Feature", "properties": { "id": 20267, "nach": 0.50389565130659786 }, "geometry": { "type": "LineString", "coordinates": [ [ 0.627374, 51.76417150000001 ], [ 0.6272452, 51.7638927 ] ] } },
{ "type": "Feature", "properties": { "id": 20326, "nach": 0.55595148913053583 }, "geometry": { "type": "LineString", "coordinates": [ [ 0.6282691, 51.7631718 ], [ 0.6282645, 51.7631988 ], [ 0.6282484, 51.763398 ], [ 0.6281465, 51.7636403 ], [ 0.628066, 51.7637167 ], [ 0.6278729, 51.7637897 ], [ 0.6272452, 51.7638927 ] ] } },
{ "type": "Feature", "properties": { "id": 20336, "nach": 0.51688959516942046 }, "geometry": { "type": "LineString", "coordinates": [ [ 0.6269931, 51.7636171 ], [ 0.6271272, 51.7636536 ], [ 0.6272452, 51.7638927 ] ] } },
{ "type": "Feature", "properties": { "id": 20266, "nach": 0.42811276802138021 }, "geometry": { "type": "LineString", "coordinates": [ [ 0.627374, 51.76417150000001 ], [ 0.6280821, 51.7639989 ] ] } },
{ "type": "Feature", "properties": { "id": 20333, "nach": 0.46999992945563529 }, "geometry": { "type": "LineString", "coordinates": [ [ 0.6271112, 51.7642355 ], [ 0.627374, 51.76417150000001 ] ] } },
{ "type": "Feature", "properties": { "id": 20325, "nach": 0.36310153354254332 }, "geometry": { "type": "LineString", "coordinates": [ [ 0.6282691, 51.7631718 ], [ 0.627492, 51.7632984 ] ] } },
{ "type": "Feature", "properties": { "id": 20335, "nach": 0.5088013252513518 }, "geometry": { "type": "LineString", "coordinates": [ [ 0.6269931, 51.7636171 ], [ 0.6268299, 51.7636307 ] ] } },
{ "type": "Feature", "properties": { "id": 20334, "nach": 0.35568987712588845 }, "geometry": { "type": "LineString", "coordinates": [ [ 0.6269931, 51.7636171 ], [ 0.6269127, 51.7634245 ] ] } },
{ "type": "Feature", "properties": { "id": 20271, "nach": 0.39657146263244208 }, "geometry": { "type": "LineString", "coordinates": [ [ 0.6291067, 51.7638296 ], [ 0.6291013, 51.7638893 ], [ 0.628994, 51.7639591 ], [ 0.6285845, 51.7640143 ], [ 0.6280821, 51.7639989 ] ] } },
{ "type": "Feature", "properties": { "id": 20337, "nach": 0.34516707762198257 }, "geometry": { "type": "LineString", "coordinates": [ [ 0.6292282, 51.7631212 ], [ 0.6291067, 51.7638296 ] ] } },
{ "type": "Feature", "properties": { "id": 20331, "nach": 0.30305259786212491 }, "geometry": { "type": "LineString", "coordinates": [ [ 0.6271112, 51.7642355 ], [ 0.6268299, 51.7636307 ] ] } },
{ "type": "Feature", "properties": { "id": 20332, "nach": 0.46426045063429516 }, "geometry": { "type": "LineString", "coordinates": [ [ 0.6271112, 51.7642355 ], [ 0.6268467, 51.764297 ] ] } },
{ "type": "Feature", "properties": { "id": 20312, "nach": 0.47148164552980509 }, "geometry": { "type": "LineString", "coordinates": [ [ 0.6262291, 51.763718 ], [ 0.6261528, 51.7637321 ] ] } },
{ "type": "Feature", "properties": { "id": 20328, "nach": 0.45899748429877724 }, "geometry": { "type": "LineString", "coordinates": [ [ 0.6259846, 51.7637632 ], [ 0.6261528, 51.7637321 ] ] } },
{ "type": "Feature", "properties": { "id": 20307, "nach": 0.1746760698849347 }, "geometry": { "type": "LineString", "coordinates": [ [ 0.6264236, 51.7643978 ], [ 0.6261329, 51.7638018 ], [ 0.6261528, 51.7637321 ] ] } },
{ "type": "Feature", "properties": { "id": 20311, "nach": 0.48104649963956719 }, "geometry": { "type": "LineString", "coordinates": [ [ 0.6262291, 51.763718 ], [ 0.6263872, 51.7636889 ] ] } },
{ "type": "Feature", "properties": { "id": 20313, "nach": 0.0 }, "geometry": { "type": "LineString", "coordinates": [ [ 0.6262291, 51.763718 ], [ 0.6260168, 51.7633581 ], [ 0.6260865, 51.7633017 ], [ 0.6262045, 51.7632718 ], [ 0.6262904, 51.763295 ], [ 0.6264403, 51.763679 ] ] } },
{ "type": "Feature", "properties": { "id": 20330, "nach": 0.0 }, "geometry": { "type": "LineString", "coordinates": [ [ 0.6259846, 51.7637632 ], [ 0.6257647, 51.7634112 ], [ 0.6255279, 51.7634845 ] ] } },
{ "type": "Feature", "properties": { "id": 20329, "nach": 0.44444146702591963 }, "geometry": { "type": "LineString", "coordinates": [ [ 0.6259846, 51.7637632 ], [ 0.6258721, 51.7637887 ] ] } },
{ "type": "Feature", "properties": { "id": 20305, "nach": 0.42177293480651207 }, "geometry": { "type": "LineString", "coordinates": [ [ 0.6264236, 51.7643978 ], [ 0.6261605, 51.7644604 ] ] } },
{ "type": "Feature", "properties": { "id": 20306, "nach": 0.43998946261112903 }, "geometry": { "type": "LineString", "coordinates": [ [ 0.6264236, 51.7643978 ], [ 0.6266627, 51.7643409 ] ] } },
{ "type": "Feature", "properties": { "id": 20316, "nach": 0.361521233964059 }, "geometry": { "type": "LineString", "coordinates": [ [ 0.6257366, 51.7638195 ], [ 0.6255608, 51.7638595 ] ] } },
{ "type": "Feature", "properties": { "id": 20289, "nach": 0.24474253405665813 }, "geometry": { "type": "LineString", "coordinates": [ [ 0.6258258, 51.7645401 ], [ 0.6255608, 51.7638595 ] ] } },
{ "type": "Feature", "properties": { "id": 20303, "nach": 0.0 }, "geometry": { "type": "LineString", "coordinates": [ [ 0.6255279, 51.7634845 ], [ 0.6253892, 51.7635274 ], [ 0.6253087, 51.7636569 ], [ 0.6254141, 51.7637919 ], [ 0.6255608, 51.7638595 ] ] } },
{ "type": "Feature", "properties": { "id": 20314, "nach": 0.34716645645912036 }, "geometry": { "type": "LineString", "coordinates": [ [ 0.6257366, 51.7638195 ], [ 0.6255279, 51.7634845 ] ] } },
{ "type": "Feature", "properties": { "id": 20318, "nach": 0.42761296111872743 }, "geometry": { "type": "LineString", "coordinates": [ [ 0.6258721, 51.7637887 ], [ 0.6257366, 51.7638195 ] ] } },
{ "type": "Feature", "properties": { "id": 20324, "nach": 0.34856856618346083 }, "geometry": { "type": "LineString", "coordinates": [ [ 0.6257003, 51.7645699 ], [ 0.6258258, 51.7645401 ] ] } },
{ "type": "Feature", "properties": { "id": 20290, "nach": 0.39010463843847953 }, "geometry": { "type": "LineString", "coordinates": [ [ 0.6261605, 51.7644604 ], [ 0.6258258, 51.7645401 ] ] } },
{ "type": "Feature", "properties": { "id": 20294, "nach": 0.48795883374853649 }, "geometry": { "type": "LineString", "coordinates": [ [ 0.6264403, 51.763679 ], [ 0.6263872, 51.7636889 ] ] } },
{ "type": "Feature", "properties": { "id": 20298, "nach": 0.28674565949573233 }, "geometry": { "type": "LineString", "coordinates": [ [ 0.6266627, 51.7643409 ], [ 0.6263923, 51.7637532 ], [ 0.6263872, 51.7636889 ] ] } },
{ "type": "Feature", "properties": { "id": 20293, "nach": 0.4951169592752826 }, "geometry": { "type": "LineString", "coordinates": [ [ 0.6264403, 51.763679 ], [ 0.6265962, 51.7636503 ] ] } },
{ "type": "Feature", "properties": { "id": 20308, "nach": 0.45534709477341218 }, "geometry": { "type": "LineString", "coordinates": [ [ 0.6268467, 51.764297 ], [ 0.6266627, 51.7643409 ] ] } },
{ "type": "Feature", "properties": { "id": 20301, "nach": 0.50190787412412952 }, "geometry": { "type": "LineString", "coordinates": [ [ 0.6268299, 51.7636307 ], [ 0.6265962, 51.7636503 ] ] } },
{ "type": "Feature", "properties": { "id": 20310, "nach": 0.19784475492856685 }, "geometry": { "type": "LineString", "coordinates": [ [ 0.6268467, 51.764297 ], [ 0.6265962, 51.7637565 ], [ 0.6265962, 51.7636503 ] ] } },
{ "type": "Feature", "properties": { "id": 20319, "nach": 0.21424675295365375 }, "geometry": { "type": "LineString", "coordinates": [ [ 0.6258721, 51.7637887 ], [ 0.6258988, 51.7639026 ], [ 0.6261605, 51.7644604 ] ] } },
{ "type": "Feature", "properties": { "id": 20322, "nach": 0.0 }, "geometry": { "type": "LineString", "coordinates": [ [ 0.6269127, 51.7634245 ], [ 0.6269376, 51.7633636 ], [ 0.6269073, 51.7633116 ], [ 0.6267732, 51.7633249 ], [ 0.6266498, 51.7633614 ], [ 0.6266337, 51.763394600000012 ], [ 0.6266498, 51.7634245 ], [ 0.6266927, 51.7634644 ], [ 0.6269127, 51.7634245 ] ] } },
{ "type": "Feature", "properties": { "id": 23000, "nach": 0.0 }, "geometry": { "type": "LineString", "coordinates": [ [ 0.6100709, 51.764523 ], [ 0.6101184, 51.7644967 ], [ 0.6106271, 51.7644502 ], [ 0.6106945, 51.7644521 ], [ 0.610765, 51.7644673 ], [ 0.6108551, 51.7644984 ], [ 0.6108721, 51.764535 ], [ 0.6108299, 51.764694900000016 ], [ 0.6107698, 51.7647124 ], [ 0.6102881, 51.7646164 ], [ 0.6101423, 51.764564899999989 ], [ 0.6100709, 51.764523 ] ] } },
{ "type": "Feature", "properties": { "id": 29315, "nach": 0.39540587033095642 }, "geometry": { "type": "LineString", "coordinates": [ [ 0.6185793, 51.7657764 ], [ 0.6186111, 51.765875200000011 ], [ 0.6186542, 51.76602290000001 ], [ 0.6186666, 51.7661544 ], [ 0.6186498, 51.766322 ], [ 0.6186204, 51.7664952 ], [ 0.6186, 51.7666867 ], [ 0.6185886, 51.7668651 ], [ 0.6185946, 51.7671789 ], [ 0.6185978, 51.7672348 ] ] } },
{ "type": "Feature", "properties": { "id": 24926, "nach": 0.32794239213613763 }, "geometry": { "type": "LineString", "coordinates": [ [ 0.6193867, 51.7672415 ], [ 0.618772, 51.76723590000001 ], [ 0.6185978, 51.7672348 ] ] } },
{ "type": "Feature", "properties": { "id": 29318, "nach": 0.29440407855921841 }, "geometry": { "type": "LineString", "coordinates": [ [ 0.6174437, 51.7657116 ], [ 0.6177549, 51.765714899999985 ], [ 0.6180809, 51.7657243 ], [ 0.6182312, 51.765729 ], [ 0.6183908, 51.7657498 ], [ 0.6185793, 51.7657764 ] ] } },
{ "type": "Feature", "properties": { "id": 28830, "nach": 0.39056323675538457 }, "geometry": { "type": "LineString", "coordinates": [ [ 0.6095482, 51.7622403 ], [ 0.6095256, 51.7622303 ], [ 0.6095025, 51.7622217 ] ] } },
{ "type": "Feature", "properties": { "id": 28831, "nach": 0.31678539787016058 }, "geometry": { "type": "LineString", "coordinates": [ [ 0.6096656, 51.7621539 ], [ 0.6095482, 51.7622403 ] ] } },
{ "type": "Feature", "properties": { "id": 28825, "nach": 0.31027707915383124 }, "geometry": { "type": "LineString", "coordinates": [ [ 0.6095025, 51.7622217 ], [ 0.6093661, 51.7621707 ], [ 0.6091578, 51.762092 ], [ 0.609118, 51.7620911 ], [ 0.6089863, 51.762202900000013 ] ] } },
{ "type": "Feature", "properties": { "id": 28827, "nach": 0.31440664569540067 }, "geometry": { "type": "LineString", "coordinates": [ [ 0.6093558, 51.7623398 ], [ 0.6095025, 51.7622217 ] ] } }
]
}
