{
"type": "FeatureCollection",
"name": "SOUNO_191_NACH_800m",
"crs": { "type": "name", "properties": { "name": "urn:ogc:def:crs:OGC:1.3:CRS84" } },
"features": [
{ "type": "Feature", "properties": { "id": 75349, "nach": 0.35420117034260001 }, "geometry": { "type": "LineString", "coordinates": [ [ 1.2974128, 52.521292100000011 ], [ 1.2975313, 52.521265 ] ] } },
{ "type": "Feature", "properties": { "id": 42875, "nach": 0.35441215747647675 }, "geometry": { "type": "LineString", "coordinates": [ [ 1.2979979, 52.5213924 ], [ 1.2978237, 52.521363400000013 ], [ 1.2976781, 52.5213191 ], [ 1.2975313, 52.521265 ] ] } },
{ "type": "Feature", "properties": { "id": 31244, "nach": 0.15765464921612432 }, "geometry": { "type": "LineString", "coordinates": [ [ 1.2981273, 52.5148523 ], [ 1.298216, 52.5151615 ], [ 1.2983581, 52.5158226 ], [ 1.298501, 52.5165503 ], [ 1.2985432, 52.5169472 ], [ 1.2985475, 52.5173294 ], [ 1.2985003, 52.5176703 ], [ 1.2983689, 52.5182562 ], [ 1.2981543, 52.519088600000011 ], [ 1.2979117, 52.5201829 ], [ 1.2976824, 52.5210533 ], [ 1.2976309, 52.5211732 ], [ 1.2975313, 52.521265 ] ] } },
{ "type": "Feature", "properties": { "id": 75354, "nach": 0.3514537117235102 }, "geometry": { "type": "LineString", "coordinates": [ [ 1.2962616, 52.521337 ], [ 1.2963549, 52.5212674 ], [ 1.2965145, 52.5212511 ], [ 1.2967492, 52.521269900000014 ], [ 1.2969691, 52.521278 ], [ 1.2970321, 52.521274800000015 ], [ 1.297291, 52.5212552 ], [ 1.2974128, 52.521292100000011 ] ] } },
{ "type": "Feature", "properties": { "id": 42874, "nach": 0.26364693389091043 }, "geometry": { "type": "LineString", "coordinates": [ [ 1.2979979, 52.5213924 ], [ 1.2978231, 52.5220854 ], [ 1.2975357, 52.52302 ], [ 1.2972323, 52.52366330000001 ], [ 1.29706, 52.5239112 ], [ 1.2968326, 52.5241661 ], [ 1.2965219, 52.5257143 ] ] } },
{ "type": "Feature", "properties": { "id": 91736, "nach": 0.35491211467612827 }, "geometry": { "type": "LineString", "coordinates": [ [ 1.2987132, 52.5214365 ], [ 1.2984625, 52.5214277 ], [ 1.2982374, 52.5214143 ], [ 1.2979979, 52.5213924 ] ] } },
{ "type": "Feature", "properties": { "id": 41417, "nach": 0.46284784137099994 }, "geometry": { "type": "LineString", "coordinates": [ [ 1.2885328, 52.5258747 ], [ 1.2886138, 52.525849799999989 ] ] } },
{ "type": "Feature", "properties": { "id": 58306, "nach": 0.44821911925493524 }, "geometry": { "type": "LineString", "coordinates": [ [ 1.2885577, 52.5260914 ], [ 1.2886138, 52.525849799999989 ] ] } },
{ "type": "Feature", "properties": { "id": 69873, "nach": 0.4820434959727688 }, "geometry": { "type": "LineString", "coordinates": [ [ 1.2890379, 52.5256691 ], [ 1.2889182, 52.525724 ], [ 1.2886138, 52.525849799999989 ] ] } },
{ "type": "Feature", "properties": { "id": 41419, "nach": 0.40668401705986879 }, "geometry": { "type": "LineString", "coordinates": [ [ 1.2885328, 52.5258747 ], [ 1.288507, 52.5258344 ], [ 1.2884103, 52.5256858 ] ] } },
{ "type": "Feature", "properties": { "id": 58303, "nach": 0.45684141753454555 }, "geometry": { "type": "LineString", "coordinates": [ [ 1.2881054, 52.5260049 ], [ 1.2881537, 52.5259962 ], [ 1.2882754, 52.5259647 ], [ 1.2885328, 52.5258747 ] ] } },
{ "type": "Feature", "properties": { "id": 58307, "nach": 0.27957047470298785 }, "geometry": { "type": "LineString", "coordinates": [ [ 1.2885577, 52.5260914 ], [ 1.2881054, 52.5260049 ] ] } },
{ "type": "Feature", "properties": { "id": 82817, "nach": 0.37817556775258931 }, "geometry": { "type": "LineString", "coordinates": [ [ 1.2884898, 52.5264798 ], [ 1.2885577, 52.5260914 ] ] } },
{ "type": "Feature", "properties": { "id": 82825, "nach": 0.42073846357064854 }, "geometry": { "type": "LineString", "coordinates": [ [ 1.2882445, 52.5264588 ], [ 1.2885577, 52.5260914 ] ] } },
{ "type": "Feature", "properties": { "id": 82831, "nach": 0.0 }, "geometry": { "type": "LineString", "coordinates": [ [ 1.2884849, 52.526507599999988 ], [ 1.2885802, 52.526515299999986 ], [ 1.2887868, 52.526514 ], [ 1.2889543, 52.5264975 ], [ 1.2890756, 52.5264699 ], [ 1.2891415, 52.52642860000001 ], [ 1.289171, 52.526368700000013 ], [ 1.289171, 52.5262922 ], [ 1.2890774, 52.5262173 ], [ 1.2888557, 52.5261424 ], [ 1.2885577, 52.5260914 ] ] } },
{ "type": "Feature", "properties": { "id": 69874, "nach": 0.47451897065709669 }, "geometry": { "type": "LineString", "coordinates": [ [ 1.2890379, 52.5256691 ], [ 1.2893322, 52.5255377 ], [ 1.2893802, 52.525506100000015 ], [ 1.2896678, 52.525291 ], [ 1.2899653, 52.5250256 ] ] } },
{ "type": "Feature", "properties": { "id": 88611, "nach": 0.33873115107886698 }, "geometry": { "type": "LineString", "coordinates": [ [ 1.2889838, 52.5255782 ], [ 1.2890147, 52.525606 ], [ 1.2889825, 52.525619 ], [ 1.2890003, 52.525634 ], [ 1.2890379, 52.5256691 ] ] } },
{ "type": "Feature", "properties": { "id": 6422, "nach": 0.4902848059185988 }, "geometry": { "type": "LineString", "coordinates": [ [ 1.2850216, 52.5291615 ], [ 1.285011, 52.5286939 ] ] } },
{ "type": "Feature", "properties": { "id": 99561, "nach": 0.46822116533703467 }, "geometry": { "type": "LineString", "coordinates": [ [ 1.2850014, 52.5282571 ], [ 1.285011, 52.5286939 ] ] } },
{ "type": "Feature", "properties": { "id": 31197, "nach": 0.43457331846506236 }, "geometry": { "type": "LineString", "coordinates": [ [ 1.2869896, 52.528669 ], [ 1.2868757, 52.5286749 ], [ 1.285011, 52.5286939 ] ] } },
{ "type": "Feature", "properties": { "id": 107720, "nach": 0.38958539479991355 }, "geometry": { "type": "LineString", "coordinates": [ [ 1.2820798, 52.5294733 ], [ 1.2829676, 52.5295925 ], [ 1.2838429, 52.5295725 ], [ 1.2843009, 52.5294834 ], [ 1.2844509, 52.529426 ], [ 1.2847218, 52.5292653 ], [ 1.2848555, 52.5291982 ], [ 1.2850216, 52.5291615 ] ] } },
{ "type": "Feature", "properties": { "id": 31712, "nach": 0.48711381431966461 }, "geometry": { "type": "LineString", "coordinates": [ [ 1.285699, 52.5300044 ], [ 1.285657, 52.5299317 ], [ 1.2856198, 52.5298811 ], [ 1.2852509, 52.5294524 ], [ 1.2851191, 52.5292991 ], [ 1.2850216, 52.5291615 ] ] } },
{ "type": "Feature", "properties": { "id": 99562, "nach": 0.46806662305950086 }, "geometry": { "type": "LineString", "coordinates": [ [ 1.2850014, 52.5282571 ], [ 1.2850009, 52.5282345 ], [ 1.2851494, 52.5276088 ] ] } },
{ "type": "Feature", "properties": { "id": 99564, "nach": 0.34050860084183249 }, "geometry": { "type": "LineString", "coordinates": [ [ 1.2832741, 52.528302499999988 ], [ 1.2839211, 52.528309100000016 ], [ 1.2843307, 52.528303799999989 ], [ 1.2844505, 52.52826409999998 ], [ 1.2846708, 52.5282551 ], [ 1.2850014, 52.5282571 ] ] } },
{ "type": "Feature", "properties": { "id": 31198, "nach": 0.43007352102776158 }, "geometry": { "type": "LineString", "coordinates": [ [ 1.2869896, 52.528669 ], [ 1.2870413, 52.5285742 ], [ 1.2874711, 52.5280529 ], [ 1.2875253, 52.5279841 ], [ 1.2876284, 52.5277145 ], [ 1.287802, 52.5273271 ], [ 1.2878329, 52.5271264 ], [ 1.2878773, 52.5269202 ], [ 1.2879666, 52.5268784 ], [ 1.2880653, 52.5268658 ] ] } },
{ "type": "Feature", "properties": { "id": 31200, "nach": 0.33259025915614565 }, "geometry": { "type": "LineString", "coordinates": [ [ 1.2869896, 52.528669 ], [ 1.2869843, 52.52869590000001 ], [ 1.2870781, 52.528765 ], [ 1.2878145, 52.52884430000001 ], [ 1.2891782, 52.5289429 ], [ 1.2903219, 52.529047 ], [ 1.2904188, 52.5289908 ] ] } },
{ "type": "Feature", "properties": { "id": 31710, "nach": 0.48573562006921023 }, "geometry": { "type": "LineString", "coordinates": [ [ 1.285699, 52.5300044 ], [ 1.2857583, 52.5302698 ] ] } },
{ "type": "Feature", "properties": { "id": 125817, "nach": 0.4537200902464576 }, "geometry": { "type": "LineString", "coordinates": [ [ 1.2857373, 52.5307307 ], [ 1.2857583, 52.5302698 ] ] } },
{ "type": "Feature", "properties": { "id": 125815, "nach": 0.41558511447338492 }, "geometry": { "type": "LineString", "coordinates": [ [ 1.2856081, 52.5302962 ], [ 1.2857115, 52.5302721 ], [ 1.2857583, 52.5302698 ] ] } },
{ "type": "Feature", "properties": { "id": 31711, "nach": 0.27486593903961604 }, "geometry": { "type": "LineString", "coordinates": [ [ 1.285699, 52.5300044 ], [ 1.2857531, 52.5300045 ], [ 1.2859461, 52.530082 ], [ 1.2861236, 52.5301633 ], [ 1.2864474, 52.5303865 ], [ 1.286835, 52.5306442 ], [ 1.2875611, 52.530966300000017 ], [ 1.2880633, 52.531328300000013 ], [ 1.2883163, 52.531478800000016 ], [ 1.2889556, 52.5317672 ], [ 1.2893356, 52.5319188 ], [ 1.2898503, 52.5321767 ], [ 1.2903022, 52.5324617 ], [ 1.2905962, 52.5328714 ] ] } },
{ "type": "Feature", "properties": { "id": 125818, "nach": 0.46633991157600668 }, "geometry": { "type": "LineString", "coordinates": [ [ 1.2857373, 52.5307307 ], [ 1.2857217, 52.5309803 ], [ 1.2857225, 52.5309932 ] ] } },
{ "type": "Feature", "properties": { "id": 125819, "nach": 0.37583635341116906 }, "geometry": { "type": "LineString", "coordinates": [ [ 1.2857373, 52.5307307 ], [ 1.285686, 52.5306857 ], [ 1.2856847, 52.5303822 ], [ 1.2856619, 52.5303414 ], [ 1.285619, 52.5303316 ], [ 1.2856081, 52.5302962 ] ] } },
{ "type": "Feature", "properties": { "id": 125814, "nach": 0.43343999664407618 }, "geometry": { "type": "LineString", "coordinates": [ [ 1.2856081, 52.5302962 ], [ 1.2855042, 52.5303163 ], [ 1.2848003, 52.5305539 ], [ 1.2842616, 52.530746300000025 ], [ 1.2841093, 52.530782500000015 ], [ 1.2839415, 52.5307849 ], [ 1.2834833, 52.530713 ], [ 1.2832261, 52.5306862 ] ] } },
{ "type": "Feature", "properties": { "id": 43997, "nach": 0.40512092946244976 }, "geometry": { "type": "LineString", "coordinates": [ [ 1.2919653, 52.5225617 ], [ 1.2920987, 52.522344700000012 ] ] } },
{ "type": "Feature", "properties": { "id": 38283, "nach": 0.35750287949044929 }, "geometry": { "type": "LineString", "coordinates": [ [ 1.2891874, 52.5217572 ], [ 1.2901449, 52.5219162 ], [ 1.2920987, 52.522344700000012 ] ] } },
{ "type": "Feature", "properties": { "id": 6740, "nach": 0.38021872962063674 }, "geometry": { "type": "LineString", "coordinates": [ [ 1.2926454, 52.5216188 ], [ 1.2925217, 52.5217048 ], [ 1.292413, 52.5218379 ], [ 1.2920987, 52.522344700000012 ] ] } },
{ "type": "Feature", "properties": { "id": 55768, "nach": 0.38422132566301004 }, "geometry": { "type": "LineString", "coordinates": [ [ 1.2906492, 52.5242228 ], [ 1.2910879, 52.52369860000001 ], [ 1.29169, 52.5230545 ], [ 1.2919653, 52.5225617 ] ] } },
{ "type": "Feature", "properties": { "id": 44002, "nach": 0.33718921318162631 }, "geometry": { "type": "LineString", "coordinates": [ [ 1.2922649, 52.5227232 ], [ 1.2920765, 52.5225915 ], [ 1.2919653, 52.5225617 ] ] } },
{ "type": "Feature", "properties": { "id": 38282, "nach": 0.41241718362613916 }, "geometry": { "type": "LineString", "coordinates": [ [ 1.2891874, 52.5217572 ], [ 1.2890414, 52.5217405 ], [ 1.2882405, 52.5216118 ] ] } },
{ "type": "Feature", "properties": { "id": 68772, "nach": 0.38842072939391037 }, "geometry": { "type": "LineString", "coordinates": [ [ 1.2883524, 52.524681 ], [ 1.2885671, 52.5238259 ], [ 1.28856, 52.523797 ], [ 1.288582, 52.523748 ], [ 1.2887326, 52.523307700000011 ], [ 1.2889248, 52.5227917 ], [ 1.2890504, 52.5222013 ], [ 1.2891874, 52.5217572 ] ] } },
{ "type": "Feature", "properties": { "id": 75352, "nach": 0.35602101484481702 }, "geometry": { "type": "LineString", "coordinates": [ [ 1.2962616, 52.521337 ], [ 1.2955985, 52.5212296 ], [ 1.2952521, 52.5211941 ], [ 1.2949986, 52.5211901 ], [ 1.2943265, 52.5212515 ], [ 1.2937323, 52.521333800000015 ], [ 1.2931091, 52.5214549 ], [ 1.2928676, 52.5215335 ], [ 1.2926454, 52.5216188 ] ] } },
{ "type": "Feature", "properties": { "id": 38272, "nach": 0.26966195176216623 }, "geometry": { "type": "LineString", "coordinates": [ [ 1.2893638, 52.5190232 ], [ 1.2897536, 52.5191441 ], [ 1.2899521, 52.5192322 ], [ 1.2906075, 52.5195444 ], [ 1.2911269, 52.5197382 ], [ 1.2912342, 52.5197822 ], [ 1.2913206, 52.5198503 ], [ 1.2917765, 52.5203197 ], [ 1.2920389, 52.5205852 ], [ 1.2922142, 52.5208033 ], [ 1.2924078, 52.5213227 ], [ 1.2925418, 52.5215318 ], [ 1.2926454, 52.5216188 ] ] } },
{ "type": "Feature", "properties": { "id": 62834, "nach": 0.42310748883528876 }, "geometry": { "type": "LineString", "coordinates": [ [ 1.2900176, 52.5250307 ], [ 1.2899653, 52.5250256 ] ] } },
{ "type": "Feature", "properties": { "id": 62838, "nach": 0.38946498645558425 }, "geometry": { "type": "LineString", "coordinates": [ [ 1.2897364, 52.5249735 ], [ 1.2899653, 52.5250256 ] ] } },
{ "type": "Feature", "properties": { "id": 55769, "nach": 0.44593251662944966 }, "geometry": { "type": "LineString", "coordinates": [ [ 1.2906492, 52.5242228 ], [ 1.2904222, 52.5244914 ], [ 1.2899653, 52.5250256 ] ] } },
{ "type": "Feature", "properties": { "id": 62836, "nach": 0.3304217269360113 }, "geometry": { "type": "LineString", "coordinates": [ [ 1.2900176, 52.5250307 ], [ 1.2901634, 52.5248641 ], [ 1.2902339, 52.524791800000017 ], [ 1.2903191, 52.5247778 ], [ 1.2905123, 52.5247516 ], [ 1.2906047, 52.52474 ], [ 1.290699, 52.5246835 ] ] } },
{ "type": "Feature", "properties": { "id": 80681, "nach": 0.38491971950830878 }, "geometry": { "type": "LineString", "coordinates": [ [ 1.2937252, 52.5253541 ], [ 1.292262, 52.5251893 ], [ 1.2919839, 52.5251539 ], [ 1.291658, 52.52513840000001 ], [ 1.2911108, 52.5251278 ], [ 1.2906897, 52.5251058 ], [ 1.2902703, 52.5250554 ], [ 1.2900176, 52.5250307 ] ] } },
{ "type": "Feature", "properties": { "id": 68774, "nach": 0.3333851356254024 }, "geometry": { "type": "LineString", "coordinates": [ [ 1.2895505, 52.5250315 ], [ 1.2897364, 52.5249735 ] ] } },
{ "type": "Feature", "properties": { "id": 68773, "nach": 0.32091361741863222 }, "geometry": { "type": "LineString", "coordinates": [ [ 1.2883524, 52.524681 ], [ 1.2892042, 52.5248605 ], [ 1.2893082, 52.5248575 ], [ 1.2896987, 52.5249464 ], [ 1.2897364, 52.5249735 ] ] } },
{ "type": "Feature", "properties": { "id": 62831, "nach": 0.42195253478118561 }, "geometry": { "type": "LineString", "coordinates": [ [ 1.2909042, 52.524299 ], [ 1.2906492, 52.5242228 ] ] } },
{ "type": "Feature", "properties": { "id": 6432, "nach": 0.35580813506919567 }, "geometry": { "type": "LineString", "coordinates": [ [ 1.2856156, 52.5329088 ], [ 1.2856244, 52.5328191 ], [ 1.2857813, 52.532611 ], [ 1.2858188, 52.5324715 ], [ 1.285888, 52.5323481 ] ] } },
{ "type": "Feature", "properties": { "id": 6429, "nach": 0.37758999195228182 }, "geometry": { "type": "LineString", "coordinates": [ [ 1.2858343, 52.5316396 ], [ 1.2858854, 52.5319865 ], [ 1.2858865, 52.5321444 ], [ 1.2858874, 52.532269199999988 ], [ 1.285888, 52.5323481 ] ] } },
{ "type": "Feature", "properties": { "id": 6434, "nach": 0.32989365278749549 }, "geometry": { "type": "LineString", "coordinates": [ [ 1.283309, 52.5343443 ], [ 1.2834135, 52.5341679 ], [ 1.2835847, 52.5339436 ], [ 1.2837044, 52.533785 ], [ 1.2838733, 52.5336396 ], [ 1.284067, 52.5335274 ], [ 1.2842208, 52.5334782 ], [ 1.2846347, 52.5333976 ], [ 1.2848618, 52.5333436 ], [ 1.2850748, 52.5332627 ], [ 1.2856156, 52.5329088 ] ] } },
{ "type": "Feature", "properties": { "id": 125823, "nach": 0.4432132742893794 }, "geometry": { "type": "LineString", "coordinates": [ [ 1.285792, 52.531500699999988 ], [ 1.2858343, 52.5316396 ] ] } },
{ "type": "Feature", "properties": { "id": 48041, "nach": 0.42345558510315212 }, "geometry": { "type": "LineString", "coordinates": [ [ 1.2868205, 52.5318369 ], [ 1.2865196, 52.5317242 ], [ 1.2863004, 52.5316599 ], [ 1.2861868, 52.5316357 ], [ 1.2860633, 52.531626 ], [ 1.2858343, 52.5316396 ] ] } },
{ "type": "Feature", "properties": { "id": 108343, "nach": 0.28832274867273439 }, "geometry": { "type": "LineString", "coordinates": [ [ 1.2782067, 52.52819130000001 ], [ 1.2788234, 52.5280541 ], [ 1.2791952, 52.5279691 ], [ 1.2792518, 52.5279534 ], [ 1.2792758, 52.527938 ] ] } },
{ "type": "Feature", "properties": { "id": 6425, "nach": 0.38090714722014923 }, "geometry": { "type": "LineString", "coordinates": [ [ 1.2794309, 52.527956300000014 ], [ 1.2793547, 52.5279525 ], [ 1.2792758, 52.527938 ] ] } },
{ "type": "Feature", "properties": { "id": 43408, "nach": 0.33581416073038861 }, "geometry": { "type": "LineString", "coordinates": [ [ 1.2775814, 52.5272343 ], [ 1.278664, 52.527721599999985 ], [ 1.279171, 52.5279077 ], [ 1.2792758, 52.527938 ] ] } },
{ "type": "Feature", "properties": { "id": 99587, "nach": 0.371561579509531 }, "geometry": { "type": "LineString", "coordinates": [ [ 1.2820258, 52.5270017 ], [ 1.2815158, 52.5271641 ], [ 1.2809613, 52.52733 ], [ 1.2804276, 52.527534 ], [ 1.2801219, 52.5277144 ], [ 1.2799089, 52.5278418 ], [ 1.2796718, 52.5279217 ], [ 1.2795331, 52.5279468 ], [ 1.2794309, 52.527956300000014 ] ] } },
{ "type": "Feature", "properties": { "id": 107719, "nach": 0.33696524561638813 }, "geometry": { "type": "LineString", "coordinates": [ [ 1.2820798, 52.5294733 ], [ 1.2819558, 52.5294477 ], [ 1.2806248, 52.5290566 ], [ 1.2801554, 52.5287475 ], [ 1.2797394, 52.5283384 ], [ 1.2794386, 52.5279776 ], [ 1.2794309, 52.527956300000014 ] ] } },
{ "type": "Feature", "properties": { "id": 107721, "nach": 0.33453288806366588 }, "geometry": { "type": "LineString", "coordinates": [ [ 1.2820798, 52.5294733 ], [ 1.2820369, 52.5295369 ], [ 1.2820959, 52.529714 ] ] } },
{ "type": "Feature", "properties": { "id": 99586, "nach": 0.40471613327098832 }, "geometry": { "type": "LineString", "coordinates": [ [ 1.2820258, 52.5270017 ], [ 1.2826174, 52.5268064 ] ] } },
{ "type": "Feature", "properties": { "id": 99588, "nach": 0.32374320317018723 }, "geometry": { "type": "LineString", "coordinates": [ [ 1.2819243, 52.52749330000001 ], [ 1.2820258, 52.5270017 ] ] } },
{ "type": "Feature", "properties": { "id": 125825, "nach": 0.44940352324932165 }, "geometry": { "type": "LineString", "coordinates": [ [ 1.285792, 52.531500699999988 ], [ 1.2858295, 52.5314297 ], [ 1.2858108, 52.531215200000013 ], [ 1.2857933, 52.5310814 ], [ 1.2857276, 52.5310814 ] ] } },
{ "type": "Feature", "properties": { "id": 48039, "nach": 0.37441318697831444 }, "geometry": { "type": "LineString", "coordinates": [ [ 1.2868205, 52.5318369 ], [ 1.286985, 52.5316746 ] ] } },
{ "type": "Feature", "properties": { "id": 48044, "nach": 0.369005695847132 }, "geometry": { "type": "LineString", "coordinates": [ [ 1.2872947, 52.5320806 ], [ 1.2872309, 52.532039300000015 ], [ 1.2870576, 52.5319484 ], [ 1.2868205, 52.5318369 ] ] } },
{ "type": "Feature", "properties": { "id": 62520, "nach": 0.23742471419161398 }, "geometry": { "type": "LineString", "coordinates": [ [ 1.2811952, 52.5307462 ], [ 1.2811653, 52.5308218 ], [ 1.2812918, 52.5310323 ], [ 1.2814421, 52.531238 ], [ 1.2815587, 52.5314726 ], [ 1.2817405, 52.531757099999986 ], [ 1.2819147, 52.531936899999984 ], [ 1.2821777, 52.5322653 ], [ 1.2823774, 52.5325299 ], [ 1.2824683, 52.5327187 ], [ 1.2826265, 52.5330892 ], [ 1.2827017, 52.5332985 ], [ 1.2829785, 52.5338674 ], [ 1.2831525, 52.5341814 ], [ 1.2832257, 52.5342884 ], [ 1.283309, 52.5343443 ] ] } },
{ "type": "Feature", "properties": { "id": 62518, "nach": 0.0 }, "geometry": { "type": "LineString", "coordinates": [ [ 1.2811952, 52.5307462 ], [ 1.2809665, 52.530776499999988 ], [ 1.2805277, 52.5308539 ], [ 1.2788236, 52.5312415 ], [ 1.2774937, 52.5317233 ], [ 1.2761484, 52.532141 ], [ 1.2726465, 52.5329964 ], [ 1.2714156, 52.5334404 ], [ 1.2705835, 52.533942900000014 ], [ 1.2697806, 52.534483 ], [ 1.2690325, 52.5349364 ] ] } },
{ "type": "Feature", "properties": { "id": 62519, "nach": 0.30698318724839868 }, "geometry": { "type": "LineString", "coordinates": [ [ 1.2811952, 52.5307462 ], [ 1.281602, 52.5306924 ], [ 1.2822056, 52.530634 ] ] } },
{ "type": "Feature", "properties": { "id": 31690, "nach": 0.1447535930163007 }, "geometry": { "type": "LineString", "coordinates": [ [ 1.2905962, 52.5328714 ], [ 1.291053, 52.5337704 ], [ 1.2912366, 52.534019400000012 ], [ 1.2916464, 52.5343561 ], [ 1.2931365, 52.5352234 ], [ 1.2934504, 52.53566450000001 ], [ 1.2936705, 52.5360113 ], [ 1.293815, 52.536136 ], [ 1.2939423, 52.53621 ] ] } },
{ "type": "Feature", "properties": { "id": 79169, "nach": 0.47484580021578032 }, "geometry": { "type": "LineString", "coordinates": [ [ 1.2851837, 52.5274255 ], [ 1.2851494, 52.5276088 ] ] } },
{ "type": "Feature", "properties": { "id": 48029, "nach": 0.44160601145359285 }, "geometry": { "type": "LineString", "coordinates": [ [ 1.2841575, 52.5270279 ], [ 1.2841161, 52.5273642 ], [ 1.2841341, 52.5274358 ], [ 1.2841799, 52.5275049 ], [ 1.2842656, 52.527557 ], [ 1.2843732, 52.5275849 ], [ 1.284961, 52.527599400000021 ], [ 1.2851494, 52.5276088 ] ] } },
{ "type": "Feature", "properties": { "id": 79170, "nach": 0.47692852612227488 }, "geometry": { "type": "LineString", "coordinates": [ [ 1.2851837, 52.5274255 ], [ 1.2854944, 52.526444 ], [ 1.2855538, 52.526366499999988 ] ] } },
{ "type": "Feature", "properties": { "id": 79172, "nach": 0.33149831473780089 }, "geometry": { "type": "LineString", "coordinates": [ [ 1.2872042, 52.526814 ], [ 1.287105, 52.5268499 ], [ 1.2870218, 52.5269576 ], [ 1.2868842, 52.52716 ], [ 1.2866842, 52.5274014 ], [ 1.2864229, 52.527642899999989 ], [ 1.2862227, 52.527697400000015 ], [ 1.2860654, 52.5277061 ], [ 1.2857363, 52.52768 ], [ 1.285427, 52.5275385 ], [ 1.2851837, 52.5274255 ] ] } },
{ "type": "Feature", "properties": { "id": 48028, "nach": 0.34071601475546892 }, "geometry": { "type": "LineString", "coordinates": [ [ 1.2841575, 52.5270279 ], [ 1.2841582, 52.5269744 ] ] } },
{ "type": "Feature", "properties": { "id": 48027, "nach": 0.40822443487286741 }, "geometry": { "type": "LineString", "coordinates": [ [ 1.2841575, 52.5270279 ], [ 1.2836812, 52.527007700000013 ] ] } },
{ "type": "Feature", "properties": { "id": 114198, "nach": 0.45211904831825206 }, "geometry": { "type": "LineString", "coordinates": [ [ 1.2855247, 52.5260065 ], [ 1.2856541, 52.526041 ], [ 1.2858076, 52.52606 ], [ 1.285973, 52.5260739 ], [ 1.2861674, 52.5260911 ] ] } },
{ "type": "Feature", "properties": { "id": 38281, "nach": 0.44155239315023703 }, "geometry": { "type": "LineString", "coordinates": [ [ 1.2855538, 52.526366499999988 ], [ 1.2857101, 52.5262729 ], [ 1.2858442, 52.526209400000013 ], [ 1.2859922, 52.5261475 ], [ 1.2861674, 52.5260911 ] ] } },
{ "type": "Feature", "properties": { "id": 31189, "nach": 0.49112731741964627 }, "geometry": { "type": "LineString", "coordinates": [ [ 1.2879829, 52.526019399999988 ], [ 1.2874134, 52.5260288 ], [ 1.2869883, 52.5260409 ], [ 1.2865642, 52.5260579 ], [ 1.286262, 52.526076300000014 ], [ 1.2861674, 52.5260911 ] ] } },
{ "type": "Feature", "properties": { "id": 114197, "nach": 0.48021558352550647 }, "geometry": { "type": "LineString", "coordinates": [ [ 1.2855247, 52.5260065 ], [ 1.2854308, 52.5259709 ] ] } },
{ "type": "Feature", "properties": { "id": 114199, "nach": 0.42446679285384237 }, "geometry": { "type": "LineString", "coordinates": [ [ 1.2855247, 52.5260065 ], [ 1.2855486, 52.5260319 ], [ 1.2855582, 52.52605710000001 ], [ 1.2855725, 52.5261677 ], [ 1.2855761, 52.5262432 ], [ 1.285578, 52.5263138 ], [ 1.2855538, 52.526366499999988 ] ] } },
{ "type": "Feature", "properties": { "id": 58301, "nach": 0.46272778584239027 }, "geometry": { "type": "LineString", "coordinates": [ [ 1.2881054, 52.5260049 ], [ 1.2879829, 52.526019399999988 ] ] } },
{ "type": "Feature", "properties": { "id": 82828, "nach": 0.42729631087273634 }, "geometry": { "type": "LineString", "coordinates": [ [ 1.2882445, 52.5264588 ], [ 1.2882368, 52.5262995 ], [ 1.288197, 52.5261809 ], [ 1.2881225, 52.5260957 ], [ 1.2879829, 52.526019399999988 ] ] } },
{ "type": "Feature", "properties": { "id": 38273, "nach": 0.26512937053357089 }, "geometry": { "type": "LineString", "coordinates": [ [ 1.2893638, 52.5190232 ], [ 1.2893058, 52.5185692 ], [ 1.2892326, 52.5180442 ], [ 1.2890989, 52.5175376 ], [ 1.2886962, 52.5170824 ], [ 1.2886709, 52.517044599999984 ], [ 1.2886392, 52.5170408 ], [ 1.2886278, 52.5170207 ], [ 1.288672, 52.5169688 ] ] } },
{ "type": "Feature", "properties": { "id": 38274, "nach": 0.28310176065645337 }, "geometry": { "type": "LineString", "coordinates": [ [ 1.2893638, 52.5190232 ], [ 1.289156, 52.519686 ], [ 1.2888196, 52.5204251 ], [ 1.2884459, 52.521266499999989 ], [ 1.288316, 52.52150730000001 ], [ 1.2882405, 52.5216118 ] ] } },
{ "type": "Feature", "properties": { "id": 89152, "nach": 0.27756917678902759 }, "geometry": { "type": "LineString", "coordinates": [ [ 1.2889087, 52.5189792 ], [ 1.2891877, 52.518985800000017 ], [ 1.2893638, 52.5190232 ] ] } },
{ "type": "Feature", "properties": { "id": 31689, "nach": 0.10601380667621794 }, "geometry": { "type": "LineString", "coordinates": [ [ 1.2905962, 52.5328714 ], [ 1.2917729, 52.5296895 ], [ 1.2917889, 52.5296667 ], [ 1.2917775, 52.5296367 ], [ 1.2917778, 52.5296178 ], [ 1.2940949, 52.5292284 ] ] } },
{ "type": "Feature", "properties": { "id": 50740, "nach": 0.25346590210705383 }, "geometry": { "type": "LineString", "coordinates": [ [ 1.3028453, 52.5293812 ], [ 1.3027916, 52.529329 ], [ 1.3027503, 52.5292862 ], [ 1.3026683, 52.529257199999989 ], [ 1.3025663, 52.52924740000001 ], [ 1.3024912, 52.5292474 ], [ 1.3020165, 52.5292996 ], [ 1.3019054, 52.5293025 ] ] } },
{ "type": "Feature", "properties": { "id": 113883, "nach": 0.27253432522675386 }, "geometry": { "type": "LineString", "coordinates": [ [ 1.3019644, 52.525455 ], [ 1.3019349, 52.5255007 ], [ 1.3018396, 52.525650800000015 ], [ 1.3017111, 52.52579930000001 ] ] } },
{ "type": "Feature", "properties": { "id": 50737, "nach": 0.21695517155767746 }, "geometry": { "type": "LineString", "coordinates": [ [ 1.3019054, 52.5293025 ], [ 1.3018277, 52.5292928 ], [ 1.3017885, 52.5292555 ], [ 1.3017482, 52.5292 ], [ 1.3017365, 52.5291491 ], [ 1.3016169, 52.5284354 ], [ 1.3015607, 52.527986 ], [ 1.3015865, 52.5275987 ], [ 1.3016239, 52.5266603 ], [ 1.3016251, 52.5262954 ], [ 1.3016385, 52.526109399999989 ], [ 1.301676, 52.52595680000001 ], [ 1.3017111, 52.52579930000001 ] ] } },
{ "type": "Feature", "properties": { "id": 42867, "nach": 0.21689137073446446 }, "geometry": { "type": "LineString", "coordinates": [ [ 1.2965219, 52.5257143 ], [ 1.2976205, 52.5258385 ], [ 1.2979673, 52.5258696 ], [ 1.298334, 52.52589480000001 ], [ 1.2987202, 52.5258956 ], [ 1.2994837, 52.5258989 ], [ 1.3001566, 52.5258817 ], [ 1.3014132, 52.5258022 ], [ 1.3016043, 52.5257944 ], [ 1.3017111, 52.52579930000001 ] ] } },
{ "type": "Feature", "properties": { "id": 113882, "nach": 0.28381284829150133 }, "geometry": { "type": "LineString", "coordinates": [ [ 1.3019644, 52.525455 ], [ 1.3020337, 52.52526850000001 ], [ 1.302081, 52.5251156 ], [ 1.3021186, 52.5249393 ], [ 1.3021293, 52.5246032 ], [ 1.3021293, 52.5242678 ], [ 1.3021454, 52.524030300000014 ], [ 1.3021895, 52.5237008 ], [ 1.3022447, 52.523495 ], [ 1.3022661, 52.5233915 ], [ 1.3024687, 52.5227325 ], [ 1.3025075, 52.522256400000018 ], [ 1.3024753, 52.5218321 ], [ 1.3024565, 52.5216934 ], [ 1.3024184, 52.5215904 ] ] } },
{ "type": "Feature", "properties": { "id": 113884, "nach": 0.24406495352684771 }, "geometry": { "type": "LineString", "coordinates": [ [ 1.3019644, 52.525455 ], [ 1.3021508, 52.525382400000012 ], [ 1.3022822, 52.5253236 ], [ 1.302411, 52.5252527 ], [ 1.3027462, 52.5250324 ], [ 1.3028991, 52.5249475 ] ] } },
{ "type": "Feature", "properties": { "id": 50739, "nach": 0.14469889994795657 }, "geometry": { "type": "LineString", "coordinates": [ [ 1.3019054, 52.5293025 ], [ 1.3018223, 52.529338400000015 ], [ 1.3015541, 52.5293939 ], [ 1.3011233, 52.5294579 ], [ 1.3002035, 52.52964870000001 ], [ 1.2992656, 52.5298566 ], [ 1.2988718, 52.5299425 ], [ 1.2985902, 52.5299881 ], [ 1.2982381, 52.5299894 ], [ 1.2978096, 52.5299669 ], [ 1.2975213, 52.52994 ], [ 1.2970232, 52.5298396 ], [ 1.2961252, 52.529595700000016 ], [ 1.2954307, 52.5294013 ], [ 1.2940949, 52.5292284 ] ] } },
{ "type": "Feature", "properties": { "id": 42872, "nach": 0.32285194361355746 }, "geometry": { "type": "LineString", "coordinates": [ [ 1.2953647, 52.5255293 ], [ 1.2960452, 52.5256436 ], [ 1.2965219, 52.5257143 ] ] } },
{ "type": "Feature", "properties": { "id": 62531, "nach": 0.28304238337323745 }, "geometry": { "type": "LineString", "coordinates": [ [ 1.2774491, 52.5249244 ], [ 1.2776249, 52.5248317 ], [ 1.2779438, 52.5247386 ], [ 1.2784529, 52.524614 ], [ 1.2789161, 52.5245383 ], [ 1.2793947, 52.5244865 ], [ 1.2799697, 52.5244197 ], [ 1.2804608, 52.5243376 ], [ 1.2807252, 52.5242502 ], [ 1.2811531, 52.5241666 ], [ 1.281597, 52.5240948 ], [ 1.2820653, 52.5240363 ] ] } },
{ "type": "Feature", "properties": { "id": 41435, "nach": 0.33378661654273872 }, "geometry": { "type": "LineString", "coordinates": [ [ 1.282621, 52.5210847 ], [ 1.2826209, 52.520870400000014 ], [ 1.2826216, 52.5207011 ], [ 1.2826395, 52.5205374 ], [ 1.2827893, 52.5202367 ], [ 1.2828671, 52.520094 ], [ 1.2829234, 52.52000910000001 ], [ 1.282984, 52.5199395 ] ] } },
{ "type": "Feature", "properties": { "id": 62528, "nach": 0.39746524864271787 }, "geometry": { "type": "LineString", "coordinates": [ [ 1.2840522, 52.5238209 ], [ 1.2839651, 52.5238686 ] ] } },
{ "type": "Feature", "properties": { "id": 41434, "nach": 0.28297519047436942 }, "geometry": { "type": "LineString", "coordinates": [ [ 1.282621, 52.5210847 ], [ 1.2827448, 52.5215751 ], [ 1.2830165, 52.5223337 ], [ 1.2831902, 52.522793299999989 ], [ 1.2833441, 52.5230346 ], [ 1.2837412, 52.5235505 ], [ 1.2839651, 52.5238686 ] ] } },
{ "type": "Feature", "properties": { "id": 38277, "nach": 0.41409241874834202 }, "geometry": { "type": "LineString", "coordinates": [ [ 1.2854308, 52.5259709 ], [ 1.2854272, 52.525893200000013 ], [ 1.2853736, 52.5257055 ], [ 1.2853319, 52.5254982 ], [ 1.2852475, 52.5252592 ], [ 1.2851795, 52.5250394 ], [ 1.2851214, 52.52491 ], [ 1.2850308, 52.5247765 ], [ 1.284703, 52.524364900000016 ], [ 1.2844937, 52.5241909 ], [ 1.2842539, 52.5240297 ], [ 1.284085, 52.5239291 ], [ 1.2839651, 52.5238686 ] ] } },
{ "type": "Feature", "properties": { "id": 31184, "nach": 0.35025833781791188 }, "geometry": { "type": "LineString", "coordinates": [ [ 1.2820653, 52.5240363 ], [ 1.2824567, 52.5239765 ], [ 1.282863, 52.5239333 ], [ 1.2834021, 52.5238704 ], [ 1.28368, 52.5238472 ], [ 1.2838246, 52.5238468 ], [ 1.2839651, 52.5238686 ] ] } },
{ "type": "Feature", "properties": { "id": 62530, "nach": 0.37455305461292637 }, "geometry": { "type": "LineString", "coordinates": [ [ 1.2840522, 52.5238209 ], [ 1.2841073, 52.5237771 ], [ 1.2842363, 52.5237158 ], [ 1.2843181, 52.5236876 ], [ 1.2844645, 52.5236599 ], [ 1.2850132, 52.5235115 ], [ 1.285359, 52.5233913 ], [ 1.2854822, 52.5233062 ], [ 1.2855721, 52.5232144 ], [ 1.2856285, 52.5231825 ] ] } },
{ "type": "Feature", "properties": { "id": 41438, "nach": 0.31733565039538264 }, "geometry": { "type": "LineString", "coordinates": [ [ 1.285697, 52.5211977 ], [ 1.28551, 52.5211522 ], [ 1.2850849, 52.521154 ], [ 1.2842318, 52.5211272 ], [ 1.2828858, 52.521074 ], [ 1.282741, 52.5210838 ], [ 1.2826833, 52.521083 ], [ 1.282621, 52.5210847 ] ] } },
{ "type": "Feature", "properties": { "id": 95043, "nach": 0.45432333960707894 }, "geometry": { "type": "LineString", "coordinates": [ [ 1.2845969, 52.526019200000015 ], [ 1.2847399, 52.5259805 ], [ 1.2849043, 52.5259544 ], [ 1.2851012, 52.52594 ], [ 1.2852359, 52.5259373 ], [ 1.2853414, 52.5259462 ], [ 1.2854308, 52.5259709 ] ] } },
{ "type": "Feature", "properties": { "id": 31186, "nach": 0.28141387324401951 }, "geometry": { "type": "LineString", "coordinates": [ [ 1.2826174, 52.5268064 ], [ 1.2825929, 52.5267465 ], [ 1.2825696, 52.5261982 ], [ 1.2825559, 52.526037599999988 ], [ 1.2825176, 52.5257647 ], [ 1.2824808, 52.5255333 ], [ 1.282398, 52.5251122 ], [ 1.2822931, 52.5247027 ], [ 1.2822206, 52.5244359 ], [ 1.2820653, 52.5240363 ] ] } },
{ "type": "Feature", "properties": { "id": 95042, "nach": 0.43411112172283867 }, "geometry": { "type": "LineString", "coordinates": [ [ 1.2845969, 52.526019200000015 ], [ 1.2839325, 52.526306 ] ] } },
{ "type": "Feature", "properties": { "id": 48021, "nach": 0.33612692238858288 }, "geometry": { "type": "LineString", "coordinates": [ [ 1.2843728, 52.526431 ], [ 1.2841875, 52.52642860000001 ], [ 1.2840579, 52.5264068 ], [ 1.2839623, 52.526365500000018 ], [ 1.2839325, 52.526306 ] ] } },
{ "type": "Feature", "properties": { "id": 31187, "nach": 0.41098767495112409 }, "geometry": { "type": "LineString", "coordinates": [ [ 1.2826174, 52.5268064 ], [ 1.2832555, 52.526581 ], [ 1.2839325, 52.526306 ] ] } },
{ "type": "Feature", "properties": { "id": 95045, "nach": 0.33360897603942241 }, "geometry": { "type": "LineString", "coordinates": [ [ 1.2847101, 52.5252831 ], [ 1.284758, 52.52535670000001 ], [ 1.2847489, 52.525383100000013 ], [ 1.2847055, 52.5254178 ], [ 1.2846644, 52.5254595 ], [ 1.2846507, 52.5255012 ], [ 1.2845969, 52.526019200000015 ] ] } },
{ "type": "Feature", "properties": { "id": 82827, "nach": 0.46225836669803 }, "geometry": { "type": "LineString", "coordinates": [ [ 1.2882445, 52.5264588 ], [ 1.2882391, 52.5264825 ], [ 1.2882113, 52.5265949 ], [ 1.2881386, 52.5267595 ], [ 1.2880653, 52.5268658 ] ] } },
{ "type": "Feature", "properties": { "id": 82826, "nach": 0.40867817606247409 }, "geometry": { "type": "LineString", "coordinates": [ [ 1.2882445, 52.5264588 ], [ 1.2884898, 52.5264798 ] ] } },
{ "type": "Feature", "properties": { "id": 82837, "nach": 0.44376831553714796 }, "geometry": { "type": "LineString", "coordinates": [ [ 1.2880509, 52.5268854 ], [ 1.2880653, 52.5268658 ] ] } },
{ "type": "Feature", "properties": { "id": 82838, "nach": 0.40992776947195081 }, "geometry": { "type": "LineString", "coordinates": [ [ 1.2880509, 52.5268854 ], [ 1.2880826, 52.5268972 ], [ 1.2881114, 52.5269139 ], [ 1.2881664, 52.52692 ], [ 1.288273, 52.5269229 ] ] } },
{ "type": "Feature", "properties": { "id": 82840, "nach": 0.34320773122977932 }, "geometry": { "type": "LineString", "coordinates": [ [ 1.2880399, 52.5269004 ], [ 1.2880509, 52.5268854 ] ] } },
{ "type": "Feature", "properties": { "id": 31202, "nach": 0.25622126186596655 }, "geometry": { "type": "LineString", "coordinates": [ [ 1.2940949, 52.5292284 ], [ 1.2904188, 52.5289908 ] ] } },
{ "type": "Feature", "properties": { "id": 42870, "nach": 0.20047115484267855 }, "geometry": { "type": "LineString", "coordinates": [ [ 1.2953647, 52.5255293 ], [ 1.2940949, 52.5292284 ] ] } },
{ "type": "Feature", "properties": { "id": 80682, "nach": 0.34895116150711863 }, "geometry": { "type": "LineString", "coordinates": [ [ 1.2937252, 52.5253541 ], [ 1.294058, 52.5253903 ], [ 1.2944039, 52.525429699999989 ], [ 1.2948471, 52.5254762 ], [ 1.2953647, 52.5255293 ] ] } },
{ "type": "Feature", "properties": { "id": 41431, "nach": 0.35901627935892655 }, "geometry": { "type": "LineString", "coordinates": [ [ 1.2860473, 52.5218995 ], [ 1.2856285, 52.5231825 ] ] } },
{ "type": "Feature", "properties": { "id": 41433, "nach": 0.32587159099023372 }, "geometry": { "type": "LineString", "coordinates": [ [ 1.2860473, 52.5218995 ], [ 1.2861393, 52.5218802 ], [ 1.2870851, 52.5219514 ], [ 1.2875982, 52.521782 ], [ 1.2877134, 52.5217403 ] ] } },
{ "type": "Feature", "properties": { "id": 41432, "nach": 0.32839643921917511 }, "geometry": { "type": "LineString", "coordinates": [ [ 1.2860473, 52.5218995 ], [ 1.2860475, 52.5217554 ] ] } },
{ "type": "Feature", "properties": { "id": 41425, "nach": 0.38699000456295957 }, "geometry": { "type": "LineString", "coordinates": [ [ 1.2877134, 52.5217403 ], [ 1.2879726, 52.521664800000018 ], [ 1.2882405, 52.5216118 ] ] } },
{ "type": "Feature", "properties": { "id": 80687, "nach": 0.32965626043225021 }, "geometry": { "type": "LineString", "coordinates": [ [ 1.2862552, 52.5214611 ], [ 1.2863032, 52.5213931 ], [ 1.2863512, 52.5213645 ], [ 1.286442, 52.5213358 ], [ 1.286708, 52.5213449 ], [ 1.287172, 52.52142 ], [ 1.2878914, 52.521505500000011 ], [ 1.2880611, 52.5215489 ], [ 1.2882405, 52.5216118 ] ] } },
{ "type": "Feature", "properties": { "id": 41426, "nach": 0.3381832689278188 }, "geometry": { "type": "LineString", "coordinates": [ [ 1.2877134, 52.5217403 ], [ 1.2876233, 52.5216885 ], [ 1.2874109, 52.5216516 ], [ 1.2869855, 52.5216176 ], [ 1.2868723, 52.5216265 ], [ 1.2868619, 52.5216427 ], [ 1.2868535, 52.5216624 ], [ 1.2867321, 52.521661 ] ] } },
{ "type": "Feature", "properties": { "id": 80685, "nach": 0.23643930482859313 }, "geometry": { "type": "LineString", "coordinates": [ [ 1.2862552, 52.5214611 ], [ 1.2863553, 52.5214992 ], [ 1.2864465, 52.5215587 ], [ 1.2866382, 52.5215914 ], [ 1.2866731, 52.5216167 ], [ 1.2866817, 52.521627100000018 ], [ 1.2866882, 52.5216434 ], [ 1.2867321, 52.521661 ] ] } },
{ "type": "Feature", "properties": { "id": 80684, "nach": 0.23644064880935253 }, "geometry": { "type": "LineString", "coordinates": [ [ 1.2862552, 52.5214611 ], [ 1.2860475, 52.5217554 ] ] } },
{ "type": "Feature", "properties": { "id": 80686, "nach": 0.32126895630589025 }, "geometry": { "type": "LineString", "coordinates": [ [ 1.2862552, 52.5214611 ], [ 1.2862158, 52.521404500000024 ], [ 1.2861715, 52.5212821 ], [ 1.2860455, 52.5212274 ], [ 1.285847, 52.5212046 ], [ 1.285697, 52.5211977 ] ] } },
{ "type": "Feature", "properties": { "id": 68771, "nach": 0.3858257967003928 }, "geometry": { "type": "LineString", "coordinates": [ [ 1.2883524, 52.524681 ], [ 1.2883322, 52.5250863 ], [ 1.2883583, 52.5251342 ], [ 1.2883707, 52.5256173 ], [ 1.2884103, 52.5256858 ] ] } },
{ "type": "Feature", "properties": { "id": 41429, "nach": 0.30335570589902472 }, "geometry": { "type": "LineString", "coordinates": [ [ 1.2860475, 52.5217554 ], [ 1.2862746, 52.521822700000016 ], [ 1.2864826, 52.521786 ], [ 1.2866039, 52.5217271 ], [ 1.2866838, 52.5217093 ], [ 1.2866979, 52.5216955 ], [ 1.2867321, 52.521661 ] ] } },
{ "type": "Feature", "properties": { "id": 41437, "nach": 0.27527372931986632 }, "geometry": { "type": "LineString", "coordinates": [ [ 1.285697, 52.5211977 ], [ 1.2858472, 52.5213805 ], [ 1.2859557, 52.5215464 ], [ 1.2860104, 52.521668600000012 ], [ 1.2860475, 52.5217554 ] ] } },
{ "type": "Feature", "properties": { "id": 80683, "nach": 0.31528080377059242 }, "geometry": { "type": "LineString", "coordinates": [ [ 1.2937252, 52.5253541 ], [ 1.2937555, 52.5252984 ], [ 1.2937085, 52.5252641 ] ] } },
{ "type": "Feature", "properties": { "id": 91737, "nach": 0.35519673647638539 }, "geometry": { "type": "LineString", "coordinates": [ [ 1.2987132, 52.5214365 ], [ 1.2991762, 52.5214437 ], [ 1.2996599, 52.5214437 ] ] } },
{ "type": "Feature", "properties": { "id": 91739, "nach": 0.25828127264149681 }, "geometry": { "type": "LineString", "coordinates": [ [ 1.2986234, 52.5218926 ], [ 1.2984018, 52.5218815 ], [ 1.2983551, 52.521858 ], [ 1.2983225, 52.5218209 ], [ 1.2983225, 52.5217764 ], [ 1.298351, 52.5217343 ], [ 1.2984039, 52.521696 ], [ 1.2984628, 52.521686199999984 ], [ 1.2985501, 52.5216785 ], [ 1.2986158, 52.52166960000001 ], [ 1.2986513, 52.5216482 ], [ 1.2986762, 52.5216094 ], [ 1.2987132, 52.5214365 ] ] } },
{ "type": "Feature", "properties": { "id": 44005, "nach": 0.30976345231177765 }, "geometry": { "type": "LineString", "coordinates": [ [ 1.2941248, 52.5237426 ], [ 1.294201, 52.523467 ], [ 1.2942651, 52.52320610000001 ], [ 1.2943493, 52.522928 ], [ 1.2943813, 52.5226305 ], [ 1.2943092, 52.522589 ], [ 1.2941649, 52.5225403 ], [ 1.2940005, 52.5225208 ], [ 1.2937681, 52.5225012 ], [ 1.2935436, 52.5224988 ], [ 1.2934314, 52.5225427 ], [ 1.2931909, 52.522603700000019 ], [ 1.2929303, 52.5226793 ], [ 1.2926858, 52.5227427 ], [ 1.2924453, 52.5227598 ], [ 1.2922649, 52.5227232 ] ] } },
{ "type": "Feature", "properties": { "id": 81118, "nach": 0.35382760584528661 }, "geometry": { "type": "LineString", "coordinates": [ [ 1.2909594, 52.5242299 ], [ 1.2911779, 52.5242311 ], [ 1.2914045, 52.5239528 ], [ 1.2916298, 52.5235204 ], [ 1.2917653, 52.5233604 ], [ 1.2919731, 52.5232332 ], [ 1.2920818, 52.5230708 ], [ 1.2921944, 52.522919 ], [ 1.2922816, 52.5228007 ], [ 1.2922649, 52.5227232 ] ] } },
{ "type": "Feature", "properties": { "id": 80688, "nach": 0.25480352557760155 }, "geometry": { "type": "LineString", "coordinates": [ [ 1.2937421, 52.524156 ], [ 1.294072, 52.5239863 ], [ 1.2941068, 52.5239063 ], [ 1.2941248, 52.5237426 ] ] } },
{ "type": "Feature", "properties": { "id": 81116, "nach": 0.33040672664622056 }, "geometry": { "type": "LineString", "coordinates": [ [ 1.2909594, 52.5242299 ], [ 1.291024, 52.5241489 ] ] } },
{ "type": "Feature", "properties": { "id": 81117, "nach": 0.38571254814098349 }, "geometry": { "type": "LineString", "coordinates": [ [ 1.2909594, 52.5242299 ], [ 1.2909042, 52.524299 ] ] } },
{ "type": "Feature", "properties": { "id": 48025, "nach": 0.33671365334686959 }, "geometry": { "type": "LineString", "coordinates": [ [ 1.2836812, 52.527007700000013 ], [ 1.283485, 52.526987 ] ] } },
{ "type": "Feature", "properties": { "id": 48030, "nach": 0.33822787798611903 }, "geometry": { "type": "LineString", "coordinates": [ [ 1.2836705, 52.527076200000025 ], [ 1.2836812, 52.527007700000013 ] ] } },
{ "type": "Feature", "properties": { "id": 103259, "nach": 0.36537463025092032 }, "geometry": { "type": "LineString", "coordinates": [ [ 1.2823378, 52.530636800000011 ], [ 1.2822056, 52.530634 ] ] } },
{ "type": "Feature", "properties": { "id": 103263, "nach": 0.29161227353751179 }, "geometry": { "type": "LineString", "coordinates": [ [ 1.282069, 52.5311078 ], [ 1.2821307, 52.5309859 ], [ 1.282159, 52.530892099999988 ], [ 1.2821949, 52.5307858 ], [ 1.2822056, 52.530634 ] ] } },
{ "type": "Feature", "properties": { "id": 103260, "nach": 0.39512617541466849 }, "geometry": { "type": "LineString", "coordinates": [ [ 1.2823378, 52.530636800000011 ], [ 1.2825811, 52.530641900000013 ], [ 1.2831604, 52.5306794 ], [ 1.2832261, 52.5306862 ] ] } },
{ "type": "Feature", "properties": { "id": 103262, "nach": 0.29603793620812552 }, "geometry": { "type": "LineString", "coordinates": [ [ 1.2824981, 52.5310585 ], [ 1.2823877, 52.531012 ], [ 1.2823208, 52.5309356 ], [ 1.2822999, 52.5308493 ], [ 1.2823166, 52.5307477 ], [ 1.2823378, 52.530636800000011 ] ] } },
{ "type": "Feature", "properties": { "id": 48036, "nach": 0.30471743868011941 }, "geometry": { "type": "LineString", "coordinates": [ [ 1.286985, 52.5316746 ], [ 1.2870416, 52.53161870000001 ] ] } },
{ "type": "Feature", "properties": { "id": 48038, "nach": 0.30345826780024765 }, "geometry": { "type": "LineString", "coordinates": [ [ 1.2870795, 52.5317096 ], [ 1.286985, 52.5316746 ] ] } },
{ "type": "Feature", "properties": { "id": 48045, "nach": 0.29952859654771036 }, "geometry": { "type": "LineString", "coordinates": [ [ 1.2873684, 52.5321254 ], [ 1.2872947, 52.5320806 ] ] } },
{ "type": "Feature", "properties": { "id": 48046, "nach": 0.29952859654771036 }, "geometry": { "type": "LineString", "coordinates": [ [ 1.287213, 52.5321266 ], [ 1.2872947, 52.5320806 ] ] } },
{ "type": "Feature", "properties": { "id": 62832, "nach": 0.32714270979773086 }, "geometry": { "type": "LineString", "coordinates": [ [ 1.2906681, 52.5246056 ], [ 1.2909042, 52.524299 ] ] } },
{ "type": "Feature", "properties": { "id": 82829, "nach": 0.42598636588988364 }, "geometry": { "type": "LineString", "coordinates": [ [ 1.2884849, 52.526507599999988 ], [ 1.2884898, 52.5264798 ] ] } },
{ "type": "Feature", "properties": { "id": 82830, "nach": 0.40678387042444242 }, "geometry": { "type": "LineString", "coordinates": [ [ 1.2884849, 52.526507599999988 ], [ 1.2884796, 52.5265614 ] ] } },
{ "type": "Feature", "properties": { "id": 96486, "nach": 0.35780704750273112 }, "geometry": { "type": "LineString", "coordinates": [ [ 1.3004619, 52.5213995 ], [ 1.3000506, 52.5214339 ], [ 1.2996599, 52.5214437 ] ] } },
{ "type": "Feature", "properties": { "id": 110263, "nach": 0.26301672252431696 }, "geometry": { "type": "LineString", "coordinates": [ [ 1.2994971, 52.5219078 ], [ 1.2995553, 52.521723300000012 ], [ 1.2995897, 52.5216343 ], [ 1.2996256, 52.5215725 ], [ 1.2996554, 52.5215007 ], [ 1.2996599, 52.5214437 ] ] } },
{ "type": "Feature", "properties": { "id": 96492, "nach": 0.26518784152852559 }, "geometry": { "type": "LineString", "coordinates": [ [ 1.300312, 52.5220286 ], [ 1.3004619, 52.5213995 ] ] } },
{ "type": "Feature", "properties": { "id": 82823, "nach": 0.3350539331459661 }, "geometry": { "type": "LineString", "coordinates": [ [ 1.2884796, 52.5265614 ], [ 1.288501, 52.5266446 ], [ 1.2885815, 52.5267442 ], [ 1.2886754, 52.5268029 ], [ 1.2886767, 52.5269204 ] ] } },
{ "type": "Feature", "properties": { "id": 82824, "nach": 0.3350539331459661 }, "geometry": { "type": "LineString", "coordinates": [ [ 1.2884796, 52.5265614 ], [ 1.2886056, 52.5265826 ], [ 1.2887612, 52.5265908 ], [ 1.2889141, 52.5265892 ], [ 1.2890509, 52.5265826 ] ] } },
{ "type": "Feature", "properties": { "id": 82834, "nach": 0.33471548659440281 }, "geometry": { "type": "LineString", "coordinates": [ [ 1.288273, 52.5269229 ], [ 1.2883857, 52.5269273 ], [ 1.2884501, 52.5269355 ], [ 1.2885372, 52.5269526 ], [ 1.2886003, 52.5269698 ], [ 1.2886734, 52.5269792 ], [ 1.2887424, 52.5269808 ], [ 1.2887806, 52.5269804 ], [ 1.2888202, 52.5269596 ], [ 1.2888336, 52.5269339 ], [ 1.2888343, 52.5269204 ], [ 1.2888839, 52.526756 ] ] } },
{ "type": "Feature", "properties": { "id": 82839, "nach": 0.34150299909549559 }, "geometry": { "type": "LineString", "coordinates": [ [ 1.288269, 52.5269363 ], [ 1.288273, 52.5269229 ] ] } },
{ "type": "Feature", "properties": { "id": 91801, "nach": 0.37747393293389109 }, "geometry": { "type": "LineString", "coordinates": [ [ 1.2831281, 52.5308266 ], [ 1.2831657, 52.5307858 ], [ 1.2832261, 52.5306862 ] ] } },
{ "type": "Feature", "properties": { "id": 91803, "nach": 0.30757990394698642 }, "geometry": { "type": "LineString", "coordinates": [ [ 1.2828519, 52.5308511 ], [ 1.283053, 52.5308462 ], [ 1.2831281, 52.5308266 ] ] } },
{ "type": "Feature", "properties": { "id": 91804, "nach": 0.30757990394698642 }, "geometry": { "type": "LineString", "coordinates": [ [ 1.2831109, 52.530936 ], [ 1.2831013, 52.5308968 ], [ 1.2831094, 52.5308543 ], [ 1.2831281, 52.5308266 ] ] } },
{ "type": "Feature", "properties": { "id": 125820, "nach": 0.45578368624370141 }, "geometry": { "type": "LineString", "coordinates": [ [ 1.2857276, 52.5310814 ], [ 1.2857225, 52.5309932 ] ] } },
{ "type": "Feature", "properties": { "id": 96344, "nach": 0.32746196225398555 }, "geometry": { "type": "LineString", "coordinates": [ [ 1.2864173, 52.5310908 ], [ 1.2863902, 52.5311313 ], [ 1.2863656, 52.531138800000015 ], [ 1.286336, 52.5311373 ], [ 1.2858436, 52.5310249 ], [ 1.2857225, 52.5309932 ] ] } }
]
}
