{
"type": "FeatureCollection",
"name": "EPPFO_12_walking",
"crs": { "type": "name", "properties": { "name": "urn:ogc:def:crs:OGC:1.3:CRS84" } },
"features": [
{"type":"Feature","properties":{"highway":"footway","name":"Main path","category":"Footpath (pedestrian only)"},"geometry":{"type":"MultiLineString","coordinates":[[[0.0529726,51.6602202],[0.0531874,51.6601969],[0.053306,51.660184],[0.0539623,51.6599959],[0.054098,51.659957],[0.054711,51.659658],[0.05493,51.659484],[0.055426,51.659238],[0.0556141,51.6591258],[0.055696,51.659077],[0.056059,51.658938],[0.056652,51.658743],[0.057047,51.658537],[0.057263,51.658455],[0.057583,51.658364],[0.0577531,51.6583043],[0.0580549,51.6581985],[0.0585076,51.6580556],[0.0585649,51.6580313],[0.0588381,51.657907],[0.059171,51.657775],[0.0595286,51.6575979],[0.059729,51.657523],[0.05993,51.657427],[0.060185,51.657272],[0.060482,51.657166],[0.060694,51.65706],[0.060851,51.65702],[0.061159,51.656972]]]}},
{"type":"Feature","properties":{"highway":"footway","name":"Main path","category":"Footpath (pedestrian only)"},"geometry":{"type":"MultiLineString","coordinates":[[[0.075891,51.6656133],[0.075676,51.66546],[0.075481,51.665358],[0.075276,51.665282],[0.074976,51.665229],[0.074749,51.665222],[0.074094,51.665249],[0.073357,51.665212],[0.072699,51.665129],[0.071854,51.664986],[0.071586,51.664964],[0.0708,51.664844],[0.0705423,51.6648265],[0.069447,51.664752],[0.068552,51.664737],[0.067917,51.664808],[0.06737,51.664798],[0.0671179,51.6647711],[0.066855,51.664743],[0.066248,51.664679],[0.065599,51.664526],[0.065295,51.664471]]]}},
{"type":"Feature","properties":{"highway":"footway","name":"Stony Path","category":"Footpath (pedestrian only)"},"geometry":{"type":"MultiLineString","coordinates":[[[0.0650362,51.6580389],[0.0653949,51.6579716],[0.0659394,51.657727],[0.0660869,51.6575772],[0.0665885,51.6573493],[0.0668899,51.6572363],[0.0671109,51.6572312]]]}},
{"type":"Feature","properties":{"highway":"footway","name":null,"category":"Footpath (pedestrian only)"},"geometry":{"type":"MultiLineString","coordinates":[[[0.0754946,51.653472],[0.0753781,51.6535631],[0.0752345,51.6534997],[0.0749367,51.6532747],[0.0747377,51.6531295]]]}},
{"type":"Feature","properties":{"highway":"footway","name":null,"category":"Footpath (pedestrian only)"},"geometry":{"type":"MultiLineString","coordinates":[[[0.0628655,51.6533968],[0.0629548,51.6533245],[0.0632869,51.6530372],[0.0636515,51.6527971],[0.064103,51.6524872],[0.0643713,51.6525056]]]}},
{"type":"Feature","properties":{"highway":"footway","name":null,"category":"Footpath (pedestrian only)"},"geometry":{"type":"MultiLineString","coordinates":[[[0.0757148,51.6547149],[0.0752112,51.6549586],[0.0748121,51.6551859],[0.0743078,51.6554588],[0.0739001,51.6557583],[0.0735148,51.656031],[0.0734058,51.6564367]]]}},
{"type":"Feature","properties":{"highway":"footway","name":null,"category":"Footpath (pedestrian only)"},"geometry":{"type":"MultiLineString","coordinates":[[[0.060244,51.6554243],[0.0597409,51.6552542],[0.0596637,51.6552128],[0.0596367,51.6551483],[0.0596443,51.655067],[0.0597789,51.6549187]]]}},
{"type":"Feature","properties":{"highway":"footway","name":null,"category":"Footpath (pedestrian only)"},"geometry":{"type":"MultiLineString","coordinates":[[[0.067089,51.66863],[0.067369,51.6684],[0.067558,51.668296],[0.067703,51.66819],[0.0677808,51.6681226],[0.067874,51.668042],[0.067971,51.667906],[0.068119,51.667778],[0.068157,51.667725],[0.06823,51.667409],[0.068435,51.667026],[0.068428,51.666935],[0.068244,51.6666372],[0.0682,51.666566],[0.068105,51.66636],[0.068102,51.666238],[0.068224,51.665888],[0.068228,51.665776],[0.068184,51.665658],[0.068143,51.665604],[0.06801,51.665541],[0.067709,51.665487],[0.0674352,51.6654592],[0.067079,51.665352],[0.066893,51.665265],[0.066848,51.665207],[0.066847,51.665157],[0.066908,51.665016],[0.066855,51.664743]]]}},
{"type":"Feature","properties":{"highway":"footway","name":null,"category":"Footpath (pedestrian only)"},"geometry":{"type":"MultiLineString","coordinates":[[[0.0762966,51.6568972],[0.0762524,51.6568576],[0.076203,51.6568457],[0.0761098,51.6568324]]]}},
{"type":"Feature","properties":{"highway":"footway","name":null,"category":"Footpath (pedestrian only)"},"geometry":{"type":"MultiLineString","coordinates":[[[0.0765429,51.656889],[0.0764675,51.6568791],[0.0764452,51.6568916],[0.076431,51.6569044],[0.0765265,51.6579289],[0.0765349,51.6585541],[0.0765913,51.6590639],[0.0766108,51.6593095],[0.0771449,51.6599361],[0.0774144,51.6602655],[0.0773286,51.6603069]]]}},
{"type":"Feature","properties":{"highway":"footway","name":null,"category":"Footpath (pedestrian only)"},"geometry":{"type":"MultiLineString","coordinates":[[[0.0765913,51.6590639],[0.0762046,51.659088]]]}},
{"type":"Feature","properties":{"highway":"footway","name":null,"category":"Footpath (pedestrian only)"},"geometry":{"type":"MultiLineString","coordinates":[[[0.0580549,51.6581985],[0.058309,51.658106],[0.058354,51.658052],[0.058351,51.658013],[0.058198,51.657809],[0.057676,51.657363],[0.057544,51.657306],[0.057409,51.657292],[0.057315,51.6573],[0.05698,51.657383],[0.0569,51.657377],[0.056791,51.657342],[0.056168,51.657057],[0.056019,51.656945],[0.055787,51.656822],[0.055642,51.656671],[0.055558,51.656624],[0.0554354,51.6565839],[0.055142,51.656488],[0.055061,51.656446],[0.055049,51.656367],[0.055136,51.656265],[0.055198,51.656152],[0.055193,51.655797],[0.055088,51.65554],[0.054751,51.655032],[0.054701,51.654925],[0.05467,51.65489],[0.054426,51.654761],[0.054257,51.654631],[0.054168,51.654592],[0.053861,51.654534],[0.0536255,51.6544604],[0.0535659,51.6544347],[0.053448,51.654395],[0.053107,51.654154],[0.052808,51.653908],[0.052517,51.653762],[0.052396,51.653747],[0.052257,51.653758],[0.051937,51.653819],[0.051722,51.653832],[0.05162,51.653808],[0.0513375,51.6537499],[0.051133,51.653658],[0.05098,51.653645],[0.050899,51.653652],[0.050799,51.653681],[0.050643,51.65377],[0.050484,51.653818],[0.050416,51.65382],[0.050283,51.653774],[0.0502915,51.6536739]]]}},
{"type":"Feature","properties":{"highway":"footway","name":null,"category":"Footpath (pedestrian only)"},"geometry":{"type":"MultiLineString","coordinates":[[[0.0585076,51.6580556],[0.0585441,51.6580628],[0.058729,51.658152],[0.05919,51.658436],[0.0592493,51.6584557],[0.060165,51.65876],[0.060444,51.658898]]]}},
{"type":"Feature","properties":{"highway":"footway","name":null,"category":"Footpath (pedestrian only)"},"geometry":{"type":"MultiLineString","coordinates":[[[0.0642837,51.6530366],[0.0645415,51.6530766],[0.0647105,51.6531049],[0.0648983,51.6531332],[0.0649372,51.6531349],[0.0649492,51.6531174],[0.0649546,51.6530933],[0.0649707,51.6530924],[0.0650981,51.6531091],[0.0651115,51.6530933],[0.0651397,51.6530142],[0.0651437,51.6530067],[0.065086,51.6529959],[0.0650994,51.6529518],[0.0650994,51.6529418],[0.0649104,51.652911],[0.0648647,51.6529036],[0.0648299,51.6529136],[0.0647789,51.6529344],[0.0646917,51.6529344]]]}},
{"type":"Feature","properties":{"highway":"footway","name":null,"category":"Footpath (pedestrian only)"},"geometry":{"type":"MultiLineString","coordinates":[[[0.0746021,51.6528831],[0.0745603,51.6528209],[0.0746922,51.6526096],[0.0748305,51.6524776],[0.0751282,51.652235],[0.0755714,51.6518878],[0.0759157,51.6515672]]]}},
{"type":"Feature","properties":{"highway":"path","name":null,"category":"Shared path"},"geometry":{"type":"MultiLineString","coordinates":[[[0.0766618,51.6517534],[0.0771262,51.6512308],[0.0775127,51.6507935],[0.0775946,51.6506123],[0.0777025,51.6504621],[0.0779458,51.6502052],[0.0779905,51.6501986]]]}},
{"type":"Feature","properties":{"highway":"footway","name":"Green Ride","category":"Footpath (pedestrian only)"},"geometry":{"type":"MultiLineString","coordinates":[[[0.0643889,51.6678743],[0.0643301,51.6678537],[0.0641238,51.6677777],[0.0636811,51.6671544],[0.0636048,51.6670944],[0.0633809,51.6669183],[0.0633214,51.6668715],[0.0629324,51.6665998],[0.0627472,51.666471],[0.062599,51.6663809],[0.0618048,51.6660683],[0.0615266,51.6659593],[0.0611215,51.6657515],[0.0607874,51.6655122],[0.0606645,51.6654449],[0.0603234,51.6651128],[0.0602193,51.6647925],[0.0600229,51.6645429],[0.059886,51.664381],[0.0597632,51.6642358],[0.0594037,51.6638079],[0.0592993,51.6633221],[0.0593138,51.6630627],[0.0593198,51.6629561],[0.0593117,51.6628793],[0.0591793,51.662558],[0.059188,51.6624706],[0.059008,51.662341],[0.0589349,51.662293],[0.058737,51.662163],[0.0584118,51.6620708],[0.058066,51.6620397],[0.0576968,51.662076],[0.0574732,51.6621718],[0.0565755,51.6625824],[0.0564334,51.6626384],[0.0562739,51.6626801],[0.0561299,51.6627235],[0.055935,51.6627308],[0.0557385,51.6627329],[0.0555426,51.6627022],[0.0551838,51.6626524],[0.0546945,51.6625703],[0.0544299,51.6625097],[0.0541709,51.6624234],[0.0540006,51.6622788],[0.0536021,51.6618613],[0.0534945,51.6617295],[0.053359,51.661538],[0.0533079,51.6614314],[0.0532435,51.6613165],[0.0532193,51.6612585],[0.0531802,51.6611647],[0.0531269,51.6609005]]]}},
{"type":"Feature","properties":{"highway":"footway","name":null,"category":"Footpath (pedestrian only)"},"geometry":{"type":"MultiLineString","coordinates":[[[0.0624373,51.6576639],[0.0624062,51.6574475],[0.0623883,51.6573232],[0.0622784,51.6569072],[0.0619029,51.6568473],[0.0612387,51.6569447],[0.061159,51.656972]]]}},
{"type":"Feature","properties":{"highway":"footway","name":null,"category":"Footpath (pedestrian only)"},"geometry":{"type":"MultiLineString","coordinates":[[[0.0535659,51.6544347],[0.053638,51.654672],[0.053906,51.654888],[0.054055,51.65509],[0.054102,51.655219],[0.054128,51.655396],[0.054236,51.655615],[0.054233,51.655683],[0.054187,51.655746],[0.054017,51.655898],[0.053927,51.656028],[0.0539,51.656151],[0.0539,51.656337],[0.054004,51.656547],[0.054146,51.65673],[0.05424,51.656818],[0.054421,51.656914],[0.05464,51.656975],[0.055073,51.657055],[0.055321,51.657072],[0.056056,51.657289],[0.056097,51.657336],[0.056127,51.657495],[0.056209,51.657624],[0.056371,51.657744],[0.056509,51.657808],[0.056639,51.657828],[0.056861,51.657811],[0.056969,51.65782],[0.057505,51.657971],[0.057579,51.658008],[0.057699,51.65811],[0.057749,51.658236],[0.0577531,51.6583043]]]}},
{"type":"Feature","properties":{"highway":"footway","name":null,"category":"Footpath (pedestrian only)"},"geometry":{"type":"MultiLineString","coordinates":[[[0.0577531,51.6583043],[0.057963,51.658457],[0.05804,51.658645],[0.058039,51.65879],[0.05796,51.659001],[0.057888,51.659116],[0.057787,51.659209],[0.057644,51.659281],[0.057463,51.6593556],[0.057218,51.659377],[0.057076,51.659434],[0.056731,51.659508],[0.056517,51.659589],[0.05604,51.659727],[0.055878,51.659829],[0.055807,51.659928],[0.055806,51.659994],[0.05591,51.660209],[0.05604,51.660579],[0.056152,51.660795],[0.05624,51.660894],[0.056522,51.661069],[0.05659,51.661134],[0.056618,51.661193],[0.0566213,51.6613139],[0.056624,51.661413],[0.0566652,51.6615288]]]}},
{"type":"Feature","properties":{"highway":"footway","name":null,"category":"Footpath (pedestrian only)"},"geometry":{"type":"MultiLineString","coordinates":[[[0.0539623,51.6599959],[0.05419,51.66],[0.054588,51.660048],[0.054778,51.660036],[0.055108,51.659952],[0.055266,51.659882],[0.055339,51.659814],[0.055383,51.659613],[0.055635,51.659381],[0.055784,51.659292],[0.05592,51.659245],[0.056149,51.659203],[0.056459,51.65919],[0.057122,51.659262],[0.057463,51.6593556],[0.057727,51.659428],[0.057805,51.659469],[0.057907,51.659609],[0.057944,51.659729],[0.057948,51.660269],[0.05784,51.66046],[0.057861,51.660581],[0.057946,51.660746],[0.058077,51.660876],[0.058307,51.661019],[0.058543,51.6611858],[0.0586476,51.6613499],[0.058744,51.6614698],[0.0587769,51.6617002],[0.058697,51.661922],[0.0587,51.66204],[0.058737,51.662163]]]}},
{"type":"Feature","properties":{"highway":"footway","name":null,"category":"Footpath (pedestrian only)"},"geometry":{"type":"MultiLineString","coordinates":[[[0.0531874,51.6601969],[0.053341,51.660354],[0.053458,51.66042],[0.053801,51.660526],[0.053994,51.660642],[0.054118,51.660696],[0.054292,51.660722],[0.05459,51.660714],[0.054789,51.660762],[0.055211,51.66095],[0.055392,51.661013],[0.055514,51.661087],[0.055584,51.661238],[0.055657,51.661324],[0.055731,51.661377]]]}},
{"type":"Feature","properties":{"highway":"footway","name":null,"category":"Footpath (pedestrian only)"},"geometry":{"type":"MultiLineString","coordinates":[[[0.0534945,51.6617295],[0.05353,51.661735],[0.053654,51.661736],[0.054153,51.661609],[0.054544,51.661584],[0.054722,51.661539],[0.05496,51.661424],[0.055512,51.661339],[0.055659,51.661352],[0.055731,51.661377],[0.05582,51.661408],[0.055992,51.661496],[0.056103,51.66152],[0.0564378,51.6615361],[0.0566652,51.6615288],[0.057496,51.661626],[0.057998,51.66174],[0.058697,51.661922]]]}},
{"type":"Feature","properties":{"highway":"footway","name":null,"category":"Footpath (pedestrian only)"},"geometry":{"type":"MultiLineString","coordinates":[[[0.0551838,51.6626524],[0.055334,51.662493],[0.055795,51.662078],[0.055879,51.662035],[0.05612,51.661959],[0.056156,51.66193],[0.056217,51.661692],[0.056253,51.661639],[0.056333,51.661579],[0.0564378,51.6615361]]]}},
{"type":"Feature","properties":{"highway":"footway","name":null,"category":"Footpath (pedestrian only)"},"geometry":{"type":"MultiLineString","coordinates":[[[0.058543,51.6611858],[0.0590354,51.6613772]]]}},
{"type":"Feature","properties":{"highway":"footway","name":null,"category":"Footpath (pedestrian only)"},"geometry":{"type":"MultiLineString","coordinates":[[[0.0593463,51.6676517],[0.059457,51.667521],[0.059466,51.667461],[0.05934,51.667164],[0.0592743,51.6668464],[0.0593019,51.6666263],[0.0592787,51.6664325],[0.0592715,51.6662589],[0.0592196,51.6661359],[0.0590343,51.666034],[0.058742,51.666027],[0.058467,51.666045],[0.057888,51.666029],[0.05746,51.666084],[0.057303,51.666051],[0.057131,51.66599],[0.056996,51.665915],[0.056837,51.665774],[0.056714,51.66552],[0.0567071,51.6654352],[0.056701,51.665361],[0.05672,51.665303],[0.056738,51.665251],[0.056933,51.664834],[0.057061,51.664643],[0.057108,51.664433],[0.057312,51.664221],[0.057462,51.663944],[0.057722,51.663621],[0.057874,51.663369],[0.058286,51.66299],[0.058444,51.662893],[0.058732,51.662739],[0.058808,51.6626351]]]}},
{"type":"Feature","properties":{"highway":"footway","name":null,"category":"Footpath (pedestrian only)"},"geometry":{"type":"MultiLineString","coordinates":[[[0.0671179,51.6647711],[0.0672906,51.6650865],[0.0674352,51.6654592],[0.067532,51.665704],[0.067514,51.665792],[0.06735,51.666101],[0.067231,51.666248],[0.067118,51.666336],[0.066957,51.666418],[0.066902,51.666499],[0.0669,51.666652],[0.066864,51.666714],[0.066563,51.666909],[0.06647,51.667003],[0.066398,51.667138],[0.066269,51.667296],[0.066017,51.667482],[0.065673,51.667638],[0.0652441,51.6677882],[0.064862,51.667922],[0.0646564,51.6680757]]]}},
{"type":"Feature","properties":{"highway":"footway","name":null,"category":"Footpath (pedestrian only)"},"geometry":{"type":"MultiLineString","coordinates":[[[0.0652441,51.6677882],[0.065364,51.667618],[0.065559,51.667415],[0.065602,51.667312],[0.065569,51.667007],[0.06544,51.666635],[0.065476,51.666489],[0.065568,51.666359],[0.065712,51.666229],[0.065784,51.666188],[0.06615,51.666064],[0.066244,51.666003],[0.066296,51.665936],[0.06631,51.665887],[0.06628,51.665546],[0.066222,51.665423],[0.066107,51.665263],[0.066086,51.665177],[0.066091,51.665],[0.066134,51.66488],[0.066248,51.664679]]]}},
{"type":"Feature","properties":{"highway":"footway","name":null,"category":"Footpath (pedestrian only)"},"geometry":{"type":"MultiLineString","coordinates":[[[0.0595286,51.6575979],[0.05944,51.657392],[0.059426,51.657282],[0.059537,51.65661],[0.05953,51.656221],[0.059483,51.656082],[0.0593334,51.6558444]]]}},
{"type":"Feature","properties":{"highway":"footway","name":null,"category":"Footpath (pedestrian only)"},"geometry":{"type":"MultiLineString","coordinates":[[[0.0610085,51.659477],[0.061153,51.659262],[0.0612911,51.6590021],[0.061364,51.658866],[0.061489,51.6584],[0.061554,51.658273],[0.061693,51.658111],[0.0617,51.658047],[0.061673,51.657983]]]}},
{"type":"Feature","properties":{"highway":"footway","name":null,"category":"Footpath (pedestrian only)"},"geometry":{"type":"MultiLineString","coordinates":[[[0.060444,51.658898],[0.06056,51.658955],[0.060642,51.658976],[0.061044,51.65896],[0.0612911,51.6590021],[0.061396,51.65902],[0.061705,51.659093],[0.0622971,51.659098]]]}},
{"type":"Feature","properties":{"highway":"footway","name":null,"category":"Footpath (pedestrian only)"},"geometry":{"type":"MultiLineString","coordinates":[[[0.057579,51.658008],[0.057429,51.657762],[0.057281,51.657624],[0.0569,51.657377]]]}},
{"type":"Feature","properties":{"highway":"footway","name":null,"category":"Footpath (pedestrian only)"},"geometry":{"type":"MultiLineString","coordinates":[[[0.061098,51.661925],[0.060791,51.661821],[0.06053,51.661797],[0.0604551,51.6617514],[0.0602403,51.661549],[0.0600746,51.6612083]]]}},
{"type":"Feature","properties":{"highway":"footway","name":null,"category":"Footpath (pedestrian only)"},"geometry":{"type":"MultiLineString","coordinates":[[[0.060977,51.659594],[0.06137,51.659968],[0.061527,51.660175],[0.061618,51.66024],[0.0618989,51.6605121],[0.0623765,51.6606203],[0.062501,51.660595],[0.06276,51.660585],[0.062991,51.660604],[0.063072,51.660625],[0.063138,51.66068],[0.063218,51.660829],[0.063438,51.661015],[0.063514,51.661064],[0.063765,51.661153],[0.063836,51.661193],[0.064088,51.661435],[0.064141,51.661522],[0.064216,51.661834],[0.064232,51.662095],[0.0642,51.662413],[0.064251,51.662799],[0.064292,51.662983],[0.0644286,51.6632791],[0.064407,51.663408],[0.064468,51.663581],[0.064527,51.663639],[0.064812,51.663802],[0.065006,51.663996],[0.065044,51.664082],[0.0650602,51.6642153]]]}},
{"type":"Feature","properties":{"highway":"footway","name":null,"category":"Footpath (pedestrian only)"},"geometry":{"type":"MultiLineString","coordinates":[[[0.061098,51.661925],[0.061075,51.661647],[0.061093,51.661516],[0.061161,51.661367],[0.06134,51.661161],[0.061409,51.661096],[0.061532,51.661024],[0.061801,51.660897],[0.062104,51.660779],[0.062178,51.660733],[0.0623765,51.6606203]]]}},
{"type":"Feature","properties":{"highway":"footway","name":null,"category":"Footpath (pedestrian only)"},"geometry":{"type":"MultiLineString","coordinates":[[[0.063023,51.661951],[0.062801,51.661733],[0.062635,51.661629],[0.062413,51.661536],[0.062323,51.66148],[0.062244,51.6614],[0.062173,51.661181],[0.062085,51.661024],[0.062067,51.660939],[0.062104,51.660779]]]}},
{"type":"Feature","properties":{"highway":"footway","name":null,"category":"Footpath (pedestrian only)"},"geometry":{"type":"MultiLineString","coordinates":[[[0.0592595,51.6613465],[0.059288,51.660765],[0.0593101,51.6604593],[0.0593592,51.6603427],[0.0594132,51.660269],[0.059591,51.660189]]]}},
{"type":"Feature","properties":{"highway":"footway","name":null,"category":"Footpath (pedestrian only)"},"geometry":{"type":"MultiLineString","coordinates":[[[0.0566213,51.6613139],[0.056982,51.661212],[0.05728,51.661094],[0.057489,51.661046],[0.057807,51.661035],[0.057983,51.661002],[0.058151,51.660997],[0.058307,51.661019]]]}},
{"type":"Feature","properties":{"highway":"footway","name":null,"category":"Footpath (pedestrian only)"},"geometry":{"type":"MultiLineString","coordinates":[[[0.059886,51.664381],[0.060193,51.664269],[0.060398,51.664218],[0.060952,51.664118],[0.061125,51.664101],[0.06139,51.66412],[0.061862,51.664084],[0.062415,51.664073],[0.062805,51.664011],[0.062985,51.663918],[0.063143,51.663772],[0.06333,51.663633],[0.063456,51.663565],[0.063561,51.663524],[0.063813,51.663491],[0.06397,51.663403],[0.064082,51.663361],[0.064297,51.663321],[0.0644286,51.6632791],[0.064561,51.663237],[0.064828,51.663182],[0.065138,51.663191],[0.0657332,51.6632776]]]}},
{"type":"Feature","properties":{"highway":"footway","name":null,"category":"Footpath (pedestrian only)"},"geometry":{"type":"MultiLineString","coordinates":[[[0.0607874,51.6655122],[0.060932,51.665455],[0.061187,51.665316],[0.061331,51.665257],[0.062264,51.665025],[0.062686,51.664995],[0.062971,51.665],[0.063202,51.664968],[0.063324,51.664967],[0.063443,51.664992],[0.063586,51.664988],[0.063656,51.664939],[0.063745,51.664804],[0.064053,51.664623],[0.064289,51.664347],[0.064507,51.664151]]]}},
{"type":"Feature","properties":{"highway":"footway","name":null,"category":"Footpath (pedestrian only)"},"geometry":{"type":"MultiLineString","coordinates":[[[0.0527438,51.6591492],[0.052784,51.65912],[0.052839,51.65909],[0.053063,51.659079],[0.053184,51.659053],[0.053299,51.658993],[0.053608,51.658706],[0.053767,51.658607],[0.053986,51.658378],[0.054121,51.658279],[0.054597,51.658024],[0.054933,51.657927],[0.055486,51.657735],[0.055751,51.657669],[0.055945,51.657598],[0.056127,51.657495]]]}},
{"type":"Feature","properties":{"highway":"footway","name":null,"category":"Footpath (pedestrian only)"},"geometry":{"type":"MultiLineString","coordinates":[[[0.0579827,51.6549122],[0.0579303,51.6550136],[0.0576505,51.6551926],[0.0574311,51.6552698]]]}},
{"type":"Feature","properties":{"highway":"footway","name":null,"category":"Footpath (pedestrian only)"},"geometry":{"type":"MultiLineString","coordinates":[[[0.063545,51.6603644],[0.0634476,51.6604065],[0.062991,51.660604]]]}},
{"type":"Feature","properties":{"highway":"footway","name":null,"category":"Footpath (pedestrian only)"},"geometry":{"type":"MultiLineString","coordinates":[[[0.0650362,51.6580389],[0.0651427,51.658191]]]}},
{"type":"Feature","properties":{"highway":"footway","name":null,"category":"Footpath (pedestrian only)"},"geometry":{"type":"MultiLineString","coordinates":[[[0.0576679,51.6518132],[0.057734,51.6517788],[0.0579273,51.6517198],[0.0579864,51.6517028],[0.0580677,51.6516806],[0.0582242,51.6516314],[0.0582762,51.6516062],[0.0584147,51.6515161],[0.058383,51.651479],[0.0584253,51.6514568]]]}},
{"type":"Feature","properties":{"highway":"footway","name":null,"category":"Footpath (pedestrian only)"},"geometry":{"type":"MultiLineString","coordinates":[[[0.0699392,51.6570972],[0.0698755,51.6569717],[0.0697521,51.656812],[0.0695966,51.6567238],[0.0693979,51.6566824]]]}},
{"type":"Feature","properties":{"highway":"bridleway","name":"King's Hill","category":"Bridleway"},"geometry":{"type":"MultiLineString","coordinates":[[[0.0579827,51.6549122],[0.0574665,51.6549943],[0.0574032,51.6549885],[0.0573471,51.654974],[0.057221,51.6549139],[0.0570732,51.654834]]]}},
{"type":"Feature","properties":{"highway":"footway","name":null,"category":"Footpath (pedestrian only)"},"geometry":{"type":"MultiLineString","coordinates":[[[0.0529726,51.6602202],[0.048211,51.6620915]]]}},
{"type":"Feature","properties":{"highway":"footway","name":null,"category":"Footpath (pedestrian only)"},"geometry":{"type":"MultiLineString","coordinates":[[[0.0589349,51.662293],[0.059189,51.662204],[0.0593553,51.6621352],[0.0594601,51.6620473],[0.0592321,51.6618447],[0.0592691,51.6617568],[0.0592937,51.6616116],[0.0592814,51.6614931],[0.0592595,51.6613465]]]}},
{"type":"Feature","properties":{"highway":"footway","name":null,"category":"Footpath (pedestrian only)"},"geometry":{"type":"MultiLineString","coordinates":[[[0.059725,51.660065],[0.0597189,51.6599106],[0.0596819,51.6597195],[0.0597189,51.6595627],[0.0597189,51.6594404],[0.0595525,51.6593143],[0.0594108,51.6591881],[0.0593553,51.6590467],[0.0592444,51.6589129],[0.0592691,51.6586797],[0.0592493,51.6584557]]]}},
{"type":"Feature","properties":{"highway":"footway","name":null,"category":"Footpath (pedestrian only)"},"geometry":{"type":"MultiLineString","coordinates":[[[0.0600746,51.6612083],[0.0601052,51.660924],[0.060164,51.660732],[0.060139,51.660554],[0.060145,51.660323],[0.060085,51.660149],[0.060082,51.660069],[0.060116,51.65999],[0.060179,51.659948],[0.060896,51.659661],[0.060977,51.659594],[0.061007,51.659538],[0.0610085,51.659477],[0.060947,51.659335],[0.060759,51.659116],[0.060444,51.658898]]]}},
{"type":"Feature","properties":{"highway":"footway","name":null,"category":"Footpath (pedestrian only)"},"geometry":{"type":"MultiLineString","coordinates":[[[0.0593138,51.6630627],[0.059353,51.663097],[0.059524,51.663117],[0.059616,51.663149],[0.060078,51.663506],[0.06031,51.663617],[0.06053,51.663748],[0.060828,51.663875],[0.061138,51.664037],[0.06139,51.66412]]]}},
{"type":"Feature","properties":{"highway":"footway","name":"foot bridge","category":"Footpath (pedestrian only)"},"geometry":{"type":"MultiLineString","coordinates":[[[0.0554999,51.6565578],[0.0556086,51.6565102]]]}},
{"type":"Feature","properties":{"highway":"footway","name":null,"category":"Footpath (pedestrian only)"},"geometry":{"type":"MultiLineString","coordinates":[[[0.0556086,51.6565102],[0.0556421,51.656496]]]}},
{"type":"Feature","properties":{"highway":"footway","name":null,"category":"Footpath (pedestrian only)"},"geometry":{"type":"MultiLineString","coordinates":[[[0.0554999,51.6565578],[0.0554354,51.6565839]]]}},
{"type":"Feature","properties":{"highway":"footway","name":null,"category":"Footpath (pedestrian only)"},"geometry":{"type":"MultiLineString","coordinates":[[[0.0591383,51.6613954],[0.0592595,51.6613465],[0.0596577,51.6612164],[0.0597473,51.6611384],[0.059815,51.6610513],[0.0598062,51.6609773],[0.0598203,51.6608773],[0.0598184,51.660819],[0.059805,51.660688],[0.059587,51.660353],[0.05956,51.660262],[0.059591,51.660189],[0.059725,51.660065],[0.059793,51.660033],[0.060179,51.659948]]]}},
{"type":"Feature","properties":{"highway":"footway","name":"foot bridge","category":"Footpath (pedestrian only)"},"geometry":{"type":"MultiLineString","coordinates":[[[0.0590354,51.6613772],[0.0591383,51.6613954]]]}},
{"type":"Feature","properties":{"highway":"footway","name":null,"category":"Footpath (pedestrian only)"},"geometry":{"type":"MultiLineString","coordinates":[[[0.0589134,51.6626308],[0.05902,51.66264],[0.0591793,51.662558],[0.059263,51.662515],[0.059988,51.662311],[0.060169,51.662235],[0.0605035,51.6621509],[0.0606757,51.6621222],[0.0609002,51.6620207],[0.061098,51.661925],[0.061168,51.661918],[0.061601,51.66196],[0.062043,51.66196],[0.062553,51.662045],[0.062744,51.662041],[0.063023,51.661951],[0.063159,51.661953],[0.063296,51.661995],[0.063364,51.662038],[0.0633579,51.6622704],[0.063554,51.662391],[0.063551,51.662468],[0.063515,51.662531],[0.063304,51.662742],[0.063264,51.662851],[0.063263,51.662944],[0.063281,51.663071],[0.063325,51.663172],[0.063513,51.663466],[0.063561,51.663524],[0.063707,51.663708],[0.063997,51.663985],[0.064107,51.664047],[0.064341,51.664127],[0.064507,51.664151],[0.064749,51.664186],[0.0650602,51.6642153],[0.065209,51.66428],[0.065323,51.664384]]]}},
{"type":"Feature","properties":{"highway":"footway","name":"foot bridge","category":"Footpath (pedestrian only)"},"geometry":{"type":"MultiLineString","coordinates":[[[0.058808,51.6626351],[0.0589134,51.6626308]]]}},
{"type":"Feature","properties":{"highway":"footway","name":"Wauchope Path","category":"Footpath (pedestrian only)"},"geometry":{"type":"MultiLineString","coordinates":[[[0.066659,51.6636298],[0.0656439,51.6635298]]]}},
{"type":"Feature","properties":{"highway":"footway","name":null,"category":"Footpath (pedestrian only)"},"geometry":{"type":"MultiLineString","coordinates":[[[0.0633809,51.6669183],[0.0642284,51.6664461],[0.0642552,51.6663663],[0.0641773,51.6662865],[0.0647754,51.665162],[0.0644052,51.6648096],[0.0643649,51.6643572],[0.064507,51.664151]]]}},
{"type":"Feature","properties":{"highway":"footway","name":null,"category":"Footpath (pedestrian only)"},"geometry":{"type":"MultiLineString","coordinates":[[[0.0591793,51.662558],[0.0596716,51.6625841],[0.0617101,51.6633294],[0.0620319,51.6633561],[0.0626328,51.6633161],[0.0629546,51.6633161],[0.063255,51.6634226],[0.063561,51.663524]]]}},
{"type":"Feature","properties":{"highway":"footway","name":null,"category":"Footpath (pedestrian only)"},"geometry":{"type":"MultiLineString","coordinates":[[[0.0762505,51.6559753],[0.0764269,51.6560281],[0.0764664,51.656655]]]}},
{"type":"Feature","properties":{"highway":"footway","name":null,"category":"Footpath (pedestrian only)"},"geometry":{"type":"MultiLineString","coordinates":[[[0.0770777,51.6540867],[0.077316,51.6540562],[0.0775386,51.6539023],[0.0776245,51.6538956],[0.0776742,51.6538923]]]}},
{"type":"Feature","properties":{"highway":"footway","name":null,"category":"Footpath (pedestrian only)"},"geometry":{"type":"MultiLineString","coordinates":[[[0.0770794,51.6542995],[0.0775584,51.6542923]]]}},
{"type":"Feature","properties":{"highway":"footway","name":null,"category":"Footpath (pedestrian only)"},"geometry":{"type":"MultiLineString","coordinates":[[[0.0764261,51.6549966],[0.0765815,51.6551519]]]}},
{"type":"Feature","properties":{"highway":"footway","name":null,"category":"Footpath (pedestrian only)"},"geometry":{"type":"MultiLineString","coordinates":[[[0.0749412,51.6530277],[0.0749691,51.6530507],[0.0750563,51.6531185],[0.0751126,51.653141],[0.0755511,51.6529446],[0.0755605,51.6529171],[0.0754517,51.6528229],[0.0754142,51.652791]]]}},
{"type":"Feature","properties":{"highway":"footway","name":null,"category":"Footpath (pedestrian only)"},"geometry":{"type":"MultiLineString","coordinates":[[[0.0768373,51.6518819],[0.0768842,51.6517239],[0.0769579,51.6515684],[0.077076,51.6513322]]]}},
{"type":"Feature","properties":{"highway":"footway","name":null,"category":"Footpath (pedestrian only)"},"geometry":{"type":"MultiLineString","coordinates":[[[0.0766523,51.6517889],[0.0767648,51.6518338],[0.0768373,51.6518819],[0.0768559,51.6518943]]]}},
{"type":"Feature","properties":{"highway":"footway","name":null,"category":"Footpath (pedestrian only)"},"geometry":{"type":"MultiLineString","coordinates":[[[0.0706909,51.6612785],[0.0707661,51.6613238],[0.0710712,51.661516],[0.0717491,51.6619186],[0.0719436,51.662075],[0.0722191,51.6623666],[0.0724344,51.6625937],[0.0724585,51.6626278],[0.0724478,51.6626673],[0.0723123,51.6631078],[0.0723204,51.6631544],[0.0724062,51.6631793],[0.0735113,51.6633757],[0.0758001,51.6635897]]]}},
{"type":"Feature","properties":{"highway":"track","name":null,"category":"Track"},"geometry":{"type":"MultiLineString","coordinates":[[[0.070766,51.6612635],[0.0708217,51.6613018],[0.0711121,51.6615031],[0.0714567,51.6617269],[0.071611,51.6618076],[0.0717625,51.6618683],[0.0719355,51.6619997],[0.0722808,51.6623258]]]}},
{"type":"Feature","properties":{"highway":"footway","name":null,"category":"Footpath (pedestrian only)"},"geometry":{"type":"MultiLineString","coordinates":[[[0.0713698,51.6559161],[0.0714071,51.655907],[0.0714474,51.6558929],[0.0714913,51.6558628]]]}},
{"type":"Feature","properties":{"highway":"footway","name":null,"category":"Footpath (pedestrian only)"},"geometry":{"type":"MultiLineString","coordinates":[[[0.0628764,51.659804],[0.0629293,51.6597827],[0.0631412,51.6596625],[0.063563,51.6593867],[0.0636258,51.6593461]]]}},
{"type":"Feature","properties":{"highway":"footway","name":null,"category":"Footpath (pedestrian only)"},"geometry":{"type":"MultiLineString","coordinates":[[[0.0750424,51.6566456],[0.0750227,51.6567128],[0.0749242,51.6569907],[0.0748705,51.6572282],[0.0748551,51.6572859]]]}},
{"type":"Feature","properties":{"highway":"footway","name":null,"category":"Footpath (pedestrian only)"},"geometry":{"type":"MultiLineString","coordinates":[[[0.076549,51.6568664],[0.0765429,51.656889]]]}},
{"type":"Feature","properties":{"highway":"footway","name":null,"category":"Footpath (pedestrian only)"},"geometry":{"type":"MultiLineString","coordinates":[[[0.0765732,51.6567773],[0.0765694,51.6567914]]]}},
{"type":"Feature","properties":{"highway":"footway","name":null,"category":"Footpath (pedestrian only)"},"geometry":{"type":"MultiLineString","coordinates":[[[0.0763157,51.6568982],[0.0762966,51.6568972]]]}},
{"type":"Feature","properties":{"highway":"footway","name":null,"category":"Footpath (pedestrian only)"},"geometry":{"type":"MultiLineString","coordinates":[[[0.076431,51.6569044],[0.0764105,51.6569033]]]}},
{"type":"Feature","properties":{"highway":"footway","name":null,"category":"Footpath (pedestrian only)"},"geometry":{"type":"MultiLineString","coordinates":[[[0.0761287,51.6567464],[0.076132,51.6567313]]]}},
{"type":"Feature","properties":{"highway":"footway","name":null,"category":"Footpath (pedestrian only)"},"geometry":{"type":"MultiLineString","coordinates":[[[0.0761098,51.6568324],[0.076114,51.6568132]]]}},
{"type":"Feature","properties":{"highway":"footway","name":null,"category":"Footpath (pedestrian only)"},"geometry":{"type":"MultiLineString","coordinates":[[[0.0762636,51.6566904],[0.0763025,51.656689]]]}},
{"type":"Feature","properties":{"highway":"footway","name":null,"category":"Footpath (pedestrian only)"},"geometry":{"type":"MultiLineString","coordinates":[[[0.0765694,51.6567914],[0.0765573,51.6568358],[0.076549,51.6568664]]]}},
{"type":"Feature","properties":{"highway":"footway","name":null,"category":"Footpath (pedestrian only)"},"geometry":{"type":"MultiLineString","coordinates":[[[0.0764664,51.656655],[0.0764627,51.6567642],[0.0765732,51.6567773]]]}},
{"type":"Feature","properties":{"highway":"footway","name":null,"category":"Footpath (pedestrian only)"},"geometry":{"type":"MultiLineString","coordinates":[[[0.0762332,51.6566915],[0.0762636,51.6566904]]]}},
{"type":"Feature","properties":{"highway":"footway","name":null,"category":"Footpath (pedestrian only)"},"geometry":{"type":"MultiLineString","coordinates":[[[0.076132,51.6567313],[0.0761697,51.6567358],[0.0761992,51.6567301],[0.0762332,51.6566915]]]}},
{"type":"Feature","properties":{"highway":"footway","name":null,"category":"Footpath (pedestrian only)"},"geometry":{"type":"MultiLineString","coordinates":[[[0.076114,51.6568132],[0.0761211,51.6567808],[0.0761287,51.6567464]]]}},
{"type":"Feature","properties":{"highway":"footway","name":null,"category":"Footpath (pedestrian only)"},"geometry":{"type":"MultiLineString","coordinates":[[[0.0764105,51.6569033],[0.0763583,51.6569005],[0.0763157,51.6568982]]]}},
{"type":"Feature","properties":{"highway":"bridleway","name":null,"category":"Bridleway"},"geometry":{"type":"MultiLineString","coordinates":[[[0.0593334,51.6558444],[0.0590606,51.6556728],[0.0590071,51.6555613]]]}},
{"type":"Feature","properties":{"highway":"footway","name":null,"category":"Footpath (pedestrian only)"},"geometry":{"type":"MultiLineString","coordinates":[[[0.0631516,51.6576358],[0.0627792,51.6576555],[0.0624373,51.6576639]]]}},
{"type":"Feature","properties":{"highway":"footway","name":"Green Ride","category":"Footpath (pedestrian only)"},"geometry":{"type":"MultiLineString","coordinates":[[[0.0531269,51.6609005],[0.0529851,51.6602753],[0.0529726,51.6602202],[0.05287,51.660034]]]}},
{"type":"Feature","properties":{"highway":"footway","name":null,"category":"Footpath (pedestrian only)"},"geometry":{"type":"MultiLineString","coordinates":[[[0.0692269,51.6573703],[0.0692586,51.6578838]]]}},
{"type":"Feature","properties":{"highway":"footway","name":null,"category":"Footpath (pedestrian only)"},"geometry":{"type":"MultiLineString","coordinates":[[[0.0729845,51.657195],[0.0729139,51.6571797]]]}},
{"type":"Feature","properties":{"highway":"footway","name":null,"category":"Footpath (pedestrian only)"},"geometry":{"type":"MultiLineString","coordinates":[[[0.0712658,51.6571583],[0.0713385,51.6571239],[0.0714565,51.6571496],[0.0714661,51.6571332]]]}},
{"type":"Feature","properties":{"highway":"footway","name":null,"category":"Footpath (pedestrian only)"},"geometry":{"type":"MultiLineString","coordinates":[[[0.0719875,51.6572129],[0.0718217,51.6574921],[0.0718048,51.6578202]]]}},
{"type":"Feature","properties":{"highway":"footway","name":null,"category":"Footpath (pedestrian only)"},"geometry":{"type":"MultiLineString","coordinates":[[[0.0727022,51.6569494],[0.0730792,51.6570415],[0.0729845,51.657195],[0.0729247,51.657292],[0.0725424,51.6572003],[0.0724905,51.6571423]]]}},
{"type":"Feature","properties":{"highway":"footway","name":null,"category":"Footpath (pedestrian only)"},"geometry":{"type":"MultiLineString","coordinates":[[[0.0710481,51.6569974],[0.0711124,51.6570744],[0.0712658,51.6571583],[0.0714462,51.6572115],[0.0715815,51.6572276],[0.0717744,51.6572255],[0.0719131,51.6572178],[0.0719875,51.6572129],[0.0720238,51.6571742]]]}},
{"type":"Feature","properties":{"highway":"footway","name":null,"category":"Footpath (pedestrian only)"},"geometry":{"type":"MultiLineString","coordinates":[[[0.0624062,51.6574475],[0.0622751,51.6574583],[0.0621905,51.6574583],[0.0620897,51.6574805],[0.0620051,51.6575128],[0.0619791,51.6575653],[0.0619498,51.6576359],[0.0622653,51.6583199],[0.0618858,51.6584002]]]}}
]
}
