{
"type": "FeatureCollection",
"name": "EPPFO_23_walking",
"crs": { "type": "name", "properties": { "name": "urn:ogc:def:crs:OGC:1.3:CRS84" } },
"features": [
{"type":"Feature","properties":{"highway":"footway","name":null,"category":"Footpath (pedestrian only)"},"geometry":{"type":"MultiLineString","coordinates":[[[0.0752393,51.6338784],[0.0745294,51.6345062]]]}},
{"type":"Feature","properties":{"highway":"footway","name":null,"category":"Footpath (pedestrian only)"},"geometry":{"type":"MultiLineString","coordinates":[[[0.0684644,51.6364954],[0.0687159,51.6365341],[0.068883,51.636549],[0.0689968,51.6365811],[0.0690938,51.6366305],[0.0694209,51.6368948],[0.0697248,51.6371369],[0.0698697,51.637271],[0.0699711,51.6373786],[0.0700361,51.6374619],[0.0701318,51.6376296],[0.0701864,51.6377983],[0.0702256,51.6379392],[0.0702521,51.6380027],[0.0703026,51.6380545],[0.070367,51.6380996],[0.0705533,51.6382368]]]}},
{"type":"Feature","properties":{"highway":"footway","name":null,"category":"Footpath (pedestrian only)"},"geometry":{"type":"MultiLineString","coordinates":[[[0.0709697,51.6391469],[0.0709632,51.6393868],[0.0708605,51.639611],[0.0705582,51.6399536],[0.0701794,51.6403971],[0.0703991,51.6404708]]]}},
{"type":"Feature","properties":{"highway":"footway","name":null,"category":"Footpath (pedestrian only)"},"geometry":{"type":"MultiLineString","coordinates":[[[0.081362,51.6247988],[0.0818104,51.62482],[0.0820277,51.6248182],[0.082216,51.6248205],[0.0824069,51.624826],[0.0826457,51.6248332],[0.0834626,51.6248346],[0.0837844,51.6248274],[0.0839641,51.6248115],[0.0840095,51.6248076],[0.0840312,51.6248081]]]}},
{"type":"Feature","properties":{"highway":"footway","name":null,"category":"Footpath (pedestrian only)"},"geometry":{"type":"MultiLineString","coordinates":[[[0.0847219,51.6241339],[0.0848247,51.6241597],[0.0849645,51.624182]]]}},
{"type":"Feature","properties":{"highway":"footway","name":null,"category":"Footpath (pedestrian only)"},"geometry":{"type":"MultiLineString","coordinates":[[[0.085034,51.6242047],[0.0850765,51.624206],[0.0851734,51.624209],[0.0852638,51.6242818],[0.0854196,51.624389],[0.0855949,51.6244919],[0.085721,51.6245406],[0.0859847,51.6245574],[0.0861399,51.6245344],[0.0864196,51.6245629],[0.0865683,51.6245859],[0.0867869,51.6246812],[0.0870314,51.6247981],[0.087136,51.6248625]]]}},
{"type":"Feature","properties":{"highway":"track","name":"Green Lane","category":"Track"},"geometry":{"type":"MultiLineString","coordinates":[[[0.0886443,51.6258151],[0.0886834,51.625758],[0.0887874,51.6256671],[0.0888914,51.6255792],[0.0889894,51.6254813],[0.0891694,51.6253166],[0.0896116,51.6249418]]]}},
{"type":"Feature","properties":{"highway":"footway","name":"Charlie Moules Bridge","category":"Footpath (pedestrian only)"},"geometry":{"type":"MultiLineString","coordinates":[[[0.0703214,51.6379193],[0.0706046,51.6378607]]]}},
{"type":"Feature","properties":{"highway":"footway","name":null,"category":"Footpath (pedestrian only)"},"geometry":{"type":"MultiLineString","coordinates":[[[0.0702256,51.6379392],[0.0703214,51.6379193]]]}},
{"type":"Feature","properties":{"highway":"footway","name":null,"category":"Footpath (pedestrian only)"},"geometry":{"type":"MultiLineString","coordinates":[[[0.0706046,51.6378607],[0.0706857,51.6378397],[0.0708106,51.6378074],[0.0710681,51.6376263],[0.0712913,51.6374559],[0.0714286,51.6373387],[0.0715917,51.6372374],[0.0717033,51.6371469],[0.0718921,51.6369658],[0.0720552,51.63679],[0.0722612,51.6365822],[0.072302,51.6365602],[0.0724586,51.6364757],[0.0725487,51.6364231],[0.072444,51.6363432],[0.0723384,51.6362626],[0.0721753,51.6361348],[0.0719178,51.6359749],[0.0717977,51.635927],[0.071626,51.635895],[0.0715316,51.6358311],[0.0714629,51.6357299],[0.0714458,51.63565],[0.0713685,51.6355275],[0.071317,51.6354689],[0.071317,51.6353889],[0.0712398,51.6352504],[0.0712055,51.6351439],[0.0712226,51.6350693],[0.0711883,51.6350214],[0.0710486,51.6349826]]]}},
{"type":"Feature","properties":{"highway":"path","name":null,"category":"Shared path"},"geometry":{"type":"MultiLineString","coordinates":[[[0.0752738,51.6383934],[0.0751193,51.6384893],[0.0749219,51.6385852],[0.0747417,51.6386757],[0.0745529,51.638745],[0.0742782,51.6387769],[0.0740722,51.638729],[0.0738319,51.6386864],[0.073653,51.6386506],[0.0734384,51.6386666],[0.0732985,51.6387166],[0.0731552,51.6387678],[0.0729736,51.6388994],[0.0728119,51.6389649],[0.0727075,51.6390006],[0.072563,51.6389969],[0.0724071,51.6389793],[0.0722869,51.6389474],[0.0720566,51.6389702],[0.0719192,51.6390448],[0.0716775,51.6391178],[0.0715745,51.6391125],[0.0714888,51.6390499],[0.0714286,51.639006],[0.0714629,51.6387822],[0.0715488,51.6385852],[0.0715659,51.6383295],[0.0714643,51.6382138],[0.0712741,51.6381377],[0.071111,51.6381377],[0.0709651,51.638143],[0.0708106,51.6380951],[0.0707248,51.6379672],[0.0706857,51.6378397]]]}},
{"type":"Feature","properties":{"highway":"track","name":null,"category":"Track"},"geometry":{"type":"MultiLineString","coordinates":[[[0.0725487,51.6364231],[0.0728419,51.6362009],[0.073065,51.6359825],[0.0733483,51.6357534],[0.073582,51.6355535],[0.0737858,51.6353932],[0.0738631,51.6353348],[0.0738718,51.6352261],[0.0739663,51.6350822],[0.0740435,51.6349384],[0.0742066,51.6347945],[0.074301,51.634704],[0.0744959,51.6345352],[0.0745294,51.6345062]]]}},
{"type":"Feature","properties":{"highway":"path","name":null,"category":"Shared path"},"geometry":{"type":"MultiLineString","coordinates":[[[0.0752738,51.6383934],[0.0754812,51.6384269],[0.0757645,51.6384535],[0.0760048,51.6384589],[0.076288,51.6385015],[0.0764511,51.6385015],[0.0766571,51.6384535],[0.0768373,51.638379],[0.0769833,51.6382618],[0.0771206,51.6381766],[0.0773094,51.6381233],[0.0774811,51.6380913],[0.0776356,51.6380061],[0.077833,51.6378516],[0.0779789,51.6377504],[0.0781591,51.6376332],[0.0782021,51.6375586],[0.0782021,51.6373988],[0.0781506,51.6372443],[0.0781334,51.6371112],[0.0780905,51.6370579],[0.0779789,51.6370472],[0.0778673,51.636994],[0.0778158,51.6369087],[0.0777042,51.6368715],[0.0776184,51.6367915],[0.077524,51.6367489],[0.0774382,51.6367862],[0.0773437,51.6368928],[0.0772665,51.6369993],[0.0772064,51.6371112],[0.0771463,51.6371751]]]}},
{"type":"Feature","properties":{"highway":"path","name":null,"category":"Shared path"},"geometry":{"type":"MultiLineString","coordinates":[[[0.0717033,51.6371469],[0.0719107,51.637223],[0.0720652,51.6373296],[0.0724428,51.6374787],[0.072666,51.6376012],[0.0729235,51.6376971],[0.0730951,51.6377611],[0.0735243,51.6378569],[0.0737818,51.6379209],[0.0739878,51.6379688],[0.074168,51.6380434],[0.0745199,51.6381766],[0.0748032,51.6382778],[0.0749405,51.6383204],[0.0751036,51.638363],[0.0752738,51.6383934]]]}},
{"type":"Feature","properties":{"highway":"path","name":null,"category":"Shared path"},"geometry":{"type":"MultiLineString","coordinates":[[[0.07186,51.6338466],[0.0719879,51.6338296],[0.0721767,51.633803],[0.0723484,51.6337977],[0.0725801,51.633787],[0.0727947,51.6338083],[0.073181,51.6338669],[0.0734384,51.6339362],[0.0736959,51.6340161],[0.0737732,51.6341173],[0.0737904,51.6342452],[0.0738075,51.634389],[0.0738247,51.6345541],[0.0737474,51.6347939],[0.0736959,51.6350442],[0.0737045,51.6351614],[0.0737953,51.6352607],[0.0738631,51.6353348],[0.0739792,51.6353266],[0.0742968,51.6354598],[0.0747002,51.6356089],[0.0750864,51.6357368],[0.0753525,51.6358753],[0.075507,51.6359818],[0.0757301,51.6361576],[0.0757816,51.6362801],[0.0759533,51.636392],[0.0761593,51.6365252],[0.0764425,51.6366797],[0.0766399,51.6368022],[0.0767429,51.6369247],[0.0767773,51.6370259],[0.0769661,51.6371325],[0.0771463,51.6371751],[0.0771378,51.6372497],[0.0768717,51.6374841],[0.0765284,51.6377504],[0.0762365,51.6379528],[0.0759275,51.6381872],[0.0756872,51.6383044],[0.0754812,51.6384269]]]}},
{"type":"Feature","properties":{"highway":"path","name":null,"category":"Shared path"},"geometry":{"type":"MultiLineString","coordinates":[[[0.073181,51.6338669],[0.0729921,51.6337604],[0.0728205,51.6337231],[0.0725887,51.6336059],[0.0724085,51.6334088],[0.072254,51.6332969],[0.071945,51.6331477],[0.0716875,51.6330305],[0.0714729,51.6329026],[0.0712498,51.6329026],[0.0707863,51.6328494],[0.0703142,51.6328387],[0.0701319,51.6328335],[0.0697563,51.6328227],[0.0694473,51.6328227],[0.0689838,51.6328067],[0.0683652,51.6326779]]]}},
{"type":"Feature","properties":{"highway":"path","name":null,"category":"Shared path"},"geometry":{"type":"MultiLineString","coordinates":[[[0.0685371,51.6329801],[0.0685374,51.6333347],[0.0685976,51.6334993],[0.068692,51.6337284],[0.0688208,51.6338882],[0.0689409,51.6340001],[0.0691469,51.6341599],[0.0692156,51.6342665],[0.0692156,51.6343304],[0.0692499,51.6344156],[0.0694473,51.6345222],[0.0696619,51.6345968],[0.0698336,51.6347033],[0.0699537,51.6347885],[0.0700375,51.6348638],[0.070134,51.6349697],[0.0702799,51.6350975],[0.070443,51.6351987],[0.0705374,51.6353266],[0.0704,51.6354544],[0.0703485,51.6355663],[0.0703657,51.6357208],[0.0703915,51.6359978],[0.0704515,51.6362961],[0.0705717,51.6367223],[0.0705602,51.6367996],[0.0705202,51.6370685],[0.0705374,51.6373349],[0.0705889,51.6375586],[0.0706232,51.6377025],[0.0706857,51.6378397]]]}},
{"type":"Feature","properties":{"highway":"path","name":null,"category":"Shared path"},"geometry":{"type":"MultiLineString","coordinates":[[[0.0736959,51.6340161],[0.0739191,51.6341279],[0.0740822,51.6342345],[0.0742624,51.634373],[0.0743568,51.6344369],[0.0744959,51.6345352],[0.0745285,51.6345595],[0.0748804,51.6347672],[0.0751121,51.6349057],[0.0754211,51.6350762],[0.0756529,51.635284],[0.0760134,51.6355503],[0.0762537,51.6357261],[0.0764254,51.6358753],[0.0766828,51.6360671],[0.0769146,51.6362482],[0.0771206,51.6363814],[0.0773437,51.6365625],[0.0774811,51.6366158],[0.0775669,51.636701],[0.077524,51.6367489]]]}},
{"type":"Feature","properties":{"highway":"track","name":null,"category":"Track"},"geometry":{"type":"MultiLineString","coordinates":[[[0.0635323,51.630288],[0.0635716,51.6304012],[0.0636171,51.6304445],[0.063812,51.6306303],[0.0642114,51.6308866],[0.0645983,51.6309718],[0.0650146,51.6309581],[0.0652779,51.6311295],[0.0655591,51.6313009],[0.0657045,51.6313849],[0.0658044,51.6314426],[0.0660022,51.6315213],[0.0665586,51.6318178],[0.0669877,51.6320688],[0.0674303,51.6323379],[0.067602,51.6324445],[0.067868,51.6325391],[0.0679276,51.6325517],[0.0680872,51.6325854],[0.0683293,51.6326584],[0.0683652,51.6326779],[0.0685712,51.6329639],[0.0688379,51.6333342],[0.0691009,51.6336731],[0.0693186,51.6337048],[0.0694862,51.633722],[0.0696975,51.6337344],[0.0698851,51.6337444],[0.0700911,51.6337444],[0.0704501,51.6337695],[0.0708042,51.6337815],[0.0713897,51.6338096]]]}},
{"type":"Feature","properties":{"highway":"path","name":null,"category":"Shared path"},"geometry":{"type":"MultiLineString","coordinates":[[[0.065038,51.629488],[0.0650349,51.6296402],[0.0651217,51.6297969],[0.0654215,51.63013],[0.0655645,51.6302535],[0.0659659,51.6306002],[0.0663447,51.6308696],[0.0667471,51.6311733],[0.0674888,51.6317022],[0.0679149,51.6319863],[0.0683297,51.6322444],[0.0686172,51.6322949],[0.0689328,51.6323438],[0.0693352,51.6323487]]]}},
{"type":"Feature","properties":{"highway":"footway","name":null,"category":"Footpath (pedestrian only)"},"geometry":{"type":"MultiLineString","coordinates":[[[0.0803368,51.6243219],[0.0802777,51.6243085],[0.0802388,51.6242869],[0.0801704,51.6242736],[0.0801262,51.6242484],[0.0800618,51.6242129],[0.0800076,51.6241776]]]}},
{"type":"Feature","properties":{"highway":"footway","name":null,"category":"Footpath (pedestrian only)"},"geometry":{"type":"MultiLineString","coordinates":[[[0.0805215,51.6241985],[0.080465,51.6242272],[0.0804165,51.6242519],[0.0803368,51.6243219],[0.0803859,51.6243273],[0.0804293,51.6243318],[0.0804601,51.624332],[0.0805488,51.6243483],[0.0806215,51.6243527],[0.0807172,51.6243586]]]}},
{"type":"Feature","properties":{"highway":"footway","name":null,"category":"Footpath (pedestrian only)"},"geometry":{"type":"MultiLineString","coordinates":[[[0.0802777,51.6243085],[0.0801945,51.6243382],[0.0801274,51.6243723],[0.0800912,51.6244306],[0.0800631,51.6245163],[0.0800282,51.6246054],[0.0799625,51.6246928],[0.0798914,51.624742],[0.0797828,51.6247786],[0.0796768,51.6248285],[0.0795387,51.6249151],[0.0794368,51.6249809],[0.0792933,51.6250675],[0.0791605,51.6251441],[0.0790411,51.6252182],[0.078962,51.625279],[0.0789151,51.6252981],[0.0786804,51.6250192],[0.0784108,51.6247003]]]}},
{"type":"Feature","properties":{"highway":"footway","name":null,"category":"Footpath (pedestrian only)"},"geometry":{"type":"MultiLineString","coordinates":[[[0.072302,51.6365602],[0.072444,51.6363432],[0.0726057,51.6361996],[0.0729626,51.6358791],[0.0734854,51.6354805],[0.0737953,51.6352607]]]}},
{"type":"Feature","properties":{"highway":"footway","name":null,"category":"Footpath (pedestrian only)"},"geometry":{"type":"MultiLineString","coordinates":[[[0.0674842,51.6333489],[0.0674028,51.6332342],[0.067334,51.6331374],[0.0672053,51.6330092],[0.0671439,51.6328992],[0.0671087,51.6328361],[0.0673233,51.632638],[0.0674296,51.6326169],[0.0675915,51.6325847],[0.0679276,51.6325517]]]}},
{"type":"Feature","properties":{"highway":"footway","name":null,"category":"Footpath (pedestrian only)"},"geometry":{"type":"MultiLineString","coordinates":[[[0.0671087,51.6328361],[0.066937,51.6326763],[0.0667376,51.6325178],[0.0666688,51.6324632],[0.0662826,51.6322234],[0.0660573,51.6320053],[0.0660171,51.6319487],[0.0659178,51.6318122],[0.0657676,51.6317656],[0.0656898,51.6317256],[0.0655047,51.6317351],[0.065427,51.6317187],[0.0653503,51.6317289],[0.0653237,51.6317343],[0.065317,51.6318401],[0.0654727,51.6318235],[0.0655503,51.631784],[0.0655423,51.631755],[0.0656898,51.6317256]]]}},
{"type":"Feature","properties":{"highway":"footway","name":null,"category":"Footpath (pedestrian only)"},"geometry":{"type":"MultiLineString","coordinates":[[[0.0653893,51.6323475],[0.0656281,51.6323499],[0.0659339,51.6323866],[0.0663738,51.6324498],[0.0667376,51.6325178]]]}},
{"type":"Feature","properties":{"highway":"footway","name":null,"category":"Footpath (pedestrian only)"},"geometry":{"type":"MultiLineString","coordinates":[[[0.0668242,51.6332603],[0.0669424,51.6331957],[0.067098,51.6331058],[0.0671409,51.6330109],[0.0671439,51.6328992]]]}},
{"type":"Feature","properties":{"highway":"footway","name":null,"category":"Footpath (pedestrian only)"},"geometry":{"type":"MultiLineString","coordinates":[[[0.0674028,51.6332342],[0.0672643,51.6332257],[0.0669746,51.6332323],[0.0668242,51.6332603],[0.0666796,51.6332873],[0.0664006,51.6333622],[0.0661485,51.6334704],[0.0656335,51.6334854],[0.0651292,51.6334288],[0.0648342,51.6333522],[0.0643943,51.6331774],[0.0641261,51.6330259],[0.064051,51.6329493],[0.0640456,51.6328394],[0.0641261,51.6326713],[0.0644855,51.6325381],[0.0648771,51.6324648],[0.0652848,51.6323749],[0.0653893,51.6323475],[0.0655262,51.6323117],[0.0657998,51.6322184],[0.0659875,51.6321102],[0.0660171,51.6319487]]]}},
{"type":"Feature","properties":{"highway":"footway","name":null,"category":"Footpath (pedestrian only)"},"geometry":{"type":"MultiLineString","coordinates":[[[0.0935187,51.625334],[0.0932908,51.6254548],[0.0909213,51.6255287],[0.0895309,51.6256886],[0.0890235,51.6257725],[0.0888498,51.6257982],[0.0886443,51.6258151]]]}},
{"type":"Feature","properties":{"highway":"footway","name":null,"category":"Footpath (pedestrian only)"},"geometry":{"type":"MultiLineString","coordinates":[[[0.0884971,51.6258783],[0.0883602,51.6258749],[0.0853106,51.6263344],[0.0852382,51.6263144],[0.085159,51.6262944],[0.0850934,51.6262778],[0.0848117,51.6261679],[0.0845835,51.6260892],[0.0844708,51.6260309],[0.0843879,51.6259781],[0.0841141,51.6258544],[0.0837791,51.6257266],[0.0834438,51.6256467],[0.0832695,51.6256101],[0.0832158,51.6256351],[0.0830761,51.6257346],[0.0829929,51.6257751],[0.0829208,51.6257666],[0.0828578,51.6257591]]]}},
{"type":"Feature","properties":{"highway":"footway","name":null,"category":"Footpath (pedestrian only)"},"geometry":{"type":"MultiLineString","coordinates":[[[0.0773753,51.631989],[0.0774003,51.6320011],[0.0775196,51.6320587],[0.077588,51.6320817],[0.07766,51.6321143],[0.0778181,51.6321924],[0.0779713,51.6322676],[0.0783586,51.6324166],[0.0788109,51.6326162],[0.0791612,51.6327869],[0.0793189,51.6328532],[0.0794106,51.6328927],[0.0795176,51.6329094],[0.0797667,51.6329365],[0.0799865,51.63295],[0.0800802,51.6329824],[0.0802356,51.6330726],[0.0803832,51.6331645],[0.0804919,51.6332364],[0.080575,51.6332401],[0.080662,51.6332082],[0.0807628,51.63311],[0.0809427,51.6329406],[0.0812948,51.6326146],[0.0813364,51.6325642],[0.0813553,51.6324806],[0.081323,51.6324292],[0.0811449,51.6322457],[0.0809389,51.6320696],[0.0808862,51.6320419],[0.0807184,51.6319827],[0.080465,51.6318934],[0.0801758,51.6317961],[0.0800845,51.6317477],[0.0798909,51.6315937],[0.0797347,51.6315281],[0.0794717,51.631425],[0.0793814,51.6313876],[0.0791574,51.6312949],[0.0789815,51.6312107],[0.0789241,51.6311832],[0.0787777,51.6310789],[0.0786367,51.6309504],[0.0786229,51.6309378]]]}},
{"type":"Feature","properties":{"highway":"footway","name":null,"category":"Footpath (pedestrian only)"},"geometry":{"type":"MultiLineString","coordinates":[[[0.0793814,51.6313876],[0.0791119,51.6314815],[0.0788881,51.6315829],[0.0787759,51.6316791],[0.0786843,51.6317715],[0.0785602,51.6318488],[0.0783975,51.631948],[0.0780923,51.6321807],[0.0779713,51.6322676]]]}},
{"type":"Feature","properties":{"highway":"path","name":null,"category":"Shared path"},"geometry":{"type":"MultiLineString","coordinates":[[[0.077588,51.6320817],[0.0778307,51.6320006],[0.0779711,51.6319576],[0.0780106,51.6318938],[0.0780165,51.6318374],[0.0780205,51.6317686],[0.0780462,51.6317404],[0.0781196,51.6316796],[0.0782526,51.6316586],[0.0783799,51.6316455],[0.0784616,51.6316093],[0.0785048,51.6315557],[0.0785223,51.6314607],[0.0785118,51.631389],[0.0785457,51.6313274],[0.0785854,51.6312745],[0.0786438,51.631244],[0.078764,51.6312419],[0.078931,51.6312332],[0.0789815,51.6312107]]]}},
{"type":"Feature","properties":{"highway":"footway","name":null,"category":"Footpath (pedestrian only)"},"geometry":{"type":"MultiLineString","coordinates":[[[0.0788109,51.6326162],[0.0791277,51.6323335],[0.0792345,51.6322479],[0.0800845,51.6317477]]]}},
{"type":"Feature","properties":{"highway":"path","name":null,"category":"Shared path"},"geometry":{"type":"MultiLineString","coordinates":[[[0.0788109,51.6326162],[0.0786514,51.6327277],[0.0785494,51.632806],[0.0784743,51.6328692],[0.0784556,51.6329109],[0.0785038,51.6329641],[0.0786782,51.633039],[0.0790054,51.6331839],[0.0791765,51.6332662],[0.0791454,51.6334373],[0.0791079,51.6335278],[0.0790354,51.6336584],[0.0789663,51.6337629],[0.0792844,51.6338898],[0.0794668,51.633978],[0.0795901,51.6339847],[0.0797135,51.6339014],[0.0799227,51.6337499],[0.0801105,51.6335918],[0.0802902,51.6334519],[0.080427,51.6333803],[0.0805513,51.6333008],[0.080575,51.6332401]]]}},
{"type":"Feature","properties":{"highway":"footway","name":null,"category":"Footpath (pedestrian only)"},"geometry":{"type":"MultiLineString","coordinates":[[[0.0775196,51.6320587],[0.0772659,51.6323094],[0.076939,51.6326276],[0.0766342,51.6328908],[0.0763558,51.633102],[0.0761305,51.633261],[0.0760731,51.6333022],[0.0759231,51.6332718]]]}},
{"type":"Feature","properties":{"highway":"footway","name":null,"category":"Footpath (pedestrian only)"},"geometry":{"type":"MultiLineString","coordinates":[[[0.0842099,51.6247381],[0.084281,51.6247593],[0.0849645,51.624182],[0.085034,51.6242047]]]}},
{"type":"Feature","properties":{"highway":"footway","name":null,"category":"Footpath (pedestrian only)"},"geometry":{"type":"MultiLineString","coordinates":[[[0.0775669,51.636701],[0.0778937,51.6368701],[0.0783681,51.6371722],[0.0785222,51.637264],[0.0782264,51.6376503],[0.0781032,51.6377727],[0.0779738,51.6378645],[0.0775363,51.6381781],[0.0771789,51.6382469],[0.0769509,51.6384228],[0.0756152,51.6389731],[0.075428,51.6388162],[0.0749975,51.6388162],[0.0747017,51.6387976],[0.0745529,51.638745]]]}},
{"type":"Feature","properties":{"highway":"track","name":null,"category":"Track"},"geometry":{"type":"MultiLineString","coordinates":[[[0.068033,51.6329851],[0.0679888,51.6330099],[0.0679558,51.6330408],[0.0679362,51.6330758],[0.067931,51.6331127],[0.0679406,51.6331493],[0.0679645,51.6331832],[0.0680011,51.6332125],[0.0680482,51.6332352],[0.0681029,51.6332501],[0.0681558,51.6332559],[0.0682094,51.6332543],[0.0682612,51.6332453],[0.0683084,51.6332294],[0.0683488,51.6332074],[0.0683803,51.6331804],[0.0684013,51.6331497],[0.0684111,51.6331134],[0.0684062,51.6330767],[0.0683871,51.6330419],[0.0683549,51.6330111],[0.0683114,51.6329861],[0.0682594,51.6329684],[0.0682021,51.6329592],[0.0681428,51.632959],[0.0680853,51.6329678],[0.068033,51.6329851]]]}},
{"type":"Feature","properties":{"highway":"track","name":null,"category":"Track"},"geometry":{"type":"MultiLineString","coordinates":[[[0.0691407,51.6338008],[0.0690965,51.6338257],[0.0690636,51.6338566],[0.0690439,51.6338916],[0.0690387,51.6339285],[0.0690484,51.633965],[0.0690722,51.633999],[0.0691088,51.6340282],[0.0691559,51.634051],[0.0692106,51.6340658],[0.0692635,51.6340716],[0.0693172,51.63407],[0.0693689,51.6340611],[0.0694162,51.6340452],[0.0694565,51.6340231],[0.069488,51.6339961],[0.069509,51.6339654],[0.0695188,51.6339291],[0.069514,51.6338925],[0.0694949,51.6338577],[0.0694626,51.6338268],[0.0694192,51.6338018],[0.0693672,51.6337842],[0.0693098,51.633775],[0.0692506,51.6337748],[0.069193,51.6337836],[0.0691407,51.6338008]]]}},
{"type":"Feature","properties":{"highway":"track","name":null,"category":"Track"},"geometry":{"type":"MultiLineString","coordinates":[[[0.0706803,51.634818],[0.0706361,51.6348429],[0.0706032,51.6348738],[0.0705835,51.6349087],[0.0705783,51.6349457],[0.070588,51.6349822],[0.0706118,51.6350162],[0.0706484,51.6350454],[0.0706955,51.6350682],[0.0707502,51.635083],[0.0708031,51.6350888],[0.0708568,51.6350872],[0.0709085,51.6350782],[0.0709558,51.6350623],[0.0709961,51.6350403],[0.0710276,51.6350133],[0.0710486,51.6349826],[0.0710584,51.6349463],[0.0710536,51.6349097],[0.0710345,51.6348749],[0.0710022,51.634844],[0.0709588,51.634819],[0.0709068,51.6348014],[0.0708494,51.6347922],[0.0707902,51.634792],[0.0707326,51.6348007],[0.0706803,51.634818]]]}},
{"type":"Feature","properties":{"highway":"track","name":null,"category":"Track"},"geometry":{"type":"MultiLineString","coordinates":[[[0.0714917,51.633682],[0.0714475,51.6337069],[0.0714145,51.6337378],[0.0713949,51.6337727],[0.0713897,51.6338096],[0.0713993,51.6338462],[0.0714232,51.6338801],[0.0714598,51.6339094],[0.0715069,51.6339321],[0.0715616,51.633947],[0.0716145,51.6339528],[0.0716682,51.6339512],[0.0717199,51.6339422],[0.0717671,51.6339263],[0.0718075,51.6339043],[0.071839,51.6338773],[0.07186,51.6338466],[0.0718698,51.6338103],[0.071865,51.6337737],[0.0718458,51.6337389],[0.0718136,51.633708],[0.0717701,51.633683],[0.0717181,51.6336654],[0.0716608,51.6336561],[0.0716015,51.6336559],[0.071544,51.6336647],[0.0714917,51.633682]]]}},
{"type":"Feature","properties":{"highway":"track","name":null,"category":"Track"},"geometry":{"type":"MultiLineString","coordinates":[[[0.0685712,51.6329639],[0.0685371,51.6329801],[0.0683871,51.6330419]]]}},
{"type":"Feature","properties":{"highway":"track","name":null,"category":"Track"},"geometry":{"type":"MultiLineString","coordinates":[[[0.0691009,51.6336731],[0.069193,51.6337836]]]}},
{"type":"Feature","properties":{"highway":"track","name":null,"category":"Track"},"geometry":{"type":"MultiLineString","coordinates":[[[0.0707902,51.634792],[0.0705016,51.633892],[0.0704501,51.6337695]]]}},
{"type":"Feature","properties":{"highway":"footway","name":null,"category":"Footpath (pedestrian only)"},"geometry":{"type":"MultiLineString","coordinates":[[[0.0766479,51.6209629],[0.0766695,51.6209606],[0.0767103,51.6209677],[0.0767756,51.6209788],[0.0768572,51.6210325],[0.0771672,51.6213354],[0.0775767,51.6217264],[0.0778403,51.6219751],[0.0778622,51.6219959],[0.0780303,51.6221499],[0.0782277,51.6223089],[0.0784137,51.622472],[0.0790044,51.6229653],[0.0796505,51.6235093],[0.0801522,51.6239586],[0.0802216,51.6240208],[0.080465,51.6242272],[0.0805071,51.6242629],[0.0806215,51.6243527],[0.0807535,51.6244564],[0.0807701,51.6244855],[0.0807966,51.6245145],[0.0808224,51.6245418],[0.0808587,51.6245597],[0.0810745,51.6247063],[0.0812196,51.6248305],[0.0812383,51.6248455]]]}},
{"type":"Feature","properties":{"highway":"footway","name":null,"category":"Footpath (pedestrian only)"},"geometry":{"type":"MultiLineString","coordinates":[[[0.0812383,51.6248455],[0.0812725,51.6248724],[0.081305,51.624899],[0.0819201,51.6253913],[0.0821191,51.6255351],[0.0823443,51.6257316],[0.082496,51.6258511],[0.0825156,51.6258714]]]}},
{"type":"Feature","properties":{"highway":"footway","name":null,"category":"Footpath (pedestrian only)"},"geometry":{"type":"MultiLineString","coordinates":[[[0.0812383,51.6248455],[0.081296,51.6248216],[0.081362,51.6247988]]]}},
{"type":"Feature","properties":{"highway":"footway","name":null,"category":"Footpath (pedestrian only)"},"geometry":{"type":"MultiLineString","coordinates":[[[0.0837452,51.6250458],[0.0840312,51.6248081]]]}},
{"type":"Feature","properties":{"highway":"footway","name":null,"category":"Footpath (pedestrian only)"},"geometry":{"type":"MultiLineString","coordinates":[[[0.0840312,51.6248081],[0.0841416,51.6247164]]]}},
{"type":"Feature","properties":{"highway":"footway","name":null,"category":"Footpath (pedestrian only)"},"geometry":{"type":"MultiLineString","coordinates":[[[0.0841416,51.6247164],[0.0841477,51.6247113],[0.0842642,51.6246145],[0.0843662,51.6245188]]]}},
{"type":"Feature","properties":{"highway":"footway","name":null,"category":"Footpath (pedestrian only)"},"geometry":{"type":"MultiLineString","coordinates":[[[0.0841416,51.6247164],[0.0841783,51.6247287],[0.0842099,51.6247381]]]}},
{"type":"Feature","properties":{"highway":"path","name":null,"category":"Shared path"},"geometry":{"type":"MultiLineString","coordinates":[[[0.0807184,51.6319827],[0.0806973,51.6320151],[0.0806678,51.6320259],[0.0806283,51.6321161],[0.0805938,51.6321314],[0.0805322,51.6321375],[0.0804681,51.6321574],[0.0804262,51.6321987],[0.0803843,51.6322446],[0.0803399,51.6322599],[0.0801107,51.6324451]]]}},
{"type":"Feature","properties":{"highway":"footway","name":null,"category":"Footpath (pedestrian only)"},"geometry":{"type":"MultiLineString","coordinates":[[[0.0801823,51.6303465],[0.0802682,51.630381],[0.0803541,51.6304156],[0.0804238,51.6304927],[0.0805354,51.6305648],[0.0806713,51.6306182],[0.0808234,51.6306586],[0.0809558,51.6306816],[0.0810893,51.6307285]]]}},
{"type":"Feature","properties":{"highway":"footway","name":null,"category":"Footpath (pedestrian only)"},"geometry":{"type":"MultiLineString","coordinates":[[[0.0805417,51.6301879],[0.0805505,51.6302591],[0.080655,51.6302894],[0.0807479,51.6303211],[0.0808699,51.6303968],[0.0809605,51.6304776],[0.0810058,51.6305619],[0.0809998,51.6305961],[0.080993,51.6306355],[0.0809558,51.6306816]]]}},
{"type":"Feature","properties":{"highway":"footway","name":null,"category":"Footpath (pedestrian only)"},"geometry":{"type":"MultiLineString","coordinates":[[[0.0802682,51.630381],[0.0803425,51.630342],[0.0803681,51.6303265],[0.0804482,51.6302779],[0.0805505,51.6302591],[0.0805422,51.6303011]]]}},
{"type":"Feature","properties":{"highway":"footway","name":null,"category":"Footpath (pedestrian only)"},"geometry":{"type":"MultiLineString","coordinates":[[[0.0805095,51.6304091],[0.0805156,51.6304268],[0.0805981,51.6304516],[0.0807235,51.6304552],[0.0808002,51.6304689],[0.0808815,51.6305093],[0.0809442,51.6305547],[0.0809998,51.6305961]]]}},
{"type":"Feature","properties":{"highway":"footway","name":null,"category":"Footpath (pedestrian only)"},"geometry":{"type":"MultiLineString","coordinates":[[[0.0805898,51.6303966],[0.0805657,51.6304062],[0.080538,51.6304105],[0.0805095,51.6304091],[0.0804833,51.6304021],[0.0804611,51.6303897],[0.0804469,51.6303734],[0.0804421,51.6303552],[0.0804474,51.6303369],[0.0804622,51.6303209],[0.0804746,51.6303142],[0.0804847,51.6303087],[0.0805124,51.6303019],[0.0805422,51.6303011],[0.0805707,51.6303066],[0.0805938,51.630317],[0.0806103,51.6303315],[0.0806185,51.6303485],[0.0806177,51.6303662],[0.0806077,51.6303828],[0.0805898,51.6303966]]]}},
{"type":"Feature","properties":{"highway":"footway","name":null,"category":"Footpath (pedestrian only)"},"geometry":{"type":"MultiLineString","coordinates":[[[0.0805059,51.6303398],[0.0804993,51.6303447],[0.0804956,51.6303506],[0.080495,51.6303569],[0.0804978,51.630363],[0.0805035,51.6303683],[0.0805116,51.6303721],[0.0805212,51.6303742],[0.0805319,51.6303742],[0.0805421,51.630372],[0.0805504,51.6303678],[0.0805561,51.6303622],[0.0805584,51.6303557],[0.080557,51.630349],[0.0805522,51.6303431],[0.0805445,51.6303385],[0.0805347,51.6303357],[0.0805246,51.6303351],[0.0805146,51.6303365],[0.0805059,51.6303398]]]}},
{"type":"Feature","properties":{"highway":"footway","name":null,"category":"Footpath (pedestrian only)"},"geometry":{"type":"MultiLineString","coordinates":[[[0.0805522,51.6303431],[0.0805938,51.630317]]]}},
{"type":"Feature","properties":{"highway":"footway","name":null,"category":"Footpath (pedestrian only)"},"geometry":{"type":"MultiLineString","coordinates":[[[0.0805035,51.6303683],[0.0804611,51.6303897]]]}},
{"type":"Feature","properties":{"highway":"footway","name":null,"category":"Footpath (pedestrian only)"},"geometry":{"type":"MultiLineString","coordinates":[[[0.0805504,51.6303678],[0.0805898,51.6303966]]]}},
{"type":"Feature","properties":{"highway":"footway","name":null,"category":"Footpath (pedestrian only)"},"geometry":{"type":"MultiLineString","coordinates":[[[0.0805059,51.6303398],[0.0804746,51.6303142]]]}},
{"type":"Feature","properties":{"highway":"path","name":null,"category":"Shared path"},"geometry":{"type":"MultiLineString","coordinates":[[[0.083423,51.6276769],[0.0833991,51.6277709],[0.083395,51.6278576],[0.0834281,51.6280388],[0.083468,51.6281644],[0.0835162,51.6282958],[0.0835701,51.6284645]]]}},
{"type":"Feature","properties":{"highway":"footway","name":null,"category":"Footpath (pedestrian only)"},"geometry":{"type":"MultiLineString","coordinates":[[[0.0670646,51.6341092],[0.0672269,51.634148],[0.0673395,51.6341296],[0.0674802,51.6341214],[0.0677452,51.6341891],[0.0680381,51.6342972],[0.0683105,51.6345342],[0.0687504,51.6347648],[0.0692054,51.6350217],[0.069354,51.6351602],[0.0694197,51.6352744],[0.0694317,51.6353882],[0.0693564,51.6355007],[0.0690613,51.6357809],[0.0689221,51.6358155],[0.0687504,51.6358577],[0.0684755,51.6359509],[0.068276,51.6360368],[0.0681818,51.6361307],[0.0681858,51.6362264],[0.0682434,51.6363471],[0.068237,51.6364005],[0.0682686,51.63643],[0.0683098,51.6364541],[0.0684644,51.6364954],[0.0684007,51.6365234],[0.0683464,51.6365502],[0.0683001,51.6365822],[0.0682122,51.6366621],[0.0680268,51.6368466],[0.0678374,51.637024]]]}},
{"type":"Feature","properties":{"highway":"footway","name":null,"category":"Footpath (pedestrian only)"},"geometry":{"type":"MultiLineString","coordinates":[[[0.0705533,51.6382368],[0.0707822,51.6384696],[0.0708432,51.638551],[0.0708942,51.638805],[0.0708993,51.6389755],[0.0709219,51.6390872],[0.0709697,51.6391469],[0.0711027,51.6391811]]]}},
{"type":"Feature","properties":{"highway":"path","name":null,"category":"Shared path"},"geometry":{"type":"MultiLineString","coordinates":[[[0.0705533,51.6382368],[0.0684512,51.6382649],[0.0673434,51.6380189],[0.0665041,51.6383508]]]}},
{"type":"Feature","properties":{"highway":"path","name":null,"category":"Shared path"},"geometry":{"type":"MultiLineString","coordinates":[[[0.0828321,51.6278517],[0.0828921,51.6279083],[0.0829343,51.6278884],[0.0829748,51.6279256]]]}},
{"type":"Feature","properties":{"highway":"footway","name":null,"category":"Footpath (pedestrian only)"},"geometry":{"type":"MultiLineString","coordinates":[[[0.0832045,51.6279267],[0.0831715,51.6278716],[0.0830947,51.6278245],[0.0830305,51.6278103],[0.0829495,51.6278135],[0.0828743,51.6278276],[0.0828321,51.6278517],[0.0827848,51.6278968],[0.08267,51.6280294]]]}},
{"type":"Feature","properties":{"highway":"footway","name":null,"category":"Footpath (pedestrian only)"},"geometry":{"type":"MultiLineString","coordinates":[[[0.087136,51.6248625],[0.0872496,51.624954],[0.0873461,51.6250889],[0.0874963,51.6252587],[0.087778,51.6254436],[0.0879174,51.6255102],[0.0881173,51.6255893]]]}},
{"type":"Feature","properties":{"highway":"track","name":null,"category":"Track"},"geometry":{"type":"MultiLineString","coordinates":[[[0.0886443,51.6258151],[0.0885223,51.6257533],[0.0881173,51.6255893]]]}},
{"type":"Feature","properties":{"highway":"footway","name":null,"category":"Footpath (pedestrian only)"},"geometry":{"type":"MultiLineString","coordinates":[[[0.0850765,51.624206],[0.0853014,51.6240811],[0.0854253,51.6240648],[0.0857116,51.6238214],[0.0862446,51.6233816],[0.0864968,51.6232053],[0.0883287,51.6219667]]]}}
]
}
