{
"type": "FeatureCollection",
"name": "EPPFO_230_walking",
"crs": { "type": "name", "properties": { "name": "urn:ogc:def:crs:OGC:1.3:CRS84" } },
"features": [
{"type":"Feature","properties":{"highway":"footway","name":null,"category":"Footpath (pedestrian only)"},"geometry":{"type":"MultiLineString","coordinates":[[[0.241675,51.7041359],[0.2424105,51.7048341],[0.2428912,51.7052756],[0.2429179,51.7053043],[0.2429082,51.7053556]]]}},
{"type":"Feature","properties":{"highway":"footway","name":null,"category":"Footpath (pedestrian only)"},"geometry":{"type":"MultiLineString","coordinates":[[[0.2497925,51.7054145],[0.2496348,51.705589],[0.249575,51.705672],[0.249544,51.705685],[0.249322,51.705739],[0.249129,51.705719],[0.249059,51.705697],[0.248732,51.705611],[0.248693,51.705599],[0.248507,51.705592],[0.248408,51.705619],[0.248179,51.705718],[0.248166,51.705726],[0.247992,51.705821],[0.247782,51.705922],[0.24756,51.706034],[0.24752,51.70605],[0.247335,51.706105],[0.247208,51.706059],[0.24703,51.705948],[0.246879,51.705837],[0.246823,51.705828],[0.2466701,51.7057259],[0.2465136,51.7057318],[0.2462204,51.7058099],[0.2461651,51.7058324]]]}},
{"type":"Feature","properties":{"highway":"footway","name":null,"category":"Footpath (pedestrian only)"},"geometry":{"type":"MultiLineString","coordinates":[[[0.2460468,51.7040277],[0.2461214,51.7038957],[0.2461309,51.7038283],[0.2461282,51.7037938],[0.2461336,51.7037794],[0.2461658,51.7037406],[0.2462167,51.7037149],[0.2463522,51.7036874],[0.2465676,51.703652],[0.2467102,51.7034185]]]}},
{"type":"Feature","properties":{"highway":"footway","name":null,"category":"Footpath (pedestrian only)"},"geometry":{"type":"MultiLineString","coordinates":[[[0.2558685,51.7091362],[0.2559634,51.7091007],[0.2574745,51.7087125],[0.2576352,51.7086712]]]}},
{"type":"Feature","properties":{"highway":"footway","name":null,"category":"Footpath (pedestrian only)"},"geometry":{"type":"MultiLineString","coordinates":[[[0.2414692,51.7026592],[0.2418813,51.7026004]]]}},
{"type":"Feature","properties":{"highway":"footway","name":null,"category":"Footpath (pedestrian only)"},"geometry":{"type":"MultiLineString","coordinates":[[[0.2418813,51.7026004],[0.2419567,51.7025826],[0.2420047,51.7024774],[0.2421605,51.7022335],[0.2425468,51.7016268]]]}},
{"type":"Feature","properties":{"highway":"footway","name":null,"category":"Footpath (pedestrian only)"},"geometry":{"type":"MultiLineString","coordinates":[[[0.2510277,51.7088362],[0.2509287,51.7088299],[0.2508348,51.7089487],[0.2503096,51.7089105],[0.2495055,51.7088447],[0.2493117,51.7088182],[0.248311,51.7086909],[0.2471546,51.7085187],[0.2464672,51.7084016],[0.2459867,51.7083096]]]}},
{"type":"Feature","properties":{"highway":"path","name":null,"category":"Shared path"},"geometry":{"type":"MultiLineString","coordinates":[[[0.2430565,51.705362],[0.2429517,51.7053604]]]}},
{"type":"Feature","properties":{"highway":"footway","name":null,"category":"Footpath (pedestrian only)"},"geometry":{"type":"MultiLineString","coordinates":[[[0.2429082,51.7053556],[0.2428504,51.7053493],[0.2425476,51.7053279],[0.2423037,51.7053158],[0.2420438,51.7052977],[0.2417861,51.7052852],[0.2413512,51.7052868],[0.2410058,51.7052985],[0.2403546,51.7052928],[0.2398665,51.7052706],[0.2395199,51.7052464],[0.2391865,51.7052436],[0.2385006,51.7052314],[0.2367546,51.7052125],[0.2358532,51.7052035],[0.2354037,51.7051911],[0.2351115,51.7051811],[0.2349827,51.7051755],[0.2346139,51.7051776],[0.2341581,51.7051785],[0.2335544,51.70517],[0.2331335,51.7051695],[0.2318133,51.7051508],[0.2315703,51.705138],[0.2313136,51.7051017],[0.2312159,51.7050893],[0.2311359,51.7050792],[0.2308628,51.7050377],[0.2305919,51.7050391],[0.2302057,51.7050349],[0.229972,51.7050374],[0.2295403,51.7050161],[0.2292704,51.704998],[0.228988,51.7049104],[0.2288029,51.7047987],[0.2286447,51.7047513],[0.2284864,51.7047498],[0.2282197,51.7047444],[0.2278507,51.704736],[0.2275284,51.7047041],[0.2272658,51.7046704],[0.226969,51.7046232],[0.2266532,51.7045686],[0.2264459,51.7044881],[0.2262177,51.7043737],[0.2260811,51.7043112],[0.2259143,51.7042199]]]}},
{"type":"Feature","properties":{"highway":"footway","name":null,"category":"Footpath (pedestrian only)"},"geometry":{"type":"MultiLineString","coordinates":[[[0.2425934,51.7015599],[0.2425468,51.7016268]]]}},
{"type":"Feature","properties":{"highway":"footway","name":null,"category":"Footpath (pedestrian only)"},"geometry":{"type":"MultiLineString","coordinates":[[[0.2423094,51.7009377],[0.242627,51.7008228],[0.2427026,51.7007446]]]}},
{"type":"Feature","properties":{"highway":"footway","name":null,"category":"Footpath (pedestrian only)"},"geometry":{"type":"MultiLineString","coordinates":[[[0.2425934,51.7015599],[0.2430819,51.7010951]]]}},
{"type":"Feature","properties":{"highway":"footway","name":null,"category":"Footpath (pedestrian only)"},"geometry":{"type":"MultiLineString","coordinates":[[[0.2357711,51.7090951],[0.2360955,51.7090624],[0.2366698,51.7090112],[0.2374503,51.7089502],[0.2383703,51.7088625],[0.2384561,51.7087646],[0.2388343,51.7083881],[0.2397892,51.7077119],[0.2401325,51.7074373],[0.2405827,51.7069054]]]}},
{"type":"Feature","properties":{"highway":"footway","name":null,"category":"Footpath (pedestrian only)"},"geometry":{"type":"MultiLineString","coordinates":[[[0.2467972,51.7034204],[0.2468143,51.7032559],[0.2468304,51.7031029],[0.2468733,51.7029367],[0.2468894,51.7025843],[0.246865,51.7022234],[0.2468143,51.701946],[0.2468036,51.7018795],[0.246755,51.7017474],[0.2467566,51.7016679],[0.2467499,51.7015953],[0.2467875,51.701547],[0.2469055,51.7014307],[0.2470021,51.701301],[0.2470986,51.7011447],[0.2471763,51.7010467]]]}},
{"type":"Feature","properties":{"highway":"footway","name":null,"category":"Footpath (pedestrian only)"},"geometry":{"type":"MultiLineString","coordinates":[[[0.2471763,51.7010467],[0.2472703,51.7009785]]]}},
{"type":"Feature","properties":{"highway":"footway","name":null,"category":"Footpath (pedestrian only)"},"geometry":{"type":"MultiLineString","coordinates":[[[0.2472703,51.7009785],[0.2474258,51.7008921],[0.2476887,51.7007757],[0.2480535,51.7006361],[0.2484934,51.7004698],[0.2489869,51.7002836],[0.2493839,51.7001274],[0.2498291,51.6999512],[0.2502475,51.6998082],[0.250564,51.6996686],[0.2510707,51.6994772],[0.2514062,51.6993594],[0.251535,51.6993128],[0.2519129,51.6992445],[0.2520485,51.69922],[0.252345,51.6991665],[0.2527581,51.6991033]]]}},
{"type":"Feature","properties":{"highway":"footway","name":null,"category":"Footpath (pedestrian only)"},"geometry":{"type":"MultiLineString","coordinates":[[[0.2419899,51.7103603],[0.2417729,51.7104544],[0.2420357,51.7106771],[0.241392,51.7110128],[0.2386133,51.712492],[0.238569,51.7126324],[0.2386695,51.7127861],[0.238676,51.7128919]]]}},
{"type":"Feature","properties":{"highway":"track","name":null,"category":"Track"},"geometry":{"type":"MultiLineString","coordinates":[[[0.2481738,51.7038159],[0.2483606,51.7042084],[0.2484311,51.7044682],[0.2492122,51.7050217],[0.2493356,51.7051514],[0.2494836,51.7052658],[0.2496275,51.7053172],[0.249814,51.7053319]]]}},
{"type":"Feature","properties":{"highway":"track","name":null,"category":"Track"},"geometry":{"type":"MultiLineString","coordinates":[[[0.2508668,51.7051059],[0.2502767,51.7051956],[0.2499378,51.7052804]]]}},
{"type":"Feature","properties":{"highway":"footway","name":null,"category":"Footpath (pedestrian only)"},"geometry":{"type":"MultiLineString","coordinates":[[[0.2467151,51.7071614],[0.246852,51.7068467],[0.2469817,51.7065486],[0.2478431,51.7066527],[0.2480831,51.7066789],[0.2487545,51.7067626],[0.2497567,51.7059326]]]}},
{"type":"Feature","properties":{"highway":"footway","name":null,"category":"Footpath (pedestrian only)"},"geometry":{"type":"MultiLineString","coordinates":[[[0.2487545,51.7067626],[0.2498963,51.7068722],[0.2497567,51.7059326],[0.2497399,51.705878],[0.2496348,51.705589]]]}},
{"type":"Feature","properties":{"highway":"track","name":null,"category":"Track"},"geometry":{"type":"MultiLineString","coordinates":[[[0.2562692,51.7129924],[0.2562888,51.7129368],[0.2562405,51.7129068],[0.2561762,51.7128769],[0.2559857,51.7128553],[0.2557765,51.7128354],[0.2554225,51.7128354],[0.2550443,51.7128221],[0.2546849,51.7128057],[0.2545308,51.7127874],[0.2545534,51.7127506],[0.2546044,51.7125545],[0.2546446,51.7124581],[0.2547385,51.7122321],[0.2548324,51.7119945],[0.2549665,51.7116936],[0.255047,51.7114992],[0.2550952,51.7112632],[0.2551516,51.7109657],[0.2552106,51.7107314],[0.2552565,51.7106003]]]}},
{"type":"Feature","properties":{"highway":"footway","name":null,"category":"Footpath (pedestrian only)"},"geometry":{"type":"MultiLineString","coordinates":[[[0.2515547,51.7075004],[0.2513402,51.7075004],[0.2512972,51.7074904]]]}},
{"type":"Feature","properties":{"highway":"path","name":null,"category":"Shared path"},"geometry":{"type":"MultiLineString","coordinates":[[[0.2511224,51.7090209],[0.2511411,51.7090602],[0.2511297,51.7091371],[0.2510652,51.7092999],[0.2510211,51.7095166],[0.2509789,51.7096587],[0.2509279,51.7098446],[0.2508505,51.7101605],[0.2507975,51.710467],[0.250771,51.710631],[0.2503447,51.7123779],[0.2503111,51.7125256],[0.2502929,51.7126052]]]}},
{"type":"Feature","properties":{"highway":"track","name":null,"category":"Track"},"geometry":{"type":"MultiLineString","coordinates":[[[0.2510277,51.7088362],[0.2510276,51.7087383],[0.2510451,51.708604],[0.2510934,51.708368],[0.251147,51.7081768],[0.2511739,51.7080605],[0.2512382,51.7077663],[0.2512972,51.7074904],[0.2513267,51.707379],[0.2513777,51.7071746],[0.2513735,51.7070849],[0.2510813,51.7070537],[0.250546,51.7069996],[0.2501558,51.7069364],[0.2500661,51.706892],[0.2500071,51.7067175],[0.2499508,51.7064466],[0.2498542,51.7059446],[0.2498456,51.7059071]]]}},
{"type":"Feature","properties":{"highway":"footway","name":null,"category":"Footpath (pedestrian only)"},"geometry":{"type":"MultiLineString","coordinates":[[[0.2437232,51.6994193],[0.244303,51.6995472],[0.2451124,51.6996324],[0.2451808,51.6996374]]]}},
{"type":"Feature","properties":{"highway":"footway","name":null,"category":"Footpath (pedestrian only)"},"geometry":{"type":"MultiLineString","coordinates":[[[0.2468475,51.6999261],[0.246867,51.7000662],[0.2469578,51.7003199],[0.2469645,51.7003696],[0.2472703,51.7009785]]]}},
{"type":"Feature","properties":{"highway":"footway","name":null,"category":"Footpath (pedestrian only)"},"geometry":{"type":"MultiLineString","coordinates":[[[0.2472703,51.7009785],[0.2479482,51.7003347],[0.2480745,51.7001869],[0.2484256,51.6997762],[0.2489299,51.6991511],[0.2492088,51.6987721],[0.249815,51.6981304],[0.2506894,51.6975951],[0.2523524,51.6972061],[0.2533182,51.69736],[0.2551493,51.6976518]]]}},
{"type":"Feature","properties":{"highway":"footway","name":null,"category":"Footpath (pedestrian only)"},"geometry":{"type":"MultiLineString","coordinates":[[[0.2439709,51.7127435],[0.2440218,51.7130094],[0.2440353,51.7130072]]]}},
{"type":"Feature","properties":{"highway":"footway","name":null,"category":"Footpath (pedestrian only)"},"geometry":{"type":"MultiLineString","coordinates":[[[0.2449599,51.7132308],[0.2443899,51.7132628]]]}},
{"type":"Feature","properties":{"highway":"footway","name":null,"category":"Footpath (pedestrian only)"},"geometry":{"type":"MultiLineString","coordinates":[[[0.2552565,51.7106003],[0.2538539,51.7098604],[0.252988,51.7094077],[0.2524683,51.7091065]]]}},
{"type":"Feature","properties":{"highway":"footway","name":null,"category":"Footpath (pedestrian only)"},"geometry":{"type":"MultiLineString","coordinates":[[[0.2574745,51.7087125],[0.2553932,51.70726],[0.2498456,51.7059071],[0.2497399,51.705878]]]}},
{"type":"Feature","properties":{"highway":"footway","name":null,"category":"Footpath (pedestrian only)"},"geometry":{"type":"MultiLineString","coordinates":[[[0.2405827,51.7069054],[0.2428504,51.7053493]]]}},
{"type":"Feature","properties":{"highway":"footway","name":null,"category":"Footpath (pedestrian only)"},"geometry":{"type":"MultiLineString","coordinates":[[[0.2483415,51.7114679],[0.2489004,51.7112018]]]}},
{"type":"Feature","properties":{"highway":"footway","name":null,"category":"Footpath (pedestrian only)"},"geometry":{"type":"MultiLineString","coordinates":[[[0.2446413,51.7091234],[0.2454473,51.7091887],[0.2455582,51.7092127]]]}},
{"type":"Feature","properties":{"highway":"footway","name":null,"category":"Footpath (pedestrian only)"},"geometry":{"type":"MultiLineString","coordinates":[[[0.2447717,51.7084553],[0.2454927,51.7085637],[0.2456048,51.7083095],[0.2460497,51.7083933],[0.2459148,51.7086362],[0.2463955,51.7087192],[0.2467676,51.7087834]]]}},
{"type":"Feature","properties":{"highway":"footway","name":null,"category":"Footpath (pedestrian only)"},"geometry":{"type":"MultiLineString","coordinates":[[[0.2462936,51.7089196],[0.2463955,51.7087192],[0.2465218,51.7084686],[0.2460716,51.7083572],[0.2460497,51.7083933]]]}},
{"type":"Feature","properties":{"highway":"footway","name":null,"category":"Footpath (pedestrian only)"},"geometry":{"type":"MultiLineString","coordinates":[[[0.2454927,51.7085637],[0.2453824,51.7088092]]]}},
{"type":"Feature","properties":{"highway":"footway","name":null,"category":"Footpath (pedestrian only)"},"geometry":{"type":"MultiLineString","coordinates":[[[0.2459867,51.7083096],[0.2460716,51.7083572]]]}},
{"type":"Feature","properties":{"highway":"footway","name":null,"category":"Footpath (pedestrian only)"},"geometry":{"type":"MultiLineString","coordinates":[[[0.2491874,51.7092086],[0.2493117,51.7088182]]]}},
{"type":"Feature","properties":{"highway":"path","name":null,"category":"Shared path"},"geometry":{"type":"MultiLineString","coordinates":[[[0.2431965,51.705373],[0.2430565,51.705362]]]}},
{"type":"Feature","properties":{"highway":"footway","name":null,"category":"Footpath (pedestrian only)"},"geometry":{"type":"MultiLineString","coordinates":[[[0.2477818,51.7036849],[0.2475301,51.7037557],[0.2471649,51.7039036],[0.2469204,51.7039914],[0.2468012,51.7040316]]]}},
{"type":"Feature","properties":{"highway":"footway","name":null,"category":"Footpath (pedestrian only)"},"geometry":{"type":"MultiLineString","coordinates":[[[0.2457623,51.701567],[0.246161,51.7014909],[0.2468154,51.7012532],[0.2471763,51.7010467]]]}},
{"type":"Feature","properties":{"highway":"footway","name":null,"category":"Footpath (pedestrian only)"},"geometry":{"type":"MultiLineString","coordinates":[[[0.2474302,51.7002929],[0.2480745,51.7001869]]]}},
{"type":"Feature","properties":{"highway":"footway","name":null,"category":"Footpath (pedestrian only)"},"geometry":{"type":"MultiLineString","coordinates":[[[0.2527581,51.6991033],[0.2532071,51.6991005],[0.2555675,51.6987447]]]}},
{"type":"Feature","properties":{"highway":"footway","name":null,"category":"Footpath (pedestrian only)"},"geometry":{"type":"MultiLineString","coordinates":[[[0.2457623,51.701567],[0.2467499,51.7015953]]]}},
{"type":"Feature","properties":{"highway":"path","name":null,"category":"Shared path"},"geometry":{"type":"MultiLineString","coordinates":[[[0.2429517,51.7053604],[0.2429082,51.7053556]]]}},
{"type":"Feature","properties":{"highway":"track","name":null,"category":"Track"},"geometry":{"type":"MultiLineString","coordinates":[[[0.2558685,51.7091362],[0.2557965,51.7091203],[0.2556962,51.7091241],[0.2554602,51.7091318],[0.2551373,51.7091395],[0.2550201,51.7091548],[0.2546356,51.7091511],[0.2542099,51.7091506],[0.2537646,51.7091425],[0.2533641,51.7091333],[0.2529018,51.7091187],[0.2524683,51.7091065],[0.2521784,51.7090974],[0.2516641,51.7090782],[0.2512936,51.7090647],[0.2511986,51.7090568],[0.2511224,51.7090209],[0.2511084,51.7090152],[0.2510467,51.7089329],[0.2510277,51.7088362]]]}},
{"type":"Feature","properties":{"highway":"footway","name":null,"category":"Footpath (pedestrian only)"},"geometry":{"type":"MultiLineString","coordinates":[[[0.2472703,51.7009785],[0.2476721,51.7011305],[0.248289,51.7012402],[0.2488952,51.7011804],[0.2494263,51.7010009],[0.2498447,51.7007715],[0.2502095,51.7003625],[0.2506601,51.70004],[0.2510356,51.6997973],[0.251395,51.6994781],[0.2517383,51.6993418],[0.2520485,51.69922]]]}},
{"type":"Feature","properties":{"highway":"footway","name":null,"category":"Footpath (pedestrian only)"},"geometry":{"type":"MultiLineString","coordinates":[[[0.2443391,51.7127145],[0.2443391,51.7127248]]]}},
{"type":"Feature","properties":{"highway":"footway","name":null,"category":"Footpath (pedestrian only)"},"geometry":{"type":"MultiLineString","coordinates":[[[0.2443429,51.7126656],[0.2443408,51.7126925],[0.2443391,51.7127145]]]}},
{"type":"Feature","properties":{"highway":"footway","name":null,"category":"Footpath (pedestrian only)"},"geometry":{"type":"MultiLineString","coordinates":[[[0.2443861,51.7126382],[0.2443946,51.7126516],[0.2443424,51.7126554],[0.2443429,51.7126656]]]}},
{"type":"Feature","properties":{"highway":"footway","name":null,"category":"Footpath (pedestrian only)"},"geometry":{"type":"MultiLineString","coordinates":[[[0.2443653,51.7125926],[0.2443756,51.7126153],[0.2443861,51.7126382]]]}},
{"type":"Feature","properties":{"highway":"footway","name":null,"category":"Footpath (pedestrian only)"},"geometry":{"type":"MultiLineString","coordinates":[[[0.2443599,51.7125796],[0.2443653,51.7125926]]]}},
{"type":"Feature","properties":{"highway":"footway","name":null,"category":"Footpath (pedestrian only)"},"geometry":{"type":"MultiLineString","coordinates":[[[0.2434093,51.7128073],[0.2433827,51.7128111],[0.2433633,51.7128053],[0.2433443,51.7128029],[0.2427748,51.7128432],[0.2422699,51.7128702],[0.2419651,51.7128796],[0.2413714,51.7129004],[0.2408673,51.7129322],[0.2406739,51.7129516],[0.2406075,51.712953]]]}},
{"type":"Feature","properties":{"highway":"footway","name":null,"category":"Footpath (pedestrian only)"},"geometry":{"type":"MultiLineString","coordinates":[[[0.2435548,51.712795],[0.2434829,51.7128015],[0.2434093,51.7128073]]]}},
{"type":"Feature","properties":{"highway":"footway","name":null,"category":"Footpath (pedestrian only)"},"geometry":{"type":"MultiLineString","coordinates":[[[0.2443391,51.7127248],[0.2441945,51.7127221],[0.2439709,51.7127435],[0.2436226,51.7127738],[0.2435894,51.7127859],[0.24358,51.7127923],[0.2435548,51.712795]]]}},
{"type":"Feature","properties":{"highway":"footway","name":null,"category":"Footpath (pedestrian only)"},"geometry":{"type":"MultiLineString","coordinates":[[[0.2417831,51.7036313],[0.241675,51.7041359]]]}},
{"type":"Feature","properties":{"highway":"footway","name":null,"category":"Footpath (pedestrian only)"},"geometry":{"type":"MultiLineString","coordinates":[[[0.2405827,51.7069054],[0.2408191,51.7066262],[0.2411196,51.7061475],[0.2413019,51.7056422],[0.2413512,51.7052868],[0.2413985,51.705004],[0.241675,51.7041359]]]}},
{"type":"Feature","properties":{"highway":"path","name":null,"category":"Shared path"},"geometry":{"type":"MultiLineString","coordinates":[[[0.2506391,51.7105095],[0.2506872,51.7104735],[0.2507975,51.710467]]]}},
{"type":"Feature","properties":{"highway":"path","name":null,"category":"Shared path"},"geometry":{"type":"MultiLineString","coordinates":[[[0.2508996,51.7093638],[0.2509456,51.7093379],[0.2510049,51.7093272],[0.2510652,51.7092999]]]}},
{"type":"Feature","properties":{"highway":"footway","name":null,"category":"Footpath (pedestrian only)"},"geometry":{"type":"MultiLineString","coordinates":[[[0.2456794,51.7025657],[0.2463629,51.7025256]]]}},
{"type":"Feature","properties":{"highway":"footway","name":null,"category":"Footpath (pedestrian only)"},"geometry":{"type":"MultiLineString","coordinates":[[[0.2456794,51.7025657],[0.2455466,51.7026112],[0.2453664,51.702665],[0.2454095,51.7027691]]]}},
{"type":"Feature","properties":{"highway":"footway","name":null,"category":"Footpath (pedestrian only)"},"geometry":{"type":"MultiLineString","coordinates":[[[0.2498963,51.7068722],[0.2500661,51.706892]]]}},
{"type":"Feature","properties":{"highway":"footway","name":null,"category":"Footpath (pedestrian only)"},"geometry":{"type":"MultiLineString","coordinates":[[[0.2465824,51.7067625],[0.2466485,51.7068114],[0.246852,51.7068467]]]}},
{"type":"Feature","properties":{"highway":"footway","name":null,"category":"Footpath (pedestrian only)"},"geometry":{"type":"MultiLineString","coordinates":[[[0.2445106,51.7113138],[0.244856,51.7112517],[0.2451052,51.7111933],[0.2452452,51.7111606],[0.245407,51.7111238]]]}},
{"type":"Feature","properties":{"highway":"footway","name":null,"category":"Footpath (pedestrian only)"},"geometry":{"type":"MultiLineString","coordinates":[[[0.2451242,51.7110855],[0.2450775,51.7111174],[0.2451052,51.7111933]]]}},
{"type":"Feature","properties":{"highway":"track","name":null,"category":"Track"},"geometry":{"type":"MultiLineString","coordinates":[[[0.2552565,51.7106003],[0.2553125,51.7104405],[0.2553742,51.7102145],[0.2554627,51.7099635],[0.2555727,51.7097957],[0.2556773,51.7096198],[0.2557386,51.7094496],[0.2558685,51.7091362]]]}},
{"type":"Feature","properties":{"highway":"track","name":null,"category":"Track"},"geometry":{"type":"MultiLineString","coordinates":[[[0.2498456,51.7059071],[0.2497657,51.7055324],[0.2497845,51.7054609],[0.2497925,51.7054145],[0.249814,51.7053319],[0.2499378,51.7052804],[0.2499638,51.7052053],[0.2499421,51.7050839],[0.2498086,51.7048164],[0.2494318,51.7045087],[0.2492252,51.7044556],[0.2488149,51.7043591],[0.2485466,51.7039725],[0.2484422,51.7039123],[0.2481738,51.7038159],[0.2479417,51.7037406]]]}},
{"type":"Feature","properties":{"highway":"footway","name":null,"category":"Footpath (pedestrian only)"},"geometry":{"type":"MultiLineString","coordinates":[[[0.2527581,51.6991033],[0.2529029,51.6990368],[0.2531121,51.6989338],[0.2532623,51.698854],[0.253434,51.6987509],[0.2538041,51.6985215],[0.2541153,51.6983519],[0.2542494,51.6982555],[0.2544797,51.698075],[0.2545337,51.6980327],[0.2547429,51.6978798],[0.2549092,51.6977401],[0.2549897,51.6977036],[0.2550862,51.6976703],[0.2551493,51.6976518],[0.2552794,51.6976138],[0.2554993,51.697544],[0.2558051,51.6974442],[0.2560947,51.6973511],[0.2563737,51.6972381],[0.2566365,51.6971151],[0.2567921,51.6970419],[0.2568672,51.6969588],[0.2569101,51.696869],[0.2569339,51.6967994]]]}},
{"type":"Feature","properties":{"highway":"footway","name":null,"category":"Footpath (pedestrian only)"},"geometry":{"type":"MultiLineString","coordinates":[[[0.247335,51.706105],[0.2475541,51.7063302],[0.2477861,51.7065293],[0.2478431,51.7066527]]]}},
{"type":"Feature","properties":{"highway":"footway","name":null,"category":"Footpath (pedestrian only)"},"geometry":{"type":"MultiLineString","coordinates":[[[0.2472703,51.7009785],[0.2474302,51.7002929],[0.2469645,51.7003696]]]}}
]
}
