{
"type": "FeatureCollection",
"name": "BRAIN_39_NACH_800m",
"crs": { "type": "name", "properties": { "name": "urn:ogc:def:crs:OGC:1.3:CRS84" } },
"features": [
{ "type": "Feature", "properties": { "id": 28642, "nach": 0.29181629687449789 }, "geometry": { "type": "LineString", "coordinates": [ [ 0.5919917, 51.9477663 ], [ 0.5923914, 51.948433800000011 ], [ 0.5929606, 51.949067 ], [ 0.5935244, 51.94974890000001 ] ] } },
{ "type": "Feature", "properties": { "id": 28641, "nach": 0.2979115867677064 }, "geometry": { "type": "LineString", "coordinates": [ [ 0.5919917, 51.9477663 ], [ 0.5906503, 51.9455486 ], [ 0.5902582, 51.944775600000014 ], [ 0.590167, 51.944402599999982 ] ] } },
{ "type": "Feature", "properties": { "id": 65903, "nach": 0.33065842724777061 }, "geometry": { "type": "LineString", "coordinates": [ [ 0.5912643, 51.9480467 ], [ 0.5916599, 51.9478869 ], [ 0.5919917, 51.9477663 ] ] } },
{ "type": "Feature", "properties": { "id": 2485, "nach": 0.39630362486965931 }, "geometry": { "type": "LineString", "coordinates": [ [ 0.5913843, 51.9394123 ], [ 0.5913939, 51.940006 ], [ 0.5914086, 51.9407294 ] ] } },
{ "type": "Feature", "properties": { "id": 27893, "nach": 0.31028964105648366 }, "geometry": { "type": "LineString", "coordinates": [ [ 0.590167, 51.944402599999982 ], [ 0.5901389, 51.9439036 ], [ 0.5903732, 51.943261600000014 ], [ 0.5909509, 51.942191 ], [ 0.5912969, 51.9414311 ], [ 0.5914086, 51.9407294 ] ] } },
{ "type": "Feature", "properties": { "id": 58164, "nach": 0.37077131240245914 }, "geometry": { "type": "LineString", "coordinates": [ [ 0.5889736, 51.9406466 ], [ 0.5890836, 51.9406409 ], [ 0.5901915, 51.940511200000024 ], [ 0.5905703, 51.940563 ], [ 0.5906373, 51.9406171 ], [ 0.5910952, 51.9407322 ], [ 0.5914086, 51.9407294 ] ] } },
{ "type": "Feature", "properties": { "id": 2486, "nach": 0.41291009012751462 }, "geometry": { "type": "LineString", "coordinates": [ [ 0.5913843, 51.9394123 ], [ 0.5922936, 51.939856 ], [ 0.5935194, 51.94047410000001 ], [ 0.5937398, 51.9405966 ] ] } },
{ "type": "Feature", "properties": { "id": 27897, "nach": 0.44741817260146044 }, "geometry": { "type": "LineString", "coordinates": [ [ 0.5913384, 51.9391643 ], [ 0.5913843, 51.9394123 ] ] } },
{ "type": "Feature", "properties": { "id": 56271, "nach": 0.35005937156850919 }, "geometry": { "type": "LineString", "coordinates": [ [ 0.5915416, 51.9445329 ], [ 0.5908239, 51.944447300000014 ], [ 0.590373, 51.9444344 ], [ 0.590167, 51.944402599999982 ] ] } },
{ "type": "Feature", "properties": { "id": 58165, "nach": 0.29820410410936027 }, "geometry": { "type": "LineString", "coordinates": [ [ 0.5889736, 51.9406466 ], [ 0.5889391, 51.940560700000013 ], [ 0.5888532, 51.9402172 ], [ 0.5889033, 51.9399955 ] ] } },
{ "type": "Feature", "properties": { "id": 65897, "nach": 0.33131618712747163 }, "geometry": { "type": "LineString", "coordinates": [ [ 0.5882703, 51.9407622 ], [ 0.5889736, 51.9406466 ] ] } },
{ "type": "Feature", "properties": { "id": 63323, "nach": 0.30008255790307187 }, "geometry": { "type": "LineString", "coordinates": [ [ 0.5889896, 51.9409004 ], [ 0.5889736, 51.9406466 ] ] } },
{ "type": "Feature", "properties": { "id": 5691, "nach": 0.49302698488095764 }, "geometry": { "type": "LineString", "coordinates": [ [ 0.5913571, 51.937859 ], [ 0.5918109, 51.9367241 ] ] } },
{ "type": "Feature", "properties": { "id": 28014, "nach": 0.45929806111480964 }, "geometry": { "type": "LineString", "coordinates": [ [ 0.5919577, 51.9365194 ], [ 0.5918109, 51.9367241 ] ] } },
{ "type": "Feature", "properties": { "id": 28003, "nach": 0.43912122839977391 }, "geometry": { "type": "LineString", "coordinates": [ [ 0.5916717, 51.9365136 ], [ 0.5917265, 51.9365675 ], [ 0.5918109, 51.9367241 ] ] } },
{ "type": "Feature", "properties": { "id": 8227, "nach": 0.43160078710172939 }, "geometry": { "type": "LineString", "coordinates": [ [ 0.5898011, 51.9378294 ], [ 0.5913571, 51.937859 ] ] } },
{ "type": "Feature", "properties": { "id": 27898, "nach": 0.4682530419076455 }, "geometry": { "type": "LineString", "coordinates": [ [ 0.5913384, 51.9391643 ], [ 0.5912384, 51.938713900000018 ], [ 0.5912041, 51.9384175 ], [ 0.5912757, 51.9380867 ], [ 0.5913571, 51.937859 ] ] } },
{ "type": "Feature", "properties": { "id": 28013, "nach": 0.51564687997612579 }, "geometry": { "type": "LineString", "coordinates": [ [ 0.5919577, 51.9365194 ], [ 0.5920643, 51.9364227 ] ] } },
{ "type": "Feature", "properties": { "id": 28015, "nach": 0.47750335666860172 }, "geometry": { "type": "LineString", "coordinates": [ [ 0.5919577, 51.9365194 ], [ 0.5918176, 51.9365219 ], [ 0.5916717, 51.9365136 ] ] } },
{ "type": "Feature", "properties": { "id": 28007, "nach": 0.50600567748105241 }, "geometry": { "type": "LineString", "coordinates": [ [ 0.5914555, 51.936387600000018 ], [ 0.5916093, 51.936468 ], [ 0.5916717, 51.9365136 ] ] } },
{ "type": "Feature", "properties": { "id": 27975, "nach": 0.48027328206432496 }, "geometry": { "type": "LineString", "coordinates": [ [ 0.5929701, 51.9349664 ], [ 0.5929687, 51.9349941 ] ] } },
{ "type": "Feature", "properties": { "id": 27970, "nach": 0.40535962033359862 }, "geometry": { "type": "LineString", "coordinates": [ [ 0.5927128, 51.93495990000001 ], [ 0.592783, 51.9349817 ], [ 0.5929687, 51.9349941 ] ] } },
{ "type": "Feature", "properties": { "id": 27972, "nach": 0.45702981605463938 }, "geometry": { "type": "LineString", "coordinates": [ [ 0.5929606, 51.9354745 ], [ 0.592962, 51.9354605 ], [ 0.5929687, 51.9349941 ] ] } },
{ "type": "Feature", "properties": { "id": 27976, "nach": 0.47135791896913687 }, "geometry": { "type": "LineString", "coordinates": [ [ 0.5929701, 51.9349664 ], [ 0.5930003, 51.9348382 ], [ 0.5930633, 51.9346973 ], [ 0.5933061, 51.9343356 ], [ 0.5935602, 51.9340118 ] ] } },
{ "type": "Feature", "properties": { "id": 27978, "nach": 0.34689330889677589 }, "geometry": { "type": "LineString", "coordinates": [ [ 0.5934455, 51.9351231 ], [ 0.5934455, 51.9349999 ], [ 0.5933255, 51.9349978 ], [ 0.593237, 51.9349743 ], [ 0.5929701, 51.9349664 ] ] } },
{ "type": "Feature", "properties": { "id": 27969, "nach": 0.40677947981322871 }, "geometry": { "type": "LineString", "coordinates": [ [ 0.5927128, 51.93495990000001 ], [ 0.5925537, 51.9349106 ], [ 0.5920326, 51.9348994 ], [ 0.5914949, 51.9349077 ], [ 0.5913062, 51.934930099999988 ], [ 0.59123, 51.9349501 ], [ 0.5911479, 51.9349897 ], [ 0.5910773, 51.9350449 ], [ 0.5910086, 51.9351106 ], [ 0.5908009, 51.935414 ] ] } },
{ "type": "Feature", "properties": { "id": 27974, "nach": 0.31193385812146063 }, "geometry": { "type": "LineString", "coordinates": [ [ 0.5929606, 51.9354745 ], [ 0.5928695, 51.9354704 ], [ 0.5926992, 51.935362500000011 ], [ 0.5926791, 51.9350516 ], [ 0.5927128, 51.93495990000001 ] ] } },
{ "type": "Feature", "properties": { "id": 27973, "nach": 0.46865777814255372 }, "geometry": { "type": "LineString", "coordinates": [ [ 0.5929606, 51.9354745 ], [ 0.5929359, 51.9357232 ], [ 0.5928641, 51.9358689 ] ] } },
{ "type": "Feature", "properties": { "id": 8241, "nach": 0.38891621738606613 }, "geometry": { "type": "LineString", "coordinates": [ [ 0.5931259, 51.9410181 ], [ 0.5937398, 51.9405966 ] ] } },
{ "type": "Feature", "properties": { "id": 34677, "nach": 0.34124975688316916 }, "geometry": { "type": "LineString", "coordinates": [ [ 0.5948189, 51.941255 ], [ 0.5942865, 51.940917 ], [ 0.5937398, 51.9405966 ] ] } },
{ "type": "Feature", "properties": { "id": 27887, "nach": 0.33745554359544971 }, "geometry": { "type": "LineString", "coordinates": [ [ 0.5919467, 51.94197620000002 ], [ 0.5931259, 51.9410181 ] ] } },
{ "type": "Feature", "properties": { "id": 27885, "nach": 0.29792080240860441 }, "geometry": { "type": "LineString", "coordinates": [ [ 0.5938173, 51.9414454 ], [ 0.5931259, 51.9410181 ] ] } },
{ "type": "Feature", "properties": { "id": 34679, "nach": 0.19720003530125041 }, "geometry": { "type": "LineString", "coordinates": [ [ 0.5948189, 51.941255 ], [ 0.5949098, 51.9411978 ], [ 0.5951445, 51.9408237 ], [ 0.5955066, 51.9401913 ], [ 0.5958251, 51.9397076 ], [ 0.5959693, 51.9393686 ], [ 0.5962878, 51.9388498 ], [ 0.5965627, 51.93830830000001 ], [ 0.5971461, 51.9373698 ] ] } },
{ "type": "Feature", "properties": { "id": 43213, "nach": 0.31060682678721874 }, "geometry": { "type": "LineString", "coordinates": [ [ 0.5986796, 51.9435984 ], [ 0.5985701, 51.9435475 ], [ 0.5979674, 51.94312930000001 ], [ 0.5975034, 51.9428821 ], [ 0.5969259, 51.9426429 ], [ 0.5962164, 51.9423433 ], [ 0.5958257, 51.942088400000017 ], [ 0.5949822, 51.9413741 ], [ 0.5948189, 51.941255 ] ] } },
{ "type": "Feature", "properties": { "id": 56073, "nach": 0.40730633238299679 }, "geometry": { "type": "LineString", "coordinates": [ [ 0.5921184, 51.9391314 ], [ 0.5920727, 51.9391459 ], [ 0.5920028, 51.9391544 ], [ 0.5913384, 51.9391643 ] ] } },
{ "type": "Feature", "properties": { "id": 48300, "nach": 0.36204181418316994 }, "geometry": { "type": "LineString", "coordinates": [ [ 0.5992996, 51.9438504 ], [ 0.5999219, 51.9439726 ], [ 0.6005314, 51.9440292 ] ] } },
{ "type": "Feature", "properties": { "id": 8230, "nach": 0.40733220088628852 }, "geometry": { "type": "LineString", "coordinates": [ [ 0.589769, 51.9385288 ], [ 0.5898011, 51.9378294 ] ] } },
{ "type": "Feature", "properties": { "id": 28735, "nach": 0.31382169625784928 }, "geometry": { "type": "LineString", "coordinates": [ [ 0.5834034, 51.938091900000011 ], [ 0.5836151, 51.9379838 ], [ 0.5843249, 51.937795499999986 ], [ 0.5846765, 51.9377461 ], [ 0.5849608, 51.9377428 ], [ 0.5861139, 51.9378359 ], [ 0.5870169, 51.93787480000001 ], [ 0.5881599, 51.9377515 ], [ 0.5898011, 51.9378294 ] ] } },
{ "type": "Feature", "properties": { "id": 27960, "nach": 0.48269031138430718 }, "geometry": { "type": "LineString", "coordinates": [ [ 0.5896106, 51.9360573 ], [ 0.5884522, 51.9360177 ] ] } },
{ "type": "Feature", "properties": { "id": 27954, "nach": 0.47523366574632847 }, "geometry": { "type": "LineString", "coordinates": [ [ 0.5872561, 51.935931399999987 ], [ 0.5874544, 51.9359631 ], [ 0.5876881, 51.9359873 ], [ 0.5884522, 51.9360177 ] ] } },
{ "type": "Feature", "properties": { "id": 27957, "nach": 0.33093180166074204 }, "geometry": { "type": "LineString", "coordinates": [ [ 0.5884824, 51.9359239 ], [ 0.5884673, 51.9359739 ], [ 0.5884522, 51.9360177 ] ] } },
{ "type": "Feature", "properties": { "id": 27961, "nach": 0.35992898882161367 }, "geometry": { "type": "LineString", "coordinates": [ [ 0.5896106, 51.9360573 ], [ 0.5896207, 51.9363518 ] ] } },
{ "type": "Feature", "properties": { "id": 27982, "nach": 0.48893250841939578 }, "geometry": { "type": "LineString", "coordinates": [ [ 0.5906516, 51.9361052 ], [ 0.590104, 51.9360741 ], [ 0.5896106, 51.9360573 ] ] } },
{ "type": "Feature", "properties": { "id": 27953, "nach": 0.48697784243584186 }, "geometry": { "type": "LineString", "coordinates": [ [ 0.5872561, 51.935931399999987 ], [ 0.5870758, 51.9359059 ], [ 0.5868965, 51.935874599999984 ], [ 0.5863229, 51.935729 ], [ 0.5857579, 51.9355342 ], [ 0.5854809, 51.93533390000001 ], [ 0.5853533, 51.9352203 ], [ 0.5852625, 51.9350888 ] ] } },
{ "type": "Feature", "properties": { "id": 27958, "nach": 0.36871203549392906 }, "geometry": { "type": "LineString", "coordinates": [ [ 0.5884824, 51.9359239 ], [ 0.5873609, 51.9358545 ], [ 0.5872561, 51.935931399999987 ] ] } },
{ "type": "Feature", "properties": { "id": 27956, "nach": 0.36418932709184448 }, "geometry": { "type": "LineString", "coordinates": [ [ 0.5884824, 51.9359239 ], [ 0.5885702, 51.935652200000014 ], [ 0.5886372, 51.9354362 ], [ 0.588687, 51.9353482 ], [ 0.5887599, 51.935281200000013 ], [ 0.5888485, 51.9352218 ], [ 0.5889535, 51.9351661 ], [ 0.5890615, 51.9351397 ], [ 0.589181, 51.935115 ], [ 0.5893203, 51.9351059 ], [ 0.5894675, 51.9351126 ], [ 0.5896066, 51.9351252 ], [ 0.5899715, 51.9351938 ], [ 0.5908009, 51.935414 ] ] } },
{ "type": "Feature", "properties": { "id": 27963, "nach": 0.37019301903231044 }, "geometry": { "type": "LineString", "coordinates": [ [ 0.5910945, 51.935492 ], [ 0.5908009, 51.935414 ] ] } },
{ "type": "Feature", "properties": { "id": 27966, "nach": 0.35572732856888156 }, "geometry": { "type": "LineString", "coordinates": [ [ 0.5914875, 51.9356056 ], [ 0.5910945, 51.935492 ] ] } },
{ "type": "Feature", "properties": { "id": 27984, "nach": 0.41482346626811212 }, "geometry": { "type": "LineString", "coordinates": [ [ 0.5906516, 51.9361052 ], [ 0.5908733, 51.9357956 ], [ 0.5910945, 51.935492 ] ] } },
{ "type": "Feature", "properties": { "id": 28647, "nach": 0.07675751868464048 }, "geometry": { "type": "LineString", "coordinates": [ [ 0.5756412, 51.9406731 ], [ 0.5754465, 51.9402797 ], [ 0.5753333, 51.9398005 ], [ 0.5752663, 51.939737 ], [ 0.5752016, 51.93973050000001 ], [ 0.5749549, 51.9397171 ], [ 0.5745155, 51.9396771 ], [ 0.5741797, 51.9396467 ], [ 0.5739104, 51.9396765 ], [ 0.5733812, 51.9397807 ], [ 0.5730051, 51.9398997 ], [ 0.5727906, 51.9399857 ], [ 0.5725639, 51.94025950000001 ], [ 0.572598, 51.9404024 ], [ 0.572697, 51.9405757 ], [ 0.5727238, 51.9407079 ], [ 0.5727452, 51.9408568 ], [ 0.5728043, 51.9409791 ], [ 0.5728686, 51.9411544 ], [ 0.5728847, 51.9412305 ], [ 0.5728633, 51.941306500000017 ], [ 0.5727721, 51.941452 ], [ 0.5726111, 51.941495 ], [ 0.5720747, 51.941624 ], [ 0.5716724, 51.9417067 ], [ 0.5713773, 51.9417761 ], [ 0.5709106, 51.941885200000016 ], [ 0.5705995, 51.9419415 ], [ 0.5700255, 51.9420737 ], [ 0.5697895, 51.9421498 ], [ 0.5695749, 51.9421829 ], [ 0.5693013, 51.9422225 ], [ 0.5690814, 51.9422457 ], [ 0.5687434, 51.9423118 ], [ 0.5685127, 51.9423846 ], [ 0.5683035, 51.9424309 ], [ 0.5681537, 51.9424421 ] ] } },
{ "type": "Feature", "properties": { "id": 27910, "nach": 0.34679061671812866 }, "geometry": { "type": "LineString", "coordinates": [ [ 0.5833555, 51.9336871 ], [ 0.583658, 51.9338542 ], [ 0.5839621, 51.9339813 ], [ 0.5841324, 51.9340448 ], [ 0.5843274, 51.934131300000011 ], [ 0.5849645, 51.934409 ], [ 0.5850629, 51.9344963 ], [ 0.5850739, 51.9345513 ] ] } },
{ "type": "Feature", "properties": { "id": 21825, "nach": 0.44661092908352595 }, "geometry": { "type": "LineString", "coordinates": [ [ 0.5848141, 51.9344136 ], [ 0.5849477, 51.9344664 ], [ 0.5850739, 51.9345513 ] ] } },
{ "type": "Feature", "properties": { "id": 44516, "nach": 0.46424164043555827 }, "geometry": { "type": "LineString", "coordinates": [ [ 0.5851549, 51.9347223 ], [ 0.5851447, 51.9346694 ], [ 0.5850739, 51.9345513 ] ] } },
{ "type": "Feature", "properties": { "id": 21823, "nach": 0.40731107508581377 }, "geometry": { "type": "LineString", "coordinates": [ [ 0.5848141, 51.9344136 ], [ 0.5848184, 51.9344475 ], [ 0.5847873, 51.934467599999984 ], [ 0.5847463, 51.9345033 ], [ 0.5847149, 51.9345702 ], [ 0.5846754, 51.9346026 ], [ 0.5846547, 51.934634 ] ] } },
{ "type": "Feature", "properties": { "id": 27937, "nach": 0.4737334848010617 }, "geometry": { "type": "LineString", "coordinates": [ [ 0.5831998, 51.9336671 ], [ 0.5842364, 51.9341661 ], [ 0.5848141, 51.9344136 ] ] } },
{ "type": "Feature", "properties": { "id": 44517, "nach": 0.46790192226331923 }, "geometry": { "type": "LineString", "coordinates": [ [ 0.5851549, 51.9347223 ], [ 0.5851713, 51.9348077 ], [ 0.5852094, 51.9349526 ], [ 0.5852625, 51.9350888 ] ] } },
{ "type": "Feature", "properties": { "id": 44519, "nach": 0.3403477760066479 }, "geometry": { "type": "LineString", "coordinates": [ [ 0.5856301, 51.934414300000014 ], [ 0.585521, 51.93454590000001 ], [ 0.5854554, 51.934598 ], [ 0.5853377, 51.9346803 ], [ 0.5852618, 51.9347135 ], [ 0.5852154, 51.9347226 ], [ 0.5851549, 51.9347223 ] ] } },
{ "type": "Feature", "properties": { "id": 26075, "nach": 0.42228562700916461 }, "geometry": { "type": "LineString", "coordinates": [ [ 0.5850405, 51.9350236 ], [ 0.5851725, 51.9350803 ], [ 0.5852625, 51.9350888 ] ] } },
{ "type": "Feature", "properties": { "id": 26076, "nach": 0.42254961743381136 }, "geometry": { "type": "LineString", "coordinates": [ [ 0.5850405, 51.9350236 ], [ 0.5850339, 51.934954 ], [ 0.5849517, 51.9349021 ] ] } },
{ "type": "Feature", "properties": { "id": 28736, "nach": 0.38348659914265976 }, "geometry": { "type": "LineString", "coordinates": [ [ 0.5834034, 51.938091900000011 ], [ 0.583241, 51.9379286 ], [ 0.583281, 51.9378704 ], [ 0.583458, 51.937556199999989 ], [ 0.5835814, 51.9373446 ], [ 0.5837469, 51.9371041 ], [ 0.583796, 51.9370271 ], [ 0.5839837, 51.936693 ], [ 0.5842519, 51.9362664 ], [ 0.5845899, 51.9357008 ], [ 0.5847884, 51.9354065 ], [ 0.5849788, 51.935101 ], [ 0.5850405, 51.9350236 ] ] } },
{ "type": "Feature", "properties": { "id": 28648, "nach": 0.27163253098825696 }, "geometry": { "type": "LineString", "coordinates": [ [ 0.5756412, 51.9406731 ], [ 0.5759204, 51.9413011 ], [ 0.5761176, 51.9416875 ], [ 0.5762238, 51.9418505 ], [ 0.5763633, 51.9420688 ] ] } },
{ "type": "Feature", "properties": { "id": 47818, "nach": 0.23000638991506189 }, "geometry": { "type": "LineString", "coordinates": [ [ 0.5764546, 51.9403224 ], [ 0.5757896, 51.9404289 ], [ 0.575735, 51.9404451 ], [ 0.5757, 51.9404626 ], [ 0.5756737, 51.94048690000001 ], [ 0.5756518, 51.940512500000011 ], [ 0.5756387, 51.9405395 ], [ 0.5756343, 51.940582600000013 ], [ 0.5756412, 51.9406731 ] ] } },
{ "type": "Feature", "properties": { "id": 58150, "nach": 0.2054566984785221 }, "geometry": { "type": "LineString", "coordinates": [ [ 0.5729956, 51.946432 ], [ 0.5759019, 51.9438416 ] ] } },
{ "type": "Feature", "properties": { "id": 48170, "nach": 0.0 }, "geometry": { "type": "LineString", "coordinates": [ [ 0.6068971, 51.9427449 ], [ 0.6066834, 51.9426883 ], [ 0.6062547, 51.942518 ], [ 0.6057015, 51.9422977 ], [ 0.6051815, 51.9420956 ], [ 0.6048284, 51.9419278 ], [ 0.6044583, 51.9417428 ], [ 0.6041412, 51.9415223 ], [ 0.6038294, 51.9412492 ], [ 0.6034663, 51.9410311 ], [ 0.6029053, 51.940755400000015 ], [ 0.6022304, 51.9404095 ], [ 0.6017019, 51.9401238 ], [ 0.6011896, 51.9397829 ], [ 0.600344, 51.9391964 ], [ 0.5996448, 51.9387503 ], [ 0.5988967, 51.9382841 ], [ 0.5985467, 51.9380387 ], [ 0.5984414, 51.9379633 ], [ 0.5980348, 51.9377327 ], [ 0.5978885, 51.9377026 ], [ 0.5975795, 51.937562300000018 ], [ 0.5971461, 51.9373698 ] ] } },
{ "type": "Feature", "properties": { "id": 27998, "nach": 0.46390416109008276 }, "geometry": { "type": "LineString", "coordinates": [ [ 0.594314, 51.9369502 ], [ 0.5938332, 51.9368981 ], [ 0.5935583, 51.9368551 ], [ 0.5933773, 51.9368233 ], [ 0.5931634, 51.9367849 ], [ 0.5926692, 51.936657899999986 ], [ 0.5920643, 51.9364227 ] ] } },
{ "type": "Feature", "properties": { "id": 8207, "nach": 0.49744734863715961 }, "geometry": { "type": "LineString", "coordinates": [ [ 0.5928641, 51.9358689 ], [ 0.5927481, 51.935990900000014 ], [ 0.5924097, 51.9361986 ], [ 0.592192399999989, 51.936324699999986 ], [ 0.5920643, 51.9364227 ] ] } },
{ "type": "Feature", "properties": { "id": 28000, "nach": 0.44875995251541101 }, "geometry": { "type": "LineString", "coordinates": [ [ 0.594314, 51.9369502 ], [ 0.5944793, 51.9368911 ], [ 0.5947422, 51.9367439 ] ] } },
{ "type": "Feature", "properties": { "id": 34676, "nach": 0.32519766226967312 }, "geometry": { "type": "LineString", "coordinates": [ [ 0.5971461, 51.9373698 ], [ 0.5968272, 51.9372194 ], [ 0.596292, 51.9370545 ], [ 0.595123, 51.9369372 ], [ 0.594314, 51.9369502 ] ] } },
{ "type": "Feature", "properties": { "id": 8209, "nach": 0.47372198261076726 }, "geometry": { "type": "LineString", "coordinates": [ [ 0.5936604, 51.9359938 ], [ 0.5934307, 51.9360071 ], [ 0.5931368, 51.935951 ], [ 0.5928641, 51.9358689 ] ] } },
{ "type": "Feature", "properties": { "id": 8213, "nach": 0.4358235039981454 }, "geometry": { "type": "LineString", "coordinates": [ [ 0.5941734, 51.9359163 ], [ 0.5939864, 51.935932299999983 ], [ 0.5936604, 51.9359938 ] ] } },
{ "type": "Feature", "properties": { "id": 28018, "nach": 0.38387118744285542 }, "geometry": { "type": "LineString", "coordinates": [ [ 0.5941828, 51.93629640000001 ], [ 0.5939868, 51.936211900000011 ], [ 0.5939224, 51.9362048 ], [ 0.593842, 51.93608 ], [ 0.5936604, 51.9359938 ] ] } },
{ "type": "Feature", "properties": { "id": 54925, "nach": 0.39122449403639747 }, "geometry": { "type": "LineString", "coordinates": [ [ 0.5942542, 51.9359663 ], [ 0.5941734, 51.9359163 ] ] } },
{ "type": "Feature", "properties": { "id": 8215, "nach": 0.34294465994366291 }, "geometry": { "type": "LineString", "coordinates": [ [ 0.594307, 51.9356625 ], [ 0.5941734, 51.9359163 ] ] } },
{ "type": "Feature", "properties": { "id": 28016, "nach": 0.33784683945046107 }, "geometry": { "type": "LineString", "coordinates": [ [ 0.5941828, 51.93629640000001 ], [ 0.5940719, 51.9364132 ], [ 0.5940505, 51.936568200000011 ], [ 0.5941146, 51.9367285 ] ] } },
{ "type": "Feature", "properties": { "id": 54926, "nach": 0.19633918751202631 }, "geometry": { "type": "LineString", "coordinates": [ [ 0.5942542, 51.9359663 ], [ 0.5942856, 51.935985700000025 ], [ 0.5943444, 51.9360712 ], [ 0.5943364, 51.9361594 ], [ 0.5942215, 51.93625560000001 ], [ 0.5941828, 51.93629640000001 ] ] } },
{ "type": "Feature", "properties": { "id": 54928, "nach": 0.34258243286930445 }, "geometry": { "type": "LineString", "coordinates": [ [ 0.5946248, 51.9359349 ], [ 0.5944384, 51.9359171 ], [ 0.5942542, 51.9359663 ] ] } },
{ "type": "Feature", "properties": { "id": 8220, "nach": 0.40979886361532575 }, "geometry": { "type": "LineString", "coordinates": [ [ 0.5959002, 51.9346863 ], [ 0.5953371, 51.934470400000016 ], [ 0.5950892, 51.9344176 ], [ 0.5948444, 51.934425 ], [ 0.5946077, 51.9344581 ], [ 0.5944255, 51.9344538 ], [ 0.5941934, 51.9343295 ], [ 0.5935602, 51.9340118 ] ] } },
{ "type": "Feature", "properties": { "id": 8225, "nach": 0.40517796604525463 }, "geometry": { "type": "LineString", "coordinates": [ [ 0.5953356, 51.9352378 ], [ 0.5954375, 51.9351948 ], [ 0.5956213, 51.935003 ], [ 0.5959002, 51.9346863 ] ] } },
{ "type": "Feature", "properties": { "id": 27991, "nach": 0.42606831507640769 }, "geometry": { "type": "LineString", "coordinates": [ [ 0.5953353, 51.9353697 ], [ 0.5953356, 51.9352378 ] ] } },
{ "type": "Feature", "properties": { "id": 27986, "nach": 0.40191043092751622 }, "geometry": { "type": "LineString", "coordinates": [ [ 0.5946557, 51.9350559 ], [ 0.5951935, 51.9352436 ], [ 0.5953356, 51.9352378 ] ] } },
{ "type": "Feature", "properties": { "id": 27992, "nach": 0.33081094452083559 }, "geometry": { "type": "LineString", "coordinates": [ [ 0.5953353, 51.9353697 ], [ 0.595396, 51.9354693 ], [ 0.5954484, 51.9355365 ], [ 0.5955844, 51.9356378 ] ] } },
{ "type": "Feature", "properties": { "id": 27995, "nach": 0.43209957968974094 }, "geometry": { "type": "LineString", "coordinates": [ [ 0.5947422, 51.9367439 ], [ 0.5947207, 51.936605 ], [ 0.5948092, 51.936409900000015 ], [ 0.5948733, 51.936335100000015 ], [ 0.59489, 51.936227600000016 ], [ 0.5950349, 51.936037 ], [ 0.5950604, 51.935908 ], [ 0.5950879, 51.9356694 ], [ 0.5952287, 51.9354301 ], [ 0.5953353, 51.9353697 ] ] } },
{ "type": "Feature", "properties": { "id": 27985, "nach": 0.32935595803423356 }, "geometry": { "type": "LineString", "coordinates": [ [ 0.5946557, 51.9350559 ], [ 0.5947026, 51.935002199999985 ] ] } },
{ "type": "Feature", "properties": { "id": 28001, "nach": 0.32563656010743358 }, "geometry": { "type": "LineString", "coordinates": [ [ 0.5942698, 51.9351667 ], [ 0.59453, 51.9351283 ], [ 0.5946165, 51.9350534 ], [ 0.5946557, 51.9350559 ] ] } },
{ "type": "Feature", "properties": { "id": 8239, "nach": 0.32819678220164217 }, "geometry": { "type": "LineString", "coordinates": [ [ 0.5885742, 51.9385503 ], [ 0.589769, 51.9385288 ] ] } },
{ "type": "Feature", "properties": { "id": 8235, "nach": 0.3502235342082119 }, "geometry": { "type": "LineString", "coordinates": [ [ 0.5894655, 51.9392022 ], [ 0.5896187, 51.938993899999986 ], [ 0.5897403, 51.9387792 ], [ 0.589769, 51.9385288 ] ] } },
{ "type": "Feature", "properties": { "id": 28734, "nach": 0.39121665741248351 }, "geometry": { "type": "LineString", "coordinates": [ [ 0.5834034, 51.938091900000011 ], [ 0.5832981, 51.9381457 ] ] } },
{ "type": "Feature", "properties": { "id": 65899, "nach": 0.2049370932698954 }, "geometry": { "type": "LineString", "coordinates": [ [ 0.5882703, 51.9407622 ], [ 0.5881454, 51.9406478 ], [ 0.5880059, 51.9404031 ], [ 0.588022, 51.9401352 ], [ 0.5880381, 51.9396656 ], [ 0.5881185, 51.9394738 ], [ 0.5881507, 51.9393812 ], [ 0.58814, 51.939153 ], [ 0.5880649, 51.9385908 ], [ 0.5880488, 51.9384321 ], [ 0.587904, 51.9383262 ], [ 0.5878181, 51.9382369 ], [ 0.5876787, 51.9379194 ], [ 0.5876518, 51.9378599 ], [ 0.5868579, 51.9379426 ], [ 0.5862571, 51.9379062 ], [ 0.585313, 51.9378566 ], [ 0.5845619, 51.937856600000018 ], [ 0.5836929, 51.9380683 ], [ 0.5834034, 51.938091900000011 ] ] } },
{ "type": "Feature", "properties": { "id": 8238, "nach": 0.28988174215659102 }, "geometry": { "type": "LineString", "coordinates": [ [ 0.5889033, 51.9399955 ], [ 0.5892181, 51.940016900000018 ], [ 0.5897833, 51.9401743 ], [ 0.5904486, 51.9401314 ], [ 0.5906346, 51.9400742 ], [ 0.590699, 51.9400098 ], [ 0.5906776, 51.9395948 ], [ 0.5905702, 51.939487500000013 ], [ 0.590327, 51.9394231 ], [ 0.5900051, 51.939373 ], [ 0.589676, 51.93928 ], [ 0.5894655, 51.9392022 ] ] } },
{ "type": "Feature", "properties": { "id": 27889, "nach": 0.25758206774051556 }, "geometry": { "type": "LineString", "coordinates": [ [ 0.5919467, 51.94197620000002 ], [ 0.5918704, 51.9420382 ], [ 0.5916742, 51.9421886 ], [ 0.5915172, 51.942267 ], [ 0.5912949, 51.9422343 ] ] } },
{ "type": "Feature", "properties": { "id": 27888, "nach": 0.26088566091731002 }, "geometry": { "type": "LineString", "coordinates": [ [ 0.5919467, 51.94197620000002 ], [ 0.5914462, 51.94171 ] ] } },
{ "type": "Feature", "properties": { "id": 21826, "nach": 0.34712331473169494 }, "geometry": { "type": "LineString", "coordinates": [ [ 0.5846467, 51.9348093 ], [ 0.584652, 51.9348291 ], [ 0.5846654, 51.9348457 ], [ 0.5847057, 51.9348671 ], [ 0.5847513, 51.9348804 ], [ 0.584821, 51.934887 ], [ 0.5849517, 51.9349021 ] ] } },
{ "type": "Feature", "properties": { "id": 21822, "nach": 0.41067345258474891 }, "geometry": { "type": "LineString", "coordinates": [ [ 0.5846547, 51.934634 ], [ 0.5847145, 51.9346311 ], [ 0.5847843, 51.9346459 ], [ 0.5848301, 51.9346542 ], [ 0.5848733, 51.9346758 ], [ 0.5848817, 51.9347154 ], [ 0.5849166, 51.93474410000001 ], [ 0.5849032, 51.93478850000001 ], [ 0.5849148, 51.9348314 ], [ 0.5849331, 51.9348595 ], [ 0.5849265, 51.93487540000001 ], [ 0.5849517, 51.9349021 ] ] } },
{ "type": "Feature", "properties": { "id": 21827, "nach": 0.33133765711622065 }, "geometry": { "type": "LineString", "coordinates": [ [ 0.5836623, 51.9340816 ], [ 0.5836945, 51.934108100000017 ], [ 0.5837186, 51.9341279 ], [ 0.583783, 51.9341742 ], [ 0.5838313, 51.9341957 ], [ 0.5838849, 51.9342222 ], [ 0.5839493, 51.934247 ], [ 0.5840164, 51.9342718 ], [ 0.5840298, 51.9342933 ], [ 0.5840271, 51.93431480000001 ], [ 0.584011, 51.9343462 ], [ 0.5839868, 51.9343809 ], [ 0.5839788, 51.9344058 ], [ 0.5839949, 51.9344306 ], [ 0.5840351, 51.9344421 ], [ 0.5840995, 51.9344554 ], [ 0.5841666, 51.9344703 ], [ 0.584239, 51.9344884 ], [ 0.5842873, 51.93450330000001 ], [ 0.5843382, 51.9345199 ], [ 0.5843999, 51.9345496 ], [ 0.5844509, 51.9345728 ], [ 0.5844992, 51.9346009 ], [ 0.5845501, 51.9346224 ], [ 0.5845877, 51.9346257 ], [ 0.5846547, 51.934634 ] ] } },
{ "type": "Feature", "properties": { "id": 38946, "nach": 0.35221427974226655 }, "geometry": { "type": "LineString", "coordinates": [ [ 0.5922167, 51.9445399 ], [ 0.5938656, 51.9444407 ] ] } },
{ "type": "Feature", "properties": { "id": 38956, "nach": 0.35966094156740291 }, "geometry": { "type": "LineString", "coordinates": [ [ 0.5947182, 51.9444418 ], [ 0.5946672, 51.9445278 ], [ 0.5944888, 51.9445807 ], [ 0.5942193, 51.9446195 ], [ 0.5939752, 51.9445873 ], [ 0.5938656, 51.9444407 ] ] } },
{ "type": "Feature", "properties": { "id": 38958, "nach": 0.26374780598139341 }, "geometry": { "type": "LineString", "coordinates": [ [ 0.5940235, 51.9443025 ], [ 0.5940422, 51.9444306 ], [ 0.5938656, 51.9444407 ] ] } },
{ "type": "Feature", "properties": { "id": 38948, "nach": 0.26958288377923045 }, "geometry": { "type": "LineString", "coordinates": [ [ 0.5922167, 51.9445399 ], [ 0.5920641, 51.944470699999989 ], [ 0.5920333, 51.9441243 ] ] } },
{ "type": "Feature", "properties": { "id": 56270, "nach": 0.35319305614518987 }, "geometry": { "type": "LineString", "coordinates": [ [ 0.5915416, 51.9445329 ], [ 0.5916487, 51.9445457 ], [ 0.5922167, 51.9445399 ] ] } },
{ "type": "Feature", "properties": { "id": 38955, "nach": 0.36428628881459374 }, "geometry": { "type": "LineString", "coordinates": [ [ 0.5947182, 51.9444418 ], [ 0.5949636, 51.944380600000017 ] ] } },
{ "type": "Feature", "properties": { "id": 38957, "nach": 0.26383051875462515 }, "geometry": { "type": "LineString", "coordinates": [ [ 0.5947182, 51.9444418 ], [ 0.5946511, 51.9443996 ], [ 0.5945934, 51.9442376 ], [ 0.5944835, 51.9442095 ], [ 0.5943346, 51.9442194 ] ] } },
{ "type": "Feature", "properties": { "id": 56273, "nach": 0.2726090317168462 }, "geometry": { "type": "LineString", "coordinates": [ [ 0.5923194, 51.9449621 ], [ 0.5919655, 51.9449334 ], [ 0.5917575, 51.944671300000017 ], [ 0.5917234, 51.9446139 ], [ 0.5915416, 51.9445329 ] ] } },
{ "type": "Feature", "properties": { "id": 56074, "nach": 0.32908041692275891 }, "geometry": { "type": "LineString", "coordinates": [ [ 0.5921184, 51.9391314 ], [ 0.5921491, 51.9390926 ], [ 0.5921487, 51.939045200000017 ], [ 0.5920743, 51.9388561 ], [ 0.5920577, 51.9386092 ], [ 0.5920669, 51.9383733 ] ] } },
{ "type": "Feature", "properties": { "id": 56076, "nach": 0.32908041692275891 }, "geometry": { "type": "LineString", "coordinates": [ [ 0.5930836, 51.9392275 ], [ 0.5925831, 51.939113 ], [ 0.5922972, 51.9391589 ], [ 0.5922437, 51.9391575 ], [ 0.5921702, 51.9391472 ], [ 0.5921184, 51.9391314 ] ] } },
{ "type": "Feature", "properties": { "id": 27950, "nach": 0.0 }, "geometry": { "type": "LineString", "coordinates": [ [ 0.5833252, 51.9342007 ], [ 0.5834137, 51.9339667 ], [ 0.5833748, 51.933894 ], [ 0.5831951, 51.933822 ], [ 0.5829162, 51.9338088 ], [ 0.582754, 51.9337903 ] ] } },
{ "type": "Feature", "properties": { "id": 27951, "nach": 0.35120272689228105 }, "geometry": { "type": "LineString", "coordinates": [ [ 0.5833252, 51.9342007 ], [ 0.5827334, 51.9340648 ], [ 0.5827287, 51.9340181 ], [ 0.5827183, 51.9339601 ] ] } },
{ "type": "Feature", "properties": { "id": 27952, "nach": 0.29988917106341029 }, "geometry": { "type": "LineString", "coordinates": [ [ 0.5830369, 51.9345563 ], [ 0.58301, 51.9346241 ], [ 0.5833171, 51.9348647 ], [ 0.5833869, 51.9349019 ], [ 0.5835156, 51.9348845 ], [ 0.5838308, 51.9347415 ], [ 0.5838549, 51.9346787 ], [ 0.5837718, 51.9345703 ], [ 0.5833252, 51.9342007 ] ] } },
{ "type": "Feature", "properties": { "id": 28010, "nach": 0.49348920033964805 }, "geometry": { "type": "LineString", "coordinates": [ [ 0.591403, 51.9363627 ], [ 0.591104, 51.9362227 ], [ 0.5906516, 51.9361052 ] ] } },
{ "type": "Feature", "properties": { "id": 27968, "nach": 0.0 }, "geometry": { "type": "LineString", "coordinates": [ [ 0.5914875, 51.9356056 ], [ 0.5915519, 51.9356552 ], [ 0.5918482, 51.9357395 ], [ 0.5919287, 51.9356287 ], [ 0.5915465, 51.9355216 ], [ 0.5915385, 51.9355299 ], [ 0.5914875, 51.9356056 ] ] } },
{ "type": "Feature", "properties": { "id": 28009, "nach": 0.50020212356032134 }, "geometry": { "type": "LineString", "coordinates": [ [ 0.591403, 51.9363627 ], [ 0.5914555, 51.936387600000018 ] ] } },
{ "type": "Feature", "properties": { "id": 28011, "nach": 0.36261893105376181 }, "geometry": { "type": "LineString", "coordinates": [ [ 0.591403, 51.9363627 ], [ 0.5912764, 51.9364719 ], [ 0.5911913, 51.9364583 ], [ 0.5910491, 51.9363847 ] ] } },
{ "type": "Feature", "properties": { "id": 27989, "nach": 0.0 }, "geometry": { "type": "LineString", "coordinates": [ [ 0.5955844, 51.9356378 ], [ 0.5955972, 51.9356931 ], [ 0.5956472, 51.9357357 ], [ 0.5957529, 51.9357835 ], [ 0.5958135, 51.9358 ], [ 0.5958699, 51.935788699999989 ], [ 0.5959094, 51.9357627 ], [ 0.5959192, 51.9357375 ], [ 0.5959164, 51.935702700000014 ], [ 0.5958939, 51.9356767 ], [ 0.5958149, 51.9356332 ], [ 0.5957473, 51.935615 ], [ 0.5956754, 51.9356106 ], [ 0.5955844, 51.9356378 ] ] } },
{ "type": "Feature", "properties": { "id": 27997, "nach": 0.33973758977152624 }, "geometry": { "type": "LineString", "coordinates": [ [ 0.5949809, 51.9366182 ], [ 0.5947422, 51.9367439 ] ] } },
{ "type": "Feature", "properties": { "id": 28012, "nach": 0.36266256670555486 }, "geometry": { "type": "LineString", "coordinates": [ [ 0.5917599, 51.9361788 ], [ 0.5914555, 51.936387600000018 ] ] } },
{ "type": "Feature", "properties": { "id": 28638, "nach": 0.25897167179157576 }, "geometry": { "type": "LineString", "coordinates": [ [ 0.5759019, 51.9438416 ], [ 0.5763316, 51.943458 ], [ 0.5769963, 51.9428297 ], [ 0.5779302, 51.9419831 ] ] } },
{ "type": "Feature", "properties": { "id": 58153, "nach": 0.33654934343879567 }, "geometry": { "type": "LineString", "coordinates": [ [ 0.5788153, 51.941131100000014 ], [ 0.5787773, 51.941195800000017 ], [ 0.578531, 51.941454 ], [ 0.5781233, 51.941837 ], [ 0.5779302, 51.9419831 ] ] } },
{ "type": "Feature", "properties": { "id": 28631, "nach": 0.31906262416203246 }, "geometry": { "type": "LineString", "coordinates": [ [ 0.5763633, 51.9420688 ], [ 0.5764765, 51.9421094 ], [ 0.5766213, 51.9421022 ], [ 0.5773074, 51.9420357 ], [ 0.5779302, 51.9419831 ] ] } },
{ "type": "Feature", "properties": { "id": 28646, "nach": 0.15319358725399576 }, "geometry": { "type": "LineString", "coordinates": [ [ 0.5818779, 51.9451838 ], [ 0.5802369, 51.9445691 ], [ 0.5799901, 51.9444964 ], [ 0.579775, 51.9444696 ], [ 0.5776191, 51.9442649 ], [ 0.5768788, 51.9442054 ], [ 0.5764067, 51.9441591 ], [ 0.5760312, 51.9440136 ], [ 0.5758697, 51.9439144 ], [ 0.5759019, 51.9438416 ] ] } },
{ "type": "Feature", "properties": { "id": 58155, "nach": 0.34847488833209866 }, "geometry": { "type": "LineString", "coordinates": [ [ 0.5788153, 51.941131100000014 ], [ 0.5788743, 51.9410307 ], [ 0.5788958, 51.940876799999984 ] ] } },
{ "type": "Feature", "properties": { "id": 58156, "nach": 0.24768972128372593 }, "geometry": { "type": "LineString", "coordinates": [ [ 0.5841647, 51.9430359 ], [ 0.5827735, 51.942843 ], [ 0.5788153, 51.941131100000014 ] ] } },
{ "type": "Feature", "properties": { "id": 47819, "nach": 0.24378417787113194 }, "geometry": { "type": "LineString", "coordinates": [ [ 0.5751722, 51.941808100000017 ], [ 0.5755275, 51.9418917 ], [ 0.5761767, 51.9420106 ], [ 0.5763633, 51.9420688 ] ] } },
{ "type": "Feature", "properties": { "id": 65906, "nach": 0.34705523831405483 }, "geometry": { "type": "LineString", "coordinates": [ [ 0.5902632, 51.948455400000014 ], [ 0.5896219, 51.94871890000001 ] ] } },
{ "type": "Feature", "properties": { "id": 58159, "nach": 0.21810902342982688 }, "geometry": { "type": "LineString", "coordinates": [ [ 0.5907789, 51.9517813 ], [ 0.5896219, 51.94871890000001 ] ] } },
{ "type": "Feature", "properties": { "id": 39847, "nach": 0.35674288353063016 }, "geometry": { "type": "LineString", "coordinates": [ [ 0.5863291, 51.9503194 ], [ 0.5867166, 51.9501307 ], [ 0.5890555, 51.9489732 ], [ 0.5896219, 51.94871890000001 ] ] } },
{ "type": "Feature", "properties": { "id": 41377, "nach": 0.076468111353970997 }, "geometry": { "type": "LineString", "coordinates": [ [ 0.5864814, 51.9418133 ], [ 0.5866055, 51.941909700000011 ], [ 0.5867728, 51.9422976 ], [ 0.5874555, 51.9438367 ], [ 0.5896219, 51.94871890000001 ] ] } },
{ "type": "Feature", "properties": { "id": 65908, "nach": 0.33655306441907779 }, "geometry": { "type": "LineString", "coordinates": [ [ 0.5902632, 51.948455400000014 ], [ 0.5904717, 51.9484407 ], [ 0.5907661, 51.9483194 ], [ 0.5912307, 51.9481282 ], [ 0.5912643, 51.9480467 ] ] } },
{ "type": "Feature", "properties": { "id": 65898, "nach": 0.26802750547393051 }, "geometry": { "type": "LineString", "coordinates": [ [ 0.5882703, 51.9407622 ], [ 0.5868429, 51.941135600000017 ], [ 0.5864814, 51.9418133 ] ] } },
{ "type": "Feature", "properties": { "id": 58158, "nach": 0.22416421859090221 }, "geometry": { "type": "LineString", "coordinates": [ [ 0.5841647, 51.9430359 ], [ 0.5844361, 51.9422233 ], [ 0.5844976, 51.942057400000017 ], [ 0.5846014, 51.9419816 ], [ 0.5847052, 51.9419152 ], [ 0.5848706, 51.941870199999983 ], [ 0.5861354, 51.9417209 ], [ 0.5863238, 51.9417493 ], [ 0.5864814, 51.9418133 ] ] } },
{ "type": "Feature", "properties": { "id": 39876, "nach": 0.2791725287237839 }, "geometry": { "type": "LineString", "coordinates": [ [ 0.5796099, 51.9468835 ], [ 0.5802889, 51.9463157 ], [ 0.5818779, 51.9451838 ] ] } },
{ "type": "Feature", "properties": { "id": 58157, "nach": 0.22963734218353599 }, "geometry": { "type": "LineString", "coordinates": [ [ 0.5841647, 51.9430359 ], [ 0.5839786, 51.9435931 ], [ 0.5838441, 51.9438159 ], [ 0.5837557, 51.9439391 ], [ 0.5835557, 51.944142900000017 ], [ 0.5833328, 51.9443159 ], [ 0.5821215, 51.9451417 ], [ 0.5818779, 51.9451838 ] ] } },
{ "type": "Feature", "properties": { "id": 43564, "nach": 0.35783320741183494 }, "geometry": { "type": "LineString", "coordinates": [ [ 0.5814773, 51.9478632 ], [ 0.5811977, 51.9477431 ], [ 0.5806326, 51.947412 ], [ 0.5796099, 51.9468835 ] ] } },
{ "type": "Feature", "properties": { "id": 48020, "nach": 0.32681545283480246 }, "geometry": { "type": "LineString", "coordinates": [ [ 0.5778517, 51.94754180000001 ], [ 0.5782504, 51.9474529 ], [ 0.5787082, 51.947331700000014 ], [ 0.5791588, 51.947166399999986 ], [ 0.579588, 51.9469018 ], [ 0.5796099, 51.9468835 ] ] } },
{ "type": "Feature", "properties": { "id": 28730, "nach": 0.30869572750670188 }, "geometry": { "type": "LineString", "coordinates": [ [ 0.5832981, 51.9381457 ], [ 0.5831361, 51.938151499999989 ], [ 0.5830425, 51.9381403 ], [ 0.5828118, 51.93806750000001 ], [ 0.5825597, 51.9379419 ], [ 0.5822057, 51.9378757 ], [ 0.5818379, 51.9378539 ], [ 0.5816156, 51.937879 ] ] } },
{ "type": "Feature", "properties": { "id": 28733, "nach": 0.34968172450864493 }, "geometry": { "type": "LineString", "coordinates": [ [ 0.5806597, 51.9389526 ], [ 0.5809035, 51.9389187 ], [ 0.5813808, 51.9388054 ], [ 0.5828644, 51.9384618 ], [ 0.5831302, 51.938281 ], [ 0.5832981, 51.9381457 ] ] } },
{ "type": "Feature", "properties": { "id": 56122, "nach": 0.2855596960147368 }, "geometry": { "type": "LineString", "coordinates": [ [ 0.5808474, 51.93927 ], [ 0.5806597, 51.9389526 ] ] } },
{ "type": "Feature", "properties": { "id": 56119, "nach": 0.34596538813910455 }, "geometry": { "type": "LineString", "coordinates": [ [ 0.5805525, 51.9389656 ], [ 0.5806597, 51.9389526 ] ] } },
{ "type": "Feature", "properties": { "id": 56121, "nach": 0.33807319953988452 }, "geometry": { "type": "LineString", "coordinates": [ [ 0.5805525, 51.9389656 ], [ 0.5804005, 51.9389784 ], [ 0.5801539, 51.9389987 ], [ 0.5800556, 51.9390298 ], [ 0.5799487, 51.9391033 ], [ 0.579773, 51.9393109 ], [ 0.57962, 51.9395044 ], [ 0.5792987, 51.939921 ], [ 0.5791372, 51.9402089 ], [ 0.579018, 51.940455 ], [ 0.5789851, 51.9405819 ], [ 0.5788958, 51.940876799999984 ] ] } },
{ "type": "Feature", "properties": { "id": 56120, "nach": 0.25092733230419945 }, "geometry": { "type": "LineString", "coordinates": [ [ 0.5805525, 51.9389656 ], [ 0.5805345, 51.9389087 ], [ 0.5801109, 51.938753199999987 ], [ 0.5800321, 51.9386957 ], [ 0.5799503, 51.9385628 ], [ 0.5798229, 51.9382465 ], [ 0.579836, 51.9381035 ], [ 0.5798981, 51.937974500000017 ], [ 0.5801007, 51.9378456 ], [ 0.5802543, 51.9377912 ] ] } },
{ "type": "Feature", "properties": { "id": 28747, "nach": 0.25062152808983074 }, "geometry": { "type": "LineString", "coordinates": [ [ 0.5772033, 51.94018410000001 ], [ 0.577308, 51.9401543 ], [ 0.5774552, 51.9401408 ], [ 0.5774954, 51.9401441 ], [ 0.577702, 51.940236700000014 ] ] } },
{ "type": "Feature", "properties": { "id": 55851, "nach": 0.29419857088383361 }, "geometry": { "type": "LineString", "coordinates": [ [ 0.5787748, 51.9409306 ], [ 0.5784832, 51.940936 ], [ 0.5783927, 51.9409278 ], [ 0.5783041, 51.9409023 ], [ 0.5782495, 51.9408616 ], [ 0.5781647, 51.9407071 ], [ 0.577963, 51.940336500000022 ], [ 0.5779272, 51.9402598 ], [ 0.577897, 51.9402296 ], [ 0.5778348, 51.940212099999989 ], [ 0.577702, 51.940236700000014 ] ] } },
{ "type": "Feature", "properties": { "id": 55852, "nach": 0.32239578221082044 }, "geometry": { "type": "LineString", "coordinates": [ [ 0.5787748, 51.9409306 ], [ 0.5788457, 51.9408949 ], [ 0.5788958, 51.940876799999984 ] ] } },
{ "type": "Feature", "properties": { "id": 48299, "nach": 0.36926218653166576 }, "geometry": { "type": "LineString", "coordinates": [ [ 0.5992996, 51.9438504 ], [ 0.5992578, 51.9438422 ], [ 0.5990505, 51.9437707 ], [ 0.5986796, 51.9435984 ] ] } },
{ "type": "Feature", "properties": { "id": 64208, "nach": 0.361196552526451 }, "geometry": { "type": "LineString", "coordinates": [ [ 0.5950085, 51.9443392 ], [ 0.5960599, 51.9441567 ], [ 0.5973467, 51.9439379 ], [ 0.5975569, 51.94390090000001 ], [ 0.5981137, 51.9437714 ], [ 0.598373, 51.9437108 ], [ 0.5985531, 51.9436519 ], [ 0.5986796, 51.9435984 ] ] } },
{ "type": "Feature", "properties": { "id": 64207, "nach": 0.2641998282451663 }, "geometry": { "type": "LineString", "coordinates": [ [ 0.5950085, 51.9443392 ], [ 0.5951688, 51.9441913 ], [ 0.595091, 51.9440053 ] ] } },
{ "type": "Feature", "properties": { "id": 64206, "nach": 0.3652656468354572 }, "geometry": { "type": "LineString", "coordinates": [ [ 0.5950085, 51.9443392 ], [ 0.5949636, 51.944380600000017 ] ] } },
{ "type": "Feature", "properties": { "id": 38953, "nach": 0.26694450869822439 }, "geometry": { "type": "LineString", "coordinates": [ [ 0.5949636, 51.944380600000017 ], [ 0.5950843, 51.944546 ] ] } },
{ "type": "Feature", "properties": { "id": 39872, "nach": 0.39960124792484486 }, "geometry": { "type": "LineString", "coordinates": [ [ 0.5857003, 51.9498896 ], [ 0.5848665, 51.94935 ] ] } },
{ "type": "Feature", "properties": { "id": 39875, "nach": 0.28054088592428927 }, "geometry": { "type": "LineString", "coordinates": [ [ 0.5860496, 51.949449 ], [ 0.5856755, 51.9496717 ], [ 0.5856297, 51.9497158 ], [ 0.5857003, 51.9498896 ] ] } },
{ "type": "Feature", "properties": { "id": 43565, "nach": 0.36584341189572006 }, "geometry": { "type": "LineString", "coordinates": [ [ 0.5814773, 51.9478632 ], [ 0.5819061, 51.948047300000013 ], [ 0.5822972, 51.9481721 ] ] } },
{ "type": "Feature", "properties": { "id": 39857, "nach": 0.34264706850083482 }, "geometry": { "type": "LineString", "coordinates": [ [ 0.581876, 51.9486075 ], [ 0.5820902, 51.948415200000014 ], [ 0.5821791, 51.948276 ], [ 0.5822972, 51.9481721 ] ] } },
{ "type": "Feature", "properties": { "id": 39869, "nach": 0.39766907170337268 }, "geometry": { "type": "LineString", "coordinates": [ [ 0.5829604, 51.9484382 ], [ 0.5826257, 51.9482967 ], [ 0.5822972, 51.9481721 ] ] } },
{ "type": "Feature", "properties": { "id": 50459, "nach": 0.17830616071493238 }, "geometry": { "type": "LineString", "coordinates": [ [ 0.5814173, 51.9486403 ], [ 0.5813639, 51.948386 ], [ 0.5811866, 51.9482938 ], [ 0.5812236, 51.9481684 ], [ 0.5813161, 51.9480287 ], [ 0.5814773, 51.9478632 ] ] } },
{ "type": "Feature", "properties": { "id": 50458, "nach": 0.26433255370115144 }, "geometry": { "type": "LineString", "coordinates": [ [ 0.5814173, 51.9486403 ], [ 0.5814886, 51.9486413 ], [ 0.581612, 51.9486542 ], [ 0.5817133, 51.948641 ], [ 0.5818052, 51.9486334 ], [ 0.581876, 51.9486075 ] ] } },
{ "type": "Feature", "properties": { "id": 39858, "nach": 0.27272635942317769 }, "geometry": { "type": "LineString", "coordinates": [ [ 0.5827564, 51.949058 ], [ 0.5820398, 51.9486924 ], [ 0.581876, 51.9486075 ] ] } },
{ "type": "Feature", "properties": { "id": 39871, "nach": 0.28283350558448545 }, "geometry": { "type": "LineString", "coordinates": [ [ 0.583441, 51.9480944 ], [ 0.5829604, 51.9484382 ] ] } },
{ "type": "Feature", "properties": { "id": 54808, "nach": 0.40411375648495362 }, "geometry": { "type": "LineString", "coordinates": [ [ 0.5835099, 51.9486674 ], [ 0.5831192, 51.9485053 ], [ 0.5829604, 51.9484382 ] ] } },
{ "type": "Feature", "properties": { "id": 56189, "nach": 0.40892890557445288 }, "geometry": { "type": "LineString", "coordinates": [ [ 0.5840876, 51.948934 ], [ 0.5837469, 51.9487757 ] ] } },
{ "type": "Feature", "properties": { "id": 54807, "nach": 0.40809002086656632 }, "geometry": { "type": "LineString", "coordinates": [ [ 0.5835099, 51.9486674 ], [ 0.5835824, 51.9486975 ], [ 0.5837469, 51.9487757 ] ] } },
{ "type": "Feature", "properties": { "id": 50457, "nach": 0.0 }, "geometry": { "type": "LineString", "coordinates": [ [ 0.5814173, 51.9486403 ], [ 0.5813767, 51.9486504 ], [ 0.5813324, 51.9486816 ], [ 0.581039, 51.948911899999985 ], [ 0.5810137, 51.9489444 ], [ 0.5810053, 51.9489847 ], [ 0.5810037, 51.949094600000016 ], [ 0.5808498, 51.9492672 ], [ 0.5805804, 51.949565 ], [ 0.5806916, 51.9496941 ], [ 0.5812388, 51.9497745 ], [ 0.5816492, 51.9498311 ], [ 0.5822072, 51.949962900000017 ], [ 0.5824915, 51.949752100000012 ], [ 0.5828326, 51.949512 ], [ 0.5828485, 51.9494992 ], [ 0.5837469, 51.9487757 ] ] } },
{ "type": "Feature", "properties": { "id": 56190, "nach": 0.40866311247812176 }, "geometry": { "type": "LineString", "coordinates": [ [ 0.5840876, 51.948934 ], [ 0.5843841, 51.9490718 ] ] } },
{ "type": "Feature", "properties": { "id": 56192, "nach": 0.28262642678024646 }, "geometry": { "type": "LineString", "coordinates": [ [ 0.5842181, 51.9487403 ], [ 0.584177799999989, 51.9488491 ], [ 0.5840876, 51.948934 ] ] } },
{ "type": "Feature", "properties": { "id": 54809, "nach": 0.28014119691032102 }, "geometry": { "type": "LineString", "coordinates": [ [ 0.5825814, 51.9493793 ], [ 0.5835099, 51.9486674 ] ] } },
{ "type": "Feature", "properties": { "id": 65902, "nach": 0.40261623547558184 }, "geometry": { "type": "LineString", "coordinates": [ [ 0.5845174, 51.9491385 ], [ 0.5846609, 51.9492102 ], [ 0.5848665, 51.94935 ] ] } },
{ "type": "Feature", "properties": { "id": 39864, "nach": 0.0 }, "geometry": { "type": "LineString", "coordinates": [ [ 0.5849949, 51.948853800000016 ], [ 0.585161499999989, 51.9487973 ], [ 0.5853013, 51.9488091 ], [ 0.5855974, 51.9489696 ], [ 0.5858715, 51.9491994 ], [ 0.585877, 51.9492366 ], [ 0.5856001, 51.9493717 ], [ 0.5855426, 51.9493785 ], [ 0.5854685, 51.9493413 ], [ 0.5851623, 51.949195 ], [ 0.5849952, 51.9492641 ], [ 0.5848665, 51.94935 ] ] } },
{ "type": "Feature", "properties": { "id": 65901, "nach": 0.22302898614983377 }, "geometry": { "type": "LineString", "coordinates": [ [ 0.5845174, 51.9491385 ], [ 0.5849949, 51.948853800000016 ] ] } },
{ "type": "Feature", "properties": { "id": 65900, "nach": 0.40038868203696204 }, "geometry": { "type": "LineString", "coordinates": [ [ 0.5845174, 51.9491385 ], [ 0.5843841, 51.9490718 ] ] } },
{ "type": "Feature", "properties": { "id": 39867, "nach": 0.24638400597431642 }, "geometry": { "type": "LineString", "coordinates": [ [ 0.5843841, 51.9490718 ], [ 0.5844887, 51.9489843 ], [ 0.5845423, 51.9489316 ], [ 0.5847966, 51.948808 ], [ 0.5849949, 51.948853800000016 ] ] } },
{ "type": "Feature", "properties": { "id": 48301, "nach": 0.29401627109019696 }, "geometry": { "type": "LineString", "coordinates": [ [ 0.5987127, 51.9444472 ], [ 0.5989786, 51.944197200000012 ], [ 0.5991115, 51.9440666 ], [ 0.5992996, 51.9438504 ] ] } },
{ "type": "Feature", "properties": { "id": 63258, "nach": 0.17861810940660028 }, "geometry": { "type": "LineString", "coordinates": [ [ 0.5998032, 51.9351809 ], [ 0.5997303, 51.935176700000014 ], [ 0.5996363, 51.9355241 ], [ 0.5995429, 51.9355702 ], [ 0.5994682, 51.9360078 ], [ 0.5992907, 51.9360654 ], [ 0.5990759, 51.9362957 ], [ 0.599216, 51.93648 ], [ 0.5990665, 51.9367219 ], [ 0.5987396, 51.936929199999987 ], [ 0.5984034, 51.9368773 ], [ 0.5978523, 51.9368428 ] ] } },
{ "type": "Feature", "properties": { "id": 63325, "nach": 0.0 }, "geometry": { "type": "LineString", "coordinates": [ [ 0.5889896, 51.9409004 ], [ 0.5890349, 51.9411471 ], [ 0.5891257, 51.9413581 ], [ 0.5891339, 51.9414904 ], [ 0.5890762, 51.9416531 ], [ 0.5890432, 51.941805699999989 ], [ 0.5890432, 51.9418744 ], [ 0.5890927, 51.9419125 ], [ 0.5891752, 51.941938 ], [ 0.5893072, 51.941943 ], [ 0.5901818, 51.9418693 ], [ 0.5902643, 51.9418515 ], [ 0.5902973, 51.9418184 ], [ 0.5902973, 51.9417498 ], [ 0.5902519, 51.9415107 ], [ 0.5902643, 51.941442100000017 ], [ 0.5903963, 51.9410631 ], [ 0.5904045, 51.9410072 ], [ 0.590388, 51.940948699999986 ], [ 0.5903303, 51.9409105 ], [ 0.5902148, 51.94088 ], [ 0.590129, 51.940872400000011 ], [ 0.5889896, 51.9409004 ] ] } }
]
}
