{
"type": "FeatureCollection",
"name": "BRAIN_188_NACH",
"crs": { "type": "name", "properties": { "name": "urn:ogc:def:crs:OGC:1.3:CRS84" } },
"features": [
{"type":"Feature","properties":{"id":43923,"nach":0.400437987391983},"geometry":{"type":"LineString","coordinates":[[0.6018513,51.8574633],[0.601864,51.8574263],[0.6019158,51.8571415],[0.6019761,51.8567807],[0.6020609,51.8564527],[0.6021525,51.8561536],[0.6021885,51.855958],[0.6021949,51.8558005]]}},
{"type":"Feature","properties":{"id":23058,"nach":0.34813090511991657},"geometry":{"type":"LineString","coordinates":[[0.6139127,51.8564462],[0.6143119,51.8567806]]}},
{"type":"Feature","properties":{"id":2871,"nach":0.33918897115714042},"geometry":{"type":"LineString","coordinates":[[0.6108505,51.8597282],[0.611025,51.8595554],[0.6111668,51.8593687],[0.6113868,51.8589891],[0.6115023,51.8587902],[0.6116458,51.8585791],[0.6119652,51.8582047],[0.6121306,51.8580506],[0.6127073,51.8576476],[0.6131668,51.857351],[0.6137183,51.8570407],[0.6143119,51.8567806]]}},
{"type":"Feature","properties":{"id":10748,"nach":0.28460296126735324},"geometry":{"type":"LineString","coordinates":[[0.6177858,51.8556928],[0.6172402,51.855846],[0.6163398,51.8560771],[0.6159827,51.8561936],[0.6149027,51.8565551],[0.6143119,51.8567806]]}},
{"type":"Feature","properties":{"id":21710,"nach":0.38472214905456042},"geometry":{"type":"LineString","coordinates":[[0.6127276,51.8605098],[0.6125067,51.8603532],[0.612409,51.86028180000001],[0.6123009,51.8602191],[0.6116663,51.8599896],[0.6111826,51.8598216],[0.6108505,51.8597282]]}},
{"type":"Feature","properties":{"id":2874,"nach":0.40056827172205206},"geometry":{"type":"LineString","coordinates":[[0.6098244,51.860172],[0.6101796,51.8600657],[0.6104682,51.8599518],[0.6107073,51.8598263],[0.6108505,51.8597282]]}},
{"type":"Feature","properties":{"id":70849,"nach":0.38437509305786283},"geometry":{"type":"LineString","coordinates":[[0.6138479,51.8609255],[0.6136866,51.86086610000001],[0.6134914,51.8607889],[0.6133539,51.8607513],[0.6131905,51.8607017],[0.6130505,51.8606543],[0.61292,51.8606018],[0.6128372,51.8605718],[0.6127276,51.8605098]]}},
{"type":"Feature","properties":{"id":66808,"nach":0.31641107138522123},"geometry":{"type":"LineString","coordinates":[[0.6125756,51.8605946],[0.612638,51.8605379],[0.6127276,51.8605098]]}},
{"type":"Feature","properties":{"id":23042,"nach":0.3012517252920513},"geometry":{"type":"LineString","coordinates":[[0.6095481,51.8601494],[0.6098244,51.860172]]}},
{"type":"Feature","properties":{"id":66805,"nach":0.3826476641513098},"geometry":{"type":"LineString","coordinates":[[0.6095143,51.8602604],[0.6098244,51.860172]]}},
{"type":"Feature","properties":{"id":66806,"nach":0.29742803826912817},"geometry":{"type":"LineString","coordinates":[[0.6095143,51.8602604],[0.6095481,51.8601494]]}},
{"type":"Feature","properties":{"id":61666,"nach":0.3133818145778382},"geometry":{"type":"LineString","coordinates":[[0.6085113,51.8593304],[0.6091536,51.8596348],[0.6092723,51.8597079],[0.6093157,51.859763],[0.6093585,51.8598297],[0.6094685,51.8600657],[0.6095481,51.8601494]]}},
{"type":"Feature","properties":{"id":66807,"nach":0.3949451726181063},"geometry":{"type":"LineString","coordinates":[[0.6095143,51.8602604],[0.6092846,51.860337199999989],[0.6091592,51.86038820000001]]}},
{"type":"Feature","properties":{"id":61660,"nach":0.3451959424858817},"geometry":{"type":"LineString","coordinates":[[0.6068178,51.8632357],[0.606728,51.863156199999985],[0.6064104,51.8629601],[0.6058096,51.8625678]]}},
{"type":"Feature","properties":{"id":61656,"nach":0.3054935325607947},"geometry":{"type":"LineString","coordinates":[[0.6074545,51.8614888],[0.6064896,51.8621437],[0.606174,51.8623596],[0.6058096,51.8625678]]}},
{"type":"Feature","properties":{"id":61663,"nach":0.36792090438497399},"geometry":{"type":"LineString","coordinates":[[0.605047699999989,51.8618854],[0.6051284,51.8619474],[0.6053671,51.8622056],[0.6055815,51.862403],[0.6058096,51.8625678]]}},
{"type":"Feature","properties":{"id":61659,"nach":0.39570456121110931},"geometry":{"type":"LineString","coordinates":[[0.6068178,51.8632357],[0.6069501,51.8633448]]}},
{"type":"Feature","properties":{"id":61661,"nach":0.37310101004573559},"geometry":{"type":"LineString","coordinates":[[0.6068178,51.8632357],[0.6068685,51.862898700000017],[0.6069502,51.8626679],[0.6070413,51.8625829],[0.6072024,51.862577099999989],[0.6073752,51.862531],[0.6074337,51.862426100000015]]}},
{"type":"Feature","properties":{"id":61657,"nach":0.38718448429533048},"geometry":{"type":"LineString","coordinates":[[0.6074545,51.8614888],[0.6077483,51.8612894],[0.6082266,51.8609307]]}},
{"type":"Feature","properties":{"id":61658,"nach":0.36652531179777864},"geometry":{"type":"LineString","coordinates":[[0.6074545,51.8614888],[0.6073985,51.86235940000001],[0.6074337,51.862426100000015]]}},
{"type":"Feature","properties":{"id":61662,"nach":0.35923794712274498},"geometry":{"type":"LineString","coordinates":[[0.605047699999989,51.8618854],[0.604872,51.8617506],[0.6045901,51.8616102],[0.6040183,51.861375],[0.6034687,51.8611439],[0.6031891,51.8609819],[0.6030633,51.8608647],[0.6029151,51.8606745],[0.6026501,51.8602748],[0.6023134,51.8597665]]}},
{"type":"Feature","properties":{"id":61667,"nach":0.15351963095050836},"geometry":{"type":"LineString","coordinates":[[0.6085113,51.8593304],[0.6082546,51.8595294],[0.6076403,51.8598941],[0.6075662,51.8599381],[0.607191,51.8601348],[0.6074317,51.860349],[0.607483,51.860431],[0.6074649,51.8604918],[0.6067994,51.8610322],[0.6061339,51.861397500000017],[0.6055916,51.8616106],[0.605047699999989,51.8618854]]}},
{"type":"Feature","properties":{"id":45718,"nach":0.37120307998605562},"geometry":{"type":"LineString","coordinates":[[0.6014898,51.8584678],[0.6014897,51.8584299],[0.6015079,51.8582608]]}},
{"type":"Feature","properties":{"id":27635,"nach":0.31990159846352589},"geometry":{"type":"LineString","coordinates":[[0.601217,51.8585087],[0.6012972,51.8584418],[0.6015079,51.8582608]]}},
{"type":"Feature","properties":{"id":43924,"nach":0.39599671239312384},"geometry":{"type":"LineString","coordinates":[[0.6018513,51.8574633],[0.6017594,51.8577094],[0.6016652,51.8579427],[0.6015603,51.8581636],[0.6015079,51.8582608]]}},
{"type":"Feature","properties":{"id":45717,"nach":0.37445770480659113},"geometry":{"type":"LineString","coordinates":[[0.6014898,51.8584678],[0.6014902,51.8586646]]}},
{"type":"Feature","properties":{"id":45720,"nach":0.30311621582224918},"geometry":{"type":"LineString","coordinates":[[0.6021252,51.8582557],[0.6019106,51.8584562],[0.6017631,51.8584595],[0.6014898,51.8584678]]}},
{"type":"Feature","properties":{"id":27634,"nach":0.33526608249641771},"geometry":{"type":"LineString","coordinates":[[0.601217,51.8585087],[0.6014902,51.8586646]]}},
{"type":"Feature","properties":{"id":27637,"nach":0.33181061965735326},"geometry":{"type":"LineString","coordinates":[[0.601217,51.8585087],[0.6011473,51.858415],[0.6010961,51.858348],[0.6009566,51.8582453],[0.6007474,51.8580565],[0.6006133,51.8579604],[0.6004416,51.8578146],[0.600227,51.8576788],[0.5999758,51.8575659],[0.5999178,51.8574653],[0.5998618,51.8574209],[0.599859,51.8574187],[0.5998569,51.857417]]}},
{"type":"Feature","properties":{"id":46104,"nach":0.31716314340310481},"geometry":{"type":"LineString","coordinates":[[0.5981725,51.8602201],[0.5992103,51.85968780000001],[0.6003937,51.859106500000017],[0.6008549,51.858744300000012],[0.6010931,51.858597700000011],[0.601217,51.8585087]]}},
{"type":"Feature","properties":{"id":43925,"nach":0.29146221984499998},"geometry":{"type":"LineString","coordinates":[[0.6025802,51.8580507],[0.6024186,51.858060300000012],[0.6023596,51.8580373],[0.6023534,51.8579778],[0.6023503,51.8578166],[0.6023254,51.8576822],[0.6022501,51.8574967],[0.6020558,51.8574672],[0.6018513,51.8574633]]}},
{"type":"Feature","properties":{"id":61670,"nach":0.31369800505972723},"geometry":{"type":"LineString","coordinates":[[0.6007122,51.855653],[0.600288,51.856559],[0.5998803,51.8573958],[0.5998569,51.857417]]}},
{"type":"Feature","properties":{"id":46685,"nach":0.36796072862077361},"geometry":{"type":"LineString","coordinates":[[0.6069501,51.8633448],[0.6069855,51.8633841]]}},
{"type":"Feature","properties":{"id":61491,"nach":0.20644423928180106},"geometry":{"type":"LineString","coordinates":[[0.6058225,51.8676588],[0.6060414,51.8669299],[0.6063332,51.8660342],[0.6068482,51.8646721],[0.6070713,51.8640944],[0.6071142,51.8638028],[0.6070971,51.863580200000015],[0.6069855,51.8633841]]}},
{"type":"Feature","properties":{"id":65808,"nach":0.34038204825281249},"geometry":{"type":"LineString","coordinates":[[0.6034636,51.86505360000001],[0.6035396,51.8650021],[0.6050017,51.8643554],[0.6055485,51.8641135],[0.6060631,51.8638418],[0.6069855,51.8633841]]}},
{"type":"Feature","properties":{"id":46688,"nach":0.29215312048275771},"geometry":{"type":"LineString","coordinates":[[0.6075617,51.8628774],[0.6072745,51.862993],[0.6071953,51.8630376],[0.6071322,51.8631573],[0.6070733,51.8632246],[0.6069501,51.8633448]]}},
{"type":"Feature","properties":{"id":66803,"nach":0.29427410300065482},"geometry":{"type":"LineString","coordinates":[[0.6073009,51.8631881],[0.6071145,51.8633189],[0.607034,51.863340500000021],[0.6069501,51.8633448]]}},
{"type":"Feature","properties":{"id":68065,"nach":0.15406810506993571},"geometry":{"type":"LineString","coordinates":[[0.6063631,51.8715338],[0.6063589,51.8714559],[0.6063332,51.8710531],[0.6061873,51.8707192],[0.6060414,51.8704013],[0.6059899,51.8701098],[0.6059298,51.8698819],[0.6057581,51.8696593],[0.6055865,51.8694473],[0.605492,51.86894920000001],[0.605535,51.8684086],[0.605801,51.8677302],[0.6058225,51.8676588]]}},
{"type":"Feature","properties":{"id":67675,"nach":0.18996834059401466},"geometry":{"type":"LineString","coordinates":[[0.6009494,51.8666021],[0.6009973,51.8666295],[0.6010547,51.8666624],[0.601098,51.8666872],[0.6027584,51.8671007],[0.6048318,51.8676128],[0.6049619,51.8675777],[0.6058225,51.8676588]]}},
{"type":"Feature","properties":{"id":66649,"nach":0.077058542675352296},"geometry":{"type":"LineString","coordinates":[[0.6170383,51.8673639],[0.6157435,51.8674471],[0.61441,51.8673919],[0.6137108,51.8674722],[0.6122065,51.8676781],[0.6109869,51.867773499999984],[0.6107511,51.8678538],[0.6085816,51.8676676],[0.6084582,51.8675978],[0.6079866,51.8675827],[0.6063604,51.867708200000024],[0.6058225,51.8676588]]}},
{"type":"Feature","properties":{"id":65810,"nach":0.33070073025004071},"geometry":{"type":"LineString","coordinates":[[0.6030217,51.8653272],[0.6029691,51.865290700000017],[0.6029217,51.8652479],[0.6029153,51.8652242],[0.6029379,51.865183300000012],[0.6030082,51.8651378],[0.6031032,51.8650787],[0.6031838,51.8650404],[0.6032521,51.8650266],[0.6033795,51.865032300000017],[0.6034636,51.86505360000001]]}},
{"type":"Feature","properties":{"id":25253,"nach":0.28562562505932193},"geometry":{"type":"LineString","coordinates":[[0.6169209,51.8656161],[0.6170101,51.8655905],[0.6172475,51.8655344],[0.6176056,51.865405],[0.6183727,51.8650108],[0.6187428,51.864871700000016],[0.6191398,51.864663],[0.6194721,51.86443460000001],[0.6199672,51.8637853],[0.6201174,51.8635004],[0.6201856,51.8634275],[0.6203626,51.863331399999986],[0.6205671,51.86326]]}},
{"type":"Feature","properties":{"id":66646,"nach":0.26036783712649131},"geometry":{"type":"LineString","coordinates":[[0.6170383,51.8673639],[0.6170114,51.8672502],[0.6169337,51.8668395],[0.6168827,51.8663526],[0.6168331,51.866234900000016],[0.6168291,51.866067700000023],[0.6168022,51.8658706],[0.6168666,51.8656536],[0.6169209,51.8656161]]}},
{"type":"Feature","properties":{"id":61496,"nach":0.26349970417224094},"geometry":{"type":"LineString","coordinates":[[0.6151174,51.864063],[0.6156459,51.8650472],[0.6164102,51.865654700000015],[0.6168168,51.8655744],[0.6169209,51.8656161]]}},
{"type":"Feature","properties":{"id":61501,"nach":0.37699425588203883},"geometry":{"type":"LineString","coordinates":[[0.6158928,51.8618836],[0.6157917,51.8617011]]}},
{"type":"Feature","properties":{"id":70850,"nach":0.37987741963066363},"geometry":{"type":"LineString","coordinates":[[0.6138479,51.8609255],[0.614014,51.8609867],[0.6149515,51.8613364],[0.6155465,51.8615687],[0.6157331,51.86166140000001],[0.6157917,51.8617011]]}},
{"type":"Feature","properties":{"id":30293,"nach":0.35338744637790581},"geometry":{"type":"LineString","coordinates":[[0.6173326,51.8615588],[0.6164635,51.8618305],[0.6162061,51.8618702],[0.6157917,51.8617011]]}},
{"type":"Feature","properties":{"id":70846,"nach":0.28016506102850469},"geometry":{"type":"LineString","coordinates":[[0.6175374,51.8586725],[0.6175044,51.858764800000017],[0.6174508,51.8588675],[0.6170398,51.8595422],[0.616811,51.8601854],[0.6159144,51.8616822],[0.6157917,51.8617011]]}},
{"type":"Feature","properties":{"id":61502,"nach":0.35625541153072576},"geometry":{"type":"LineString","coordinates":[[0.6158928,51.8618836],[0.615976,51.861974],[0.6162024,51.8620953],[0.6164462,51.8622281],[0.6168539,51.8623606],[0.6171436,51.8624069],[0.6173193,51.8624166],[0.6174898,51.8624141],[0.6176295,51.8624025]]}},
{"type":"Feature","properties":{"id":61503,"nach":0.29004064387287326},"geometry":{"type":"LineString","coordinates":[[0.6158928,51.8618836],[0.6154264,51.8630237],[0.6154264,51.8637417],[0.6151174,51.864063]]}},
{"type":"Feature","properties":{"id":70851,"nach":0.2249775367505793},"geometry":{"type":"LineString","coordinates":[[0.6138479,51.8609255],[0.6139201,51.8607805],[0.6139402,51.8605155],[0.6140609,51.8603448],[0.6146429,51.859802300000013],[0.6151405,51.8591571],[0.6152572,51.858989],[0.6154114,51.858685],[0.6154919,51.8586411],[0.6155951,51.8585981],[0.6168477,51.8585972],[0.617246,51.858644400000017],[0.6173211,51.8586502],[0.6175374,51.8586725]]}},
{"type":"Feature","properties":{"id":57581,"nach":0.37645962851170478},"geometry":{"type":"LineString","coordinates":[[0.6023134,51.8597665],[0.6021739,51.8595559],[0.6019964,51.8592813],[0.6017759,51.8589885],[0.6015609,51.858757],[0.6014902,51.8586646]]}},
{"type":"Feature","properties":{"id":57586,"nach":0.30137724671891464},"geometry":{"type":"LineString","coordinates":[[0.6029522,51.8600253],[0.6026959,51.859794099999988],[0.6026158,51.8597455],[0.6025663,51.8597177],[0.6025007,51.8597087],[0.6024556,51.8597141],[0.6023134,51.8597665]]}},
{"type":"Feature","properties":{"id":66005,"nach":0.28472969213642307},"geometry":{"type":"LineString","coordinates":[[0.603671,51.8550115],[0.6038959,51.855226],[0.6040329,51.855401],[0.604299,51.855755900000013],[0.6044783,51.8561098],[0.6049461,51.8567767],[0.6056488,51.8576184],[0.6060181,51.8579925],[0.6064196,51.8582935],[0.6067889,51.8585002],[0.6074058,51.8587581],[0.6079788,51.8590687],[0.6085113,51.8593304]]}},
{"type":"Feature","properties":{"id":42936,"nach":0.38960564893071653},"geometry":{"type":"LineString","coordinates":[[0.6091592,51.86038820000001],[0.6086888,51.860628500000018],[0.6082266,51.8609307]]}},
{"type":"Feature","properties":{"id":66804,"nach":0.28920941350396673},"geometry":{"type":"LineString","coordinates":[[0.6080175,51.8608238],[0.6080631,51.860868500000016],[0.6082266,51.8609307]]}},
{"type":"Feature","properties":{"id":42939,"nach":0.27697865102278141},"geometry":{"type":"LineString","coordinates":[[0.6079805,51.8602442],[0.6084241,51.8601934],[0.6089044,51.860223],[0.6090047,51.8602396],[0.6090471,51.8602594],[0.6091592,51.86038820000001]]}},
{"type":"Feature","properties":{"id":67674,"nach":0.22001508159134753},"geometry":{"type":"LineString","coordinates":[[0.6009494,51.8666021],[0.6009424,51.866607],[0.6008934,51.8666364],[0.6001871,51.8670925],[0.5995623,51.8674996],[0.5994117,51.8675994],[0.5992692,51.8677093],[0.5990041,51.8679245],[0.5984619,51.868439399999986]]}},
{"type":"Feature","properties":{"id":61500,"nach":0.16782767532376167},"geometry":{"type":"LineString","coordinates":[[0.6074337,51.862426100000015],[0.6098892,51.8621751],[0.6099856,51.8629833],[0.6122065,51.8629433],[0.6151174,51.864063]]}},
{"type":"Feature","properties":{"id":29950,"nach":0.30368713616196757},"geometry":{"type":"LineString","coordinates":[[0.5975881,51.854918499999989],[0.5966566,51.855638],[0.5973111,51.8559362],[0.5977939,51.8566121],[0.5988453,51.8569169],[0.5997573,51.8572548],[0.5996905,51.85736],[0.5997138,51.8573801]]}},
{"type":"Feature","properties":{"id":27642,"nach":0.23056334149882712},"geometry":{"type":"LineString","coordinates":[[0.5945381,51.8595755],[0.5947044,51.8595159],[0.594927,51.859438],[0.5951228,51.8593767],[0.595273,51.8593237],[0.5954581,51.85925910000001],[0.5955305,51.859226],[0.5956997,51.8591008],[0.5958068,51.8590454],[0.5959704,51.8589709],[0.5961367,51.8588914],[0.5962842,51.8588251],[0.5964961,51.858739],[0.5967348,51.8586429],[0.5968716,51.8585866],[0.5969735,51.8585501],[0.5970486,51.858505400000013],[0.5970808,51.8584773],[0.5972659,51.858411],[0.5974992,51.8583066],[0.5978774,51.8581443],[0.5980464,51.858083],[0.5981939,51.858026700000011],[0.5981966,51.8580002],[0.5981674,51.8579428],[0.5982666,51.8579279],[0.598685,51.857802],[0.5989372,51.857720900000018],[0.5992105,51.8576225],[0.599443799999989,51.857528],[0.5996281,51.8574359],[0.5996819,51.8574054],[0.5997138,51.8573801]]}},
{"type":"Feature","properties":{"id":27632,"nach":0.34502472409979956},"geometry":{"type":"LineString","coordinates":[[0.5998569,51.857417],[0.5997711,51.8574137],[0.5997138,51.8573801]]}},
{"type":"Feature","properties":{"id":61480,"nach":0.13635917060113092},"geometry":{"type":"LineString","coordinates":[[0.6014013,51.8663157],[0.5990436,51.864776],[0.5982225,51.8651257],[0.5978969,51.8647672],[0.5967219,51.8636657],[0.5947004,51.8620546]]}},
{"type":"Feature","properties":{"id":65811,"nach":0.3212877102712387},"geometry":{"type":"LineString","coordinates":[[0.6030217,51.8653272],[0.6028097,51.8654469],[0.6025801,51.8655647],[0.6023573,51.8656889]]}},
{"type":"Feature","properties":{"id":57515,"nach":0.31084882157932925},"geometry":{"type":"LineString","coordinates":[[0.6016278,51.8661544],[0.6020516,51.8658677],[0.6023573,51.8656889]]}},
{"type":"Feature","properties":{"id":61478,"nach":0.3005744082128457},"geometry":{"type":"LineString","coordinates":[[0.6014013,51.8663157],[0.6016278,51.8661544]]}},
{"type":"Feature","properties":{"id":67673,"nach":0.28102863859518196},"geometry":{"type":"LineString","coordinates":[[0.6009494,51.8666021],[0.6014013,51.8663157]]}},
{"type":"Feature","properties":{"id":57585,"nach":0.0},"geometry":{"type":"LineString","coordinates":[[0.6029522,51.8600253],[0.6030265,51.8600127],[0.6030673,51.8600181],[0.6031081,51.8600361],[0.6031226,51.8600667],[0.6031197,51.86009],[0.6030906,51.8601098],[0.603044,51.8601134],[0.6029959,51.8601008],[0.6029683,51.860064],[0.6029522,51.8600253]]}}
]
}
