{
"type": "FeatureCollection",
"name": "EASHE_113_NACH",
"crs": { "type": "name", "properties": { "name": "urn:ogc:def:crs:OGC:1.3:CRS84" } },
"features": [
{ "type": "Feature", "properties": { "id": 212, "nach": 0.5678513959380771 }, "geometry": { "type": "LineString", "coordinates": [ [ 0.1333269, 51.8759456 ], [ 0.1330178, 51.8760433 ], [ 0.1327581, 51.8761086 ], [ 0.1324639, 51.8761526 ] ] } },
{ "type": "Feature", "properties": { "id": 213, "nach": 0.59213545412609792 }, "geometry": { "type": "LineString", "coordinates": [ [ 0.1333269, 51.8759456 ], [ 0.1333285, 51.8760507 ], [ 0.1333332, 51.8760735 ] ] } },
{ "type": "Feature", "properties": { "id": 218, "nach": 0.62866362235726769 }, "geometry": { "type": "LineString", "coordinates": [ [ 0.1335023, 51.875771 ], [ 0.1334058, 51.875855300000012 ], [ 0.1333269, 51.8759456 ] ] } },
{ "type": "Feature", "properties": { "id": 221, "nach": 0.33942329261255605 }, "geometry": { "type": "LineString", "coordinates": [ [ 0.1324639, 51.8761526 ], [ 0.1331208, 51.8761811 ], [ 0.1334377, 51.8762538 ] ] } },
{ "type": "Feature", "properties": { "id": 15489, "nach": 0.55792266619313935 }, "geometry": { "type": "LineString", "coordinates": [ [ 0.1305448, 51.8761529 ], [ 0.1311639, 51.8761493 ], [ 0.1324639, 51.8761526 ] ] } },
{ "type": "Feature", "properties": { "id": 42229, "nach": 0.50708887093092736 }, "geometry": { "type": "LineString", "coordinates": [ [ 0.1333332, 51.8760735 ], [ 0.1333403, 51.87610750000001 ], [ 0.1333478, 51.8761438 ], [ 0.1334377, 51.8762538 ] ] } },
{ "type": "Feature", "properties": { "id": 42230, "nach": 0.55316667753710347 }, "geometry": { "type": "LineString", "coordinates": [ [ 0.1333332, 51.8760735 ], [ 0.1333829, 51.8760949 ], [ 0.1334446, 51.8761197 ], [ 0.1334929, 51.8761313 ], [ 0.1336568, 51.8761255 ] ] } },
{ "type": "Feature", "properties": { "id": 214, "nach": 0.46562709507322314 }, "geometry": { "type": "LineString", "coordinates": [ [ 0.1336031, 51.8763534 ], [ 0.1337372, 51.8763838 ], [ 0.1338624, 51.87639570000001 ], [ 0.1340255, 51.8763887 ], [ 0.134184, 51.87634580000001 ], [ 0.1343227, 51.8762946 ] ] } },
{ "type": "Feature", "properties": { "id": 215, "nach": 0.29492473707693445 }, "geometry": { "type": "LineString", "coordinates": [ [ 0.1336031, 51.8763534 ], [ 0.1337538, 51.8764929 ], [ 0.1339374, 51.8766195 ] ] } },
{ "type": "Feature", "properties": { "id": 223, "nach": 0.54476449732913856 }, "geometry": { "type": "LineString", "coordinates": [ [ 0.1343227, 51.8762946 ], [ 0.134397, 51.8762063 ] ] } },
{ "type": "Feature", "properties": { "id": 1820, "nach": 0.48060465074898101 }, "geometry": { "type": "LineString", "coordinates": [ [ 0.1342235, 51.8766835 ], [ 0.1342145, 51.876553 ], [ 0.1342378, 51.8764143 ], [ 0.1343227, 51.8762946 ] ] } },
{ "type": "Feature", "properties": { "id": 42256, "nach": 0.53834229308814718 }, "geometry": { "type": "LineString", "coordinates": [ [ 0.1339374, 51.8766195 ], [ 0.1339909, 51.8765851 ], [ 0.1341334, 51.8766962 ], [ 0.1342235, 51.8766835 ] ] } },
{ "type": "Feature", "properties": { "id": 42254, "nach": 0.51903333419617337 }, "geometry": { "type": "LineString", "coordinates": [ [ 0.1339374, 51.8766195 ], [ 0.1338763, 51.8766533 ] ] } },
{ "type": "Feature", "properties": { "id": 42255, "nach": 0.29336584542044353 }, "geometry": { "type": "LineString", "coordinates": [ [ 0.1339374, 51.8766195 ], [ 0.134046, 51.8766964 ], [ 0.1344075, 51.8770331 ] ] } },
{ "type": "Feature", "properties": { "id": 216, "nach": 0.52378987801375965 }, "geometry": { "type": "LineString", "coordinates": [ [ 0.134397, 51.8762063 ], [ 0.1345912, 51.876113 ], [ 0.1347537, 51.8760527 ], [ 0.1349745, 51.87598950000001 ] ] } },
{ "type": "Feature", "properties": { "id": 217, "nach": 0.51217031028927373 }, "geometry": { "type": "LineString", "coordinates": [ [ 0.134397, 51.8762063 ], [ 0.1344415, 51.8761273 ], [ 0.1344538, 51.8760417 ], [ 0.1344315, 51.8759449 ], [ 0.1343096, 51.8758264 ] ] } },
{ "type": "Feature", "properties": { "id": 9611, "nach": 0.6401331706788006 }, "geometry": { "type": "LineString", "coordinates": [ [ 0.1349745, 51.87598950000001 ], [ 0.1347403, 51.8759661 ], [ 0.1345303, 51.87592380000001 ], [ 0.1343096, 51.8758264 ] ] } },
{ "type": "Feature", "properties": { "id": 88686, "nach": 0.65374752147023618 }, "geometry": { "type": "LineString", "coordinates": [ [ 0.1355851, 51.8759789 ], [ 0.1352043, 51.8759844 ], [ 0.1349745, 51.87598950000001 ] ] } },
{ "type": "Feature", "properties": { "id": 1819, "nach": 0.64769433104742569 }, "geometry": { "type": "LineString", "coordinates": [ [ 0.1343096, 51.8758264 ], [ 0.1341816, 51.875756300000013 ], [ 0.1340699, 51.8757241 ] ] } },
{ "type": "Feature", "properties": { "id": 3679, "nach": 0.56048775493804637 }, "geometry": { "type": "LineString", "coordinates": [ [ 0.132995, 51.8747316 ], [ 0.133182, 51.8748908 ], [ 0.1332486, 51.8750153 ], [ 0.1334629, 51.875392100000013 ], [ 0.1335449, 51.8755363 ], [ 0.1335628, 51.8756138 ], [ 0.1335526, 51.8756889 ], [ 0.1335023, 51.875771 ] ] } },
{ "type": "Feature", "properties": { "id": 3687, "nach": 0.60672545945890555 }, "geometry": { "type": "LineString", "coordinates": [ [ 0.1340699, 51.8757241 ], [ 0.1338813, 51.87570620000001 ], [ 0.1336939, 51.8757282 ], [ 0.1335023, 51.875771 ] ] } },
{ "type": "Feature", "properties": { "id": 220, "nach": 0.34101749827965822 }, "geometry": { "type": "LineString", "coordinates": [ [ 0.1244561, 51.877343900000014 ], [ 0.1246179, 51.8773561 ], [ 0.124849, 51.8774076 ] ] } },
{ "type": "Feature", "properties": { "id": 51528, "nach": 0.44067074264900613 }, "geometry": { "type": "LineString", "coordinates": [ [ 0.124893, 51.8772437 ], [ 0.1246262, 51.877296599999987 ], [ 0.1244561, 51.877343900000014 ] ] } },
{ "type": "Feature", "properties": { "id": 51527, "nach": 0.37114110508928799 }, "geometry": { "type": "LineString", "coordinates": [ [ 0.124849, 51.8774076 ], [ 0.124882299999989, 51.8774585 ], [ 0.1249362, 51.8775021 ] ] } },
{ "type": "Feature", "properties": { "id": 51529, "nach": 0.3385250692573894 }, "geometry": { "type": "LineString", "coordinates": [ [ 0.124893, 51.8772437 ], [ 0.1248537, 51.8772951 ], [ 0.1248387, 51.8773511 ], [ 0.124849, 51.8774076 ] ] } },
{ "type": "Feature", "properties": { "id": 9604, "nach": 0.46543603079898715 }, "geometry": { "type": "LineString", "coordinates": [ [ 0.1334377, 51.8762538 ], [ 0.1334907, 51.8762944 ], [ 0.1335747, 51.8763408 ], [ 0.1335953, 51.87635 ] ] } },
{ "type": "Feature", "properties": { "id": 42237, "nach": 0.4738473547728061 }, "geometry": { "type": "LineString", "coordinates": [ [ 0.130546899999989, 51.8762692 ], [ 0.1305448, 51.8761529 ] ] } },
{ "type": "Feature", "properties": { "id": 38026, "nach": 0.36682808081133161 }, "geometry": { "type": "LineString", "coordinates": [ [ 0.1274048, 51.8762447 ], [ 0.1274753, 51.87620720000001 ], [ 0.1278964, 51.8761443 ], [ 0.128564199999988, 51.8761724 ], [ 0.1294815, 51.876089600000014 ], [ 0.1305517, 51.8760366 ], [ 0.1305498, 51.8760699 ], [ 0.1305448, 51.8761529 ] ] } },
{ "type": "Feature", "properties": { "id": 51531, "nach": 0.54703250283915328 }, "geometry": { "type": "LineString", "coordinates": [ [ 0.1305448, 51.8761529 ], [ 0.127597445604915, 51.876482462920769 ] ] } },
{ "type": "Feature", "properties": { "id": 224, "nach": 0.46079030815293354 }, "geometry": { "type": "LineString", "coordinates": [ [ 0.1344075, 51.8770331 ], [ 0.1342235, 51.8766835 ] ] } },
{ "type": "Feature", "properties": { "id": 40013, "nach": 0.37839098269289567 }, "geometry": { "type": "LineString", "coordinates": [ [ 0.1344075, 51.8770331 ], [ 0.145503751026702, 51.884700338604887 ] ] } },
{ "type": "Feature", "properties": { "id": 65799, "nach": 0.55093787043842068 }, "geometry": { "type": "LineString", "coordinates": [ [ 0.1355832, 51.876029 ], [ 0.1350256, 51.8760455 ], [ 0.1348646, 51.8760609 ], [ 0.1346731, 51.8761307 ], [ 0.1345186, 51.87624490000001 ], [ 0.1344458, 51.8763193 ], [ 0.1343599, 51.8764245 ], [ 0.134319, 51.8765368 ], [ 0.1342911, 51.8766725 ], [ 0.1342235, 51.8766835 ] ] } },
{ "type": "Feature", "properties": { "id": 3686, "nach": 0.59282594339037054 }, "geometry": { "type": "LineString", "coordinates": [ [ 0.1340699, 51.8757241 ], [ 0.1336545, 51.8754218 ], [ 0.1335291, 51.8752755 ], [ 0.133319, 51.8747972 ], [ 0.1332779, 51.874695 ] ] } },
{ "type": "Feature", "properties": { "id": 88685, "nach": 0.34642893259616137 }, "geometry": { "type": "LineString", "coordinates": [ [ 0.1355851, 51.8759789 ], [ 0.1355832, 51.876029 ] ] } },
{ "type": "Feature", "properties": { "id": 77999, "nach": 0.56808799625327333 }, "geometry": { "type": "LineString", "coordinates": [ [ 0.1362545, 51.8760348 ], [ 0.1359996, 51.8760179 ], [ 0.1357474, 51.8760189 ], [ 0.1355832, 51.876029 ] ] } },
{ "type": "Feature", "properties": { "id": 3680, "nach": 0.5473748593187463 }, "geometry": { "type": "LineString", "coordinates": [ [ 0.132995, 51.8747316 ], [ 0.1330536, 51.8747458 ], [ 0.1331164, 51.874749 ], [ 0.133178, 51.874741 ], [ 0.1332334, 51.8747225 ], [ 0.1332779, 51.874695 ] ] } },
{ "type": "Feature", "properties": { "id": 3681, "nach": 0.49699526297816898 }, "geometry": { "type": "LineString", "coordinates": [ [ 0.132939, 51.8745257 ], [ 0.1329042, 51.874559 ], [ 0.1328866, 51.8745972 ], [ 0.1328877, 51.8746369 ], [ 0.1329076, 51.874674600000013 ], [ 0.1329444, 51.8747071 ], [ 0.132995, 51.8747316 ] ] } },
{ "type": "Feature", "properties": { "id": 3685, "nach": 0.6127633890242058 }, "geometry": { "type": "LineString", "coordinates": [ [ 0.1332779, 51.874695 ], [ 0.1333028, 51.8746685 ], [ 0.1333174, 51.8746391 ] ] } },
{ "type": "Feature", "properties": { "id": 3683, "nach": 0.45108926155252865 }, "geometry": { "type": "LineString", "coordinates": [ [ 0.1331575, 51.8744842 ], [ 0.133098, 51.8744799 ], [ 0.1330388, 51.8744858 ], [ 0.1329844, 51.874501499999987 ], [ 0.132939, 51.8745257 ] ] } },
{ "type": "Feature", "properties": { "id": 3688, "nach": 0.49994364495674093 }, "geometry": { "type": "LineString", "coordinates": [ [ 0.133028, 51.8743377 ], [ 0.132939, 51.8745257 ] ] } },
{ "type": "Feature", "properties": { "id": 3682, "nach": 0.57132865163098445 }, "geometry": { "type": "LineString", "coordinates": [ [ 0.1331575, 51.8744842 ], [ 0.133028, 51.8743377 ] ] } },
{ "type": "Feature", "properties": { "id": 3684, "nach": 0.58723627954691793 }, "geometry": { "type": "LineString", "coordinates": [ [ 0.1332651, 51.8745245 ], [ 0.1332161, 51.8744994 ], [ 0.1331575, 51.8744842 ] ] } },
{ "type": "Feature", "properties": { "id": 92200, "nach": 0.58493878209065975 }, "geometry": { "type": "LineString", "coordinates": [ [ 0.1325753, 51.8732568 ], [ 0.133028, 51.8743377 ] ] } },
{ "type": "Feature", "properties": { "id": 15492, "nach": 0.55514218944173754 }, "geometry": { "type": "LineString", "coordinates": [ [ 0.1333174, 51.8746391 ], [ 0.1333194, 51.8745982 ], [ 0.1333014, 51.8745587 ], [ 0.1332651, 51.8745245 ] ] } },
{ "type": "Feature", "properties": { "id": 15493, "nach": 0.53911550013697562 }, "geometry": { "type": "LineString", "coordinates": [ [ 0.1335961, 51.8745232 ], [ 0.1332651, 51.8745245 ] ] } },
{ "type": "Feature", "properties": { "id": 15491, "nach": 0.57529846223080039 }, "geometry": { "type": "LineString", "coordinates": [ [ 0.1333174, 51.8746391 ], [ 0.1335961, 51.8745232 ] ] } },
{ "type": "Feature", "properties": { "id": 92202, "nach": 0.54493779301515133 }, "geometry": { "type": "LineString", "coordinates": [ [ 0.1325753, 51.8732568 ], [ 0.1333997, 51.8732205 ], [ 0.133807, 51.8731655 ] ] } },
{ "type": "Feature", "properties": { "id": 92201, "nach": 0.371558662196871 }, "geometry": { "type": "LineString", "coordinates": [ [ 0.1325753, 51.8732568 ], [ 0.1315407, 51.873373 ], [ 0.1308621, 51.873428 ], [ 0.1303972, 51.873426199999983 ], [ 0.1298456, 51.8733992 ], [ 0.1291018, 51.8733383 ], [ 0.1284255, 51.8732868 ], [ 0.1270225, 51.873299900000013 ], [ 0.1259328, 51.8735099 ], [ 0.1255438, 51.8735222 ] ] } },
{ "type": "Feature", "properties": { "id": 92199, "nach": 0.62071184144749314 }, "geometry": { "type": "LineString", "coordinates": [ [ 0.1325753, 51.8732568 ], [ 0.131758120273962, 51.870953759390169 ] ] } },
{ "type": "Feature", "properties": { "id": 42242, "nach": 0.18890239217500737 }, "geometry": { "type": "LineString", "coordinates": [ [ 0.1336568, 51.8761255 ], [ 0.1335787, 51.876167700000011 ], [ 0.1335572, 51.8761959 ], [ 0.133547, 51.876224 ], [ 0.1335551, 51.8762588 ], [ 0.1335953, 51.87635 ] ] } },
{ "type": "Feature", "properties": { "id": 88687, "nach": 0.65672728884114751 }, "geometry": { "type": "LineString", "coordinates": [ [ 0.1355851, 51.8759789 ], [ 0.1356668, 51.8759777 ], [ 0.1359693, 51.875982 ] ] } },
{ "type": "Feature", "properties": { "id": 80211, "nach": 0.26984254634822558 }, "geometry": { "type": "LineString", "coordinates": [ [ 0.1295801, 51.8815813 ], [ 0.1290326, 51.8815713 ], [ 0.1282655, 51.8816029 ], [ 0.1275684, 51.8817386 ] ] } },
{ "type": "Feature", "properties": { "id": 80202, "nach": 0.31435653359842475 }, "geometry": { "type": "LineString", "coordinates": [ [ 0.1275922, 51.8838889 ], [ 0.1277176, 51.8837088 ], [ 0.1277059, 51.8829172 ], [ 0.1276283, 51.881805300000011 ], [ 0.1275684, 51.8817386 ] ] } },
{ "type": "Feature", "properties": { "id": 34524, "nach": 0.34099575734870718 }, "geometry": { "type": "LineString", "coordinates": [ [ 0.1270063, 51.8817733 ], [ 0.1273652, 51.8817437 ], [ 0.1275684, 51.8817386 ] ] } },
{ "type": "Feature", "properties": { "id": 80212, "nach": 0.26980540907681927 }, "geometry": { "type": "LineString", "coordinates": [ [ 0.1295801, 51.8815813 ], [ 0.1299532, 51.881597 ], [ 0.1306393, 51.8815614 ], [ 0.1309585, 51.8814691 ], [ 0.1313177, 51.8814714 ], [ 0.1315404, 51.8815112 ] ] } },
{ "type": "Feature", "properties": { "id": 80213, "nach": 0.22459519077518447 }, "geometry": { "type": "LineString", "coordinates": [ [ 0.1295801, 51.8815813 ], [ 0.1295831, 51.8816741 ], [ 0.1296824, 51.8817436 ], [ 0.1297012, 51.8818446 ], [ 0.1296958, 51.882046600000017 ], [ 0.1297494, 51.882147600000017 ], [ 0.1297253, 51.8822304 ], [ 0.1297763, 51.8824258 ], [ 0.1297789, 51.882525099999988 ], [ 0.1297468, 51.8826062 ], [ 0.1297575, 51.8828066 ], [ 0.1298514, 51.8829904 ], [ 0.1298889, 51.8830748 ], [ 0.1298701, 51.8831493 ], [ 0.1299023, 51.883273500000016 ], [ 0.1298648, 51.8834606 ], [ 0.1299935, 51.8836311 ], [ 0.130023, 51.8837255 ], [ 0.1300713, 51.8838215 ], [ 0.1301401, 51.8840602 ] ] } },
{ "type": "Feature", "properties": { "id": 34527, "nach": 0.27244818905686152 }, "geometry": { "type": "LineString", "coordinates": [ [ 0.1291671, 51.877832 ], [ 0.1290417, 51.8780444 ], [ 0.1290733, 51.87832860000001 ], [ 0.1290614, 51.8783433 ], [ 0.1289505, 51.8783539 ], [ 0.1285647, 51.878386700000014 ], [ 0.1285166, 51.8784286 ], [ 0.1285147, 51.8784562 ], [ 0.1286435, 51.8787705 ], [ 0.1286708, 51.879024200000011 ], [ 0.1286078, 51.879149200000015 ], [ 0.1285444, 51.879274800000012 ], [ 0.1283084, 51.8796192 ], [ 0.1279622, 51.8800192 ], [ 0.1274099, 51.880459500000015 ], [ 0.1272653, 51.8805974 ], [ 0.1270063, 51.8817733 ] ] } },
{ "type": "Feature", "properties": { "id": 85838, "nach": 0.34109315920541633 }, "geometry": { "type": "LineString", "coordinates": [ [ 0.1236064, 51.8824138 ], [ 0.1252389, 51.8820906 ], [ 0.1267628, 51.88179430000001 ], [ 0.1268832, 51.8817744 ], [ 0.1270063, 51.8817733 ] ] } },
{ "type": "Feature", "properties": { "id": 81817, "nach": 0.0 }, "geometry": { "type": "LineString", "coordinates": [ [ 0.1255292, 51.8771516 ], [ 0.1254966, 51.8771051 ], [ 0.1254303, 51.8771239 ], [ 0.1253443, 51.8771233 ], [ 0.125177, 51.877104400000015 ], [ 0.1249963, 51.8771191 ], [ 0.12475, 51.877213 ], [ 0.1239092, 51.8774318 ], [ 0.1239379, 51.8774689 ] ] } },
{ "type": "Feature", "properties": { "id": 51530, "nach": 0.45217559413928576 }, "geometry": { "type": "LineString", "coordinates": [ [ 0.1257119, 51.8770905 ], [ 0.1255292, 51.8771516 ] ] } },
{ "type": "Feature", "properties": { "id": 81815, "nach": 0.46085239065741812 }, "geometry": { "type": "LineString", "coordinates": [ [ 0.1255292, 51.8771516 ], [ 0.1253537, 51.877183599999988 ] ] } },
{ "type": "Feature", "properties": { "id": 81820, "nach": 0.37377050456639305 }, "geometry": { "type": "LineString", "coordinates": [ [ 0.1256243, 51.87722440000001 ], [ 0.1255718, 51.8771837 ], [ 0.1255292, 51.8771516 ] ] } },
{ "type": "Feature", "properties": { "id": 42238, "nach": 0.4500026839087089 }, "geometry": { "type": "LineString", "coordinates": [ [ 0.130546899999989, 51.8762692 ], [ 0.1305269, 51.8763474 ] ] } },
{ "type": "Feature", "properties": { "id": 42247, "nach": 0.40539000296470695 }, "geometry": { "type": "LineString", "coordinates": [ [ 0.1338763, 51.8766533 ], [ 0.1333232, 51.8763146 ], [ 0.1331971, 51.8762666 ], [ 0.1330952, 51.876242599999983 ], [ 0.1329759, 51.8762393 ], [ 0.1328771, 51.8762327 ], [ 0.1326246, 51.8762345 ], [ 0.1322543, 51.8762277 ], [ 0.1317211, 51.8762136 ], [ 0.1311466, 51.8762467 ], [ 0.130546899999989, 51.8762692 ] ] } },
{ "type": "Feature", "properties": { "id": 66847, "nach": 0.46313513806786327 }, "geometry": { "type": "LineString", "coordinates": [ [ 0.130546899999989, 51.8762692 ], [ 0.127624727819124, 51.876526093452981 ] ] } },
{ "type": "Feature", "properties": { "id": 81818, "nach": 0.40609512515351431 }, "geometry": { "type": "LineString", "coordinates": [ [ 0.1256243, 51.87722440000001 ], [ 0.1257119, 51.8770905 ] ] } },
{ "type": "Feature", "properties": { "id": 51531, "nach": 0.54703250283915328 }, "geometry": { "type": "LineString", "coordinates": [ [ 0.127597445604915, 51.876482462920769 ], [ 0.1257119, 51.8770905 ] ] } },
{ "type": "Feature", "properties": { "id": 38024, "nach": 0.3780705549284285 }, "geometry": { "type": "LineString", "coordinates": [ [ 0.1274048, 51.8762447 ], [ 0.1271792, 51.8761701 ], [ 0.1271565, 51.8761384 ], [ 0.126329, 51.8749513 ], [ 0.1254949, 51.8738508 ], [ 0.1252878, 51.8736205 ] ] } },
{ "type": "Feature", "properties": { "id": 38032, "nach": 0.51886178909474445 }, "geometry": { "type": "LineString", "coordinates": [ [ 0.1274048, 51.8762447 ], [ 0.127624727819124, 51.876526093452981 ] ] } },
{ "type": "Feature", "properties": { "id": 65810, "nach": 0.60375785211034405 }, "geometry": { "type": "LineString", "coordinates": [ [ 0.1348504, 51.8744174 ], [ 0.1342738, 51.874466600000012 ], [ 0.1335961, 51.8745232 ] ] } },
{ "type": "Feature", "properties": { "id": 65809, "nach": 0.57274971707893418 }, "geometry": { "type": "LineString", "coordinates": [ [ 0.1348504, 51.8744174 ], [ 0.1350301, 51.8744028 ] ] } },
{ "type": "Feature", "properties": { "id": 65811, "nach": 0.56660246516447499 }, "geometry": { "type": "LineString", "coordinates": [ [ 0.1348504, 51.8744174 ], [ 0.1348437, 51.8744673 ], [ 0.1348329, 51.874548599999983 ] ] } },
{ "type": "Feature", "properties": { "id": 15495, "nach": 0.57916165810928266 }, "geometry": { "type": "LineString", "coordinates": [ [ 0.1352051, 51.8745013 ], [ 0.1352594, 51.874497100000013 ], [ 0.1353092, 51.874483 ], [ 0.1353499, 51.8744604 ], [ 0.1353778, 51.8744313 ], [ 0.1353903, 51.8743984 ], [ 0.1353863, 51.8743647 ] ] } },
{ "type": "Feature", "properties": { "id": 15629, "nach": 0.58772589210202841 }, "geometry": { "type": "LineString", "coordinates": [ [ 0.1351463, 51.8746115 ], [ 0.1351747, 51.8745661 ], [ 0.1352051, 51.8745013 ] ] } },
{ "type": "Feature", "properties": { "id": 56944, "nach": 0.43909057665207751 }, "geometry": { "type": "LineString", "coordinates": [ [ 0.1350301, 51.8744028 ], [ 0.1350434, 51.8744335 ], [ 0.1350701, 51.8744606 ], [ 0.1351081, 51.8744821 ], [ 0.1351544, 51.874496 ], [ 0.1352051, 51.8745013 ] ] } },
{ "type": "Feature", "properties": { "id": 59682, "nach": 0.66738541371656068 }, "geometry": { "type": "LineString", "coordinates": [ [ 0.1355692, 51.87433410000002 ], [ 0.1353863, 51.8743647 ] ] } },
{ "type": "Feature", "properties": { "id": 15610, "nach": 0.65775112236632349 }, "geometry": { "type": "LineString", "coordinates": [ [ 0.1353863, 51.8743647 ], [ 0.1353706, 51.8743383 ], [ 0.1353447, 51.8743151 ], [ 0.1353103, 51.8742966 ], [ 0.1352694, 51.8742841 ], [ 0.1352248, 51.8742783 ] ] } },
{ "type": "Feature", "properties": { "id": 65806, "nach": 0.57016837575892843 }, "geometry": { "type": "LineString", "coordinates": [ [ 0.1348329, 51.874548599999983 ], [ 0.1351463, 51.8746115 ] ] } },
{ "type": "Feature", "properties": { "id": 67730, "nach": 0.60771891474975281 }, "geometry": { "type": "LineString", "coordinates": [ [ 0.1352169, 51.87462570000001 ], [ 0.1351463, 51.8746115 ] ] } },
{ "type": "Feature", "properties": { "id": 15631, "nach": 0.57680296398420927 }, "geometry": { "type": "LineString", "coordinates": [ [ 0.1349231, 51.8747135 ], [ 0.1349969, 51.8746968 ], [ 0.1350486, 51.8746787 ], [ 0.135096, 51.874655 ], [ 0.1351463, 51.8746115 ] ] } },
{ "type": "Feature", "properties": { "id": 15497, "nach": 0.57473754520286324 }, "geometry": { "type": "LineString", "coordinates": [ [ 0.1352248, 51.8742783 ], [ 0.1351717, 51.874280400000011 ], [ 0.1351218, 51.874292 ], [ 0.1350796, 51.874312 ], [ 0.1350487, 51.8743388 ], [ 0.1350317, 51.8743699 ], [ 0.1350301, 51.8744028 ] ] } },
{ "type": "Feature", "properties": { "id": 15569, "nach": 0.64253883305930448 }, "geometry": { "type": "LineString", "coordinates": [ [ 0.134536099999989, 51.8735444 ], [ 0.1345999, 51.8736086 ], [ 0.134687, 51.8736787 ], [ 0.1348744, 51.873779400000011 ], [ 0.1350105, 51.8738838 ], [ 0.1351107, 51.87400920000001 ], [ 0.1351641, 51.874139 ], [ 0.1352248, 51.8742783 ] ] } },
{ "type": "Feature", "properties": { "id": 15570, "nach": 0.57200111376201213 }, "geometry": { "type": "LineString", "coordinates": [ [ 0.134536099999989, 51.8735444 ], [ 0.1344387, 51.8735778 ], [ 0.1341861, 51.873649 ], [ 0.1341347, 51.8736737 ] ] } },
{ "type": "Feature", "properties": { "id": 99965, "nach": 0.63189856877401729 }, "geometry": { "type": "LineString", "coordinates": [ [ 0.1343609, 51.8730892 ], [ 0.1344924, 51.873485 ], [ 0.134536099999989, 51.8735444 ] ] } },
{ "type": "Feature", "properties": { "id": 15529, "nach": 0.63289933392430708 }, "geometry": { "type": "LineString", "coordinates": [ [ 0.1343494, 51.8730602 ], [ 0.1342517, 51.8728859 ], [ 0.13421, 51.8728071 ], [ 0.1341784, 51.872714800000011 ], [ 0.1341738, 51.872639 ], [ 0.1341799, 51.8725656 ], [ 0.1341981, 51.872494 ], [ 0.1342448, 51.8724014 ] ] } },
{ "type": "Feature", "properties": { "id": 99964, "nach": 0.64176132478295433 }, "geometry": { "type": "LineString", "coordinates": [ [ 0.1343609, 51.8730892 ], [ 0.1343494, 51.8730602 ] ] } },
{ "type": "Feature", "properties": { "id": 15532, "nach": 0.52654347425212145 }, "geometry": { "type": "LineString", "coordinates": [ [ 0.1354327, 51.8728826 ], [ 0.1344698, 51.873042 ], [ 0.1343494, 51.8730602 ] ] } },
{ "type": "Feature", "properties": { "id": 99967, "nach": 0.58587493414419822 }, "geometry": { "type": "LineString", "coordinates": [ [ 0.1343609, 51.8730892 ], [ 0.1346459, 51.8730448 ], [ 0.1347009, 51.873049700000017 ], [ 0.134941, 51.8730133 ], [ 0.1349772, 51.8729885 ], [ 0.1351354, 51.8729504 ], [ 0.1351837, 51.8729495 ], [ 0.1352293, 51.8729611 ], [ 0.1352923, 51.8729711 ], [ 0.1355226, 51.872958 ], [ 0.13563, 51.8729588 ], [ 0.1359064, 51.872963699999985 ], [ 0.1366284, 51.8728821 ] ] } },
{ "type": "Feature", "properties": { "id": 99966, "nach": 0.5830932394251902 }, "geometry": { "type": "LineString", "coordinates": [ [ 0.1343609, 51.8730892 ], [ 0.1342643, 51.87310140000001 ], [ 0.133807, 51.8731655 ] ] } },
{ "type": "Feature", "properties": { "id": 15542, "nach": 0.53666436903460168 }, "geometry": { "type": "LineString", "coordinates": [ [ 0.1336604, 51.8728614 ], [ 0.1336123, 51.8725499 ], [ 0.1335619, 51.8723802 ] ] } },
{ "type": "Feature", "properties": { "id": 97672, "nach": 0.45615708641581659 }, "geometry": { "type": "LineString", "coordinates": [ [ 0.1335338, 51.8728922 ], [ 0.1336604, 51.8728614 ] ] } },
{ "type": "Feature", "properties": { "id": 69401, "nach": 0.45615708641581659 }, "geometry": { "type": "LineString", "coordinates": [ [ 0.1337829, 51.8728763 ], [ 0.1336604, 51.8728614 ] ] } },
{ "type": "Feature", "properties": { "id": 31204, "nach": 0.55976259781367044 }, "geometry": { "type": "LineString", "coordinates": [ [ 0.133807, 51.8731655 ], [ 0.1337432, 51.8729502 ], [ 0.1336604, 51.8728614 ] ] } },
{ "type": "Feature", "properties": { "id": 31205, "nach": 0.51081223004055554 }, "geometry": { "type": "LineString", "coordinates": [ [ 0.133807, 51.8731655 ], [ 0.1338948, 51.8734083 ], [ 0.1338692, 51.87349110000001 ] ] } },
{ "type": "Feature", "properties": { "id": 97675, "nach": 0.45265777098355225 }, "geometry": { "type": "LineString", "coordinates": [ [ 0.1349057, 51.873256500000011 ], [ 0.1349096, 51.8733231 ] ] } },
{ "type": "Feature", "properties": { "id": 97674, "nach": 0.45265777098355225 }, "geometry": { "type": "LineString", "coordinates": [ [ 0.1348789, 51.8733774 ], [ 0.1349096, 51.8733231 ] ] } },
{ "type": "Feature", "properties": { "id": 15549, "nach": 0.52594249230860346 }, "geometry": { "type": "LineString", "coordinates": [ [ 0.1354563, 51.8732983 ], [ 0.135347, 51.8732763 ], [ 0.1351271, 51.8732972 ], [ 0.1349096, 51.8733231 ] ] } },
{ "type": "Feature", "properties": { "id": 15552, "nach": 0.56250163614438475 }, "geometry": { "type": "LineString", "coordinates": [ [ 0.1355416, 51.8735785 ], [ 0.1354563, 51.8732983 ] ] } },
{ "type": "Feature", "properties": { "id": 15558, "nach": 0.53494421846385609 }, "geometry": { "type": "LineString", "coordinates": [ [ 0.1354285, 51.8735944 ], [ 0.1355416, 51.8735785 ] ] } },
{ "type": "Feature", "properties": { "id": 15554, "nach": 0.60459792140650959 }, "geometry": { "type": "LineString", "coordinates": [ [ 0.1361473, 51.873549899999986 ], [ 0.1359144, 51.8735264 ], [ 0.1355416, 51.8735785 ] ] } },
{ "type": "Feature", "properties": { "id": 97676, "nach": 0.46296042493877276 }, "geometry": { "type": "LineString", "coordinates": [ [ 0.1353222, 51.8736092 ], [ 0.1354285, 51.8735944 ] ] } },
{ "type": "Feature", "properties": { "id": 15560, "nach": 0.45911767236714213 }, "geometry": { "type": "LineString", "coordinates": [ [ 0.1354013, 51.8739449 ], [ 0.1354663, 51.873872 ], [ 0.1354808, 51.8737744 ], [ 0.1354632, 51.8737136 ], [ 0.1354285, 51.8735944 ] ] } },
{ "type": "Feature", "properties": { "id": 59683, "nach": 0.68357404939594502 }, "geometry": { "type": "LineString", "coordinates": [ [ 0.1355692, 51.87433410000002 ], [ 0.1356932, 51.8742767 ], [ 0.1357829, 51.8742307 ], [ 0.1358369, 51.87419520000001 ], [ 0.135896, 51.8741492 ], [ 0.1359805, 51.8740646 ], [ 0.1360486, 51.8739469 ], [ 0.1361473, 51.873549899999986 ] ] } },
{ "type": "Feature", "properties": { "id": 59684, "nach": 0.691931363829006 }, "geometry": { "type": "LineString", "coordinates": [ [ 0.1355692, 51.87433410000002 ], [ 0.1356138, 51.8743774 ], [ 0.1354743, 51.874428 ], [ 0.1354073, 51.8744644 ], [ 0.1353684, 51.8744965 ], [ 0.1354236, 51.8745846 ] ] } },
{ "type": "Feature", "properties": { "id": 69399, "nach": 0.45257814779413269 }, "geometry": { "type": "LineString", "coordinates": [ [ 0.1344862, 51.8740338 ], [ 0.1343676, 51.8740798 ] ] } },
{ "type": "Feature", "properties": { "id": 69398, "nach": 0.44969675903074058 }, "geometry": { "type": "LineString", "coordinates": [ [ 0.1341114, 51.8742975 ], [ 0.1342435, 51.8742442 ], [ 0.1343552, 51.8741706 ], [ 0.1343676, 51.8740798 ] ] } },
{ "type": "Feature", "properties": { "id": 15567, "nach": 0.5439048816283969 }, "geometry": { "type": "LineString", "coordinates": [ [ 0.1341347, 51.8736737 ], [ 0.1340895, 51.8737613 ], [ 0.1340977, 51.8738382 ], [ 0.1341878, 51.873946100000012 ], [ 0.1342626, 51.874022200000013 ], [ 0.1343676, 51.8740798 ] ] } },
{ "type": "Feature", "properties": { "id": 101483, "nach": 0.45046719416018277 }, "geometry": { "type": "LineString", "coordinates": [ [ 0.1346026, 51.8742579 ], [ 0.13449, 51.8741072 ], [ 0.1343676, 51.8740798 ] ] } },
{ "type": "Feature", "properties": { "id": 15572, "nach": 0.50383351039834867 }, "geometry": { "type": "LineString", "coordinates": [ [ 0.1338692, 51.87349110000001 ], [ 0.1339034, 51.873516 ], [ 0.1340107, 51.8735915 ], [ 0.1341347, 51.8736737 ] ] } },
{ "type": "Feature", "properties": { "id": 97673, "nach": 0.46057246760377746 }, "geometry": { "type": "LineString", "coordinates": [ [ 0.1337524, 51.8735082 ], [ 0.1338692, 51.87349110000001 ] ] } },
{ "type": "Feature", "properties": { "id": 69400, "nach": 0.45853925058777789 }, "geometry": { "type": "LineString", "coordinates": [ [ 0.1339344, 51.8733189 ], [ 0.1339585, 51.8734133 ], [ 0.1338692, 51.87349110000001 ] ] } },
{ "type": "Feature", "properties": { "id": 72240, "nach": 0.61503297946443591 }, "geometry": { "type": "LineString", "coordinates": [ [ 0.1371947, 51.8758713 ], [ 0.1371907, 51.875891500000016 ] ] } },
{ "type": "Feature", "properties": { "id": 15619, "nach": 0.54931534066597765 }, "geometry": { "type": "LineString", "coordinates": [ [ 0.1371907, 51.875891500000016 ], [ 0.1371701, 51.8759244 ] ] } },
{ "type": "Feature", "properties": { "id": 68321, "nach": 0.59714879543720456 }, "geometry": { "type": "LineString", "coordinates": [ [ 0.1372095, 51.8759248 ], [ 0.1371907, 51.875891500000016 ] ] } },
{ "type": "Feature", "properties": { "id": 73784, "nach": 0.59531299346608202 }, "geometry": { "type": "LineString", "coordinates": [ [ 0.1370796, 51.8754355 ], [ 0.1370734, 51.8755056 ], [ 0.1371029, 51.8756004 ], [ 0.1371911, 51.8758214 ], [ 0.1371947, 51.8758713 ] ] } },
{ "type": "Feature", "properties": { "id": 72243, "nach": 0.47695395984455191 }, "geometry": { "type": "LineString", "coordinates": [ [ 0.1366976, 51.8758524 ], [ 0.1368203, 51.8758835 ], [ 0.1371947, 51.8758713 ] ] } },
{ "type": "Feature", "properties": { "id": 68292, "nach": 0.69549698325321818 }, "geometry": { "type": "LineString", "coordinates": [ [ 0.1371701, 51.8759244 ], [ 0.1369647, 51.875928200000011 ], [ 0.1364693, 51.8759394 ] ] } },
{ "type": "Feature", "properties": { "id": 68323, "nach": 0.68479481526800845 }, "geometry": { "type": "LineString", "coordinates": [ [ 0.1372095, 51.8759248 ], [ 0.1371701, 51.8759244 ] ] } },
{ "type": "Feature", "properties": { "id": 68291, "nach": 0.50783208982420613 }, "geometry": { "type": "LineString", "coordinates": [ [ 0.1371701, 51.8759244 ], [ 0.1371199, 51.8759935 ], [ 0.1370483, 51.876047700000015 ] ] } },
{ "type": "Feature", "properties": { "id": 31208, "nach": 0.46752989452725224 }, "geometry": { "type": "LineString", "coordinates": [ [ 0.1371703, 51.8748259 ], [ 0.1372767, 51.8748876 ] ] } },
{ "type": "Feature", "properties": { "id": 15625, "nach": 0.5324350058280849 }, "geometry": { "type": "LineString", "coordinates": [ [ 0.1381541, 51.874994900000011 ], [ 0.1378273, 51.8749445 ], [ 0.1374998, 51.874867899999984 ], [ 0.1372767, 51.8748876 ] ] } },
{ "type": "Feature", "properties": { "id": 73783, "nach": 0.56970317567686002 }, "geometry": { "type": "LineString", "coordinates": [ [ 0.1370796, 51.8754355 ], [ 0.1371855, 51.8752957 ], [ 0.1372214, 51.8752292 ], [ 0.1372322, 51.874973200000014 ], [ 0.1372767, 51.8748876 ] ] } },
{ "type": "Feature", "properties": { "id": 91417, "nach": 0.46090555586374743 }, "geometry": { "type": "LineString", "coordinates": [ [ 0.1382319, 51.87492970000001 ], [ 0.1381541, 51.874994900000011 ] ] } },
{ "type": "Feature", "properties": { "id": 86949, "nach": 0.45603193344666576 }, "geometry": { "type": "LineString", "coordinates": [ [ 0.1383376, 51.8753145 ], [ 0.1383579, 51.875222 ], [ 0.1382938, 51.8751871 ], [ 0.1382301, 51.8750995 ], [ 0.1381541, 51.874994900000011 ] ] } },
{ "type": "Feature", "properties": { "id": 77678, "nach": 0.4719541954168896 }, "geometry": { "type": "LineString", "coordinates": [ [ 0.1366024, 51.8753957 ], [ 0.1370796, 51.8754355 ] ] } },
{ "type": "Feature", "properties": { "id": 65807, "nach": 0.50655055459384624 }, "geometry": { "type": "LineString", "coordinates": [ [ 0.1348329, 51.874548599999983 ], [ 0.1348037, 51.8745427 ], [ 0.134509, 51.8745771 ] ] } },
{ "type": "Feature", "properties": { "id": 67732, "nach": 0.60547800003047925 }, "geometry": { "type": "LineString", "coordinates": [ [ 0.1352169, 51.87462570000001 ], [ 0.1352428, 51.8745943 ], [ 0.1352902, 51.8745695 ], [ 0.1354236, 51.8745846 ] ] } },
{ "type": "Feature", "properties": { "id": 68206, "nach": 0.47890096710103053 }, "geometry": { "type": "LineString", "coordinates": [ [ 0.1347518, 51.8749111 ], [ 0.1348118, 51.8748942 ], [ 0.1347819, 51.874852799999985 ], [ 0.1351339, 51.8747562 ], [ 0.1352169, 51.87462570000001 ] ] } },
{ "type": "Feature", "properties": { "id": 100107, "nach": 0.52372320620617407 }, "geometry": { "type": "LineString", "coordinates": [ [ 0.1347972, 51.8747047 ], [ 0.1349231, 51.8747135 ] ] } },
{ "type": "Feature", "properties": { "id": 67734, "nach": 0.51277316448808152 }, "geometry": { "type": "LineString", "coordinates": [ [ 0.1346455, 51.8749409 ], [ 0.1346361, 51.87485070000001 ], [ 0.134796, 51.8747743 ], [ 0.1348227, 51.874761499999984 ], [ 0.1349231, 51.8747135 ] ] } },
{ "type": "Feature", "properties": { "id": 100106, "nach": 0.48348683462735415 }, "geometry": { "type": "LineString", "coordinates": [ [ 0.1347972, 51.8747047 ], [ 0.134766, 51.8747025 ] ] } },
{ "type": "Feature", "properties": { "id": 67727, "nach": 0.38582137715991421 }, "geometry": { "type": "LineString", "coordinates": [ [ 0.1342407, 51.8748184 ], [ 0.1347972, 51.8747047 ] ] } },
{ "type": "Feature", "properties": { "id": 46724, "nach": 0.58722603574626386 }, "geometry": { "type": "LineString", "coordinates": [ [ 0.1356339, 51.8757324 ], [ 0.1349395, 51.8757247 ] ] } },
{ "type": "Feature", "properties": { "id": 67141, "nach": 0.57617209556888227 }, "geometry": { "type": "LineString", "coordinates": [ [ 0.1345432, 51.87544290000001 ], [ 0.1345844, 51.87552250000001 ], [ 0.13461, 51.8755718 ], [ 0.1346526, 51.8756309 ], [ 0.1347885, 51.8757013 ], [ 0.1348923, 51.8757209 ], [ 0.1349395, 51.8757247 ] ] } },
{ "type": "Feature", "properties": { "id": 67099, "nach": 0.47125176716744982 }, "geometry": { "type": "LineString", "coordinates": [ [ 0.1352752, 51.875628899999988 ], [ 0.135088, 51.8756823 ], [ 0.1349395, 51.8757247 ] ] } },
{ "type": "Feature", "properties": { "id": 46725, "nach": 0.60364127103073018 }, "geometry": { "type": "LineString", "coordinates": [ [ 0.1356339, 51.8757324 ], [ 0.135949, 51.8757365 ], [ 0.1360579, 51.8757246 ], [ 0.1361601, 51.8756917 ] ] } },
{ "type": "Feature", "properties": { "id": 67100, "nach": 0.47394956354881079 }, "geometry": { "type": "LineString", "coordinates": [ [ 0.1358449, 51.8756095 ], [ 0.1356904, 51.8756546 ], [ 0.1356464, 51.8756901 ], [ 0.1356339, 51.8757324 ] ] } },
{ "type": "Feature", "properties": { "id": 67139, "nach": 0.56884306777959692 }, "geometry": { "type": "LineString", "coordinates": [ [ 0.1345432, 51.87544290000001 ], [ 0.1344174, 51.8751997 ] ] } },
{ "type": "Feature", "properties": { "id": 67142, "nach": 0.46786940945777167 }, "geometry": { "type": "LineString", "coordinates": [ [ 0.1349324, 51.8753368 ], [ 0.1347054, 51.875398700000012 ], [ 0.1345432, 51.87544290000001 ] ] } },
{ "type": "Feature", "properties": { "id": 56966, "nach": 0.63824182062710699 }, "geometry": { "type": "LineString", "coordinates": [ [ 0.1364478, 51.8752443 ], [ 0.1362626, 51.8755885 ], [ 0.1362286, 51.8756305 ], [ 0.1361908, 51.875666699999989 ], [ 0.1361601, 51.8756917 ] ] } },
{ "type": "Feature", "properties": { "id": 44759, "nach": 0.73266480393387534 }, "geometry": { "type": "LineString", "coordinates": [ [ 0.136282, 51.8759395 ], [ 0.1363827, 51.8756149 ], [ 0.1363543, 51.875609 ], [ 0.1363015, 51.8756613 ], [ 0.1361982, 51.8757164 ], [ 0.1361601, 51.8756917 ] ] } },
{ "type": "Feature", "properties": { "id": 44756, "nach": 0.70105276046761678 }, "geometry": { "type": "LineString", "coordinates": [ [ 0.1358579, 51.8753508 ], [ 0.1360171, 51.8755493 ], [ 0.136107, 51.8756579 ], [ 0.1361601, 51.8756917 ] ] } },
{ "type": "Feature", "properties": { "id": 91585, "nach": 0.60647923414989469 }, "geometry": { "type": "LineString", "coordinates": [ [ 0.1366444, 51.8748907 ], [ 0.1364478, 51.8752443 ] ] } },
{ "type": "Feature", "properties": { "id": 96249, "nach": 0.56708773494652498 }, "geometry": { "type": "LineString", "coordinates": [ [ 0.1364222, 51.8752087 ], [ 0.1364478, 51.8752443 ] ] } },
{ "type": "Feature", "properties": { "id": 44757, "nach": 0.72019378026577385 }, "geometry": { "type": "LineString", "coordinates": [ [ 0.136282, 51.8759395 ], [ 0.1362644, 51.8759959 ] ] } },
{ "type": "Feature", "properties": { "id": 68285, "nach": 0.69645115351499098 }, "geometry": { "type": "LineString", "coordinates": [ [ 0.1364693, 51.8759394 ], [ 0.136282, 51.8759395 ] ] } },
{ "type": "Feature", "properties": { "id": 67726, "nach": 0.47062888452326984 }, "geometry": { "type": "LineString", "coordinates": [ [ 0.1349179, 51.8756394 ], [ 0.1358579, 51.8753508 ] ] } },
{ "type": "Feature", "properties": { "id": 68222, "nach": 0.69893173965326127 }, "geometry": { "type": "LineString", "coordinates": [ [ 0.1359575, 51.8750327 ], [ 0.1361323, 51.8752667 ], [ 0.1358579, 51.8753508 ] ] } },
{ "type": "Feature", "properties": { "id": 64818, "nach": 0.66196001763009438 }, "geometry": { "type": "LineString", "coordinates": [ [ 0.1394102, 51.8760111 ], [ 0.1395173, 51.8760113 ], [ 0.1402461, 51.8760072 ], [ 0.1410162, 51.8760324 ] ] } },
{ "type": "Feature", "properties": { "id": 96639, "nach": 0.68663620033744655 }, "geometry": { "type": "LineString", "coordinates": [ [ 0.1393723, 51.876011 ], [ 0.1394102, 51.8760111 ] ] } },
{ "type": "Feature", "properties": { "id": 98129, "nach": 0.67990253180184357 }, "geometry": { "type": "LineString", "coordinates": [ [ 0.1394107, 51.8760476 ], [ 0.1394102, 51.8760111 ] ] } },
{ "type": "Feature", "properties": { "id": 65802, "nach": 0.65702834071013538 }, "geometry": { "type": "LineString", "coordinates": [ [ 0.1394111, 51.8760929 ], [ 0.1393151, 51.8761978 ], [ 0.1393074, 51.8774817 ] ] } },
{ "type": "Feature", "properties": { "id": 26512, "nach": 0.36265565114813653 }, "geometry": { "type": "LineString", "coordinates": [ [ 0.134766, 51.8747025 ], [ 0.134509, 51.8745771 ] ] } },
{ "type": "Feature", "properties": { "id": 85664, "nach": 0.3868302155713082 }, "geometry": { "type": "LineString", "coordinates": [ [ 0.1342551, 51.87476490000001 ], [ 0.1342797, 51.8747285 ], [ 0.1343368, 51.8747076 ], [ 0.1343708, 51.8746965 ], [ 0.1344165, 51.8746863 ], [ 0.1345283, 51.8746831 ], [ 0.134766, 51.8747025 ] ] } },
{ "type": "Feature", "properties": { "id": 46730, "nach": 0.44140518347077251 }, "geometry": { "type": "LineString", "coordinates": [ [ 0.134509, 51.8745771 ], [ 0.1344469, 51.8745633 ], [ 0.134394, 51.8745549 ], [ 0.1343242, 51.874556 ], [ 0.1343018, 51.8745612 ], [ 0.1342428, 51.8745873 ], [ 0.134208, 51.874612 ], [ 0.1341869, 51.8746383 ], [ 0.1341936, 51.87469620000001 ], [ 0.1342551, 51.87476490000001 ] ] } },
{ "type": "Feature", "properties": { "id": 85665, "nach": 0.46493121857614667 }, "geometry": { "type": "LineString", "coordinates": [ [ 0.1342551, 51.87476490000001 ], [ 0.1342416, 51.8747929 ], [ 0.1342407, 51.8748184 ] ] } },
{ "type": "Feature", "properties": { "id": 38033, "nach": 0.34134333980069731 }, "geometry": { "type": "LineString", "coordinates": [ [ 0.1277264, 51.8766536 ], [ 0.1283732, 51.8765024 ], [ 0.1289395, 51.8763818 ], [ 0.1294572, 51.8763148 ], [ 0.1295491, 51.8763095 ], [ 0.1297879, 51.876349 ], [ 0.1299918, 51.8764086 ], [ 0.1301634, 51.876448400000015 ], [ 0.1303351, 51.876455 ], [ 0.1304638, 51.8764036 ], [ 0.1305269, 51.8763474 ] ] } },
{ "type": "Feature", "properties": { "id": 88996, "nach": 0.28666640104411401 }, "geometry": { "type": "LineString", "coordinates": [ [ 0.1337267, 51.876809200000011 ], [ 0.1332628, 51.8764798 ], [ 0.1331058, 51.8764038 ], [ 0.1328707, 51.8763489 ], [ 0.1324018, 51.876288600000017 ], [ 0.1320893, 51.8762663 ], [ 0.131908299999989, 51.8762654 ], [ 0.1309239, 51.8762986 ], [ 0.1305269, 51.8763474 ] ] } },
{ "type": "Feature", "properties": { "id": 38031, "nach": 0.41794208268992028 }, "geometry": { "type": "LineString", "coordinates": [ [ 0.1277264, 51.8766536 ], [ 0.1277554, 51.8766773 ], [ 0.1291671, 51.877832 ] ] } },
{ "type": "Feature", "properties": { "id": 91508, "nach": 0.44261094587150851 }, "geometry": { "type": "LineString", "coordinates": [ [ 0.127563299999989, 51.8766916 ], [ 0.1277264, 51.8766536 ] ] } },
{ "type": "Feature", "properties": { "id": 38032, "nach": 0.51886178909474445 }, "geometry": { "type": "LineString", "coordinates": [ [ 0.127597445604915, 51.876482462920769 ], [ 0.1277264, 51.8766536 ] ] } },
{ "type": "Feature", "properties": { "id": 88995, "nach": 0.21494268508905293 }, "geometry": { "type": "LineString", "coordinates": [ [ 0.1337267, 51.876809200000011 ], [ 0.1339199, 51.8769477 ], [ 0.1340728, 51.8770759 ], [ 0.1343571, 51.8773342 ], [ 0.135234, 51.8785498 ], [ 0.1354944, 51.8788775 ], [ 0.1358351, 51.879274100000011 ], [ 0.1362964, 51.879789 ], [ 0.1366451, 51.8801475 ], [ 0.136975, 51.8804638 ], [ 0.1373907, 51.8808264 ], [ 0.1377381, 51.8811078 ], [ 0.1379668, 51.8812839 ], [ 0.1382196, 51.8814787 ] ] } },
{ "type": "Feature", "properties": { "id": 88997, "nach": 0.4608369476126945 }, "geometry": { "type": "LineString", "coordinates": [ [ 0.1337267, 51.876809200000011 ], [ 0.1337488, 51.8767861 ], [ 0.1338763, 51.8766533 ] ] } },
{ "type": "Feature", "properties": { "id": 85209, "nach": 0.51552930593845836 }, "geometry": { "type": "LineString", "coordinates": [ [ 0.1364264, 51.8760187 ], [ 0.1362644, 51.8759959 ] ] } },
{ "type": "Feature", "properties": { "id": 49751, "nach": 0.66028217426512648 }, "geometry": { "type": "LineString", "coordinates": [ [ 0.1359693, 51.875982 ], [ 0.1362644, 51.8759959 ] ] } },
{ "type": "Feature", "properties": { "id": 77998, "nach": 0.72378780156083999 }, "geometry": { "type": "LineString", "coordinates": [ [ 0.1362545, 51.8760348 ], [ 0.1362644, 51.8759959 ] ] } },
{ "type": "Feature", "properties": { "id": 85210, "nach": 0.42976525313424319 }, "geometry": { "type": "LineString", "coordinates": [ [ 0.1364264, 51.8760187 ], [ 0.1366195, 51.8760567 ] ] } },
{ "type": "Feature", "properties": { "id": 85211, "nach": 0.46115076049964276 }, "geometry": { "type": "LineString", "coordinates": [ [ 0.1364264, 51.8760187 ], [ 0.1365022, 51.875986 ] ] } },
{ "type": "Feature", "properties": { "id": 78000, "nach": 0.72329831590250171 }, "geometry": { "type": "LineString", "coordinates": [ [ 0.1362545, 51.8760348 ], [ 0.1362623, 51.8760588 ], [ 0.1362804, 51.8760742 ] ] } },
{ "type": "Feature", "properties": { "id": 44736, "nach": 0.42058129740219768 }, "geometry": { "type": "LineString", "coordinates": [ [ 0.1366658, 51.874469400000017 ], [ 0.1366768, 51.8744481 ], [ 0.1370954, 51.87363340000001 ] ] } },
{ "type": "Feature", "properties": { "id": 44738, "nach": 0.0 }, "geometry": { "type": "LineString", "coordinates": [ [ 0.1368697, 51.8745118 ], [ 0.1368776, 51.874506 ], [ 0.1373471, 51.8736314 ], [ 0.1373426, 51.8736194 ], [ 0.1373304, 51.873613700000014 ], [ 0.1370954, 51.87363340000001 ] ] } },
{ "type": "Feature", "properties": { "id": 34455, "nach": 0.41744736319803344 }, "geometry": { "type": "LineString", "coordinates": [ [ 0.1368511, 51.8736539 ], [ 0.1364571, 51.8744102 ], [ 0.1364497, 51.8744244 ] ] } },
{ "type": "Feature", "properties": { "id": 34456, "nach": 0.47011357601674492 }, "geometry": { "type": "LineString", "coordinates": [ [ 0.1366026, 51.873674799999989 ], [ 0.1363687, 51.8736944 ], [ 0.1363597, 51.8737008 ], [ 0.1363461, 51.8737253 ], [ 0.1360672, 51.8742276 ], [ 0.1360606, 51.874239400000015 ], [ 0.136051, 51.8742567 ] ] } },
{ "type": "Feature", "properties": { "id": 66267, "nach": 0.42654329915922162 }, "geometry": { "type": "LineString", "coordinates": [ [ 0.1362751, 51.8742987 ], [ 0.1362892, 51.8742719 ], [ 0.1366026, 51.873674799999989 ] ] } },
{ "type": "Feature", "properties": { "id": 44733, "nach": 0.45151290643086861 }, "geometry": { "type": "LineString", "coordinates": [ [ 0.1364497, 51.8744244 ], [ 0.136318, 51.874397 ], [ 0.136225, 51.8743942 ] ] } },
{ "type": "Feature", "properties": { "id": 44731, "nach": 0.23904715781705035 }, "geometry": { "type": "LineString", "coordinates": [ [ 0.1364497, 51.8744244 ], [ 0.136367, 51.8745831 ] ] } },
{ "type": "Feature", "properties": { "id": 44735, "nach": 0.49097320884035001 }, "geometry": { "type": "LineString", "coordinates": [ [ 0.1366658, 51.874469400000017 ], [ 0.1364497, 51.8744244 ] ] } },
{ "type": "Feature", "properties": { "id": 66268, "nach": 0.53612278645005551 }, "geometry": { "type": "LineString", "coordinates": [ [ 0.136051, 51.8742567 ], [ 0.1360018, 51.87434540000001 ] ] } },
{ "type": "Feature", "properties": { "id": 77995, "nach": 0.45263135756868417 }, "geometry": { "type": "LineString", "coordinates": [ [ 0.1361553, 51.8742761 ], [ 0.136051, 51.8742567 ] ] } },
{ "type": "Feature", "properties": { "id": 34458, "nach": 0.0 }, "geometry": { "type": "LineString", "coordinates": [ [ 0.1359718, 51.8743994 ], [ 0.1356424, 51.8745036 ], [ 0.1356318, 51.8745104 ], [ 0.1356268, 51.874519 ], [ 0.1356348, 51.8745306 ], [ 0.135872, 51.8745746 ], [ 0.1359389, 51.8744872 ] ] } },
{ "type": "Feature", "properties": { "id": 44721, "nach": 0.46700613327980545 }, "geometry": { "type": "LineString", "coordinates": [ [ 0.1360018, 51.87434540000001 ], [ 0.1359718, 51.8743994 ] ] } },
{ "type": "Feature", "properties": { "id": 34459, "nach": 0.46951911879269675 }, "geometry": { "type": "LineString", "coordinates": [ [ 0.1359389, 51.8744872 ], [ 0.1359397, 51.8744894 ], [ 0.1359767, 51.8745062 ], [ 0.1360461, 51.8745197 ] ] } },
{ "type": "Feature", "properties": { "id": 44740, "nach": 0.53770712786283181 }, "geometry": { "type": "LineString", "coordinates": [ [ 0.1360461, 51.8745197 ], [ 0.1360482, 51.8744709 ], [ 0.1361044, 51.8743689 ] ] } },
{ "type": "Feature", "properties": { "id": 44739, "nach": 0.51335255385323697 }, "geometry": { "type": "LineString", "coordinates": [ [ 0.1360461, 51.8745197 ], [ 0.1362667, 51.8745627 ] ] } },
{ "type": "Feature", "properties": { "id": 79829, "nach": 0.59475766821152043 }, "geometry": { "type": "LineString", "coordinates": [ [ 0.1360057, 51.874615800000015 ], [ 0.1360461, 51.8745268 ], [ 0.1360461, 51.8745197 ] ] } },
{ "type": "Feature", "properties": { "id": 34463, "nach": 0.55518645228812025 }, "geometry": { "type": "LineString", "coordinates": [ [ 0.136367, 51.8745831 ], [ 0.1362667, 51.8745627 ] ] } },
{ "type": "Feature", "properties": { "id": 34461, "nach": 0.49915905047425219 }, "geometry": { "type": "LineString", "coordinates": [ [ 0.1362667, 51.8745627 ], [ 0.1361916, 51.8745365 ], [ 0.1361765, 51.874515 ], [ 0.1361781, 51.874483600000012 ], [ 0.136225, 51.8743942 ] ] } },
{ "type": "Feature", "properties": { "id": 34464, "nach": 0.55764050783680097 }, "geometry": { "type": "LineString", "coordinates": [ [ 0.1365847, 51.8746273 ], [ 0.136367, 51.8745831 ] ] } },
{ "type": "Feature", "properties": { "id": 44729, "nach": 0.48273781417928852 }, "geometry": { "type": "LineString", "coordinates": [ [ 0.136225, 51.8743942 ], [ 0.1361044, 51.8743689 ] ] } },
{ "type": "Feature", "properties": { "id": 44728, "nach": 0.46817940676574249 }, "geometry": { "type": "LineString", "coordinates": [ [ 0.136225, 51.8743942 ], [ 0.1362751, 51.8742987 ] ] } },
{ "type": "Feature", "properties": { "id": 34465, "nach": 0.51850433424492415 }, "geometry": { "type": "LineString", "coordinates": [ [ 0.1365847, 51.8746273 ], [ 0.1366658, 51.874469400000017 ] ] } },
{ "type": "Feature", "properties": { "id": 56941, "nach": 0.58895476509049705 }, "geometry": { "type": "LineString", "coordinates": [ [ 0.1366781, 51.8746503 ], [ 0.1366202, 51.8746345 ], [ 0.1365847, 51.8746273 ] ] } },
{ "type": "Feature", "properties": { "id": 44737, "nach": 0.21304592420308183 }, "geometry": { "type": "LineString", "coordinates": [ [ 0.1368697, 51.8745118 ], [ 0.1366658, 51.874469400000017 ] ] } },
{ "type": "Feature", "properties": { "id": 77742, "nach": 0.59470061286222342 }, "geometry": { "type": "LineString", "coordinates": [ [ 0.1366642, 51.8748551 ], [ 0.1366827, 51.8748219 ], [ 0.1367216, 51.8747518 ], [ 0.136731, 51.8747241 ], [ 0.1367386, 51.8746811 ], [ 0.1367043, 51.8746574 ], [ 0.1366781, 51.8746503 ] ] } },
{ "type": "Feature", "properties": { "id": 56942, "nach": 0.46743278756639306 }, "geometry": { "type": "LineString", "coordinates": [ [ 0.1366781, 51.8746503 ], [ 0.1367176, 51.8746228 ], [ 0.1368697, 51.8745118 ] ] } },
{ "type": "Feature", "properties": { "id": 34682, "nach": 0.27223738036704109 }, "geometry": { "type": "LineString", "coordinates": [ [ 0.1298282, 51.8783519 ], [ 0.1298036, 51.8785143 ], [ 0.1301316, 51.8790627 ], [ 0.1302734, 51.8792882 ], [ 0.1311326, 51.8806982 ], [ 0.1311957, 51.8807211 ], [ 0.1315404, 51.8815112 ] ] } },
{ "type": "Feature", "properties": { "id": 34680, "nach": 0.3956035594203009 }, "geometry": { "type": "LineString", "coordinates": [ [ 0.1298282, 51.8783519 ], [ 0.1291671, 51.877832 ] ] } },
{ "type": "Feature", "properties": { "id": 87198, "nach": 0.32439410426193632 }, "geometry": { "type": "LineString", "coordinates": [ [ 0.1300624, 51.8784345 ], [ 0.1298282, 51.8783519 ] ] } },
{ "type": "Feature", "properties": { "id": 34683, "nach": 0.30806083888710284 }, "geometry": { "type": "LineString", "coordinates": [ [ 0.1309708, 51.878794 ], [ 0.1305336, 51.878855299999984 ], [ 0.1304558, 51.878709599999986 ], [ 0.1303196, 51.8786113 ], [ 0.1299677, 51.8784686 ], [ 0.1298282, 51.8783519 ] ] } },
{ "type": "Feature", "properties": { "id": 74130, "nach": 0.45186422682093969 }, "geometry": { "type": "LineString", "coordinates": [ [ 0.1248379, 51.87762080000001 ], [ 0.1247498, 51.8776204 ], [ 0.1247492, 51.8777499 ], [ 0.1246117, 51.8783182 ], [ 0.124325, 51.8782927 ], [ 0.1243263, 51.8783075 ], [ 0.1243305, 51.8783545 ], [ 0.1241021, 51.8785865 ], [ 0.1230456, 51.879225500000011 ], [ 0.1229419, 51.879269399999984 ], [ 0.1228722, 51.8792793 ], [ 0.1227059, 51.8793224 ], [ 0.1226753, 51.8793522 ], [ 0.1226293, 51.879397 ] ] } },
{ "type": "Feature", "properties": { "id": 81041, "nach": 0.45641293660895166 }, "geometry": { "type": "LineString", "coordinates": [ [ 0.1249422, 51.8776159 ], [ 0.1248379, 51.87762080000001 ] ] } },
{ "type": "Feature", "properties": { "id": 74134, "nach": 0.39196288935700219 }, "geometry": { "type": "LineString", "coordinates": [ [ 0.1243311, 51.8774179 ], [ 0.12445, 51.8774093 ], [ 0.1245368, 51.8774088 ], [ 0.1246235, 51.877415 ], [ 0.1246918, 51.8774345 ], [ 0.1247568, 51.8774811 ], [ 0.1248034, 51.87754 ], [ 0.1248379, 51.87762080000001 ] ] } },
{ "type": "Feature", "properties": { "id": 91510, "nach": 0.40000882754418682 }, "geometry": { "type": "LineString", "coordinates": [ [ 0.127563299999989, 51.8766916 ], [ 0.1275535, 51.8766775 ], [ 0.1275466, 51.8766679 ], [ 0.1270228, 51.8767827 ], [ 0.1269582, 51.8766816 ] ] } },
{ "type": "Feature", "properties": { "id": 91509, "nach": 0.41934856567406709 }, "geometry": { "type": "LineString", "coordinates": [ [ 0.127563299999989, 51.8766916 ], [ 0.1268625, 51.8768578 ], [ 0.1264245, 51.8769538 ], [ 0.1263325, 51.8769898 ] ] } },
{ "type": "Feature", "properties": { "id": 42250, "nach": 0.53211352566618997 }, "geometry": { "type": "LineString", "coordinates": [ [ 0.1341173, 51.876121400000017 ], [ 0.1336568, 51.8761255 ] ] } },
{ "type": "Feature", "properties": { "id": 42252, "nach": 0.45806124204302567 }, "geometry": { "type": "LineString", "coordinates": [ [ 0.1341173, 51.876121400000017 ], [ 0.1341208, 51.8761836 ] ] } },
{ "type": "Feature", "properties": { "id": 42251, "nach": 0.45792457856682073 }, "geometry": { "type": "LineString", "coordinates": [ [ 0.1341173, 51.876121400000017 ], [ 0.1342515, 51.8761199 ] ] } },
{ "type": "Feature", "properties": { "id": 81813, "nach": 0.44926208108984972 }, "geometry": { "type": "LineString", "coordinates": [ [ 0.1256941, 51.8772544 ], [ 0.1257924, 51.8771523 ], [ 0.1260711, 51.8769935 ], [ 0.1263139, 51.8768859 ], [ 0.1265596, 51.8767929 ], [ 0.1269582, 51.8766816 ] ] } },
{ "type": "Feature", "properties": { "id": 66847, "nach": 0.46313513806786327 }, "geometry": { "type": "LineString", "coordinates": [ [ 0.127624727819124, 51.876526093452981 ], [ 0.1269582, 51.8766816 ] ] } },
{ "type": "Feature", "properties": { "id": 44726, "nach": 0.54594342422929121 }, "geometry": { "type": "LineString", "coordinates": [ [ 0.1361044, 51.8743689 ], [ 0.1360018, 51.87434540000001 ] ] } },
{ "type": "Feature", "properties": { "id": 56969, "nach": 0.56914535856017934 }, "geometry": { "type": "LineString", "coordinates": [ [ 0.1354954, 51.8745851 ], [ 0.1354798, 51.8745382 ], [ 0.1354085, 51.8745259 ], [ 0.1354434, 51.8744631 ], [ 0.1355344, 51.8744369 ], [ 0.1356546, 51.8744023 ], [ 0.1357588, 51.8743723 ], [ 0.135908, 51.8743293 ], [ 0.1359735, 51.8743399 ], [ 0.1360018, 51.87434540000001 ] ] } },
{ "type": "Feature", "properties": { "id": 77996, "nach": 0.44081367965566443 }, "geometry": { "type": "LineString", "coordinates": [ [ 0.1361553, 51.8742761 ], [ 0.1361044, 51.8743689 ] ] } },
{ "type": "Feature", "properties": { "id": 56967, "nach": 0.70784737781355433 }, "geometry": { "type": "LineString", "coordinates": [ [ 0.1354954, 51.8745851 ], [ 0.1354236, 51.8745846 ] ] } },
{ "type": "Feature", "properties": { "id": 56968, "nach": 0.69899402481151196 }, "geometry": { "type": "LineString", "coordinates": [ [ 0.1354954, 51.8745851 ], [ 0.1358709, 51.8746678 ], [ 0.135867, 51.8746752 ] ] } },
{ "type": "Feature", "properties": { "id": 66266, "nach": 0.4208480626518421 }, "geometry": { "type": "LineString", "coordinates": [ [ 0.1362751, 51.8742987 ], [ 0.1361553, 51.8742761 ] ] } },
{ "type": "Feature", "properties": { "id": 79827, "nach": 0.62571497059806969 }, "geometry": { "type": "LineString", "coordinates": [ [ 0.1360057, 51.874615800000015 ], [ 0.1359956, 51.8746381 ] ] } },
{ "type": "Feature", "properties": { "id": 98196, "nach": 0.54503786674208798 }, "geometry": { "type": "LineString", "coordinates": [ [ 0.1365644, 51.8748337 ], [ 0.136614, 51.8747438 ], [ 0.1360057, 51.874615800000015 ] ] } },
{ "type": "Feature", "properties": { "id": 68216, "nach": 0.68359001522440632 }, "geometry": { "type": "LineString", "coordinates": [ [ 0.1358301, 51.8748261 ], [ 0.1358661, 51.8747654 ], [ 0.1358321, 51.874742 ], [ 0.135867, 51.8746752 ] ] } },
{ "type": "Feature", "properties": { "id": 44750, "nach": 0.59732258859722476 }, "geometry": { "type": "LineString", "coordinates": [ [ 0.1359956, 51.8746381 ], [ 0.1358755, 51.8746755 ], [ 0.135867, 51.8746752 ] ] } },
{ "type": "Feature", "properties": { "id": 68217, "nach": 0.68374887054453082 }, "geometry": { "type": "LineString", "coordinates": [ [ 0.1358301, 51.8748261 ], [ 0.1358191, 51.8748447 ], [ 0.1358632, 51.8749065 ] ] } },
{ "type": "Feature", "properties": { "id": 68219, "nach": 0.0728584939869584 }, "geometry": { "type": "LineString", "coordinates": [ [ 0.136078, 51.8748683 ], [ 0.1358301, 51.8748261 ] ] } },
{ "type": "Feature", "properties": { "id": 68220, "nach": 0.58096223173932826 }, "geometry": { "type": "LineString", "coordinates": [ [ 0.136078, 51.8748683 ], [ 0.1359956, 51.8746381 ] ] } },
{ "type": "Feature", "properties": { "id": 96246, "nach": 0.58353643498860452 }, "geometry": { "type": "LineString", "coordinates": [ [ 0.1360327, 51.8749425 ], [ 0.136078, 51.8748683 ] ] } },
{ "type": "Feature", "properties": { "id": 68221, "nach": 0.68336250303526969 }, "geometry": { "type": "LineString", "coordinates": [ [ 0.1359575, 51.8750327 ], [ 0.1358632, 51.8749065 ] ] } },
{ "type": "Feature", "properties": { "id": 96247, "nach": 0.40372642700048822 }, "geometry": { "type": "LineString", "coordinates": [ [ 0.1360327, 51.8749425 ], [ 0.1358632, 51.8749065 ] ] } },
{ "type": "Feature", "properties": { "id": 96248, "nach": 0.59042652634741188 }, "geometry": { "type": "LineString", "coordinates": [ [ 0.1360327, 51.8749425 ], [ 0.1360237, 51.8749585 ], [ 0.1360646, 51.8750011 ], [ 0.1359575, 51.8750327 ] ] } },
{ "type": "Feature", "properties": { "id": 85207, "nach": 0.50034403292580132 }, "geometry": { "type": "LineString", "coordinates": [ [ 0.1365022, 51.875986 ], [ 0.1364693, 51.8759394 ] ] } },
{ "type": "Feature", "properties": { "id": 67101, "nach": 0.0 }, "geometry": { "type": "LineString", "coordinates": [ [ 0.1358449, 51.8756095 ], [ 0.1359794, 51.8755689 ], [ 0.135854, 51.8754108 ], [ 0.1357196, 51.8754514 ], [ 0.1358449, 51.8756095 ] ] } },
{ "type": "Feature", "properties": { "id": 67728, "nach": 0.48303533042182134 }, "geometry": { "type": "LineString", "coordinates": [ [ 0.1342407, 51.8748184 ], [ 0.1342401, 51.8748337 ], [ 0.1344174, 51.8751997 ] ] } },
{ "type": "Feature", "properties": { "id": 46729, "nach": 0.54531720881094947 }, "geometry": { "type": "LineString", "coordinates": [ [ 0.1344174, 51.8751997 ], [ 0.1346629, 51.8751065 ], [ 0.1346575, 51.875055 ], [ 0.1346455, 51.8749409 ] ] } },
{ "type": "Feature", "properties": { "id": 68204, "nach": 0.48247695889674691 }, "geometry": { "type": "LineString", "coordinates": [ [ 0.1347518, 51.8749111 ], [ 0.1346455, 51.8749409 ] ] } },
{ "type": "Feature", "properties": { "id": 58596, "nach": 0.35957264012315365 }, "geometry": { "type": "LineString", "coordinates": [ [ 0.1249362, 51.8775021 ], [ 0.1249422, 51.8776159 ] ] } },
{ "type": "Feature", "properties": { "id": 58597, "nach": 0.33604626377563335 }, "geometry": { "type": "LineString", "coordinates": [ [ 0.1249362, 51.8775021 ], [ 0.1250202, 51.8775399 ], [ 0.125119, 51.8775599 ], [ 0.1252229, 51.8775602 ] ] } },
{ "type": "Feature", "properties": { "id": 81474, "nach": 0.45506754773068681 }, "geometry": { "type": "LineString", "coordinates": [ [ 0.1253537, 51.877183599999988 ], [ 0.1252585, 51.8771575 ], [ 0.125155, 51.8771507 ], [ 0.1250532, 51.877164 ], [ 0.1249629, 51.8771961 ], [ 0.124893, 51.8772437 ] ] } },
{ "type": "Feature", "properties": { "id": 55147, "nach": 0.53010694399590497 }, "geometry": { "type": "LineString", "coordinates": [ [ 0.1370483, 51.876047700000015 ], [ 0.137009, 51.876063500000015 ] ] } },
{ "type": "Feature", "properties": { "id": 56950, "nach": 0.4658314543257987 }, "geometry": { "type": "LineString", "coordinates": [ [ 0.1372919, 51.87605 ], [ 0.1371762, 51.8760335 ], [ 0.1371037, 51.876034300000015 ], [ 0.1370483, 51.876047700000015 ] ] } },
{ "type": "Feature", "properties": { "id": 56945, "nach": 0.4427671727040276 }, "geometry": { "type": "LineString", "coordinates": [ [ 0.137009, 51.876063500000015 ], [ 0.1368416, 51.8760656 ], [ 0.1366315, 51.8760597 ] ] } },
{ "type": "Feature", "properties": { "id": 56946, "nach": 0.50114320086076114 }, "geometry": { "type": "LineString", "coordinates": [ [ 0.137009, 51.876063500000015 ], [ 0.1369666, 51.8760975 ], [ 0.136945, 51.87612630000001 ], [ 0.13693, 51.8761645 ], [ 0.1369323, 51.8762169 ] ] } },
{ "type": "Feature", "properties": { "id": 55148, "nach": 0.60093809231653006 }, "geometry": { "type": "LineString", "coordinates": [ [ 0.1373581, 51.8760932 ], [ 0.1373274, 51.8760701 ], [ 0.1372919, 51.87605 ] ] } },
{ "type": "Feature", "properties": { "id": 56948, "nach": 0.5775169151094407 }, "geometry": { "type": "LineString", "coordinates": [ [ 0.1373258, 51.8762783 ], [ 0.1373748, 51.8762359 ], [ 0.137397, 51.87618160000001 ], [ 0.1373863, 51.8761308 ], [ 0.1373581, 51.8760932 ] ] } },
{ "type": "Feature", "properties": { "id": 68296, "nach": 0.53338740155492026 }, "geometry": { "type": "LineString", "coordinates": [ [ 0.1375205, 51.8761101 ], [ 0.1373581, 51.8760932 ] ] } },
{ "type": "Feature", "properties": { "id": 56949, "nach": 0.58759800697627296 }, "geometry": { "type": "LineString", "coordinates": [ [ 0.1372919, 51.87605 ], [ 0.1372454, 51.8759886 ], [ 0.1372095, 51.8759248 ] ] } },
{ "type": "Feature", "properties": { "id": 55149, "nach": 0.53591559878680328 }, "geometry": { "type": "LineString", "coordinates": [ [ 0.1369323, 51.8762169 ], [ 0.1369545, 51.876246 ], [ 0.1369821, 51.8762734 ] ] } },
{ "type": "Feature", "properties": { "id": 55150, "nach": 0.42267233008349075 }, "geometry": { "type": "LineString", "coordinates": [ [ 0.1366315, 51.8760597 ], [ 0.136801, 51.8761362 ], [ 0.1369323, 51.8762169 ] ] } },
{ "type": "Feature", "properties": { "id": 72988, "nach": 0.54745454902199253 }, "geometry": { "type": "LineString", "coordinates": [ [ 0.1369821, 51.8762734 ], [ 0.1370656, 51.876395100000011 ] ] } },
{ "type": "Feature", "properties": { "id": 72989, "nach": 0.43957759466750052 }, "geometry": { "type": "LineString", "coordinates": [ [ 0.1369821, 51.8762734 ], [ 0.1370227, 51.876295 ], [ 0.137066, 51.8763099 ], [ 0.1371165, 51.8763192 ], [ 0.1371917, 51.8763194 ], [ 0.1372665, 51.8763038 ] ] } },
{ "type": "Feature", "properties": { "id": 55151, "nach": 0.54390263171658293 }, "geometry": { "type": "LineString", "coordinates": [ [ 0.1381139, 51.8760394 ], [ 0.1377331, 51.8760902 ] ] } },
{ "type": "Feature", "properties": { "id": 86973, "nach": 0.65284955373995934 }, "geometry": { "type": "LineString", "coordinates": [ [ 0.1383845, 51.876015600000017 ], [ 0.1381717, 51.8760334 ], [ 0.1381139, 51.8760394 ] ] } },
{ "type": "Feature", "properties": { "id": 68309, "nach": 0.63905886352831942 }, "geometry": { "type": "LineString", "coordinates": [ [ 0.1375429, 51.8762042 ], [ 0.1381139, 51.8760394 ] ] } },
{ "type": "Feature", "properties": { "id": 93510, "nach": 0.51600271394178399 }, "geometry": { "type": "LineString", "coordinates": [ [ 0.1377331, 51.8760902 ], [ 0.1376888, 51.8759984 ] ] } },
{ "type": "Feature", "properties": { "id": 93511, "nach": 0.54833148042024493 }, "geometry": { "type": "LineString", "coordinates": [ [ 0.1377331, 51.8760902 ], [ 0.1376081, 51.8761061 ], [ 0.1375205, 51.8761101 ] ] } },
{ "type": "Feature", "properties": { "id": 86972, "nach": 0.68713965885106687 }, "geometry": { "type": "LineString", "coordinates": [ [ 0.1383845, 51.876015600000017 ], [ 0.1383865, 51.8759577 ] ] } },
{ "type": "Feature", "properties": { "id": 86971, "nach": 0.71666849612008821 }, "geometry": { "type": "LineString", "coordinates": [ [ 0.1383845, 51.876015600000017 ], [ 0.1385877, 51.876007 ] ] } },
{ "type": "Feature", "properties": { "id": 72238, "nach": 0.66922726600378379 }, "geometry": { "type": "LineString", "coordinates": [ [ 0.1371637, 51.876689 ], [ 0.1371572, 51.876557800000015 ] ] } },
{ "type": "Feature", "properties": { "id": 55154, "nach": 0.6562850951352559 }, "geometry": { "type": "LineString", "coordinates": [ [ 0.1371572, 51.876557800000015 ], [ 0.1372113, 51.876405100000014 ], [ 0.1372161, 51.8763928 ] ] } },
{ "type": "Feature", "properties": { "id": 68315, "nach": 0.5593999767493576 }, "geometry": { "type": "LineString", "coordinates": [ [ 0.1370656, 51.876395100000011 ], [ 0.1371572, 51.876557800000015 ] ] } },
{ "type": "Feature", "properties": { "id": 72237, "nach": 0.59243141313274117 }, "geometry": { "type": "LineString", "coordinates": [ [ 0.1371637, 51.876689 ], [ 0.1371722, 51.8768474 ] ] } },
{ "type": "Feature", "properties": { "id": 72239, "nach": 0.64329969278501542 }, "geometry": { "type": "LineString", "coordinates": [ [ 0.1371637, 51.876689 ], [ 0.1370496, 51.8767538 ] ] } },
{ "type": "Feature", "properties": { "id": 68319, "nach": 0.58072372232135039 }, "geometry": { "type": "LineString", "coordinates": [ [ 0.1372161, 51.8763928 ], [ 0.1372497, 51.8763996 ], [ 0.1373096, 51.8764118 ] ] } },
{ "type": "Feature", "properties": { "id": 68320, "nach": 0.54333768848664321 }, "geometry": { "type": "LineString", "coordinates": [ [ 0.1372161, 51.8763928 ], [ 0.13715, 51.8763782 ], [ 0.1370656, 51.876395100000011 ] ] } },
{ "type": "Feature", "properties": { "id": 68318, "nach": 0.66475452647278244 }, "geometry": { "type": "LineString", "coordinates": [ [ 0.1372161, 51.8763928 ], [ 0.1372665, 51.8763038 ] ] } },
{ "type": "Feature", "properties": { "id": 66192, "nach": 0.62890659970157614 }, "geometry": { "type": "LineString", "coordinates": [ [ 0.1372631, 51.8778352 ], [ 0.1372506, 51.8777055 ] ] } },
{ "type": "Feature", "properties": { "id": 66203, "nach": 0.63078510007340127 }, "geometry": { "type": "LineString", "coordinates": [ [ 0.1372399, 51.8775655 ], [ 0.1372506, 51.8777055 ] ] } },
{ "type": "Feature", "properties": { "id": 73736, "nach": 0.50272696323185218 }, "geometry": { "type": "LineString", "coordinates": [ [ 0.1371373, 51.877710400000012 ], [ 0.1372506, 51.8777055 ] ] } },
{ "type": "Feature", "properties": { "id": 66191, "nach": 0.6215519761766064 }, "geometry": { "type": "LineString", "coordinates": [ [ 0.1372631, 51.8778352 ], [ 0.1372833, 51.87802640000001 ] ] } },
{ "type": "Feature", "properties": { "id": 73794, "nach": 0.48075627756603206 }, "geometry": { "type": "LineString", "coordinates": [ [ 0.1373802, 51.8778304 ], [ 0.1372631, 51.8778352 ] ] } },
{ "type": "Feature", "properties": { "id": 99969, "nach": 0.63282077572071971 }, "geometry": { "type": "LineString", "coordinates": [ [ 0.1372235, 51.8774008 ], [ 0.1372399, 51.8775655 ] ] } },
{ "type": "Feature", "properties": { "id": 73790, "nach": 0.55988115591338528 }, "geometry": { "type": "LineString", "coordinates": [ [ 0.1373545, 51.877560699999989 ], [ 0.1372399, 51.8775655 ] ] } },
{ "type": "Feature", "properties": { "id": 73738, "nach": 0.6713936520766921 }, "geometry": { "type": "LineString", "coordinates": [ [ 0.1371373, 51.877710400000012 ], [ 0.1371061, 51.8773998 ] ] } },
{ "type": "Feature", "properties": { "id": 99093, "nach": 0.66970715943629566 }, "geometry": { "type": "LineString", "coordinates": [ [ 0.1371548, 51.8778957 ], [ 0.1371373, 51.877710400000012 ] ] } },
{ "type": "Feature", "properties": { "id": 82470, "nach": 0.52398828533900965 }, "geometry": { "type": "LineString", "coordinates": [ [ 0.1368812, 51.8777214 ], [ 0.1369432, 51.877718700000017 ], [ 0.1370403, 51.8777146 ], [ 0.1371373, 51.877710400000012 ] ] } },
{ "type": "Feature", "properties": { "id": 79757, "nach": 0.69376045503751416 }, "geometry": { "type": "LineString", "coordinates": [ [ 0.137181, 51.8769719 ], [ 0.1371722, 51.8768474 ] ] } },
{ "type": "Feature", "properties": { "id": 68209, "nach": 0.67855354453297989 }, "geometry": { "type": "LineString", "coordinates": [ [ 0.1370567, 51.876846 ], [ 0.1371722, 51.8768474 ] ] } },
{ "type": "Feature", "properties": { "id": 79756, "nach": 0.69473811292599286 }, "geometry": { "type": "LineString", "coordinates": [ [ 0.137181, 51.8769719 ], [ 0.1371927, 51.8771125 ] ] } },
{ "type": "Feature", "properties": { "id": 79759, "nach": 0.43393429267274325 }, "geometry": { "type": "LineString", "coordinates": [ [ 0.137181, 51.8769719 ], [ 0.1370659, 51.876974 ] ] } },
{ "type": "Feature", "properties": { "id": 79758, "nach": 0.48657663854141042 }, "geometry": { "type": "LineString", "coordinates": [ [ 0.137181, 51.8769719 ], [ 0.1372979, 51.8769697 ] ] } },
{ "type": "Feature", "properties": { "id": 68208, "nach": 0.61896253496726716 }, "geometry": { "type": "LineString", "coordinates": [ [ 0.1370567, 51.876846 ], [ 0.1366922, 51.8768416 ] ] } },
{ "type": "Feature", "properties": { "id": 72235, "nach": 0.72702242900459846 }, "geometry": { "type": "LineString", "coordinates": [ [ 0.1370496, 51.8767538 ], [ 0.1370567, 51.876846 ] ] } },
{ "type": "Feature", "properties": { "id": 79752, "nach": 0.68462541930098975 }, "geometry": { "type": "LineString", "coordinates": [ [ 0.1370659, 51.876974 ], [ 0.1370567, 51.876846 ] ] } },
{ "type": "Feature", "properties": { "id": 66220, "nach": 0.50884060289889921 }, "geometry": { "type": "LineString", "coordinates": [ [ 0.1361646, 51.8768352 ], [ 0.1359315, 51.8768324 ] ] } },
{ "type": "Feature", "properties": { "id": 103125, "nach": 0.47424133555834852 }, "geometry": { "type": "LineString", "coordinates": [ [ 0.1359424, 51.8764874 ], [ 0.1359315, 51.8768324 ] ] } },
{ "type": "Feature", "properties": { "id": 55177, "nach": 0.43065417415939661 }, "geometry": { "type": "LineString", "coordinates": [ [ 0.1349286, 51.8769365 ], [ 0.1353824, 51.8768171 ], [ 0.1354594, 51.8768127 ], [ 0.1355398, 51.8768277 ], [ 0.1359315, 51.8768324 ] ] } },
{ "type": "Feature", "properties": { "id": 66222, "nach": 0.47427608162621177 }, "geometry": { "type": "LineString", "coordinates": [ [ 0.1361646, 51.8768352 ], [ 0.1361542, 51.8772118 ] ] } },
{ "type": "Feature", "properties": { "id": 70263, "nach": 0.53485853219170165 }, "geometry": { "type": "LineString", "coordinates": [ [ 0.1365096, 51.8768394 ], [ 0.1361646, 51.8768352 ] ] } },
{ "type": "Feature", "properties": { "id": 103126, "nach": 0.41738527078345555 }, "geometry": { "type": "LineString", "coordinates": [ [ 0.1359424, 51.8764874 ], [ 0.1362467, 51.8764899 ] ] } },
{ "type": "Feature", "properties": { "id": 108059, "nach": 0.50520222459989983 }, "geometry": { "type": "LineString", "coordinates": [ [ 0.1359445, 51.8763961 ], [ 0.1359424, 51.8764874 ] ] } },
{ "type": "Feature", "properties": { "id": 59317, "nach": 0.53634366011172163 }, "geometry": { "type": "LineString", "coordinates": [ [ 0.1352297, 51.8773838 ], [ 0.1349286, 51.8769365 ] ] } },
{ "type": "Feature", "properties": { "id": 59315, "nach": 0.53156051204586952 }, "geometry": { "type": "LineString", "coordinates": [ [ 0.1359527, 51.8761608 ], [ 0.1357882, 51.8761684 ], [ 0.1353309, 51.8761896 ], [ 0.1352293, 51.8762051 ], [ 0.1351317, 51.8762377 ], [ 0.1350513, 51.8762729 ], [ 0.1349878, 51.8763154 ], [ 0.1349358, 51.8763649 ], [ 0.1348953, 51.8764122 ], [ 0.1348469, 51.876487500000017 ], [ 0.1348156, 51.876563 ], [ 0.1347967, 51.876631799999984 ], [ 0.1348051, 51.8766926 ], [ 0.1348219, 51.8767506 ], [ 0.1348575, 51.8768341 ], [ 0.1349286, 51.8769365 ] ] } },
{ "type": "Feature", "properties": { "id": 99970, "nach": 0.62551300011657762 }, "geometry": { "type": "LineString", "coordinates": [ [ 0.1372235, 51.8774008 ], [ 0.1371927, 51.8771125 ] ] } },
{ "type": "Feature", "properties": { "id": 68300, "nach": 0.66895977180483179 }, "geometry": { "type": "LineString", "coordinates": [ [ 0.1373122, 51.877113799999989 ], [ 0.1371927, 51.8771125 ] ] } },
{ "type": "Feature", "properties": { "id": 99971, "nach": 0.53082754886163042 }, "geometry": { "type": "LineString", "coordinates": [ [ 0.1372235, 51.8774008 ], [ 0.1371061, 51.8773998 ] ] } },
{ "type": "Feature", "properties": { "id": 68299, "nach": 0.63966354100872314 }, "geometry": { "type": "LineString", "coordinates": [ [ 0.1373122, 51.877113799999989 ], [ 0.1377478, 51.8771184 ] ] } },
{ "type": "Feature", "properties": { "id": 73791, "nach": 0.66890701838152511 }, "geometry": { "type": "LineString", "coordinates": [ [ 0.1373545, 51.877560699999989 ], [ 0.1373122, 51.877113799999989 ] ] } },
{ "type": "Feature", "properties": { "id": 79754, "nach": 0.62551577286065407 }, "geometry": { "type": "LineString", "coordinates": [ [ 0.1372979, 51.8769697 ], [ 0.1373122, 51.877113799999989 ] ] } },
{ "type": "Feature", "properties": { "id": 60612, "nach": 0.63074361499912712 }, "geometry": { "type": "LineString", "coordinates": [ [ 0.1389889, 51.8771316 ], [ 0.13825, 51.8771237 ] ] } },
{ "type": "Feature", "properties": { "id": 110245, "nach": 0.60445364815272873 }, "geometry": { "type": "LineString", "coordinates": [ [ 0.1390406, 51.8762187 ], [ 0.1390827, 51.8762403 ], [ 0.139085, 51.8769432 ] ] } },
{ "type": "Feature", "properties": { "id": 66210, "nach": 0.52538023927581912 }, "geometry": { "type": "LineString", "coordinates": [ [ 0.1366789, 51.8773962 ], [ 0.1362179, 51.8773922 ] ] } },
{ "type": "Feature", "properties": { "id": 59316, "nach": 0.4812365398526009 }, "geometry": { "type": "LineString", "coordinates": [ [ 0.1352297, 51.8773838 ], [ 0.1362179, 51.8773922 ] ] } },
{ "type": "Feature", "properties": { "id": 59321, "nach": 0.343611454657408 }, "geometry": { "type": "LineString", "coordinates": [ [ 0.1362204, 51.8781155 ], [ 0.1362105, 51.878086 ], [ 0.1362041, 51.87806710000001 ], [ 0.1362172, 51.8774285 ], [ 0.1362179, 51.8773922 ] ] } },
{ "type": "Feature", "properties": { "id": 70509, "nach": 0.5252135197678176 }, "geometry": { "type": "LineString", "coordinates": [ [ 0.1367409, 51.8773967 ], [ 0.1366789, 51.8773962 ] ] } },
{ "type": "Feature", "properties": { "id": 84708, "nach": 0.53911180794354752 }, "geometry": { "type": "LineString", "coordinates": [ [ 0.1366796, 51.8772631 ], [ 0.1366796, 51.8772692 ], [ 0.1366792, 51.877333299999989 ], [ 0.1366789, 51.8773962 ] ] } },
{ "type": "Feature", "properties": { "id": 98106, "nach": 0.5491235484328314 }, "geometry": { "type": "LineString", "coordinates": [ [ 0.1353074, 51.877497300000016 ], [ 0.1352297, 51.8773838 ] ] } },
{ "type": "Feature", "properties": { "id": 59320, "nach": 0.5226635606702188 }, "geometry": { "type": "LineString", "coordinates": [ [ 0.1362204, 51.8781155 ], [ 0.1360355, 51.8781423 ], [ 0.1359324, 51.8781681 ], [ 0.1357888, 51.878204 ] ] } },
{ "type": "Feature", "properties": { "id": 82466, "nach": 0.54455944914455567 }, "geometry": { "type": "LineString", "coordinates": [ [ 0.1367485, 51.8780605 ], [ 0.1362204, 51.8781155 ] ] } },
{ "type": "Feature", "properties": { "id": 108058, "nach": 0.5447845823688463 }, "geometry": { "type": "LineString", "coordinates": [ [ 0.1359445, 51.8763961 ], [ 0.1359527, 51.8761608 ] ] } },
{ "type": "Feature", "properties": { "id": 110248, "nach": 0.5966964356972434 }, "geometry": { "type": "LineString", "coordinates": [ [ 0.136138, 51.876173700000017 ], [ 0.1360809, 51.8761674 ], [ 0.1360393, 51.8761628 ], [ 0.1359527, 51.8761608 ] ] } },
{ "type": "Feature", "properties": { "id": 98109, "nach": 0.55917648589576474 }, "geometry": { "type": "LineString", "coordinates": [ [ 0.1357231, 51.8781135 ], [ 0.1357888, 51.878204 ] ] } },
{ "type": "Feature", "properties": { "id": 98115, "nach": 0.55624158164223292 }, "geometry": { "type": "LineString", "coordinates": [ [ 0.135867, 51.8783194 ], [ 0.1357888, 51.878204 ] ] } },
{ "type": "Feature", "properties": { "id": 98110, "nach": 0.46694772275428953 }, "geometry": { "type": "LineString", "coordinates": [ [ 0.1357231, 51.8781135 ], [ 0.1357116, 51.8780977 ], [ 0.1356315, 51.8779842 ], [ 0.1356122, 51.877904 ], [ 0.1355635, 51.877833 ] ] } },
{ "type": "Feature", "properties": { "id": 98111, "nach": 0.53753798007289233 }, "geometry": { "type": "LineString", "coordinates": [ [ 0.1357231, 51.8781135 ], [ 0.1356588, 51.8781054 ], [ 0.1352692, 51.8775379 ], [ 0.1353074, 51.877497300000016 ] ] } },
{ "type": "Feature", "properties": { "id": 98116, "nach": 0.46848796914331226 }, "geometry": { "type": "LineString", "coordinates": [ [ 0.135867, 51.8783194 ], [ 0.1358786, 51.8783365 ], [ 0.1359298, 51.87838210000001 ], [ 0.1360181, 51.8785053 ] ] } },
{ "type": "Feature", "properties": { "id": 98117, "nach": 0.55377901072972191 }, "geometry": { "type": "LineString", "coordinates": [ [ 0.135867, 51.8783194 ], [ 0.1358411, 51.8783464 ], [ 0.1360732, 51.8786804 ], [ 0.1361476, 51.8786808 ] ] } },
{ "type": "Feature", "properties": { "id": 63777, "nach": 0.63647190651626195 }, "geometry": { "type": "LineString", "coordinates": [ [ 0.1377478, 51.8771184 ], [ 0.13825, 51.8771237 ] ] } },
{ "type": "Feature", "properties": { "id": 55194, "nach": 0.51097116126913267 }, "geometry": { "type": "LineString", "coordinates": [ [ 0.1382514, 51.8780068 ], [ 0.1382452, 51.8779465 ], [ 0.138245, 51.8778947 ], [ 0.1382459, 51.877735 ], [ 0.1382496, 51.8771793 ], [ 0.13825, 51.8771237 ] ] } },
{ "type": "Feature", "properties": { "id": 67935, "nach": 0.43662387309149175 }, "geometry": { "type": "LineString", "coordinates": [ [ 0.138201, 51.8765857 ], [ 0.1380077, 51.8765847 ], [ 0.1379406, 51.8765959 ], [ 0.1378885, 51.8766143 ], [ 0.137835, 51.8766392 ], [ 0.1377931, 51.8766763 ], [ 0.1377645, 51.876719400000013 ], [ 0.1377556, 51.8767791 ], [ 0.1377478, 51.8771184 ] ] } },
{ "type": "Feature", "properties": { "id": 91586, "nach": 0.6036325425116843 }, "geometry": { "type": "LineString", "coordinates": [ [ 0.1366444, 51.8748907 ], [ 0.1366642, 51.8748551 ] ] } },
{ "type": "Feature", "properties": { "id": 98193, "nach": 0.45525608080551239 }, "geometry": { "type": "LineString", "coordinates": [ [ 0.1365644, 51.8748337 ], [ 0.1366642, 51.8748551 ] ] } },
{ "type": "Feature", "properties": { "id": 56947, "nach": 0.64340647130412487 }, "geometry": { "type": "LineString", "coordinates": [ [ 0.1373258, 51.8762783 ], [ 0.1375429, 51.8762042 ] ] } },
{ "type": "Feature", "properties": { "id": 72990, "nach": 0.66470680854888797 }, "geometry": { "type": "LineString", "coordinates": [ [ 0.1372665, 51.8763038 ], [ 0.1373258, 51.8762783 ] ] } },
{ "type": "Feature", "properties": { "id": 68311, "nach": 0.5544413205022477 }, "geometry": { "type": "LineString", "coordinates": [ [ 0.1375429, 51.8762042 ], [ 0.1375215, 51.876169 ], [ 0.1375139, 51.8761534 ], [ 0.1375205, 51.8761101 ] ] } },
{ "type": "Feature", "properties": { "id": 68310, "nach": 0.53638034916451605 }, "geometry": { "type": "LineString", "coordinates": [ [ 0.1375429, 51.8762042 ], [ 0.1375549, 51.8762206 ], [ 0.1375886, 51.87626490000001 ] ] } },
{ "type": "Feature", "properties": { "id": 68322, "nach": 0.68759930931053581 }, "geometry": { "type": "LineString", "coordinates": [ [ 0.1372095, 51.8759248 ], [ 0.1374866, 51.8759399 ] ] } },
{ "type": "Feature", "properties": { "id": 96251, "nach": 0.22334786903041501 }, "geometry": { "type": "LineString", "coordinates": [ [ 0.1364222, 51.8752087 ], [ 0.136393, 51.8751683 ], [ 0.1365352, 51.8749216 ], [ 0.1366444, 51.8748907 ] ] } },
{ "type": "Feature", "properties": { "id": 98195, "nach": 0.56019863264095104 }, "geometry": { "type": "LineString", "coordinates": [ [ 0.1365644, 51.8748337 ], [ 0.1363641, 51.8751965 ], [ 0.1364222, 51.8752087 ] ] } },
{ "type": "Feature", "properties": { "id": 85208, "nach": 0.43883097187288994 }, "geometry": { "type": "LineString", "coordinates": [ [ 0.1365022, 51.875986 ], [ 0.1365941, 51.8760017 ], [ 0.1366195, 51.8760567 ] ] } },
{ "type": "Feature", "properties": { "id": 98135, "nach": 0.5889485156409312 }, "geometry": { "type": "LineString", "coordinates": [ [ 0.1415178, 51.8761772 ], [ 0.1394111, 51.8760929 ] ] } },
{ "type": "Feature", "properties": { "id": 98131, "nach": 0.6760781946604173 }, "geometry": { "type": "LineString", "coordinates": [ [ 0.1394107, 51.8760476 ], [ 0.1394111, 51.876073100000013 ], [ 0.1394111, 51.8760929 ] ] } },
{ "type": "Feature", "properties": { "id": 81040, "nach": 0.35968636849144625 }, "geometry": { "type": "LineString", "coordinates": [ [ 0.1249422, 51.8776159 ], [ 0.124937, 51.877793 ] ] } },
{ "type": "Feature", "properties": { "id": 81045, "nach": 0.43580905638653322 }, "geometry": { "type": "LineString", "coordinates": [ [ 0.1250923, 51.8776443 ], [ 0.1250136, 51.8776202 ], [ 0.1249422, 51.8776159 ] ] } },
{ "type": "Feature", "properties": { "id": 58598, "nach": 0.46746709039699358 }, "geometry": { "type": "LineString", "coordinates": [ [ 0.1252229, 51.8775602 ], [ 0.1253281, 51.8775387 ], [ 0.1254161, 51.8774972 ], [ 0.1254772, 51.8774402 ], [ 0.1255048, 51.877374 ] ] } },
{ "type": "Feature", "properties": { "id": 81043, "nach": 0.45644712298874951 }, "geometry": { "type": "LineString", "coordinates": [ [ 0.1250923, 51.8776443 ], [ 0.1252229, 51.8775602 ] ] } },
{ "type": "Feature", "properties": { "id": 74127, "nach": 0.46576503193755925 }, "geometry": { "type": "LineString", "coordinates": [ [ 0.1255048, 51.877374 ], [ 0.1256243, 51.87722440000001 ] ] } },
{ "type": "Feature", "properties": { "id": 74128, "nach": 0.274761283923317 }, "geometry": { "type": "LineString", "coordinates": [ [ 0.1255048, 51.877374 ], [ 0.1255003, 51.8773186 ], [ 0.125472, 51.8772659 ], [ 0.1254219, 51.8772197 ], [ 0.1253537, 51.877183599999988 ] ] } },
{ "type": "Feature", "properties": { "id": 108060, "nach": 0.47818536737515221 }, "geometry": { "type": "LineString", "coordinates": [ [ 0.1359445, 51.8763961 ], [ 0.1362502, 51.8764007 ], [ 0.1362467, 51.8764899 ] ] } },
{ "type": "Feature", "properties": { "id": 110246, "nach": 0.59993585639134372 }, "geometry": { "type": "LineString", "coordinates": [ [ 0.136138, 51.876173700000017 ], [ 0.1362804, 51.8760742 ] ] } },
{ "type": "Feature", "properties": { "id": 110247, "nach": 0.45798544542265912 }, "geometry": { "type": "LineString", "coordinates": [ [ 0.136138, 51.876173700000017 ], [ 0.1364825, 51.8762115 ], [ 0.1366495, 51.8762848 ], [ 0.1369593, 51.8765382 ], [ 0.1370279, 51.876535 ] ] } },
{ "type": "Feature", "properties": { "id": 98107, "nach": 0.46629288022427295 }, "geometry": { "type": "LineString", "coordinates": [ [ 0.1353074, 51.877497300000016 ], [ 0.1353185, 51.8775135 ], [ 0.135406, 51.8776142 ], [ 0.1355387, 51.877804 ] ] } },
{ "type": "Feature", "properties": { "id": 82467, "nach": 0.5651440054654232 }, "geometry": { "type": "LineString", "coordinates": [ [ 0.1367485, 51.8780605 ], [ 0.1367794, 51.878058100000011 ] ] } },
{ "type": "Feature", "properties": { "id": 82471, "nach": 0.29063321163733069 }, "geometry": { "type": "LineString", "coordinates": [ [ 0.1368812, 51.8777214 ], [ 0.1368922, 51.8778068 ], [ 0.1367018, 51.8778155 ], [ 0.1367199, 51.877957500000015 ], [ 0.1367485, 51.8780605 ] ] } },
{ "type": "Feature", "properties": { "id": 84584, "nach": 0.3461443183219427 }, "geometry": { "type": "LineString", "coordinates": [ [ 0.1263325, 51.8769898 ], [ 0.1261431, 51.8770798 ] ] } },
{ "type": "Feature", "properties": { "id": 84585, "nach": 0.34761903214380852 }, "geometry": { "type": "LineString", "coordinates": [ [ 0.1263325, 51.8769898 ], [ 0.1264161, 51.8771002 ] ] } },
{ "type": "Feature", "properties": { "id": 67936, "nach": 0.48327272892467688 }, "geometry": { "type": "LineString", "coordinates": [ [ 0.1382129, 51.8762436 ], [ 0.138201, 51.8765857 ] ] } },
{ "type": "Feature", "properties": { "id": 68283, "nach": 0.45452328852069973 }, "geometry": { "type": "LineString", "coordinates": [ [ 0.1390012, 51.876603 ], [ 0.138864, 51.876603 ], [ 0.1388302, 51.8765987 ], [ 0.1387267, 51.8766027 ], [ 0.1386259, 51.8765929 ], [ 0.138201, 51.8765857 ] ] } },
{ "type": "Feature", "properties": { "id": 96641, "nach": 0.71520855364059532 }, "geometry": { "type": "LineString", "coordinates": [ [ 0.1393723, 51.876011 ], [ 0.1393738, 51.875942 ], [ 0.1393796, 51.8758647 ], [ 0.1393785, 51.8758447 ] ] } },
{ "type": "Feature", "properties": { "id": 98189, "nach": 0.72086582654796894 }, "geometry": { "type": "LineString", "coordinates": [ [ 0.1390676, 51.8760108 ], [ 0.1390812, 51.8760105 ], [ 0.1393723, 51.876011 ] ] } },
{ "type": "Feature", "properties": { "id": 98130, "nach": 0.58180118003984516 }, "geometry": { "type": "LineString", "coordinates": [ [ 0.1394107, 51.8760476 ], [ 0.1390665, 51.8760526 ] ] } },
{ "type": "Feature", "properties": { "id": 68312, "nach": 0.71118447259145789 }, "geometry": { "type": "LineString", "coordinates": [ [ 0.136978, 51.8764158 ], [ 0.1368925, 51.8763164 ], [ 0.1368118, 51.876228899999987 ], [ 0.1367487, 51.8761948 ], [ 0.1365839, 51.876138 ], [ 0.1364217, 51.8761008 ], [ 0.1362804, 51.8760742 ] ] } },
{ "type": "Feature", "properties": { "id": 68313, "nach": 0.7051888220235093 }, "geometry": { "type": "LineString", "coordinates": [ [ 0.136978, 51.8764158 ], [ 0.1370118, 51.8764809 ], [ 0.1370279, 51.876535 ] ] } },
{ "type": "Feature", "properties": { "id": 68317, "nach": 0.56472178561517083 }, "geometry": { "type": "LineString", "coordinates": [ [ 0.1370656, 51.876395100000011 ], [ 0.1370218, 51.8764055 ], [ 0.136978, 51.8764158 ] ] } },
{ "type": "Feature", "properties": { "id": 73795, "nach": 0.66652501707728951 }, "geometry": { "type": "LineString", "coordinates": [ [ 0.1373802, 51.8778304 ], [ 0.1373545, 51.877560699999989 ] ] } },
{ "type": "Feature", "properties": { "id": 66200, "nach": 0.47869093451970468 }, "geometry": { "type": "LineString", "coordinates": [ [ 0.1377713, 51.8775432 ], [ 0.1377636, 51.8774315 ] ] } },
{ "type": "Feature", "properties": { "id": 73793, "nach": 0.55181574464812755 }, "geometry": { "type": "LineString", "coordinates": [ [ 0.1373545, 51.877560699999989 ], [ 0.1377713, 51.8775432 ] ] } },
{ "type": "Feature", "properties": { "id": 82469, "nach": 0.47869366036887495 }, "geometry": { "type": "LineString", "coordinates": [ [ 0.1368812, 51.8777214 ], [ 0.1366726, 51.8777304 ] ] } },
{ "type": "Feature", "properties": { "id": 84707, "nach": 0.47765935848509639 }, "geometry": { "type": "LineString", "coordinates": [ [ 0.1366796, 51.8772631 ], [ 0.1366803, 51.87713 ] ] } },
{ "type": "Feature", "properties": { "id": 84712, "nach": 0.54820856654927808 }, "geometry": { "type": "LineString", "coordinates": [ [ 0.1370927, 51.8772461 ], [ 0.1369785, 51.8772447 ], [ 0.1368973, 51.8772441 ], [ 0.1368953, 51.877263 ], [ 0.1366796, 51.8772631 ] ] } },
{ "type": "Feature", "properties": { "id": 73733, "nach": 0.56885672352146233 }, "geometry": { "type": "LineString", "coordinates": [ [ 0.1371061, 51.8773998 ], [ 0.1367409, 51.8773967 ] ] } },
{ "type": "Feature", "properties": { "id": 70511, "nach": 0.47754340502801779 }, "geometry": { "type": "LineString", "coordinates": [ [ 0.1367479, 51.8775912 ], [ 0.1367409, 51.8773967 ] ] } },
{ "type": "Feature", "properties": { "id": 99111, "nach": 0.47761290870374107 }, "geometry": { "type": "LineString", "coordinates": [ [ 0.1365936, 51.8770288 ], [ 0.1366894, 51.8770296 ] ] } },
{ "type": "Feature", "properties": { "id": 90481, "nach": 0.47712479239892897 }, "geometry": { "type": "LineString", "coordinates": [ [ 0.1368276, 51.877030700000013 ], [ 0.1366894, 51.8770296 ] ] } },
{ "type": "Feature", "properties": { "id": 66217, "nach": 0.55071809430395169 }, "geometry": { "type": "LineString", "coordinates": [ [ 0.1366922, 51.8768416 ], [ 0.1366914, 51.8768964 ], [ 0.1366905, 51.87695750000001 ], [ 0.1366894, 51.8770296 ] ] } },
{ "type": "Feature", "properties": { "id": 70264, "nach": 0.57724724205107336 }, "geometry": { "type": "LineString", "coordinates": [ [ 0.1365096, 51.8768394 ], [ 0.1366922, 51.8768416 ] ] } },
{ "type": "Feature", "properties": { "id": 103122, "nach": 0.51214628024566367 }, "geometry": { "type": "LineString", "coordinates": [ [ 0.1362467, 51.8764899 ], [ 0.1364415, 51.8765806 ], [ 0.1365147, 51.8766142 ], [ 0.1365096, 51.8768394 ] ] } },
{ "type": "Feature", "properties": { "id": 81814, "nach": 0.0 }, "geometry": { "type": "LineString", "coordinates": [ [ 0.1256941, 51.8772544 ], [ 0.1256013, 51.877381300000025 ], [ 0.1255643, 51.8774666 ], [ 0.1255071, 51.8775238 ], [ 0.1254567, 51.8775604 ], [ 0.1253779, 51.877595900000017 ], [ 0.1252701, 51.8776285 ], [ 0.1251647, 51.87767920000001 ], [ 0.1250923, 51.8776443 ] ] } },
{ "type": "Feature", "properties": { "id": 81819, "nach": 0.44799127917808068 }, "geometry": { "type": "LineString", "coordinates": [ [ 0.1256243, 51.87722440000001 ], [ 0.1256941, 51.8772544 ] ] } },
{ "type": "Feature", "properties": { "id": 68207, "nach": 0.46199091505068773 }, "geometry": { "type": "LineString", "coordinates": [ [ 0.1349917, 51.8752123 ], [ 0.1347518, 51.8749111 ] ] } },
{ "type": "Feature", "properties": { "id": 67939, "nach": 0.48137663719831825 }, "geometry": { "type": "LineString", "coordinates": [ [ 0.1372795, 51.8765734 ], [ 0.1373494, 51.8765231 ], [ 0.1373859, 51.8764733 ], [ 0.1374486, 51.8764149 ], [ 0.1375552, 51.8763557 ], [ 0.1376329, 51.8763214 ], [ 0.137719, 51.876291 ], [ 0.1379281, 51.876244 ], [ 0.1382129, 51.8762436 ] ] } },
{ "type": "Feature", "properties": { "id": 73135, "nach": 0.48619090137551696 }, "geometry": { "type": "LineString", "coordinates": [ [ 0.1390052, 51.8762332 ], [ 0.1387334, 51.8762317 ], [ 0.1386957, 51.8762508 ], [ 0.1382129, 51.8762436 ] ] } },
{ "type": "Feature", "properties": { "id": 73133, "nach": 0.47280543386934082 }, "geometry": { "type": "LineString", "coordinates": [ [ 0.1390052, 51.8762332 ], [ 0.1390012, 51.876603 ] ] } },
{ "type": "Feature", "properties": { "id": 68303, "nach": 0.63246010236520245 }, "geometry": { "type": "LineString", "coordinates": [ [ 0.1373096, 51.8764118 ], [ 0.1372895, 51.8764786 ], [ 0.1372795, 51.8765734 ] ] } },
{ "type": "Feature", "properties": { "id": 79755, "nach": 0.63030695107973855 }, "geometry": { "type": "LineString", "coordinates": [ [ 0.1372979, 51.8769697 ], [ 0.1372861, 51.8767979 ], [ 0.1372797, 51.8766023 ], [ 0.1372795, 51.8765734 ] ] } },
{ "type": "Feature", "properties": { "id": 110243, "nach": 0.52932025729861665 }, "geometry": { "type": "LineString", "coordinates": [ [ 0.1390406, 51.8762187 ], [ 0.1390052, 51.8762332 ] ] } },
{ "type": "Feature", "properties": { "id": 68307, "nach": 0.61882093141458416 }, "geometry": { "type": "LineString", "coordinates": [ [ 0.1375886, 51.87626490000001 ], [ 0.1374966, 51.8763028 ], [ 0.1374176, 51.8763387 ], [ 0.1373591, 51.8763675 ], [ 0.1373096, 51.8764118 ] ] } },
{ "type": "Feature", "properties": { "id": 72236, "nach": 0.70582388958610176 }, "geometry": { "type": "LineString", "coordinates": [ [ 0.1370496, 51.8767538 ], [ 0.1370439, 51.876705 ], [ 0.1370326, 51.8765846 ], [ 0.1370279, 51.876535 ] ] } },
{ "type": "Feature", "properties": { "id": 84711, "nach": 0.68394796687110304 }, "geometry": { "type": "LineString", "coordinates": [ [ 0.1370927, 51.8772461 ], [ 0.1370659, 51.876974 ] ] } },
{ "type": "Feature", "properties": { "id": 86970, "nach": 0.4796131985061734 }, "geometry": { "type": "LineString", "coordinates": [ [ 0.1384161, 51.8757983 ], [ 0.1383865, 51.8759577 ] ] } },
{ "type": "Feature", "properties": { "id": 86962, "nach": 0.68454003206247793 }, "geometry": { "type": "LineString", "coordinates": [ [ 0.137793, 51.8759457 ], [ 0.1383865, 51.8759577 ] ] } },
{ "type": "Feature", "properties": { "id": 86961, "nach": 0.42975621533448388 }, "geometry": { "type": "LineString", "coordinates": [ [ 0.137793, 51.8759457 ], [ 0.1376888, 51.8759984 ] ] } },
{ "type": "Feature", "properties": { "id": 86963, "nach": 0.68411761090764356 }, "geometry": { "type": "LineString", "coordinates": [ [ 0.137793, 51.8759457 ], [ 0.1375216, 51.8759399 ] ] } },
{ "type": "Feature", "properties": { "id": 86965, "nach": 0.47880941964211438 }, "geometry": { "type": "LineString", "coordinates": [ [ 0.1378213, 51.8758072 ], [ 0.1378025, 51.8759112 ], [ 0.137793, 51.8759457 ] ] } },
{ "type": "Feature", "properties": { "id": 68330, "nach": 0.68900154457849494 }, "geometry": { "type": "LineString", "coordinates": [ [ 0.1375216, 51.8759399 ], [ 0.1374866, 51.8759399 ] ] } },
{ "type": "Feature", "properties": { "id": 68298, "nach": 0.47996084740025718 }, "geometry": { "type": "LineString", "coordinates": [ [ 0.1375205, 51.8761101 ], [ 0.1375267, 51.87606490000001 ], [ 0.1375415, 51.8759815 ], [ 0.1375071, 51.8759675 ], [ 0.1374932, 51.8759545 ], [ 0.1374866, 51.8759399 ] ] } },
{ "type": "Feature", "properties": { "id": 68328, "nach": 0.47401107870494258 }, "geometry": { "type": "LineString", "coordinates": [ [ 0.1375216, 51.8759399 ], [ 0.1376541, 51.875395 ] ] } },
{ "type": "Feature", "properties": { "id": 68331, "nach": 0.47246326916060788 }, "geometry": { "type": "LineString", "coordinates": [ [ 0.1375216, 51.8759399 ], [ 0.1375213, 51.8759478 ], [ 0.1376888, 51.8759984 ] ] } },
{ "type": "Feature", "properties": { "id": 87780, "nach": 0.59805376823062872 }, "geometry": { "type": "LineString", "coordinates": [ [ 0.1390665, 51.8760526 ], [ 0.138906, 51.8760554 ], [ 0.1387364, 51.8760614 ], [ 0.1385013, 51.8760782 ], [ 0.1383234, 51.8760919 ], [ 0.1381096, 51.8761193 ], [ 0.1376916, 51.87623270000001 ], [ 0.1375886, 51.87626490000001 ] ] } },
{ "type": "Feature", "properties": { "id": 98187, "nach": 0.63316218201779495 }, "geometry": { "type": "LineString", "coordinates": [ [ 0.1390676, 51.8760108 ], [ 0.1390665, 51.8760526 ] ] } },
{ "type": "Feature", "properties": { "id": 110244, "nach": 0.62441444768175181 }, "geometry": { "type": "LineString", "coordinates": [ [ 0.1390406, 51.8762187 ], [ 0.1390658, 51.8760768 ], [ 0.1390665, 51.8760526 ] ] } },
{ "type": "Feature", "properties": { "id": 70507, "nach": 0.48439849754608616 }, "geometry": { "type": "LineString", "coordinates": [ [ 0.1367794, 51.878058100000011 ], [ 0.136871, 51.87839180000001 ] ] } },
{ "type": "Feature", "properties": { "id": 99095, "nach": 0.59156237923902222 }, "geometry": { "type": "LineString", "coordinates": [ [ 0.1369712, 51.8780454 ], [ 0.1367794, 51.878058100000011 ] ] } },
{ "type": "Feature", "properties": { "id": 99097, "nach": 0.0 }, "geometry": { "type": "LineString", "coordinates": [ [ 0.1369712, 51.8780454 ], [ 0.1369344, 51.8779205 ], [ 0.1371548, 51.8778957 ] ] } },
{ "type": "Feature", "properties": { "id": 84710, "nach": 0.67354273924685959 }, "geometry": { "type": "LineString", "coordinates": [ [ 0.1370927, 51.8772461 ], [ 0.1371061, 51.8773998 ] ] } },
{ "type": "Feature", "properties": { "id": 77746, "nach": 0.47156831181561554 }, "geometry": { "type": "LineString", "coordinates": [ [ 0.1364671, 51.8748129 ], [ 0.1363716, 51.8747924 ] ] } },
{ "type": "Feature", "properties": { "id": 77748, "nach": 0.47156831181561554 }, "geometry": { "type": "LineString", "coordinates": [ [ 0.1364671, 51.8748129 ], [ 0.136432, 51.8748727 ] ] } },
{ "type": "Feature", "properties": { "id": 77747, "nach": 0.47156831181561554 }, "geometry": { "type": "LineString", "coordinates": [ [ 0.1364671, 51.8748129 ], [ 0.1365044, 51.874749400000013 ] ] } },
{ "type": "Feature", "properties": { "id": 98194, "nach": 0.56365244336542986 }, "geometry": { "type": "LineString", "coordinates": [ [ 0.1365644, 51.8748337 ], [ 0.1364671, 51.8748129 ] ] } },
{ "type": "Feature", "properties": { "id": 81038, "nach": 0.36612752807093502 }, "geometry": { "type": "LineString", "coordinates": [ [ 0.124937, 51.877793 ], [ 0.1250923, 51.8776443 ] ] } },
{ "type": "Feature", "properties": { "id": 92039, "nach": 0.3809800275682097 }, "geometry": { "type": "LineString", "coordinates": [ [ 0.1236485, 51.8820952 ], [ 0.1237555, 51.8818691 ], [ 0.1238471, 51.8816608 ], [ 0.1241056, 51.8809028 ], [ 0.1244492, 51.87983770000001 ], [ 0.1246778, 51.8789991 ], [ 0.124937, 51.877793 ] ] } },
{ "type": "Feature", "properties": { "id": 86968, "nach": 0.4771034931614983 }, "geometry": { "type": "LineString", "coordinates": [ [ 0.1385877, 51.876007 ], [ 0.1387221, 51.875493 ] ] } },
{ "type": "Feature", "properties": { "id": 98188, "nach": 0.71741324295918618 }, "geometry": { "type": "LineString", "coordinates": [ [ 0.1390676, 51.8760108 ], [ 0.1386025, 51.8760063 ], [ 0.1385955, 51.8760067 ], [ 0.1385877, 51.876007 ] ] } },
{ "type": "Feature", "properties": { "id": 89007, "nach": 0.67329853999142109 }, "geometry": { "type": "LineString", "coordinates": [ [ 0.1393785, 51.8758447 ], [ 0.1399444, 51.8758367 ] ] } },
{ "type": "Feature", "properties": { "id": 89009, "nach": 0.66479356529388833 }, "geometry": { "type": "LineString", "coordinates": [ [ 0.1393785, 51.8758447 ], [ 0.1393333, 51.8758311 ], [ 0.1393066, 51.8758195 ], [ 0.1392916, 51.87579070000001 ], [ 0.1392623, 51.8755483 ], [ 0.1392285, 51.8753979 ], [ 0.1391871, 51.8752818 ], [ 0.1391972, 51.875182 ], [ 0.1392328, 51.875088299999987 ] ] } },
{ "type": "Feature", "properties": { "id": 38032, "nach": 0.51886178909474445 }, "geometry": { "type": "LineString", "coordinates": [ [ 0.127624727819124, 51.876526093452981 ], [ 0.127597445604915, 51.876482462920769 ] ] } }
]
}
