{
"type": "FeatureCollection",
"name": "EASHE_53_NACH_800m",
"crs": { "type": "name", "properties": { "name": "urn:ogc:def:crs:OGC:1.3:CRS84" } },
"features": [
{ "type": "Feature", "properties": { "id": 18228, "nach": 0.27112734814959427 }, "geometry": { "type": "LineString", "coordinates": [ [ 0.0478869, 51.800215700000017 ], [ 0.0477688, 51.800168 ], [ 0.0475192, 51.8000672 ], [ 0.0467217, 51.7997166 ], [ 0.0464244, 51.7995501 ], [ 0.0461228, 51.7993296 ], [ 0.0456167, 51.7988293 ], [ 0.0450953, 51.7983498 ], [ 0.0447894, 51.7980717 ], [ 0.0440398, 51.797473199999985 ], [ 0.0434317, 51.7971497 ], [ 0.0431943, 51.797044400000011 ], [ 0.0428864, 51.7969299 ] ] } },
{ "type": "Feature", "properties": { "id": 9242, "nach": 0.32492808343239266 }, "geometry": { "type": "LineString", "coordinates": [ [ 0.0421564, 51.7966888 ], [ 0.0425103, 51.796794700000014 ], [ 0.0428864, 51.7969299 ] ] } },
{ "type": "Feature", "properties": { "id": 50835, "nach": 0.31806681013904031 }, "geometry": { "type": "LineString", "coordinates": [ [ 0.0418701, 51.7989758 ], [ 0.0419989, 51.798853100000017 ], [ 0.0428864, 51.7969299 ] ] } },
{ "type": "Feature", "properties": { "id": 18227, "nach": 0.33729397428209257 }, "geometry": { "type": "LineString", "coordinates": [ [ 0.0478869, 51.800215700000017 ], [ 0.0482428, 51.80034890000001 ], [ 0.0489599, 51.8006506 ], [ 0.049118, 51.8006987 ], [ 0.0493221, 51.8007609 ], [ 0.0495212, 51.8008619 ], [ 0.0496021, 51.800953300000018 ] ] } },
{ "type": "Feature", "properties": { "id": 58187, "nach": 0.35608953421009915 }, "geometry": { "type": "LineString", "coordinates": [ [ 0.0485764, 51.799705 ], [ 0.0484619, 51.7997592 ], [ 0.0478869, 51.800215700000017 ] ] } },
{ "type": "Feature", "properties": { "id": 82194, "nach": 0.408265316283211 }, "geometry": { "type": "LineString", "coordinates": [ [ 0.049757, 51.8011645 ], [ 0.0496021, 51.800953300000018 ] ] } },
{ "type": "Feature", "properties": { "id": 18225, "nach": 0.38113812682131198 }, "geometry": { "type": "LineString", "coordinates": [ [ 0.049861, 51.7994513 ], [ 0.0496419, 51.8000984 ], [ 0.0496393, 51.8007881 ], [ 0.0496269, 51.800843 ], [ 0.0496021, 51.800953300000018 ] ] } },
{ "type": "Feature", "properties": { "id": 82195, "nach": 0.41069362643378349 }, "geometry": { "type": "LineString", "coordinates": [ [ 0.049757, 51.8011645 ], [ 0.0500055, 51.801503100000012 ], [ 0.0503973, 51.8020168 ] ] } },
{ "type": "Feature", "properties": { "id": 82197, "nach": 0.33069241451373732 }, "geometry": { "type": "LineString", "coordinates": [ [ 0.0489622, 51.8011318 ], [ 0.0491921, 51.8011743 ], [ 0.049512, 51.8011948 ], [ 0.049757, 51.8011645 ] ] } },
{ "type": "Feature", "properties": { "id": 41495, "nach": 0.44887106231672241 }, "geometry": { "type": "LineString", "coordinates": [ [ 0.0501602, 51.7994559 ], [ 0.049861, 51.7994513 ] ] } },
{ "type": "Feature", "properties": { "id": 60145, "nach": 0.42487292382758535 }, "geometry": { "type": "LineString", "coordinates": [ [ 0.049751, 51.799467300000011 ], [ 0.049861, 51.7994513 ] ] } },
{ "type": "Feature", "properties": { "id": 64640, "nach": 0.46277888119898936 }, "geometry": { "type": "LineString", "coordinates": [ [ 0.0520638, 51.8052698 ], [ 0.0519798, 51.8048418 ], [ 0.0518645, 51.8042471 ], [ 0.0517691, 51.803863 ] ] } },
{ "type": "Feature", "properties": { "id": 9285, "nach": 0.32344212502951025 }, "geometry": { "type": "LineString", "coordinates": [ [ 0.057712, 51.7847534 ], [ 0.0577195, 51.7848722 ], [ 0.057712, 51.7849366 ], [ 0.0576977, 51.7850061 ], [ 0.0576698, 51.7850693 ], [ 0.0575963, 51.785198200000011 ], [ 0.0568523, 51.7862961 ] ] } },
{ "type": "Feature", "properties": { "id": 18324, "nach": 0.46335480195475498 }, "geometry": { "type": "LineString", "coordinates": [ [ 0.0515026, 51.8033104 ], [ 0.0515944, 51.8034446 ], [ 0.0517073, 51.8036568 ], [ 0.0517691, 51.803863 ] ] } },
{ "type": "Feature", "properties": { "id": 41267, "nach": 0.26086467514768291 }, "geometry": { "type": "LineString", "coordinates": [ [ 0.0456515, 51.8057901 ], [ 0.0459821, 51.8057346 ], [ 0.0463766, 51.8055959 ], [ 0.0466075, 51.8054971 ], [ 0.0468989, 51.8053726 ], [ 0.0472748, 51.805273 ], [ 0.047597, 51.8051485 ], [ 0.0477715, 51.8050073 ], [ 0.0478655, 51.8048413 ], [ 0.0479347, 51.804751 ], [ 0.0480068, 51.8046757 ], [ 0.048183, 51.80452 ], [ 0.0483698, 51.804400200000011 ], [ 0.0485677, 51.8043255 ], [ 0.0488905, 51.8042577 ], [ 0.049535, 51.8041927 ], [ 0.0499109, 51.8041859 ], [ 0.0504117, 51.8041909 ], [ 0.0507711, 51.8041324 ], [ 0.0515163, 51.8039292 ], [ 0.0517691, 51.803863 ] ] } },
{ "type": "Feature", "properties": { "id": 59196, "nach": 0.44159939304414875 }, "geometry": { "type": "LineString", "coordinates": [ [ 0.0523966, 51.8029743 ], [ 0.0515026, 51.8033104 ] ] } },
{ "type": "Feature", "properties": { "id": 52283, "nach": 0.39887531890791461 }, "geometry": { "type": "LineString", "coordinates": [ [ 0.0503973, 51.8020168 ], [ 0.0506583, 51.802328 ], [ 0.0510674, 51.8028458 ], [ 0.0514181, 51.8031998 ], [ 0.0515026, 51.8033104 ] ] } },
{ "type": "Feature", "properties": { "id": 18282, "nach": 0.47298683691429672 }, "geometry": { "type": "LineString", "coordinates": [ [ 0.0546802, 51.8033963 ], [ 0.0549919, 51.8037119 ], [ 0.0551439, 51.8038998 ], [ 0.0552416, 51.804087800000012 ], [ 0.0553068, 51.8044234 ], [ 0.0554678, 51.8055517 ] ] } },
{ "type": "Feature", "properties": { "id": 18280, "nach": 0.41005764454892496 }, "geometry": { "type": "LineString", "coordinates": [ [ 0.0546802, 51.8033963 ], [ 0.0547917, 51.8033713 ], [ 0.0556587, 51.80324670000001 ], [ 0.0557992, 51.8032553 ] ] } },
{ "type": "Feature", "properties": { "id": 18328, "nach": 0.47350998985527015 }, "geometry": { "type": "LineString", "coordinates": [ [ 0.0539179, 51.8024032 ], [ 0.054004, 51.8025237 ], [ 0.0542597, 51.80282540000001 ], [ 0.0544902, 51.8031425 ], [ 0.0546802, 51.8033963 ] ] } },
{ "type": "Feature", "properties": { "id": 36601, "nach": 0.34179201729044012 }, "geometry": { "type": "LineString", "coordinates": [ [ 0.0524479, 51.8012882 ], [ 0.0536011, 51.8010357 ] ] } },
{ "type": "Feature", "properties": { "id": 95498, "nach": 0.4855322096622875 }, "geometry": { "type": "LineString", "coordinates": [ [ 0.0535894, 51.8010162 ], [ 0.0536011, 51.8010357 ] ] } },
{ "type": "Feature", "properties": { "id": 52281, "nach": 0.48690654118890081 }, "geometry": { "type": "LineString", "coordinates": [ [ 0.0537624, 51.8017347 ], [ 0.0537652, 51.8016577 ], [ 0.0537869, 51.8014563 ], [ 0.0537326, 51.8012817 ], [ 0.053697, 51.8012152 ], [ 0.0536011, 51.8010357 ] ] } },
{ "type": "Feature", "properties": { "id": 95497, "nach": 0.4673953332031579 }, "geometry": { "type": "LineString", "coordinates": [ [ 0.0535894, 51.8010162 ], [ 0.0535367, 51.80092770000001 ] ] } },
{ "type": "Feature", "properties": { "id": 95501, "nach": 0.38170234863007296 }, "geometry": { "type": "LineString", "coordinates": [ [ 0.0538093, 51.8008348 ], [ 0.0536716, 51.8009925 ], [ 0.0535894, 51.8010162 ] ] } },
{ "type": "Feature", "properties": { "id": 52282, "nach": 0.48624688911785341 }, "geometry": { "type": "LineString", "coordinates": [ [ 0.0537624, 51.8017347 ], [ 0.0537543, 51.8019531 ], [ 0.0537761, 51.802134299999985 ], [ 0.0538629, 51.8023156 ], [ 0.0539179, 51.8024032 ] ] } },
{ "type": "Feature", "properties": { "id": 53678, "nach": 0.41958933801206488 }, "geometry": { "type": "LineString", "coordinates": [ [ 0.0534093, 51.8017574 ], [ 0.0537024, 51.8017386 ], [ 0.0537624, 51.8017347 ] ] } },
{ "type": "Feature", "properties": { "id": 83357, "nach": 0.47754009935508868 }, "geometry": { "type": "LineString", "coordinates": [ [ 0.0527509, 51.7996107 ], [ 0.0527547, 51.7995565 ] ] } },
{ "type": "Feature", "properties": { "id": 50782, "nach": 0.45757307036494466 }, "geometry": { "type": "LineString", "coordinates": [ [ 0.0529684, 51.7992581 ], [ 0.0528332, 51.7993878 ], [ 0.0527547, 51.7995565 ] ] } },
{ "type": "Feature", "properties": { "id": 87433, "nach": 0.37813542512701315 }, "geometry": { "type": "LineString", "coordinates": [ [ 0.0532637, 51.7995066 ], [ 0.0532178, 51.7995811 ], [ 0.0531455, 51.7995921 ], [ 0.0528495, 51.7995652 ], [ 0.0527547, 51.7995565 ] ] } },
{ "type": "Feature", "properties": { "id": 83359, "nach": 0.47912488029872913 }, "geometry": { "type": "LineString", "coordinates": [ [ 0.0527509, 51.7996107 ], [ 0.0527428, 51.799727 ], [ 0.0528457, 51.7999313 ], [ 0.0532843, 51.8005296 ] ] } },
{ "type": "Feature", "properties": { "id": 85344, "nach": 0.46619423795663401 }, "geometry": { "type": "LineString", "coordinates": [ [ 0.0519745, 51.7996291 ], [ 0.0520496, 51.7996318 ], [ 0.0527509, 51.7996107 ] ] } },
{ "type": "Feature", "properties": { "id": 50781, "nach": 0.46062046114044453 }, "geometry": { "type": "LineString", "coordinates": [ [ 0.0529684, 51.7992581 ], [ 0.0530053, 51.799214 ], [ 0.0535806, 51.7985829 ], [ 0.0537543, 51.7984084 ] ] } },
{ "type": "Feature", "properties": { "id": 50783, "nach": 0.37817362578897318 }, "geometry": { "type": "LineString", "coordinates": [ [ 0.0529684, 51.7992581 ], [ 0.0531566, 51.799305500000017 ], [ 0.0531995, 51.7993691 ] ] } },
{ "type": "Feature", "properties": { "id": 87434, "nach": 0.27035105372967239 }, "geometry": { "type": "LineString", "coordinates": [ [ 0.0532637, 51.7995066 ], [ 0.0532386, 51.7995045 ], [ 0.0532033, 51.7994941 ], [ 0.053175, 51.7994774 ], [ 0.0531565, 51.799456 ], [ 0.0531496, 51.7994322 ], [ 0.053155, 51.7994082 ], [ 0.0531722, 51.7993865 ], [ 0.0531995, 51.7993691 ] ] } },
{ "type": "Feature", "properties": { "id": 87435, "nach": 0.35111431153834638 }, "geometry": { "type": "LineString", "coordinates": [ [ 0.0532637, 51.7995066 ], [ 0.0532774, 51.7995077 ], [ 0.0533159, 51.7995032 ], [ 0.0533502, 51.7994916 ] ] } },
{ "type": "Feature", "properties": { "id": 59274, "nach": 0.45456875316271522 }, "geometry": { "type": "LineString", "coordinates": [ [ 0.0537606, 51.79771490000001 ], [ 0.0536546, 51.7978676 ], [ 0.0536682, 51.7980052 ], [ 0.0537663, 51.7981587 ], [ 0.0538049, 51.7982485 ], [ 0.0537543, 51.7984084 ] ] } },
{ "type": "Feature", "properties": { "id": 61413, "nach": 0.33665834171885817 }, "geometry": { "type": "LineString", "coordinates": [ [ 0.0546199, 51.798329099999982 ], [ 0.0543886, 51.7981323 ], [ 0.0543424, 51.7981222 ], [ 0.0543098, 51.7981205 ], [ 0.0542608, 51.7981407 ], [ 0.0541058, 51.7982248 ], [ 0.0539562, 51.7983038 ], [ 0.0537543, 51.7984084 ] ] } },
{ "type": "Feature", "properties": { "id": 59273, "nach": 0.44053857009178876 }, "geometry": { "type": "LineString", "coordinates": [ [ 0.0537606, 51.79771490000001 ], [ 0.0537869, 51.7976497 ], [ 0.0540316, 51.7972387 ] ] } },
{ "type": "Feature", "properties": { "id": 59278, "nach": 0.43246376076828369 }, "geometry": { "type": "LineString", "coordinates": [ [ 0.0545533, 51.7978725 ], [ 0.0541936, 51.7977777 ], [ 0.0537606, 51.79771490000001 ] ] } },
{ "type": "Feature", "properties": { "id": 25434, "nach": 0.27403667440456908 }, "geometry": { "type": "LineString", "coordinates": [ [ 0.0563647, 51.7931259 ], [ 0.0562838, 51.7932654 ], [ 0.0558278, 51.7938092 ] ] } },
{ "type": "Feature", "properties": { "id": 41501, "nach": 0.30986224311999638 }, "geometry": { "type": "LineString", "coordinates": [ [ 0.0549371, 51.7946702 ], [ 0.0551331, 51.794521 ], [ 0.0554345, 51.7942015 ], [ 0.0558278, 51.7938092 ] ] } },
{ "type": "Feature", "properties": { "id": 50874, "nach": 0.30286217984466463 }, "geometry": { "type": "LineString", "coordinates": [ [ 0.0570269, 51.79485780000001 ], [ 0.0569248, 51.7945857 ], [ 0.0568685, 51.794383299999986 ], [ 0.056767, 51.7942283 ], [ 0.0565145, 51.7940432 ], [ 0.0562838, 51.7939188 ], [ 0.0561443, 51.7938839 ], [ 0.0558278, 51.7938092 ] ] } },
{ "type": "Feature", "properties": { "id": 25433, "nach": 0.07386071148618148 }, "geometry": { "type": "LineString", "coordinates": [ [ 0.0563647, 51.7931259 ], [ 0.0564358, 51.7930035 ], [ 0.0564311, 51.7927316 ], [ 0.0564394, 51.7923169 ], [ 0.0564174, 51.7920517 ], [ 0.0563115, 51.7918601 ], [ 0.0559992, 51.7914657 ], [ 0.0558337, 51.7912339 ], [ 0.0557361, 51.7909908 ], [ 0.0557092, 51.79070380000001 ], [ 0.0557852, 51.7903849 ], [ 0.0559261, 51.7900223 ], [ 0.0560048, 51.7898308 ], [ 0.0560157, 51.7896461 ], [ 0.0559833, 51.7894881 ], [ 0.0559641, 51.7893736 ], [ 0.055948, 51.7891542 ], [ 0.0560402, 51.7887027 ], [ 0.0564529, 51.7871482 ], [ 0.0565966, 51.7867369 ], [ 0.0567428, 51.7864598 ], [ 0.0568523, 51.7862961 ] ] } },
{ "type": "Feature", "properties": { "id": 25435, "nach": 0.34432486332277368 }, "geometry": { "type": "LineString", "coordinates": [ [ 0.0563647, 51.7931259 ], [ 0.047336708277234, 51.785506560853328 ] ] } },
{ "type": "Feature", "properties": { "id": 41503, "nach": 0.32807030678116811 }, "geometry": { "type": "LineString", "coordinates": [ [ 0.0549371, 51.7946702 ], [ 0.054996, 51.7947028 ], [ 0.0550499, 51.7947415 ], [ 0.0550362, 51.7947917 ], [ 0.0550445, 51.794846 ], [ 0.0550791, 51.7949062 ], [ 0.0551143, 51.7949406 ], [ 0.0551304, 51.7949738 ], [ 0.0551006, 51.7949758 ], [ 0.054996, 51.7949725 ], [ 0.0548833, 51.7949891 ], [ 0.0548056, 51.7950074 ], [ 0.0547602, 51.7950534 ], [ 0.0547305, 51.795082 ], [ 0.0546473, 51.7950671 ], [ 0.0545832, 51.7950567 ], [ 0.0545284, 51.7950488 ] ] } },
{ "type": "Feature", "properties": { "id": 50872, "nach": 0.34328718684654569 }, "geometry": { "type": "LineString", "coordinates": [ [ 0.0570269, 51.79485780000001 ], [ 0.056442, 51.7948461 ] ] } },
{ "type": "Feature", "properties": { "id": 50889, "nach": 0.33386563606513564 }, "geometry": { "type": "LineString", "coordinates": [ [ 0.0570218, 51.7951449 ], [ 0.0570348, 51.7950617 ], [ 0.0570348, 51.7949124 ], [ 0.0570269, 51.79485780000001 ] ] } },
{ "type": "Feature", "properties": { "id": 50775, "nach": 0.29848586468545341 }, "geometry": { "type": "LineString", "coordinates": [ [ 0.0589475, 51.7870939 ], [ 0.0586203, 51.7869645 ], [ 0.0584272, 51.7865663 ], [ 0.0568523, 51.7862961 ] ] } },
{ "type": "Feature", "properties": { "id": 50779, "nach": 0.26120722626180876 }, "geometry": { "type": "LineString", "coordinates": [ [ 0.0602296, 51.7867787 ], [ 0.0601223, 51.7871504 ], [ 0.0600526, 51.787173600000024 ], [ 0.0589475, 51.7870939 ] ] } },
{ "type": "Feature", "properties": { "id": 61402, "nach": 0.43563791914751487 }, "geometry": { "type": "LineString", "coordinates": [ [ 0.0516892, 51.7996187 ], [ 0.0511181, 51.7995979 ], [ 0.0505763, 51.7994998 ], [ 0.0501602, 51.7994559 ] ] } },
{ "type": "Feature", "properties": { "id": 61404, "nach": 0.35048415295325991 }, "geometry": { "type": "LineString", "coordinates": [ [ 0.0513171, 51.7991811 ], [ 0.0511915, 51.7992096 ], [ 0.0505075, 51.7991307 ], [ 0.0503963, 51.7992286 ], [ 0.0503212, 51.7992983 ], [ 0.0502353, 51.7993746 ], [ 0.0501602, 51.7994559 ] ] } },
{ "type": "Feature", "properties": { "id": 60146, "nach": 0.39728946766381901 }, "geometry": { "type": "LineString", "coordinates": [ [ 0.049751, 51.799467300000011 ], [ 0.0493116, 51.799531 ], [ 0.0487537, 51.7996212 ], [ 0.0485764, 51.799705 ] ] } },
{ "type": "Feature", "properties": { "id": 81617, "nach": 0.31754596080683994 }, "geometry": { "type": "LineString", "coordinates": [ [ 0.0490577, 51.798618499999989 ], [ 0.0491534, 51.7986073 ], [ 0.0492313, 51.7986136 ], [ 0.0493234, 51.7986445 ], [ 0.0493832, 51.7986649 ], [ 0.0494471, 51.7986792 ], [ 0.0495229, 51.7986958 ], [ 0.0496048, 51.7987177 ], [ 0.0496969, 51.798753499999989 ], [ 0.0497556, 51.79879780000001 ], [ 0.0497774, 51.7988322 ], [ 0.0497869, 51.7988739 ], [ 0.049778, 51.7991699 ], [ 0.0497645, 51.799316 ], [ 0.0497443, 51.7993966 ], [ 0.049751, 51.799467300000011 ] ] } },
{ "type": "Feature", "properties": { "id": 58190, "nach": 0.37938514278920293 }, "geometry": { "type": "LineString", "coordinates": [ [ 0.0479328, 51.7989832 ], [ 0.0479164, 51.7990683 ], [ 0.0479393, 51.7991493 ], [ 0.048126, 51.7993417 ], [ 0.0482996, 51.7995038 ], [ 0.0485764, 51.799705 ] ] } },
{ "type": "Feature", "properties": { "id": 51391, "nach": 0.24231404278247923 }, "geometry": { "type": "LineString", "coordinates": [ [ 0.0665731, 51.7973725 ], [ 0.0658613, 51.797299 ], [ 0.0657575, 51.7973104 ] ] } },
{ "type": "Feature", "properties": { "id": 18268, "nach": 0.19752327934151379 }, "geometry": { "type": "LineString", "coordinates": [ [ 0.066859, 51.8012733 ], [ 0.0668706, 51.8010884 ], [ 0.066615, 51.8007359 ], [ 0.0650759, 51.7983958 ], [ 0.0651263, 51.7983184 ], [ 0.0652438, 51.7982425 ], [ 0.06532, 51.7981513 ], [ 0.0654021, 51.7978504 ], [ 0.0655029, 51.7975528 ], [ 0.0655872, 51.7974238 ], [ 0.0656466, 51.797363 ], [ 0.0657575, 51.7973104 ] ] } },
{ "type": "Feature", "properties": { "id": 37332, "nach": 0.14733620931916377 }, "geometry": { "type": "LineString", "coordinates": [ [ 0.0594563, 51.7987127 ], [ 0.0598812, 51.798603799999988 ], [ 0.0601534, 51.7984941 ], [ 0.0610426, 51.798137 ], [ 0.0614472, 51.797947399999984 ], [ 0.0618864, 51.797739 ], [ 0.0624073, 51.797586200000012 ], [ 0.0626609, 51.79754 ], [ 0.0630815, 51.797463499999985 ], [ 0.0642035, 51.7972494 ], [ 0.0647339, 51.7972339 ], [ 0.0657575, 51.7973104 ] ] } },
{ "type": "Feature", "properties": { "id": 51393, "nach": 0.0 }, "geometry": { "type": "LineString", "coordinates": [ [ 0.0665731, 51.7973725 ], [ 0.0668666, 51.7956243 ], [ 0.0672733, 51.794071700000011 ], [ 0.0680666, 51.7919199 ], [ 0.0681186, 51.7918955 ], [ 0.0681727, 51.7918448 ], [ 0.0701609, 51.7916459 ], [ 0.0701928, 51.791608600000011 ], [ 0.0730644, 51.7886562 ], [ 0.0765382, 51.7865252 ], [ 0.0780904, 51.7861895 ], [ 0.0782189, 51.7861226 ] ] } },
{ "type": "Feature", "properties": { "id": 51394, "nach": 0.26389439970152689 }, "geometry": { "type": "LineString", "coordinates": [ [ 0.0695344, 51.7975861 ], [ 0.0683854, 51.7975178 ], [ 0.0669605, 51.79741090000001 ], [ 0.0665731, 51.7973725 ] ] } },
{ "type": "Feature", "properties": { "id": 37308, "nach": 0.25831803346436549 }, "geometry": { "type": "LineString", "coordinates": [ [ 0.0673261, 51.8015256 ], [ 0.066859, 51.8012733 ] ] } },
{ "type": "Feature", "properties": { "id": 18271, "nach": 0.16078615943750049 }, "geometry": { "type": "LineString", "coordinates": [ [ 0.0639397, 51.8001484 ], [ 0.0642504, 51.8000855 ], [ 0.0645781, 51.8000572 ], [ 0.0648093, 51.8000807 ], [ 0.064952, 51.8001428 ], [ 0.0652352, 51.800434 ], [ 0.0654301, 51.8006239 ], [ 0.0656413, 51.8007359 ], [ 0.066859, 51.8012733 ] ] } },
{ "type": "Feature", "properties": { "id": 52278, "nach": 0.25796207943935079 }, "geometry": { "type": "LineString", "coordinates": [ [ 0.0568464, 51.7998617 ], [ 0.0567677, 51.7996047 ], [ 0.0567181, 51.7994553 ], [ 0.0566467, 51.79916510000001 ], [ 0.0568152, 51.7991163 ], [ 0.0573043, 51.799095699999988 ], [ 0.0575426, 51.7990612 ], [ 0.0577856, 51.799065 ], [ 0.0580561, 51.7989812 ], [ 0.0583947, 51.7989216 ], [ 0.0586653, 51.7988894 ], [ 0.059011, 51.7988117 ], [ 0.0591485, 51.79876 ], [ 0.0594563, 51.7987127 ] ] } },
{ "type": "Feature", "properties": { "id": 37304, "nach": 0.17194521165150012 }, "geometry": { "type": "LineString", "coordinates": [ [ 0.0660943, 51.803356 ], [ 0.0639397, 51.8001484 ] ] } },
{ "type": "Feature", "properties": { "id": 18279, "nach": 0.13039353671669579 }, "geometry": { "type": "LineString", "coordinates": [ [ 0.0557992, 51.8032553 ], [ 0.0559779, 51.8030401 ], [ 0.0561495, 51.802843700000011 ], [ 0.0570937, 51.802100600000017 ], [ 0.0594712, 51.801293900000012 ], [ 0.0607329, 51.8010285 ], [ 0.0623808, 51.8006782 ], [ 0.0637112, 51.8002058 ], [ 0.0639397, 51.8001484 ] ] } },
{ "type": "Feature", "properties": { "id": 18283, "nach": 0.37622322465606384 }, "geometry": { "type": "LineString", "coordinates": [ [ 0.0559205, 51.803516 ], [ 0.0557992, 51.8032553 ] ] } },
{ "type": "Feature", "properties": { "id": 37289, "nach": 0.2100329801130941 }, "geometry": { "type": "LineString", "coordinates": [ [ 0.0628253, 51.804763200000011 ], [ 0.0563635, 51.803555600000017 ], [ 0.056209, 51.803532600000011 ], [ 0.0559205, 51.803516 ] ] } },
{ "type": "Feature", "properties": { "id": 37292, "nach": 0.28907837534617392 }, "geometry": { "type": "LineString", "coordinates": [ [ 0.0578932, 51.8053157 ], [ 0.0578228, 51.8052719 ], [ 0.0566576, 51.8048237 ], [ 0.0563351, 51.804635 ], [ 0.0561839, 51.8044976 ], [ 0.0559205, 51.803516 ] ] } },
{ "type": "Feature", "properties": { "id": 53681, "nach": 0.43885400899956373 }, "geometry": { "type": "LineString", "coordinates": [ [ 0.0534247, 51.8025884 ], [ 0.0539179, 51.8024032 ] ] } },
{ "type": "Feature", "properties": { "id": 59197, "nach": 0.43494079101757283 }, "geometry": { "type": "LineString", "coordinates": [ [ 0.0523966, 51.8029743 ], [ 0.0524318, 51.8029611 ], [ 0.0525889, 51.8029021 ], [ 0.0534247, 51.8025884 ] ] } },
{ "type": "Feature", "properties": { "id": 59199, "nach": 0.36109939634375732 }, "geometry": { "type": "LineString", "coordinates": [ [ 0.0526268, 51.8034363 ], [ 0.0526798, 51.8033984 ], [ 0.0526597, 51.8033045 ], [ 0.0525673, 51.8031699 ], [ 0.0523966, 51.8029743 ] ] } },
{ "type": "Feature", "properties": { "id": 53679, "nach": 0.37412466237438458 }, "geometry": { "type": "LineString", "coordinates": [ [ 0.0534093, 51.8017574 ], [ 0.0530588, 51.80178 ], [ 0.0526502, 51.8018179 ], [ 0.0518347, 51.8018936 ], [ 0.050479, 51.8020098 ], [ 0.0503973, 51.8020168 ] ] } },
{ "type": "Feature", "properties": { "id": 59195, "nach": 0.33629184600654027 }, "geometry": { "type": "LineString", "coordinates": [ [ 0.0493495, 51.8019 ], [ 0.049527, 51.8019726 ], [ 0.0497148, 51.8020081 ], [ 0.0503369, 51.8020233 ], [ 0.0503973, 51.8020168 ] ] } },
{ "type": "Feature", "properties": { "id": 53683, "nach": 0.30529958290353726 }, "geometry": { "type": "LineString", "coordinates": [ [ 0.0534247, 51.8025884 ], [ 0.0533491, 51.802513100000013 ], [ 0.0533277, 51.802428200000023 ], [ 0.0533191, 51.8022875 ], [ 0.0533577, 51.8020672 ], [ 0.0534093, 51.8017574 ] ] } },
{ "type": "Feature", "properties": { "id": 37329, "nach": 0.47325171624132301 }, "geometry": { "type": "LineString", "coordinates": [ [ 0.0535367, 51.80092770000001 ], [ 0.0532843, 51.8005296 ] ] } },
{ "type": "Feature", "properties": { "id": 95505, "nach": 0.33135306177612722 }, "geometry": { "type": "LineString", "coordinates": [ [ 0.0536876, 51.8004063 ], [ 0.0535047, 51.800468300000013 ], [ 0.0532843, 51.8005296 ] ] } },
{ "type": "Feature", "properties": { "id": 95503, "nach": 0.33773970966362071 }, "geometry": { "type": "LineString", "coordinates": [ [ 0.0538093, 51.8008348 ], [ 0.0536107, 51.8009051 ], [ 0.0535367, 51.80092770000001 ] ] } },
{ "type": "Feature", "properties": { "id": 95504, "nach": 0.31982593250436975 }, "geometry": { "type": "LineString", "coordinates": [ [ 0.0536876, 51.8004063 ], [ 0.0538131, 51.8003638 ], [ 0.053972, 51.8002597 ], [ 0.0540948, 51.800136500000015 ], [ 0.0541886, 51.7999009 ], [ 0.0541243, 51.7997882 ], [ 0.0539982, 51.7997119 ], [ 0.0538862, 51.7996621 ], [ 0.0536126, 51.7996057 ], [ 0.0533605, 51.7995991 ], [ 0.0532787, 51.7996146 ], [ 0.0532188, 51.7996471 ], [ 0.0531485, 51.7997973 ], [ 0.052989, 51.799832199999983 ] ] } },
{ "type": "Feature", "properties": { "id": 95506, "nach": 0.33231072067574641 }, "geometry": { "type": "LineString", "coordinates": [ [ 0.0536876, 51.8004063 ], [ 0.0537149, 51.8005827 ], [ 0.0537417, 51.8006947 ], [ 0.0538093, 51.8008348 ] ] } },
{ "type": "Feature", "properties": { "id": 95502, "nach": 0.33511991939112168 }, "geometry": { "type": "LineString", "coordinates": [ [ 0.0538093, 51.8008348 ], [ 0.0540384, 51.8007567 ], [ 0.0544962, 51.8005794 ], [ 0.0547306, 51.800495499999982 ], [ 0.0550564, 51.8004182 ], [ 0.0556156, 51.8002653 ], [ 0.0557891, 51.800226700000017 ], [ 0.0566075, 51.8000446 ], [ 0.0567673, 51.7999223 ], [ 0.0568184, 51.799883100000017 ], [ 0.0568464, 51.7998617 ] ] } },
{ "type": "Feature", "properties": { "id": 50852, "nach": 0.36432221841302942 }, "geometry": { "type": "LineString", "coordinates": [ [ 0.0545159, 51.795445 ], [ 0.0544926, 51.7952729 ], [ 0.0545034, 51.7950984 ], [ 0.0545284, 51.7950488 ] ] } },
{ "type": "Feature", "properties": { "id": 50853, "nach": 0.44382823797097848 }, "geometry": { "type": "LineString", "coordinates": [ [ 0.0545159, 51.795445 ], [ 0.0545468, 51.7956825 ], [ 0.0545251, 51.7960115 ], [ 0.0544383, 51.7963673 ], [ 0.054308, 51.7966896 ], [ 0.0541886, 51.7969716 ], [ 0.0540316, 51.7972387 ] ] } },
{ "type": "Feature", "properties": { "id": 50888, "nach": 0.42196364433434419 }, "geometry": { "type": "LineString", "coordinates": [ [ 0.0570218, 51.7951449 ], [ 0.0570026, 51.7952674 ], [ 0.0568792, 51.7955262 ], [ 0.0565574, 51.7955793 ], [ 0.0551393, 51.7955623 ], [ 0.0548672, 51.7955009 ], [ 0.054818, 51.795464 ], [ 0.0546543, 51.7954433 ], [ 0.0545159, 51.795445 ] ] } },
{ "type": "Feature", "properties": { "id": 85343, "nach": 0.45951789002671306 }, "geometry": { "type": "LineString", "coordinates": [ [ 0.0519745, 51.7996291 ], [ 0.0516892, 51.7996187 ] ] } },
{ "type": "Feature", "properties": { "id": 61407, "nach": 0.37234653921266081 }, "geometry": { "type": "LineString", "coordinates": [ [ 0.0513171, 51.7991811 ], [ 0.0514422, 51.7992607 ], [ 0.0515439, 51.7993341 ], [ 0.051606, 51.7994004 ], [ 0.0516399, 51.7994493 ], [ 0.0516892, 51.7996187 ] ] } },
{ "type": "Feature", "properties": { "id": 61405, "nach": 0.35407589729930788 }, "geometry": { "type": "LineString", "coordinates": [ [ 0.0513171, 51.7991811 ], [ 0.051732, 51.7990378 ], [ 0.0518715, 51.798932499999985 ], [ 0.0520847, 51.7987708 ], [ 0.0525166, 51.7983487 ], [ 0.0527204, 51.7981297 ], [ 0.0529994, 51.7977639 ], [ 0.0531241, 51.7976039 ], [ 0.0531911, 51.7975276 ], [ 0.0533266, 51.7974628 ], [ 0.0536028, 51.797363300000015 ], [ 0.0538027, 51.797292900000016 ], [ 0.0539113, 51.7972422 ], [ 0.0540005, 51.797237 ], [ 0.0540316, 51.7972387 ] ] } },
{ "type": "Feature", "properties": { "id": 61409, "nach": 0.39699242856002365 }, "geometry": { "type": "LineString", "coordinates": [ [ 0.0512389, 51.7990617 ], [ 0.0512389, 51.7991071 ], [ 0.051287, 51.7991674 ], [ 0.0513171, 51.7991811 ] ] } },
{ "type": "Feature", "properties": { "id": 50770, "nach": 0.29700592237991469 }, "geometry": { "type": "LineString", "coordinates": [ [ 0.0533502, 51.7994916 ], [ 0.0533768, 51.7994742 ], [ 0.0533934, 51.799452499999987 ], [ 0.0533984, 51.7994288 ], [ 0.0533914, 51.7994052 ], [ 0.0533731, 51.7993842 ], [ 0.0533451, 51.7993676 ], [ 0.0533103, 51.7993571 ], [ 0.0532719, 51.7993538 ], [ 0.0532338, 51.7993579 ], [ 0.0531995, 51.7993691 ] ] } },
{ "type": "Feature", "properties": { "id": 50777, "nach": 0.32146998146853306 }, "geometry": { "type": "LineString", "coordinates": [ [ 0.054597, 51.79949460000001 ], [ 0.0541571, 51.7995692 ], [ 0.0539854, 51.7995825 ], [ 0.0534731, 51.799544300000015 ], [ 0.0533502, 51.7994916 ] ] } },
{ "type": "Feature", "properties": { "id": 50780, "nach": 0.21023088632306838 }, "geometry": { "type": "LineString", "coordinates": [ [ 0.0602296, 51.7867787 ], [ 0.0603584, 51.7867721 ], [ 0.0611684, 51.7868882 ], [ 0.0614849, 51.7868948 ], [ 0.0617048, 51.7870176 ], [ 0.062193, 51.7875817 ] ] } },
{ "type": "Feature", "properties": { "id": 50887, "nach": 0.40406454018339205 }, "geometry": { "type": "LineString", "coordinates": [ [ 0.0570218, 51.7951449 ], [ 0.0564214, 51.7951347 ] ] } },
{ "type": "Feature", "properties": { "id": 50879, "nach": 0.28729533321399842 }, "geometry": { "type": "LineString", "coordinates": [ [ 0.0564214, 51.7951347 ], [ 0.0564179, 51.795226 ] ] } },
{ "type": "Feature", "properties": { "id": 50881, "nach": 0.347480927307665 }, "geometry": { "type": "LineString", "coordinates": [ [ 0.0564214, 51.7951347 ], [ 0.0558474, 51.7951214 ] ] } },
{ "type": "Feature", "properties": { "id": 50883, "nach": 0.37311947857142208 }, "geometry": { "type": "LineString", "coordinates": [ [ 0.0564254, 51.7950269 ], [ 0.0564214, 51.7951347 ] ] } },
{ "type": "Feature", "properties": { "id": 50867, "nach": 0.2837149570660582 }, "geometry": { "type": "LineString", "coordinates": [ [ 0.056442, 51.7948461 ], [ 0.0564383, 51.7949002 ] ] } },
{ "type": "Feature", "properties": { "id": 50861, "nach": 0.31879039971297191 }, "geometry": { "type": "LineString", "coordinates": [ [ 0.0564275, 51.79497150000001 ], [ 0.0564473, 51.7949705 ], [ 0.0564654, 51.7949655 ], [ 0.0564774, 51.7949587 ], [ 0.0564871, 51.794948 ], [ 0.0564903, 51.7949355 ], [ 0.0564864, 51.7949235 ], [ 0.0564744, 51.7949119 ], [ 0.0564584, 51.7949046 ], [ 0.0564383, 51.7949002 ] ] } },
{ "type": "Feature", "properties": { "id": 50868, "nach": 0.28562954899204496 }, "geometry": { "type": "LineString", "coordinates": [ [ 0.056442, 51.7948461 ], [ 0.0564474, 51.7947548 ] ] } },
{ "type": "Feature", "properties": { "id": 50877, "nach": 0.2607855238770605 }, "geometry": { "type": "LineString", "coordinates": [ [ 0.0558474, 51.7951214 ], [ 0.0558627, 51.7948345 ], [ 0.056442, 51.7948461 ] ] } },
{ "type": "Feature", "properties": { "id": 50882, "nach": 0.34004608302208655 }, "geometry": { "type": "LineString", "coordinates": [ [ 0.0564254, 51.7950269 ], [ 0.0564275, 51.79497150000001 ] ] } },
{ "type": "Feature", "properties": { "id": 50886, "nach": 0.28324393992997288 }, "geometry": { "type": "LineString", "coordinates": [ [ 0.0569436, 51.7950385 ], [ 0.0564254, 51.7950269 ] ] } },
{ "type": "Feature", "properties": { "id": 50890, "nach": 0.28515537852495232 }, "geometry": { "type": "LineString", "coordinates": [ [ 0.0559405, 51.7950169 ], [ 0.0564254, 51.7950269 ] ] } },
{ "type": "Feature", "properties": { "id": 50863, "nach": 0.27269918282623395 }, "geometry": { "type": "LineString", "coordinates": [ [ 0.0558412, 51.7952377 ], [ 0.0561846, 51.7952442 ] ] } },
{ "type": "Feature", "properties": { "id": 50875, "nach": 0.34341469200004271 }, "geometry": { "type": "LineString", "coordinates": [ [ 0.0558474, 51.7951214 ], [ 0.0558412, 51.7952377 ] ] } },
{ "type": "Feature", "properties": { "id": 50871, "nach": 0.27039280252616699 }, "geometry": { "type": "LineString", "coordinates": [ [ 0.0555328, 51.7948743 ], [ 0.0555156, 51.7952314 ], [ 0.0558412, 51.7952377 ] ] } },
{ "type": "Feature", "properties": { "id": 53684, "nach": 0.36049202662278962 }, "geometry": { "type": "LineString", "coordinates": [ [ 0.0534221, 51.80164 ], [ 0.0534093, 51.8017574 ] ] } },
{ "type": "Feature", "properties": { "id": 58192, "nach": 0.30459809697829698 }, "geometry": { "type": "LineString", "coordinates": [ [ 0.0485316, 51.798256 ], [ 0.0484971, 51.7983774 ], [ 0.0484116, 51.7984766 ], [ 0.0480696, 51.7987496 ], [ 0.0479801, 51.798822 ], [ 0.0479328, 51.7989832 ] ] } },
{ "type": "Feature", "properties": { "id": 58193, "nach": 0.30599163996901574 }, "geometry": { "type": "LineString", "coordinates": [ [ 0.0486916, 51.7984135 ], [ 0.0486026, 51.7984527 ], [ 0.0485769, 51.7984881 ], [ 0.0485769, 51.7985248 ], [ 0.048389, 51.798679 ], [ 0.0481734, 51.7988111 ], [ 0.0480864, 51.7988955 ], [ 0.0479328, 51.7989832 ] ] } },
{ "type": "Feature", "properties": { "id": 59279, "nach": 0.33191731784512174 }, "geometry": { "type": "LineString", "coordinates": [ [ 0.05458, 51.798022800000012 ], [ 0.0545533, 51.7978725 ] ] } },
{ "type": "Feature", "properties": { "id": 79580, "nach": 0.3974571562712414 }, "geometry": { "type": "LineString", "coordinates": [ [ 0.0551756, 51.7978325 ], [ 0.0545533, 51.7978725 ] ] } },
{ "type": "Feature", "properties": { "id": 79583, "nach": 0.36971971067906412 }, "geometry": { "type": "LineString", "coordinates": [ [ 0.055395, 51.7978185 ], [ 0.0554196, 51.79792770000001 ], [ 0.055438, 51.7980071 ], [ 0.0553491, 51.7980472 ], [ 0.0552532, 51.7980232 ], [ 0.0552081, 51.797948199999986 ], [ 0.0551756, 51.7978325 ] ] } },
{ "type": "Feature", "properties": { "id": 79581, "nach": 0.32440630458886749 }, "geometry": { "type": "LineString", "coordinates": [ [ 0.055395, 51.7978185 ], [ 0.0554098, 51.7978175 ] ] } },
{ "type": "Feature", "properties": { "id": 85346, "nach": 0.32105504394396761 }, "geometry": { "type": "LineString", "coordinates": [ [ 0.0525504, 51.800546599999983 ], [ 0.0523546, 51.8003205 ], [ 0.0520154, 51.7997035 ], [ 0.0519745, 51.7996291 ] ] } },
{ "type": "Feature", "properties": { "id": 61411, "nach": 0.32200825593831994 }, "geometry": { "type": "LineString", "coordinates": [ [ 0.0513123, 51.7986077 ], [ 0.0514253, 51.7986007 ], [ 0.0514987, 51.7986321 ], [ 0.0515326, 51.7986705 ], [ 0.0515495, 51.7987648 ], [ 0.0515326, 51.7988242 ], [ 0.051493, 51.7988731 ], [ 0.0514083, 51.798929 ], [ 0.0512672, 51.79903370000001 ], [ 0.0512389, 51.7990617 ] ] } },
{ "type": "Feature", "properties": { "id": 61412, "nach": 0.32414972493894478 }, "geometry": { "type": "LineString", "coordinates": [ [ 0.0510478, 51.7987995 ], [ 0.0510647, 51.7988658 ], [ 0.051094, 51.7989424 ], [ 0.0511565, 51.7990302 ], [ 0.0512389, 51.7990617 ] ] } }
]
}
