{
"type": "FeatureCollection",
"name": "STALB_137_walking",
"crs": { "type": "name", "properties": { "name": "urn:ogc:def:crs:OGC:1.3:CRS84" } },
"features": [
{"type":"Feature","properties":{"highway":"footway","name":null,"category":"Footpath (pedestrian only)"},"geometry":{"type":"MultiLineString","coordinates":[[[-0.290775,51.7493604],[-0.2910584,51.74952],[-0.2911511,51.7495007]]]}},
{"type":"Feature","properties":{"highway":"path","name":null,"category":"Shared path"},"geometry":{"type":"MultiLineString","coordinates":[[[-0.2996878,51.7503904],[-0.2997454,51.750457],[-0.299873,51.7505145],[-0.300007,51.7506527],[-0.3000247,51.750671],[-0.2998556,51.7509066]]]}},
{"type":"Feature","properties":{"highway":"path","name":null,"category":"Shared path"},"geometry":{"type":"MultiLineString","coordinates":[[[-0.2995855,51.7505019],[-0.2997488,51.7506781],[-0.2998556,51.7509066],[-0.2998259,51.7511619]]]}},
{"type":"Feature","properties":{"highway":"footway","name":null,"category":"Footpath (pedestrian only)"},"geometry":{"type":"MultiLineString","coordinates":[[[-0.2982884,51.7487761],[-0.2982919,51.74891]]]}},
{"type":"Feature","properties":{"highway":"path","name":null,"category":"Shared path"},"geometry":{"type":"MultiLineString","coordinates":[[[-0.2998233,51.7452992],[-0.2997535,51.7452147],[-0.2996914,51.745164],[-0.2994361,51.7450437],[-0.2992806,51.744994],[-0.299151,51.7449907],[-0.2990333,51.7449494],[-0.2988961,51.7449511]]]}},
{"type":"Feature","properties":{"highway":"footway","name":null,"category":"Footpath (pedestrian only)"},"geometry":{"type":"MultiLineString","coordinates":[[[-0.2946554,51.7474378],[-0.2946751,51.7474163],[-0.2946477,51.7473592]]]}},
{"type":"Feature","properties":{"highway":"track","name":"Hixberry Lane","category":"Track"},"geometry":{"type":"MultiLineString","coordinates":[[[-0.2930324,51.7472534],[-0.2918878,51.7462907],[-0.2913785,51.7458204],[-0.2907098,51.7452006],[-0.2898662,51.7445199],[-0.2894273,51.74414],[-0.2888078,51.7436602],[-0.2883444,51.7431992],[-0.2882953,51.7430161],[-0.2883067,51.7428579],[-0.2883194,51.7427257],[-0.288226,51.7425664],[-0.2880744,51.7424344],[-0.2880926,51.7421922],[-0.2880782,51.7421035],[-0.2879836,51.7417888],[-0.2879705,51.7416265],[-0.2880228,51.7414479],[-0.2880376,51.7413004],[-0.2879223,51.7410081],[-0.2878685,51.7406917],[-0.2876871,51.7400812],[-0.28768,51.7398141],[-0.2877143,51.7397427]]]}},
{"type":"Feature","properties":{"highway":"path","name":null,"category":"Shared path"},"geometry":{"type":"MultiLineString","coordinates":[[[-0.296803,51.7431784],[-0.2967487,51.743136],[-0.2955071,51.742142]]]}},
{"type":"Feature","properties":{"highway":"footway","name":null,"category":"Footpath (pedestrian only)"},"geometry":{"type":"MultiLineString","coordinates":[[[-0.300308,51.7490131],[-0.3002068,51.7493456]]]}},
{"type":"Feature","properties":{"highway":"path","name":null,"category":"Shared path"},"geometry":{"type":"MultiLineString","coordinates":[[[-0.3033903,51.7422871],[-0.3031154,51.7426245],[-0.3027479,51.7425909]]]}},
{"type":"Feature","properties":{"highway":"path","name":null,"category":"Shared path"},"geometry":{"type":"MultiLineString","coordinates":[[[-0.2996796,51.744668],[-0.2996272,51.7445643],[-0.2995909,51.7445066],[-0.2991289,51.744188]]]}},
{"type":"Feature","properties":{"highway":"path","name":null,"category":"Shared path"},"geometry":{"type":"MultiLineString","coordinates":[[[-0.3036651,51.742156],[-0.3036589,51.7422073],[-0.3036396,51.7422515],[-0.3036114,51.7422922],[-0.3033903,51.7422871],[-0.3032324,51.74228],[-0.303043,51.742274],[-0.3028807,51.7422802],[-0.3028516,51.7422881],[-0.3028271,51.7422993],[-0.3027926,51.7423284],[-0.3027137,51.7425228],[-0.3026818,51.7425856]]]}},
{"type":"Feature","properties":{"highway":"path","name":null,"category":"Shared path"},"geometry":{"type":"MultiLineString","coordinates":[[[-0.3000364,51.7444922],[-0.3000858,51.7445912],[-0.2996796,51.744668],[-0.2995544,51.7446924]]]}},
{"type":"Feature","properties":{"highway":"path","name":null,"category":"Shared path"},"geometry":{"type":"MultiLineString","coordinates":[[[-0.3001886,51.7444633],[-0.3001139,51.7444776],[-0.3000364,51.7444922],[-0.2996272,51.7445643],[-0.2994935,51.744587],[-0.2995544,51.7446924],[-0.2996448,51.7448949],[-0.299708,51.7449696],[-0.2998106,51.7450331]]]}},
{"type":"Feature","properties":{"highway":"path","name":null,"category":"Shared path"},"geometry":{"type":"MultiLineString","coordinates":[[[-0.303718,51.7426303],[-0.3037142,51.7425933],[-0.3037139,51.7425441],[-0.3037119,51.7424949],[-0.3037072,51.7424513],[-0.3036971,51.7424085],[-0.3036733,51.7423635],[-0.3036442,51.7423255],[-0.3036114,51.7422922]]]}},
{"type":"Feature","properties":{"highway":"path","name":null,"category":"Shared path"},"geometry":{"type":"MultiLineString","coordinates":[[[-0.3030927,51.7429868],[-0.3027479,51.7425909],[-0.3026818,51.7425856]]]}},
{"type":"Feature","properties":{"highway":"path","name":null,"category":"Shared path"},"geometry":{"type":"MultiLineString","coordinates":[[[-0.2992806,51.744994],[-0.2994981,51.7449317],[-0.2996448,51.7448949]]]}},
{"type":"Feature","properties":{"highway":"path","name":null,"category":"Shared path"},"geometry":{"type":"MultiLineString","coordinates":[[[-0.2943512,51.7450719],[-0.294418,51.7451543],[-0.2944448,51.7452539],[-0.2944556,51.7453369],[-0.2945092,51.7454133],[-0.2946058,51.745513],[-0.2946594,51.7455794],[-0.2947774,51.7456525],[-0.294874,51.7457189],[-0.2950081,51.7458185],[-0.2950456,51.7459281],[-0.295169,51.746061],[-0.2952495,51.7461839],[-0.2953407,51.7463001],[-0.2953782,51.7463466]]]}},
{"type":"Feature","properties":{"highway":"path","name":null,"category":"Shared path"},"geometry":{"type":"MultiLineString","coordinates":[[[-0.2946058,51.745513],[-0.2947345,51.7454631],[-0.2949491,51.7454299],[-0.2950993,51.7454299],[-0.295287,51.7454698],[-0.2953514,51.745503],[-0.2958278,51.7456556]]]}},
{"type":"Feature","properties":{"highway":"path","name":null,"category":"Shared path"},"geometry":{"type":"MultiLineString","coordinates":[[[-0.3019257,51.7449343],[-0.3018552,51.7449372],[-0.3018698,51.7451274],[-0.301894,51.745364],[-0.3019071,51.7454836],[-0.3019088,51.7454994],[-0.3019107,51.7455407],[-0.3019135,51.7455978],[-0.3019014,51.7456613],[-0.3018478,51.7457396],[-0.3017277,51.7458276],[-0.3016711,51.7458627],[-0.3016097,51.745893],[-0.3015517,51.7459233],[-0.3014763,51.7459565],[-0.3014266,51.7459746],[-0.3013569,51.746002],[-0.3011919,51.7459771],[-0.3011517,51.7459564],[-0.3010645,51.7459439],[-0.3010441,51.7459117]]]}},
{"type":"Feature","properties":{"highway":"footway","name":null,"category":"Footpath (pedestrian only)"},"geometry":{"type":"MultiLineString","coordinates":[[[-0.3026955,51.7413818],[-0.3028549,51.7414188],[-0.3028858,51.7414371],[-0.3029139,51.7415044],[-0.3029951,51.7414998],[-0.3030561,51.7415077],[-0.3030916,51.7415098],[-0.3031178,51.7415044],[-0.3031473,51.7414853],[-0.3031714,51.7414529],[-0.3032056,51.7414592],[-0.303272,51.7414716],[-0.3031889,51.7415969],[-0.3031439,51.7416647],[-0.303087,51.7416517],[-0.3030165,51.7416356],[-0.30292,51.741658],[-0.3028576,51.7416601],[-0.3027704,51.7416671],[-0.302706,51.7416674],[-0.3026524,51.7416633],[-0.3026095,51.7416608],[-0.3025357,51.7416733],[-0.3024264,51.7416995]]]}},
{"type":"Feature","properties":{"highway":"footway","name":null,"category":"Footpath (pedestrian only)"},"geometry":{"type":"MultiLineString","coordinates":[[[-0.3001121,51.7470901],[-0.3000165,51.7470878],[-0.2999984,51.7470446],[-0.2998455,51.7467549]]]}},
{"type":"Feature","properties":{"highway":"footway","name":null,"category":"Footpath (pedestrian only)"},"geometry":{"type":"MultiLineString","coordinates":[[[-0.3041884,51.7450153],[-0.3048319,51.7450958],[-0.3049766,51.7450846]]]}},
{"type":"Feature","properties":{"highway":"footway","name":null,"category":"Footpath (pedestrian only)"},"geometry":{"type":"MultiLineString","coordinates":[[[-0.3021341,51.7445337],[-0.302173,51.7445316],[-0.3024962,51.7446325],[-0.3028496,51.7447298],[-0.3033307,51.7448733],[-0.3033572,51.744888],[-0.3033719,51.7449036],[-0.3033937,51.7449509],[-0.3034132,51.7449779],[-0.303437,51.7449871],[-0.3040147,51.7450481]]]}},
{"type":"Feature","properties":{"highway":"footway","name":null,"category":"Footpath (pedestrian only)"},"geometry":{"type":"MultiLineString","coordinates":[[[-0.2991867,51.749256],[-0.2992299,51.7491968],[-0.2992252,51.7490781],[-0.2992621,51.7490046],[-0.2991123,51.748998]]]}},
{"type":"Feature","properties":{"highway":"footway","name":null,"category":"Footpath (pedestrian only)"},"geometry":{"type":"MultiLineString","coordinates":[[[-0.2962221,51.7501942],[-0.296207,51.7501691],[-0.296201,51.7501591],[-0.2961963,51.7501338],[-0.296201,51.7501076],[-0.2962151,51.7500499],[-0.2962212,51.7500192],[-0.2962165,51.7499943],[-0.2962044,51.7499743],[-0.2961568,51.7499112],[-0.2961447,51.7498922],[-0.2961434,51.7498664],[-0.2960941,51.7498551]]]}},
{"type":"Feature","properties":{"highway":"footway","name":null,"category":"Footpath (pedestrian only)"},"geometry":{"type":"MultiLineString","coordinates":[[[-0.2961594,51.7501989],[-0.2962221,51.7501942],[-0.2965354,51.7501897],[-0.2965912,51.7501826],[-0.2966563,51.7501586],[-0.2967365,51.7501564],[-0.2967897,51.7501564],[-0.296815,51.7501741]]]}},
{"type":"Feature","properties":{"highway":"footway","name":null,"category":"Footpath (pedestrian only)"},"geometry":{"type":"MultiLineString","coordinates":[[[-0.2965105,51.7496691],[-0.2965252,51.7496637],[-0.2965857,51.7496413],[-0.2968416,51.7496399],[-0.2969821,51.7496379],[-0.2970204,51.7496374]]]}},
{"type":"Feature","properties":{"highway":"path","name":null,"category":"Shared path"},"geometry":{"type":"MultiLineString","coordinates":[[[-0.3001139,51.7444776],[-0.3000891,51.7444594],[-0.3000741,51.7444251],[-0.3000573,51.7443306],[-0.3000064,51.7442243],[-0.2999433,51.7439702]]]}},
{"type":"Feature","properties":{"highway":"footway","name":null,"category":"Footpath (pedestrian only)"},"geometry":{"type":"MultiLineString","coordinates":[[[-0.298287,51.7475012],[-0.2982325,51.7474868]]]}},
{"type":"Feature","properties":{"highway":"footway","name":null,"category":"Footpath (pedestrian only)"},"geometry":{"type":"MultiLineString","coordinates":[[[-0.3070154,51.7443638],[-0.3070726,51.7444004]]]}},
{"type":"Feature","properties":{"highway":"footway","name":null,"category":"Footpath (pedestrian only)"},"geometry":{"type":"MultiLineString","coordinates":[[[-0.3086027,51.7447455],[-0.3085757,51.7447105],[-0.3084345,51.7446648],[-0.3083464,51.7446341],[-0.3082987,51.7446137],[-0.3082179,51.7445705],[-0.3081638,51.7445602],[-0.3081182,51.7445559],[-0.3080831,51.7445513],[-0.308049,51.7445456],[-0.3080118,51.7445374],[-0.3079533,51.7445206],[-0.3078784,51.7444934],[-0.3078006,51.7444223],[-0.3077905,51.7444037],[-0.30776,51.7443782],[-0.3077255,51.7443572],[-0.3076863,51.7443373],[-0.3076034,51.7443137],[-0.3075498,51.7443029],[-0.307476,51.7442988],[-0.3073299,51.7443046],[-0.3073057,51.7443046],[-0.3072628,51.7443046],[-0.3072159,51.7443029],[-0.3071351,51.7443074],[-0.3070891,51.7443217],[-0.3070533,51.7443412],[-0.3070154,51.7443638],[-0.3069584,51.744401],[-0.3069017,51.7444334],[-0.3068595,51.7444529],[-0.3068172,51.7444729],[-0.3067847,51.7444816],[-0.3067224,51.7444923],[-0.3066744,51.7444884],[-0.3066181,51.744483],[-0.3063884,51.74444],[-0.3063172,51.7444292],[-0.306261,51.7444192],[-0.3061366,51.7444014],[-0.3060504,51.7443943],[-0.3059039,51.7443913],[-0.3057876,51.7443943],[-0.3055931,51.7444043],[-0.3054582,51.7444046],[-0.3052489,51.7444036],[-0.305192,51.7443954],[-0.305146,51.7443859],[-0.3050178,51.744337],[-0.3048971,51.7442888],[-0.3048426,51.7442849]]]}},
{"type":"Feature","properties":{"highway":"footway","name":null,"category":"Footpath (pedestrian only)"},"geometry":{"type":"MultiLineString","coordinates":[[[-0.3067224,51.7444923],[-0.3067247,51.7445251]]]}},
{"type":"Feature","properties":{"highway":"footway","name":null,"category":"Footpath (pedestrian only)"},"geometry":{"type":"MultiLineString","coordinates":[[[-0.3052275,51.7443092],[-0.305192,51.7443954]]]}},
{"type":"Feature","properties":{"highway":"path","name":null,"category":"Shared path"},"geometry":{"type":"MultiLineString","coordinates":[[[-0.3017277,51.7458276],[-0.3018819,51.7458713]]]}},
{"type":"Feature","properties":{"highway":"footway","name":null,"category":"Footpath (pedestrian only)"},"geometry":{"type":"MultiLineString","coordinates":[[[-0.2992332,51.7420029],[-0.2990854,51.742042]]]}},
{"type":"Feature","properties":{"highway":"path","name":null,"category":"Shared path"},"geometry":{"type":"MultiLineString","coordinates":[[[-0.2984444,51.7424901],[-0.2984916,51.742545],[-0.2985446,51.7425918],[-0.2985451,51.7426148],[-0.2985366,51.7426476],[-0.2985361,51.742673],[-0.2985555,51.74271]]]}},
{"type":"Feature","properties":{"highway":"path","name":null,"category":"Shared path"},"geometry":{"type":"MultiLineString","coordinates":[[[-0.2959338,51.7455705],[-0.295973,51.7455932],[-0.2959858,51.7456148],[-0.2959858,51.7456345],[-0.2959717,51.7456547],[-0.296313,51.7458153],[-0.296374,51.7458058]]]}},
{"type":"Feature","properties":{"highway":"footway","name":null,"category":"Footpath (pedestrian only)"},"geometry":{"type":"MultiLineString","coordinates":[[[-0.3007257,51.7438012],[-0.3003234,51.7434636],[-0.2993842,51.7425882]]]}},
{"type":"Feature","properties":{"highway":"path","name":null,"category":"Shared path"},"geometry":{"type":"MultiLineString","coordinates":[[[-0.3005883,51.7449176],[-0.3006961,51.7449457],[-0.3007598,51.7449764]]]}},
{"type":"Feature","properties":{"highway":"footway","name":null,"category":"Footpath (pedestrian only)"},"geometry":{"type":"MultiLineString","coordinates":[[[-0.2967487,51.743136],[-0.2966968,51.7431251],[-0.295206,51.7429085],[-0.2936527,51.7426829]]]}},
{"type":"Feature","properties":{"highway":"path","name":null,"category":"Shared path"},"geometry":{"type":"MultiLineString","coordinates":[[[-0.2947439,51.7480346],[-0.2948277,51.7480419],[-0.2949256,51.7480298],[-0.2949957,51.7480217],[-0.2950504,51.748025],[-0.2951003,51.7480356],[-0.2951647,51.7480686],[-0.2952193,51.7480773],[-0.2952552,51.7480711],[-0.2952867,51.7480715],[-0.2953183,51.7480896],[-0.2953954,51.7481079],[-0.2954467,51.7481278],[-0.295503,51.7481614],[-0.2955392,51.7482083],[-0.2955483,51.7482548],[-0.2955318,51.7483061],[-0.295499,51.7483518],[-0.2954383,51.7484082],[-0.2953799,51.7484508],[-0.2953112,51.7484856],[-0.2952466,51.7485042],[-0.2951801,51.748516],[-0.295104,51.7485207],[-0.2949873,51.7485228],[-0.2948707,51.7485097],[-0.294818,51.7484975],[-0.2947771,51.7484688],[-0.2947654,51.748375],[-0.2945825,51.7483775]]]}},
{"type":"Feature","properties":{"highway":"footway","name":null,"category":"Footpath (pedestrian only)"},"geometry":{"type":"MultiLineString","coordinates":[[[-0.2981442,51.7450209],[-0.2983322,51.7451237]]]}},
{"type":"Feature","properties":{"highway":"path","name":null,"category":"Shared path"},"geometry":{"type":"MultiLineString","coordinates":[[[-0.3019869,51.7443915],[-0.302084,51.7443046],[-0.3020357,51.7440897],[-0.3021475,51.7439582],[-0.3021515,51.7439333],[-0.3020932,51.7438586],[-0.3020985,51.7437099],[-0.3020905,51.7436946],[-0.3018568,51.7435523]]]}},
{"type":"Feature","properties":{"highway":"footway","name":null,"category":"Footpath (pedestrian only)"},"geometry":{"type":"MultiLineString","coordinates":[[[-0.3021004,51.7435084],[-0.3021596,51.7435779],[-0.3022524,51.7436414],[-0.3022847,51.7436661],[-0.3023108,51.7436765],[-0.3023312,51.7436813],[-0.302351,51.7436794],[-0.3023718,51.7436707],[-0.3023969,51.7436595],[-0.3024254,51.7436541],[-0.3024633,51.7436568],[-0.3024891,51.7436732],[-0.3025059,51.7436915],[-0.3025197,51.7437128],[-0.302523,51.7437303],[-0.3025213,51.7437523],[-0.3025133,51.7437728],[-0.3024955,51.743795],[-0.302471,51.7438131],[-0.3024382,51.7438289],[-0.3023956,51.7438409],[-0.3023527,51.7438442],[-0.3023168,51.743842],[-0.302289,51.7438368],[-0.3022565,51.7438268],[-0.302227,51.74381],[-0.3022075,51.743793],[-0.3021948,51.7437714],[-0.3021951,51.743749],[-0.3022042,51.7437309],[-0.3022243,51.7437126],[-0.3022182,51.7437045],[-0.3022005,51.7437033],[-0.3021783,51.743722],[-0.3021659,51.7437431],[-0.3021646,51.743766],[-0.3021743,51.7437907],[-0.3021911,51.7438112],[-0.3022044,51.7438191],[-0.302229,51.7438337],[-0.3022581,51.7438445],[-0.302299,51.7438582],[-0.3023416,51.7438627],[-0.3023819,51.7438613],[-0.3024023,51.7438569],[-0.3024207,51.743853],[-0.3024586,51.7438413],[-0.3024989,51.7438208],[-0.3025227,51.7438013],[-0.3025428,51.7437791],[-0.3025482,51.7437619],[-0.3025495,51.7437577],[-0.3025512,51.7437328],[-0.302551,51.7437294],[-0.3025498,51.7437066],[-0.3025321,51.7436794],[-0.3025129,51.7436603],[-0.3024767,51.7436429],[-0.3024378,51.743636],[-0.3023979,51.7436414],[-0.3023627,51.7436535],[-0.3023359,51.743662],[-0.3023272,51.7436555],[-0.3023322,51.7436466],[-0.3023654,51.7436327],[-0.3024077,51.7436229],[-0.3024459,51.74362],[-0.3024881,51.7436248],[-0.302526,51.7436435],[-0.3025676,51.7436751],[-0.302577,51.7437023],[-0.3025823,51.7437321],[-0.302579,51.7437598],[-0.3025776,51.7437629],[-0.3025676,51.7437861],[-0.3025502,51.7438096],[-0.302522,51.7438326],[-0.3024908,51.7438494],[-0.3024536,51.743864],[-0.3024154,51.7438739],[-0.3023621,51.7438793],[-0.3023084,51.7438773],[-0.3022655,51.74387],[-0.3022249,51.7438546],[-0.3021827,51.743831],[-0.3021559,51.7438071],[-0.3021368,51.7437797],[-0.3021331,51.7437479],[-0.3021455,51.7437232],[-0.3021683,51.7437002],[-0.3021974,51.7436852],[-0.3022306,51.7436861],[-0.3022538,51.7437062],[-0.3022608,51.743711],[-0.3022816,51.7437141],[-0.302285,51.7437278],[-0.3023477,51.7437346]]]}},
{"type":"Feature","properties":{"highway":"footway","name":null,"category":"Footpath (pedestrian only)"},"geometry":{"type":"MultiLineString","coordinates":[[[-0.2909642,51.7451242],[-0.2908054,51.7451719],[-0.2907098,51.7452006]]]}},
{"type":"Feature","properties":{"highway":"path","name":null,"category":"Shared path"},"geometry":{"type":"MultiLineString","coordinates":[[[-0.2929811,51.7440664],[-0.2924017,51.7443188],[-0.2908353,51.7450197],[-0.2909642,51.7451242],[-0.2910304,51.7451879],[-0.2914254,51.7455678],[-0.2914924,51.745617],[-0.2915311,51.7456463]]]}},
{"type":"Feature","properties":{"highway":"path","name":null,"category":"Shared path"},"geometry":{"type":"MultiLineString","coordinates":[[[-0.2986071,51.7443389],[-0.2981452,51.7440585],[-0.297645,51.7437953],[-0.2970696,51.7435536],[-0.2970374,51.7433651],[-0.2969905,51.7432663],[-0.2969124,51.7431561]]]}},
{"type":"Feature","properties":{"highway":"path","name":null,"category":"Shared path"},"geometry":{"type":"MultiLineString","coordinates":[[[-0.2970696,51.7435536],[-0.296847,51.7436375],[-0.2964956,51.7438451],[-0.2963964,51.743973],[-0.2962542,51.7446074],[-0.2963,51.7446744],[-0.2967131,51.745279]]]}},
{"type":"Feature","properties":{"highway":"footway","name":null,"category":"Footpath (pedestrian only)"},"geometry":{"type":"MultiLineString","coordinates":[[[-0.3001102,51.7494853],[-0.3000783,51.749334]]]}},
{"type":"Feature","properties":{"highway":"footway","name":null,"category":"Footpath (pedestrian only)"},"geometry":{"type":"MultiLineString","coordinates":[[[-0.3052965,51.7451365],[-0.3053007,51.745104],[-0.30529,51.7449847]]]}},
{"type":"Feature","properties":{"highway":"bridleway","name":null,"category":"Bridleway"},"geometry":{"type":"MultiLineString","coordinates":[[[-0.3019558,51.7461762],[-0.3020625,51.7463747],[-0.3041855,51.7464475]]]}},
{"type":"Feature","properties":{"highway":"path","name":null,"category":"Shared path"},"geometry":{"type":"MultiLineString","coordinates":[[[-0.295991,51.7446016],[-0.2963,51.7446744]]]}},
{"type":"Feature","properties":{"highway":"path","name":null,"category":"Shared path"},"geometry":{"type":"MultiLineString","coordinates":[[[-0.2938352,51.744024],[-0.2936227,51.7439604],[-0.2933927,51.7437965]]]}},
{"type":"Feature","properties":{"highway":"path","name":null,"category":"Shared path"},"geometry":{"type":"MultiLineString","coordinates":[[[-0.2956238,51.7437436],[-0.2955654,51.743385],[-0.2966968,51.7431251]]]}},
{"type":"Feature","properties":{"highway":"path","name":null,"category":"Shared path"},"geometry":{"type":"MultiLineString","coordinates":[[[-0.2955654,51.743385],[-0.2939659,51.7437204],[-0.2936227,51.7439604],[-0.2934406,51.7440602],[-0.2932351,51.7440775],[-0.2930006,51.7440536]]]}},
{"type":"Feature","properties":{"highway":"path","name":null,"category":"Shared path"},"geometry":{"type":"MultiLineString","coordinates":[[[-0.2930485,51.7449406],[-0.2930282,51.7448652],[-0.2926176,51.7444776],[-0.2910304,51.7451879]]]}},
{"type":"Feature","properties":{"highway":"path","name":null,"category":"Shared path"},"geometry":{"type":"MultiLineString","coordinates":[[[-0.2938637,51.7451874],[-0.2935114,51.7453295]]]}},
{"type":"Feature","properties":{"highway":"path","name":null,"category":"Shared path"},"geometry":{"type":"MultiLineString","coordinates":[[[-0.3024175,51.7496506],[-0.3023128,51.7498188]]]}},
{"type":"Feature","properties":{"highway":"footway","name":null,"category":"Footpath (pedestrian only)"},"geometry":{"type":"MultiLineString","coordinates":[[[-0.302572,51.7475435],[-0.3024319,51.7475321]]]}},
{"type":"Feature","properties":{"highway":"path","name":null,"category":"Shared path"},"geometry":{"type":"MultiLineString","coordinates":[[[-0.295104,51.7485207],[-0.2950956,51.7483962],[-0.2951345,51.7483925],[-0.2952504,51.7483778],[-0.2952569,51.7484024],[-0.2952919,51.7484548],[-0.2953112,51.7484856]]]}},
{"type":"Feature","properties":{"highway":"footway","name":null,"category":"Footpath (pedestrian only)"},"geometry":{"type":"MultiLineString","coordinates":[[[-0.2952919,51.7484548],[-0.2952228,51.7484687],[-0.2952466,51.7485042]]]}},
{"type":"Feature","properties":{"highway":"path","name":null,"category":"Shared path"},"geometry":{"type":"MultiLineString","coordinates":[[[-0.2951345,51.7483925],[-0.2951295,51.7483299]]]}},
{"type":"Feature","properties":{"highway":"path","name":null,"category":"Shared path"},"geometry":{"type":"MultiLineString","coordinates":[[[-0.2952504,51.7483778],[-0.2952428,51.7483188]]]}},
{"type":"Feature","properties":{"highway":"path","name":null,"category":"Shared path"},"geometry":{"type":"MultiLineString","coordinates":[[[-0.3001253,51.7507496],[-0.3000247,51.750671]]]}},
{"type":"Feature","properties":{"highway":"footway","name":null,"category":"Footpath (pedestrian only)"},"geometry":{"type":"MultiLineString","coordinates":[[[-0.3077905,51.7444037],[-0.3078418,51.7444162],[-0.3079169,51.7444241],[-0.3080677,51.7444222],[-0.3082179,51.7445705]]]}},
{"type":"Feature","properties":{"highway":"footway","name":null,"category":"Footpath (pedestrian only)"},"geometry":{"type":"MultiLineString","coordinates":[[[-0.3021827,51.743831],[-0.3022044,51.7438191]]]}},
{"type":"Feature","properties":{"highway":"footway","name":null,"category":"Footpath (pedestrian only)"},"geometry":{"type":"MultiLineString","coordinates":[[[-0.3023614,51.7436973],[-0.3023601,51.7437143],[-0.3023477,51.7437346]]]}},
{"type":"Feature","properties":{"highway":"footway","name":null,"category":"Footpath (pedestrian only)"},"geometry":{"type":"MultiLineString","coordinates":[[[-0.3023882,51.7436919],[-0.3023614,51.7436973],[-0.3023274,51.7436998]]]}},
{"type":"Feature","properties":{"highway":"footway","name":null,"category":"Footpath (pedestrian only)"},"geometry":{"type":"MultiLineString","coordinates":[[[-0.302285,51.7437278],[-0.3022722,51.7437346]]]}},
{"type":"Feature","properties":{"highway":"footway","name":null,"category":"Footpath (pedestrian only)"},"geometry":{"type":"MultiLineString","coordinates":[[[-0.3025776,51.7437629],[-0.3025482,51.7437619]]]}},
{"type":"Feature","properties":{"highway":"footway","name":null,"category":"Footpath (pedestrian only)"},"geometry":{"type":"MultiLineString","coordinates":[[[-0.302523,51.7437303],[-0.302551,51.7437294]]]}},
{"type":"Feature","properties":{"highway":"footway","name":null,"category":"Footpath (pedestrian only)"},"geometry":{"type":"MultiLineString","coordinates":[[[-0.3023956,51.7438409],[-0.3024023,51.7438569]]]}},
{"type":"Feature","properties":{"highway":"footway","name":null,"category":"Footpath (pedestrian only)"},"geometry":{"type":"MultiLineString","coordinates":[[[-0.3024502,51.7436742],[-0.3024727,51.7436879],[-0.3024888,51.7437085],[-0.3024952,51.7437313],[-0.3024908,51.7437554],[-0.3024774,51.7437751],[-0.3024606,51.7437907],[-0.3024388,51.7438046],[-0.3024067,51.7438171],[-0.3023718,51.7438251],[-0.302343,51.7438247],[-0.3023131,51.7438204],[-0.3022779,51.743811],[-0.3022534,51.743799],[-0.3022327,51.7437803]]]}},
{"type":"Feature","properties":{"highway":"footway","name":null,"category":"Footpath (pedestrian only)"},"geometry":{"type":"MultiLineString","coordinates":[[[-0.3024405,51.7436896],[-0.3024549,51.7437062],[-0.3024637,51.7437265],[-0.3024643,51.7437471],[-0.3024543,51.7437666],[-0.3024385,51.7437803],[-0.3024127,51.7437957],[-0.3023832,51.743805],[-0.30235,51.7438063],[-0.3023198,51.7438015],[-0.3022893,51.7437926],[-0.3022642,51.7437778],[-0.3022586,51.7437683],[-0.3022521,51.7437571],[-0.3022503,51.7437472]]]}},
{"type":"Feature","properties":{"highway":"footway","name":null,"category":"Footpath (pedestrian only)"},"geometry":{"type":"MultiLineString","coordinates":[[[-0.3024767,51.7436429],[-0.3024633,51.7436568],[-0.3024502,51.7436742],[-0.3024405,51.7436896],[-0.3024207,51.7436956],[-0.3024288,51.743713],[-0.3024375,51.7437303],[-0.3024331,51.7437477],[-0.3024285,51.7437598],[-0.3024147,51.7437712],[-0.3023855,51.7437828],[-0.302358,51.7437903],[-0.3023336,51.7437872],[-0.3023074,51.7437784],[-0.3022839,51.7437654],[-0.3022836,51.743756],[-0.3022933,51.7437525],[-0.3023188,51.7437622],[-0.302348,51.7437724],[-0.3023728,51.7437672],[-0.3023979,51.7437556],[-0.3024073,51.7437388],[-0.3024013,51.7437218],[-0.3023912,51.743707],[-0.3023882,51.7436919],[-0.3023929,51.7436861],[-0.3024,51.7436811],[-0.3024174,51.7436738],[-0.3024502,51.7436742]]]}},
{"type":"Feature","properties":{"highway":"footway","name":null,"category":"Footpath (pedestrian only)"},"geometry":{"type":"MultiLineString","coordinates":[[[-0.3022608,51.743711],[-0.302239,51.7437315],[-0.3022243,51.7437463],[-0.3022219,51.7437637],[-0.3021948,51.7437714]]]}},
{"type":"Feature","properties":{"highway":"footway","name":null,"category":"Footpath (pedestrian only)"},"geometry":{"type":"MultiLineString","coordinates":[[[-0.3055002,51.7457263],[-0.3052247,51.745739],[-0.3051569,51.7457427],[-0.3048056,51.74579],[-0.3046312,51.7458066],[-0.3044354,51.7458099],[-0.3043477,51.7458192],[-0.3041715,51.7457783]]]}},
{"type":"Feature","properties":{"highway":"footway","name":null,"category":"Footpath (pedestrian only)"},"geometry":{"type":"MultiLineString","coordinates":[[[-0.3055002,51.7457263],[-0.3055482,51.7457251],[-0.3056217,51.74572]]]}},
{"type":"Feature","properties":{"highway":"footway","name":null,"category":"Footpath (pedestrian only)"},"geometry":{"type":"MultiLineString","coordinates":[[[-0.3041307,51.7456834],[-0.3040278,51.7456806],[-0.3039344,51.7456782]]]}},
{"type":"Feature","properties":{"highway":"footway","name":null,"category":"Footpath (pedestrian only)"},"geometry":{"type":"MultiLineString","coordinates":[[[-0.3040059,51.7461685],[-0.304124,51.7461604],[-0.3042746,51.7461467]]]}},
{"type":"Feature","properties":{"highway":"footway","name":null,"category":"Footpath (pedestrian only)"},"geometry":{"type":"MultiLineString","coordinates":[[[-0.3004833,51.744892],[-0.300533,51.7449041],[-0.3005883,51.7449176]]]}},
{"type":"Feature","properties":{"highway":"footway","name":null,"category":"Footpath (pedestrian only)"},"geometry":{"type":"MultiLineString","coordinates":[[[-0.3006389,51.7483373],[-0.3005741,51.7483834],[-0.3005162,51.7484239]]]}},
{"type":"Feature","properties":{"highway":"footway","name":null,"category":"Footpath (pedestrian only)"},"geometry":{"type":"MultiLineString","coordinates":[[[-0.305382,51.7500314],[-0.305406,51.7500283],[-0.3054349,51.7501329],[-0.3054694,51.7501298],[-0.3055596,51.7501215],[-0.3056052,51.7501174],[-0.3055955,51.7500586]]]}},
{"type":"Feature","properties":{"highway":"footway","name":null,"category":"Footpath (pedestrian only)"},"geometry":{"type":"MultiLineString","coordinates":[[[-0.2931022,51.751476],[-0.2930834,51.7515217],[-0.2930616,51.7515744]]]}},
{"type":"Feature","properties":{"highway":"footway","name":null,"category":"Footpath (pedestrian only)"},"geometry":{"type":"MultiLineString","coordinates":[[[-0.3022839,51.7437654],[-0.3022586,51.7437683]]]}},
{"type":"Feature","properties":{"highway":"footway","name":null,"category":"Footpath (pedestrian only)"},"geometry":{"type":"MultiLineString","coordinates":[[[-0.3043019,51.7460903],[-0.3042943,51.7460248],[-0.3042876,51.7459675]]]}},
{"type":"Feature","properties":{"highway":"footway","name":null,"category":"Footpath (pedestrian only)"},"geometry":{"type":"MultiLineString","coordinates":[[[-0.3042876,51.7459675],[-0.304243,51.745958],[-0.3041715,51.7457783],[-0.3041541,51.7457506],[-0.3041352,51.7457241],[-0.3041307,51.7456834]]]}},
{"type":"Feature","properties":{"highway":"footway","name":null,"category":"Footpath (pedestrian only)"},"geometry":{"type":"MultiLineString","coordinates":[[[-0.3043019,51.7460903],[-0.3042756,51.7461032],[-0.3042746,51.7461467]]]}},
{"type":"Feature","properties":{"highway":"footway","name":null,"category":"Footpath (pedestrian only)"},"geometry":{"type":"MultiLineString","coordinates":[[[-0.304313,51.7456414],[-0.3041489,51.7456834],[-0.3041307,51.7456834]]]}},
{"type":"Feature","properties":{"highway":"track","name":null,"category":"Track"},"geometry":{"type":"MultiLineString","coordinates":[[[-0.2934271,51.7463628],[-0.2922743,51.7452925]]]}},
{"type":"Feature","properties":{"highway":"footway","name":null,"category":"Footpath (pedestrian only)"},"geometry":{"type":"MultiLineString","coordinates":[[[-0.304005,51.7450872],[-0.3040147,51.7450481],[-0.3040216,51.7450204]]]}},
{"type":"Feature","properties":{"highway":"footway","name":null,"category":"Footpath (pedestrian only)"},"geometry":{"type":"MultiLineString","coordinates":[[[-0.3041972,51.7449896],[-0.3041884,51.7450153],[-0.3041758,51.745052]]]}},
{"type":"Feature","properties":{"highway":"footway","name":null,"category":"Footpath (pedestrian only)"},"geometry":{"type":"MultiLineString","coordinates":[[[-0.3022699,51.7455179],[-0.3020865,51.7455245]]]}},
{"type":"Feature","properties":{"highway":"footway","name":null,"category":"Footpath (pedestrian only)"},"geometry":{"type":"MultiLineString","coordinates":[[[-0.3020865,51.7455245],[-0.3020875,51.7455299],[-0.3021086,51.7456252],[-0.3021267,51.7456509],[-0.3021582,51.7456746],[-0.3021844,51.7456854],[-0.302186,51.7457586],[-0.3021904,51.7458033],[-0.3021415,51.7458074],[-0.3020898,51.7458168],[-0.3020349,51.7458382],[-0.3019862,51.7458672],[-0.301948,51.7458926],[-0.3018819,51.7458713]]]}},
{"type":"Feature","properties":{"highway":"footway","name":null,"category":"Footpath (pedestrian only)"},"geometry":{"type":"MultiLineString","coordinates":[[[-0.3020875,51.7455299],[-0.301998,51.7455358],[-0.3019107,51.7455407]]]}},
{"type":"Feature","properties":{"highway":"path","name":null,"category":"Shared path"},"geometry":{"type":"MultiLineString","coordinates":[[[-0.3019071,51.7454836],[-0.301747,51.7454759],[-0.3014717,51.7454429]]]}},
{"type":"Feature","properties":{"highway":"footway","name":null,"category":"Footpath (pedestrian only)"},"geometry":{"type":"MultiLineString","coordinates":[[[-0.2999417,51.7480201],[-0.2997526,51.74791]]]}},
{"type":"Feature","properties":{"highway":"footway","name":null,"category":"Footpath (pedestrian only)"},"geometry":{"type":"MultiLineString","coordinates":[[[-0.2999984,51.7470446],[-0.2994338,51.7471227],[-0.2991461,51.747179]]]}},
{"type":"Feature","properties":{"highway":"footway","name":null,"category":"Footpath (pedestrian only)"},"geometry":{"type":"MultiLineString","coordinates":[[[-0.2982325,51.7474868],[-0.2982824,51.7474256]]]}},
{"type":"Feature","properties":{"highway":"footway","name":null,"category":"Footpath (pedestrian only)"},"geometry":{"type":"MultiLineString","coordinates":[[[-0.2982824,51.7474256],[-0.2981021,51.7473718],[-0.2976535,51.7473195],[-0.2975943,51.7472868]]]}},
{"type":"Feature","properties":{"highway":"path","name":null,"category":"Shared path"},"geometry":{"type":"MultiLineString","coordinates":[[[-0.3003746,51.7450481],[-0.3004721,51.7450606]]]}},
{"type":"Feature","properties":{"highway":"footway","name":null,"category":"Footpath (pedestrian only)"},"geometry":{"type":"MultiLineString","coordinates":[[[-0.3006509,51.7447682],[-0.3005844,51.7447857],[-0.3005958,51.7448098],[-0.3005677,51.7448226],[-0.3005174,51.7448513],[-0.3004833,51.744892],[-0.3004671,51.7449136],[-0.3004611,51.7449509],[-0.3004751,51.7450423],[-0.3004721,51.7450606],[-0.3004691,51.7450792],[-0.3004376,51.7451216],[-0.300394,51.7451511],[-0.3003383,51.7451714],[-0.3000022,51.7452335],[-0.2998767,51.7452721],[-0.2998233,51.7452992],[-0.2997489,51.7453744],[-0.2996698,51.7454778],[-0.2996396,51.7455409],[-0.2995876,51.7455959]]]}},
{"type":"Feature","properties":{"highway":"path","name":null,"category":"Shared path"},"geometry":{"type":"MultiLineString","coordinates":[[[-0.2959717,51.7456547],[-0.2959466,51.7456673],[-0.2959191,51.7456686],[-0.2958278,51.7456556]]]}},
{"type":"Feature","properties":{"highway":"footway","name":null,"category":"Footpath (pedestrian only)"},"geometry":{"type":"MultiLineString","coordinates":[[[-0.2977534,51.7489817],[-0.2977582,51.7489386],[-0.2977628,51.7488975],[-0.2976253,51.7488593],[-0.2975998,51.7488418],[-0.2975784,51.748809],[-0.2975289,51.7488118],[-0.297465,51.7488153],[-0.2972565,51.7489],[-0.2972196,51.7489012],[-0.2972189,51.7489391],[-0.2972183,51.7489772],[-0.2974496,51.7489822],[-0.2975412,51.7489833],[-0.2976213,51.7489842],[-0.2977534,51.7489817]]]}},
{"type":"Feature","properties":{"highway":"footway","name":null,"category":"Footpath (pedestrian only)"},"geometry":{"type":"MultiLineString","coordinates":[[[-0.3081751,51.7453018],[-0.308102,51.745269],[-0.3080772,51.7452416],[-0.3079602,51.7452004]]]}},
{"type":"Feature","properties":{"highway":"footway","name":null,"category":"Footpath (pedestrian only)"},"geometry":{"type":"MultiLineString","coordinates":[[[-0.3092783,51.7446535],[-0.3091293,51.7446782],[-0.3090207,51.7447126],[-0.3088677,51.7448281],[-0.3086981,51.7449779],[-0.3086115,51.7450308]]]}},
{"type":"Feature","properties":{"highway":"footway","name":null,"category":"Footpath (pedestrian only)"},"geometry":{"type":"MultiLineString","coordinates":[[[-0.2944357,51.7492489],[-0.2944538,51.7490988],[-0.294463,51.749022],[-0.2943798,51.7489797],[-0.2944073,51.7489519],[-0.2944375,51.7489216],[-0.2946494,51.7489315],[-0.2950216,51.7489216]]]}},
{"type":"Feature","properties":{"highway":"footway","name":null,"category":"Footpath (pedestrian only)"},"geometry":{"type":"MultiLineString","coordinates":[[[-0.3000916,51.7488496],[-0.2999018,51.7489175],[-0.2998002,51.748934],[-0.2996172,51.7489375],[-0.2993051,51.7489291],[-0.2991632,51.7489224],[-0.2988692,51.7489208],[-0.2984052,51.7489075],[-0.2982919,51.74891]]]}},
{"type":"Feature","properties":{"highway":"footway","name":null,"category":"Footpath (pedestrian only)"},"geometry":{"type":"MultiLineString","coordinates":[[[-0.2982919,51.74891],[-0.297909,51.7489059],[-0.2977628,51.7488975]]]}},
{"type":"Feature","properties":{"highway":"footway","name":null,"category":"Footpath (pedestrian only)"},"geometry":{"type":"MultiLineString","coordinates":[[[-0.2950216,51.7489216],[-0.2954777,51.7489122],[-0.2959069,51.7489073],[-0.2959905,51.7488713],[-0.2959938,51.7488534],[-0.2960643,51.7488557],[-0.2961054,51.7488541],[-0.2961134,51.7488691],[-0.2961939,51.7488973],[-0.2972196,51.7489012]]]}},
{"type":"Feature","properties":{"highway":"path","name":null,"category":"Shared path"},"geometry":{"type":"MultiLineString","coordinates":[[[-0.2943798,51.7489797],[-0.2944538,51.7490988]]]}},
{"type":"Feature","properties":{"highway":"footway","name":null,"category":"Footpath (pedestrian only)"},"geometry":{"type":"MultiLineString","coordinates":[[[-0.2885399,51.7501216],[-0.2884387,51.7501392],[-0.2884347,51.7501292],[-0.288493,51.7500785],[-0.2885175,51.750074]]]}},
{"type":"Feature","properties":{"highway":"footway","name":null,"category":"Footpath (pedestrian only)"},"geometry":{"type":"MultiLineString","coordinates":[[[-0.292161,51.7498037],[-0.2917063,51.7499112],[-0.2916126,51.7499226]]]}},
{"type":"Feature","properties":{"highway":"footway","name":null,"category":"Footpath (pedestrian only)"},"geometry":{"type":"MultiLineString","coordinates":[[[-0.2945327,51.7506205],[-0.2944589,51.7505335],[-0.2942538,51.7503426],[-0.2942893,51.7503334],[-0.2942464,51.750267],[-0.2943798,51.7502363]]]}}
]
}
