{
"type": "FeatureCollection",
"name": "EASSU_144_walking",
"crs": { "type": "name", "properties": { "name": "urn:ogc:def:crs:OGC:1.3:CRS84" } },
"features": [
{"type":"Feature","properties":{"highway":"footway","name":null,"category":"Footpath (pedestrian only)"},"geometry":{"type":"MultiLineString","coordinates":[[[1.3665295,51.9670527],[1.3661805,51.9671859],[1.365981,51.9675136],[1.3653993,51.9677081],[1.3651832,51.9679027],[1.3652064,51.9681543],[1.3655585,51.9682657]]]}},
{"type":"Feature","properties":{"highway":"bridleway","name":"Quintons Lane","category":"Bridleway"},"geometry":{"type":"MultiLineString","coordinates":[[[1.3617983,51.9697797],[1.3613834,51.9697148],[1.361291,51.9697091],[1.3612177,51.9697138],[1.3611417,51.9697345],[1.3610072,51.9698116],[1.360826,51.9699829],[1.3606913,51.9700863],[1.3605749,51.9702244],[1.3604753,51.9703944],[1.3603825,51.9705482],[1.3602092,51.9707372],[1.3600744,51.970902],[1.3599855,51.9709898],[1.3596955,51.9713232],[1.3595596,51.971502],[1.3588358,51.9722367]]]}},
{"type":"Feature","properties":{"highway":"bridleway","name":null,"category":"Bridleway"},"geometry":{"type":"MultiLineString","coordinates":[[[1.3617983,51.9697797],[1.3626883,51.9699275],[1.3628884,51.9699035],[1.3630692,51.9698493],[1.3635529,51.9697208]]]}},
{"type":"Feature","properties":{"highway":"footway","name":null,"category":"Footpath (pedestrian only)"},"geometry":{"type":"MultiLineString","coordinates":[[[1.3643353,51.9708918],[1.3643227,51.9709094],[1.3641129,51.9708623],[1.3640748,51.9709184]]]}},
{"type":"Feature","properties":{"highway":"footway","name":null,"category":"Footpath (pedestrian only)"},"geometry":{"type":"MultiLineString","coordinates":[[[1.3562766,51.961133],[1.3569306,51.9612746],[1.3572556,51.9613517],[1.3576187,51.9614127],[1.3576818,51.9614227],[1.3579064,51.961459],[1.3581523,51.9615059],[1.3582059,51.9615982],[1.3582131,51.9616325],[1.3582444,51.9616504],[1.3584551,51.9616469],[1.3586701,51.9617119],[1.3588092,51.9617487],[1.3592167,51.9618538],[1.3593213,51.9618796],[1.3593763,51.961904],[1.3594828,51.9619021],[1.359585,51.9619044],[1.3595765,51.9619351],[1.3597778,51.9619843],[1.3600442,51.962068],[1.3601352,51.9619349]]]}},
{"type":"Feature","properties":{"highway":"footway","name":null,"category":"Footpath (pedestrian only)"},"geometry":{"type":"MultiLineString","coordinates":[[[1.3529134,51.9606875],[1.3531065,51.9607267]]]}},
{"type":"Feature","properties":{"highway":"footway","name":null,"category":"Footpath (pedestrian only)"},"geometry":{"type":"MultiLineString","coordinates":[[[1.3595975,51.9617869],[1.3596519,51.9618824],[1.359585,51.9619044]]]}},
{"type":"Feature","properties":{"highway":"footway","name":null,"category":"Footpath (pedestrian only)"},"geometry":{"type":"MultiLineString","coordinates":[[[1.3593692,51.9616526],[1.3593274,51.9617166]]]}},
{"type":"Feature","properties":{"highway":"footway","name":null,"category":"Footpath (pedestrian only)"},"geometry":{"type":"MultiLineString","coordinates":[[[1.3582543,51.9613553],[1.3581523,51.9615059]]]}},
{"type":"Feature","properties":{"highway":"footway","name":null,"category":"Footpath (pedestrian only)"},"geometry":{"type":"MultiLineString","coordinates":[[[1.3576928,51.961256],[1.3576472,51.9613548],[1.3576187,51.9614127]]]}},
{"type":"Feature","properties":{"highway":"footway","name":null,"category":"Footpath (pedestrian only)"},"geometry":{"type":"MultiLineString","coordinates":[[[1.3564009,51.9610291],[1.3562766,51.961133]]]}},
{"type":"Feature","properties":{"highway":"track","name":null,"category":"Track"},"geometry":{"type":"MultiLineString","coordinates":[[[1.3670266,51.9638074],[1.3674198,51.9637819]]]}},
{"type":"Feature","properties":{"highway":"footway","name":null,"category":"Footpath (pedestrian only)"},"geometry":{"type":"MultiLineString","coordinates":[[[1.3569306,51.9612746],[1.3569773,51.9612144],[1.3570035,51.9611382]]]}},
{"type":"Feature","properties":{"highway":"footway","name":null,"category":"Footpath (pedestrian only)"},"geometry":{"type":"MultiLineString","coordinates":[[[1.3562766,51.961133],[1.3562187,51.9611188]]]}},
{"type":"Feature","properties":{"highway":"footway","name":null,"category":"Footpath (pedestrian only)"},"geometry":{"type":"MultiLineString","coordinates":[[[1.3606316,51.9681345],[1.3608261,51.965996]]]}},
{"type":"Feature","properties":{"highway":"footway","name":null,"category":"Footpath (pedestrian only)"},"geometry":{"type":"MultiLineString","coordinates":[[[1.3593106,51.9670233],[1.3592336,51.9669508],[1.3591831,51.9662627]]]}},
{"type":"Feature","properties":{"highway":"footway","name":null,"category":"Footpath (pedestrian only)"},"geometry":{"type":"MultiLineString","coordinates":[[[1.3634501,51.9701447],[1.3634082,51.9700956],[1.3633248,51.9700706],[1.3630741,51.9700469],[1.3627566,51.9699675],[1.3626883,51.9699275]]]}},
{"type":"Feature","properties":{"highway":"footway","name":null,"category":"Footpath (pedestrian only)"},"geometry":{"type":"MultiLineString","coordinates":[[[1.3660319,51.9706081],[1.3647852,51.9704587],[1.3634501,51.9701447]]]}},
{"type":"Feature","properties":{"highway":"footway","name":null,"category":"Footpath (pedestrian only)"},"geometry":{"type":"MultiLineString","coordinates":[[[1.3586455,51.9617527],[1.3586703,51.9617514]]]}},
{"type":"Feature","properties":{"highway":"footway","name":null,"category":"Footpath (pedestrian only)"},"geometry":{"type":"MultiLineString","coordinates":[[[1.3598663,51.9618596],[1.3597778,51.9619843],[1.3597149,51.9620757]]]}},
{"type":"Feature","properties":{"highway":"footway","name":null,"category":"Footpath (pedestrian only)"},"geometry":{"type":"MultiLineString","coordinates":[[[1.3586348,51.9616074],[1.3586568,51.9615949],[1.3586961,51.9615941],[1.3587201,51.9616087],[1.3587189,51.9616301]]]}},
{"type":"Feature","properties":{"highway":"footway","name":null,"category":"Footpath (pedestrian only)"},"geometry":{"type":"MultiLineString","coordinates":[[[1.3544149,51.960722],[1.3543479,51.9607073],[1.3543143,51.9607098],[1.3542835,51.9607205],[1.354203,51.9608387],[1.3541722,51.9608313],[1.3540247,51.9607619],[1.3539655,51.9607233]]]}},
{"type":"Feature","properties":{"highway":"footway","name":null,"category":"Footpath (pedestrian only)"},"geometry":{"type":"MultiLineString","coordinates":[[[1.3601352,51.9619349],[1.3601749,51.9618708]]]}},
{"type":"Feature","properties":{"highway":"footway","name":null,"category":"Footpath (pedestrian only)"},"geometry":{"type":"MultiLineString","coordinates":[[[1.3576818,51.9614227],[1.3577516,51.9615131]]]}},
{"type":"Feature","properties":{"highway":"footway","name":null,"category":"Footpath (pedestrian only)"},"geometry":{"type":"MultiLineString","coordinates":[[[1.353219,51.9602676],[1.3531245,51.9603995]]]}},
{"type":"Feature","properties":{"highway":"footway","name":null,"category":"Footpath (pedestrian only)"},"geometry":{"type":"MultiLineString","coordinates":[[[1.3588209,51.9616578],[1.3588352,51.9616444],[1.3588821,51.9616568],[1.3588982,51.9616552],[1.358921,51.9616568],[1.3589385,51.9616651],[1.3589492,51.9616783],[1.3589935,51.9616924],[1.3589867,51.9617048]]]}},
{"type":"Feature","properties":{"highway":"footway","name":null,"category":"Footpath (pedestrian only)"},"geometry":{"type":"MultiLineString","coordinates":[[[1.3535888,51.96088],[1.3537511,51.9609057],[1.353842,51.9609277],[1.3538876,51.9609624],[1.3539305,51.9610103],[1.3539761,51.9610533],[1.3540217,51.9610764],[1.3542933,51.9611447],[1.3544439,51.9611803],[1.354493,51.9611894],[1.3549658,51.9612863],[1.3550463,51.9612979],[1.3553091,51.9613491],[1.3556927,51.9614153],[1.355926,51.9614516],[1.3560548,51.9614681],[1.3561484,51.9614688]]]}},
{"type":"Feature","properties":{"highway":"footway","name":null,"category":"Footpath (pedestrian only)"},"geometry":{"type":"MultiLineString","coordinates":[[[1.3569773,51.9612144],[1.3571466,51.961252],[1.3571815,51.9612354],[1.3572512,51.9612371],[1.357321,51.961252],[1.3573773,51.9612685],[1.3574144,51.9612857],[1.357455,51.9613144],[1.3576472,51.9613548]]]}},
{"type":"Feature","properties":{"highway":"footway","name":null,"category":"Footpath (pedestrian only)"},"geometry":{"type":"MultiLineString","coordinates":[[[1.3539132,51.960638],[1.3537229,51.9606291],[1.3536353,51.9606407],[1.3535615,51.9606404],[1.3535003,51.960626],[1.3533703,51.9605721],[1.353287,51.9604634],[1.3532632,51.9604342]]]}},
{"type":"Feature","properties":{"highway":"footway","name":null,"category":"Footpath (pedestrian only)"},"geometry":{"type":"MultiLineString","coordinates":[[[1.35519,51.9608712],[1.3552047,51.9609335],[1.3552879,51.9610183],[1.3553403,51.9610607],[1.3554234,51.9610759],[1.3554824,51.9610763],[1.3555616,51.9611147],[1.35565,51.9611147],[1.3557866,51.9610645],[1.355835,51.961018]]]}},
{"type":"Feature","properties":{"highway":"footway","name":null,"category":"Footpath (pedestrian only)"},"geometry":{"type":"MultiLineString","coordinates":[[[1.3595765,51.9619351],[1.3594923,51.9619584],[1.3594776,51.9619997],[1.3595058,51.9620287],[1.3597149,51.9620757],[1.3599815,51.962154],[1.3600442,51.962068]]]}},
{"type":"Feature","properties":{"highway":"footway","name":null,"category":"Footpath (pedestrian only)"},"geometry":{"type":"MultiLineString","coordinates":[[[1.3593274,51.9617166],[1.3593079,51.9617915],[1.3592167,51.9618538]]]}},
{"type":"Feature","properties":{"highway":"footway","name":null,"category":"Footpath (pedestrian only)"},"geometry":{"type":"MultiLineString","coordinates":[[[1.3592651,51.9619613],[1.3591876,51.9619225],[1.3591707,51.9619001]]]}},
{"type":"Feature","properties":{"highway":"footway","name":null,"category":"Footpath (pedestrian only)"},"geometry":{"type":"MultiLineString","coordinates":[[[1.3588908,51.9617077],[1.3588092,51.9617487]]]}},
{"type":"Feature","properties":{"highway":"footway","name":null,"category":"Footpath (pedestrian only)"},"geometry":{"type":"MultiLineString","coordinates":[[[1.3572807,51.9613062],[1.3572556,51.9613517]]]}},
{"type":"Feature","properties":{"highway":"footway","name":null,"category":"Footpath (pedestrian only)"},"geometry":{"type":"MultiLineString","coordinates":[[[1.3589569,51.9616118],[1.358921,51.9616568]]]}},
{"type":"Feature","properties":{"highway":"footway","name":null,"category":"Footpath (pedestrian only)"},"geometry":{"type":"MultiLineString","coordinates":[[[1.3585534,51.9615057],[1.3584984,51.9615785],[1.3584551,51.9616469]]]}},
{"type":"Feature","properties":{"highway":"footway","name":null,"category":"Footpath (pedestrian only)"},"geometry":{"type":"MultiLineString","coordinates":[[[1.3562766,51.961133],[1.3562981,51.9611758],[1.3564292,51.9612806],[1.356385,51.9613077]]]}},
{"type":"Feature","properties":{"highway":"footway","name":null,"category":"Footpath (pedestrian only)"},"geometry":{"type":"MultiLineString","coordinates":[[[1.3593729,51.9617286],[1.3593803,51.9617306],[1.3595975,51.9617869],[1.359641,51.9618051],[1.3598663,51.9618596],[1.3601352,51.9619349]]]}},
{"type":"Feature","properties":{"highway":"footway","name":null,"category":"Footpath (pedestrian only)"},"geometry":{"type":"MultiLineString","coordinates":[[[1.3602333,51.9621382],[1.3603721,51.9621214]]]}},
{"type":"Feature","properties":{"highway":"footway","name":null,"category":"Footpath (pedestrian only)"},"geometry":{"type":"MultiLineString","coordinates":[[[1.3605448,51.9619705],[1.3604578,51.9621103],[1.3603721,51.9621214],[1.360309,51.9622139]]]}},
{"type":"Feature","properties":{"highway":"footway","name":null,"category":"Footpath (pedestrian only)"},"geometry":{"type":"MultiLineString","coordinates":[[[1.3560738,51.9609617],[1.356146,51.9610417],[1.3562187,51.9611188]]]}},
{"type":"Feature","properties":{"highway":"footway","name":null,"category":"Footpath (pedestrian only)"},"geometry":{"type":"MultiLineString","coordinates":[[[1.3584984,51.9615785],[1.3586348,51.9616074],[1.3586367,51.9616329],[1.3586568,51.9616453],[1.3586904,51.9616469],[1.3587189,51.9616301],[1.3588209,51.9616578],[1.3588124,51.9616734],[1.3588674,51.9616907],[1.3588781,51.9617031],[1.3588908,51.9617077],[1.3589009,51.9617114],[1.3589291,51.9617064],[1.3589774,51.961718],[1.3589867,51.9617048],[1.3590954,51.9617304],[1.359094,51.9617502],[1.3591115,51.9617659],[1.359141,51.9617692],[1.3591758,51.961756],[1.3593079,51.9617915]]]}},
{"type":"Feature","properties":{"highway":"footway","name":null,"category":"Footpath (pedestrian only)"},"geometry":{"type":"MultiLineString","coordinates":[[[1.3571466,51.961252],[1.3571815,51.9612792],[1.3572807,51.9613062],[1.3573531,51.9613229],[1.3574089,51.961321],[1.357455,51.9613144]]]}},
{"type":"Feature","properties":{"highway":"footway","name":null,"category":"Footpath (pedestrian only)"},"geometry":{"type":"MultiLineString","coordinates":[[[1.3590954,51.9617304],[1.3591175,51.9617184],[1.359137,51.9617171],[1.3591584,51.9617192],[1.3591725,51.9617262],[1.3591792,51.961739],[1.3591758,51.961756]]]}},
{"type":"Feature","properties":{"highway":"footway","name":null,"category":"Footpath (pedestrian only)"},"geometry":{"type":"MultiLineString","coordinates":[[[1.3586701,51.9617119],[1.3586636,51.9617324],[1.3586703,51.9617514],[1.3586978,51.9617676],[1.3589747,51.9618853],[1.3590283,51.9619014],[1.3590807,51.9619039],[1.3591251,51.961902],[1.3591707,51.9619001],[1.3591927,51.9618834],[1.3592167,51.9618538]]]}},
{"type":"Feature","properties":{"highway":"footway","name":null,"category":"Footpath (pedestrian only)"},"geometry":{"type":"MultiLineString","coordinates":[[[1.3543143,51.9607098],[1.3543356,51.9607295]]]}},
{"type":"Feature","properties":{"highway":"footway","name":null,"category":"Footpath (pedestrian only)"},"geometry":{"type":"MultiLineString","coordinates":[[[1.3562187,51.9611188],[1.3560646,51.9610697],[1.3559902,51.9610515]]]}},
{"type":"Feature","properties":{"highway":"footway","name":null,"category":"Footpath (pedestrian only)"},"geometry":{"type":"MultiLineString","coordinates":[[[1.3531426,51.9606715],[1.3533194,51.9607579],[1.3535602,51.9607925],[1.353846,51.9608069],[1.3539829,51.9608384],[1.3540296,51.9608752],[1.3540483,51.9609313],[1.354086,51.9609867],[1.3545281,51.9611192]]]}},
{"type":"Feature","properties":{"highway":"footway","name":null,"category":"Footpath (pedestrian only)"},"geometry":{"type":"MultiLineString","coordinates":[[[1.3594258,51.9618073],[1.3594427,51.9618072],[1.3594762,51.9618171],[1.3594856,51.961832],[1.3594816,51.9618427],[1.3594588,51.9618584],[1.3594346,51.9618601],[1.3594038,51.961851],[1.3593917,51.9618353],[1.3593984,51.9618204],[1.3594258,51.9618073]]]}},
{"type":"Feature","properties":{"highway":"footway","name":null,"category":"Footpath (pedestrian only)"},"geometry":{"type":"MultiLineString","coordinates":[[[1.3572835,51.9613941],[1.3572446,51.9613883],[1.3571937,51.9613883],[1.3567283,51.9613164],[1.356668,51.9613139],[1.3566063,51.9613213]]]}},
{"type":"Feature","properties":{"highway":"footway","name":null,"category":"Footpath (pedestrian only)"},"geometry":{"type":"MultiLineString","coordinates":[[[1.3566063,51.9613213],[1.3565564,51.9613326],[1.356507,51.9613168],[1.3564292,51.9612806]]]}},
{"type":"Feature","properties":{"highway":"footway","name":null,"category":"Footpath (pedestrian only)"},"geometry":{"type":"MultiLineString","coordinates":[[[1.3594762,51.9618171],[1.3595975,51.9617869]]]}},
{"type":"Feature","properties":{"highway":"footway","name":null,"category":"Footpath (pedestrian only)"},"geometry":{"type":"MultiLineString","coordinates":[[[1.3594588,51.9618584],[1.3594828,51.9619021]]]}},
{"type":"Feature","properties":{"highway":"footway","name":null,"category":"Footpath (pedestrian only)"},"geometry":{"type":"MultiLineString","coordinates":[[[1.3594038,51.961851],[1.3593213,51.9618796]]]}},
{"type":"Feature","properties":{"highway":"footway","name":null,"category":"Footpath (pedestrian only)"},"geometry":{"type":"MultiLineString","coordinates":[[[1.3594258,51.9618073],[1.3593803,51.9617306]]]}},
{"type":"Feature","properties":{"highway":"footway","name":null,"category":"Footpath (pedestrian only)"},"geometry":{"type":"MultiLineString","coordinates":[[[1.3571276,51.9661627],[1.3569965,51.9662759],[1.3568624,51.9662974],[1.3567766,51.9662776],[1.3567605,51.9662247],[1.3568222,51.9661668],[1.3568812,51.9660958],[1.3568651,51.9660231],[1.3568517,51.965995],[1.3568566,51.9659706],[1.3567922,51.9659541],[1.3566742,51.965964],[1.3565835,51.9659834],[1.3563743,51.966033],[1.3562562,51.9660379],[1.3562241,51.9660297],[1.3562053,51.9660115],[1.3562075,51.9659772],[1.3562826,51.9659409],[1.3563791,51.9659177],[1.3565293,51.965921],[1.3566634,51.9658913],[1.3568088,51.9658529],[1.357018,51.9658215],[1.3571414,51.9658049],[1.357187,51.9658115],[1.3572705,51.965865]]]}},
{"type":"Feature","properties":{"highway":"footway","name":null,"category":"Footpath (pedestrian only)"},"geometry":{"type":"MultiLineString","coordinates":[[[1.3572969,51.9658545],[1.3572705,51.965865],[1.3571226,51.9659239],[1.3570636,51.966033],[1.3570824,51.9661288],[1.3571276,51.9661627],[1.3572326,51.9662412],[1.3574418,51.9662429],[1.3575732,51.9662131],[1.3576429,51.9661255],[1.3576349,51.9660214],[1.3576022,51.9659706],[1.3575486,51.965921],[1.3575003,51.9658913],[1.3574091,51.9658615],[1.3573394,51.9658648],[1.3572705,51.965865]]]}},
{"type":"Feature","properties":{"highway":"footway","name":null,"category":"Footpath (pedestrian only)"},"geometry":{"type":"MultiLineString","coordinates":[[[1.3575003,51.9658913],[1.3575389,51.9658533],[1.3578507,51.9655108]]]}},
{"type":"Feature","properties":{"highway":"footway","name":null,"category":"Footpath (pedestrian only)"},"geometry":{"type":"MultiLineString","coordinates":[[[1.3588472,51.9619328],[1.3588543,51.9618985],[1.3584654,51.9617993],[1.3582642,51.9617183],[1.3582186,51.9616737],[1.3582131,51.9616325]]]}},
{"type":"Feature","properties":{"highway":"track","name":null,"category":"Track"},"geometry":{"type":"MultiLineString","coordinates":[[[1.3608261,51.965996],[1.3602785,51.9644107]]]}},
{"type":"Feature","properties":{"highway":"footway","name":null,"category":"Footpath (pedestrian only)"},"geometry":{"type":"MultiLineString","coordinates":[[[1.3530472,51.9604879],[1.3530671,51.9604295],[1.3531245,51.9603995]]]}},
{"type":"Feature","properties":{"highway":"footway","name":null,"category":"Footpath (pedestrian only)"},"geometry":{"type":"MultiLineString","coordinates":[[[1.3539761,51.9610533],[1.3538795,51.9610351],[1.3535711,51.960964],[1.3534691,51.9609343],[1.353268,51.9608831],[1.3529783,51.9607988],[1.3528526,51.960759]]]}},
{"type":"Feature","properties":{"highway":"footway","name":null,"category":"Footpath (pedestrian only)"},"geometry":{"type":"MultiLineString","coordinates":[[[1.3550463,51.9612979],[1.355108,51.9612764],[1.355175,51.9612335],[1.3552099,51.9612417],[1.3553333,51.9612566],[1.3554406,51.9612781],[1.3555157,51.9613095],[1.3556578,51.9613376],[1.3557812,51.9613508],[1.3558644,51.961369],[1.3561484,51.9614688],[1.3562452,51.9615029],[1.3562291,51.9615389],[1.3562177,51.9615642]]]}},
{"type":"Feature","properties":{"highway":"footway","name":null,"category":"Footpath (pedestrian only)"},"geometry":{"type":"MultiLineString","coordinates":[[[1.3544991,51.9611806],[1.354493,51.9611894]]]}},
{"type":"Feature","properties":{"highway":"footway","name":null,"category":"Footpath (pedestrian only)"},"geometry":{"type":"MultiLineString","coordinates":[[[1.3544439,51.9611803],[1.3544211,51.9612566]]]}},
{"type":"Feature","properties":{"highway":"footway","name":null,"category":"Footpath (pedestrian only)"},"geometry":{"type":"MultiLineString","coordinates":[[[1.3523081,51.9603754],[1.3529867,51.9605408],[1.3532096,51.9605976],[1.3533601,51.9606764],[1.3534606,51.9606961],[1.3535071,51.960707],[1.3537376,51.9607002],[1.3538919,51.9607337],[1.3539655,51.9607233],[1.3540867,51.960706],[1.3542771,51.9606461],[1.3543262,51.9606307]]]}},
{"type":"Feature","properties":{"highway":"path","name":null,"category":"Shared path"},"geometry":{"type":"MultiLineString","coordinates":[[[1.3641896,51.9633928],[1.3642972,51.9634284],[1.3643391,51.9634681],[1.3643323,51.9635267],[1.3643176,51.9635637],[1.3641262,51.9636565]]]}},
{"type":"Feature","properties":{"highway":"path","name":null,"category":"Shared path"},"geometry":{"type":"MultiLineString","coordinates":[[[1.36415,51.9633833],[1.3641896,51.9633928]]]}},
{"type":"Feature","properties":{"highway":"footway","name":null,"category":"Footpath (pedestrian only)"},"geometry":{"type":"MultiLineString","coordinates":[[[1.3584771,51.9614999],[1.3585534,51.9615057],[1.3589569,51.9616118],[1.359285,51.9617042],[1.3593274,51.9617166],[1.3593348,51.9617186]]]}},
{"type":"Feature","properties":{"highway":"footway","name":null,"category":"Footpath (pedestrian only)"},"geometry":{"type":"MultiLineString","coordinates":[[[1.3593348,51.9617186],[1.3593729,51.9617286]]]}},
{"type":"Feature","properties":{"highway":"path","name":null,"category":"Shared path"},"geometry":{"type":"MultiLineString","coordinates":[[[1.3540994,51.9605923],[1.3541915,51.9605881],[1.3542288,51.9605302]]]}},
{"type":"Feature","properties":{"highway":"pedestrian","name":null,"category":"Pedestrian area/street"},"geometry":{"type":"MultiLineString","coordinates":[[[1.3609643,51.9623636],[1.3610185,51.9622649],[1.3610409,51.9622115],[1.3610922,51.96214]]]}},
{"type":"Feature","properties":{"highway":"pedestrian","name":null,"category":"Pedestrian area/street"},"geometry":{"type":"MultiLineString","coordinates":[[[1.3674198,51.9637819],[1.3674805,51.9637787],[1.3677014,51.9637669],[1.368152,51.9638165],[1.3686077,51.9639228],[1.368946,51.9640512],[1.3693376,51.9642263],[1.3697021,51.9644119],[1.3700668,51.9646499],[1.3709174,51.9654377],[1.3709387,51.9654571]]]}},
{"type":"Feature","properties":{"highway":"pedestrian","name":"The Promenade","category":"Pedestrian area/street"},"geometry":{"type":"MultiLineString","coordinates":[[[1.3625957,51.9627838],[1.3610922,51.96214],[1.3609635,51.9620849],[1.3605448,51.9619705],[1.3602563,51.9618927],[1.3601749,51.9618708],[1.3596825,51.9617423],[1.3593692,51.9616526],[1.3582543,51.9613553],[1.3576928,51.961256],[1.3570035,51.9611382],[1.3564009,51.9610291],[1.3560738,51.9609617],[1.3543323,51.9605532],[1.3542288,51.9605302],[1.3540466,51.9604896],[1.353219,51.9602676],[1.3525367,51.9600997],[1.3524815,51.9600809],[1.3515351,51.9598318],[1.3510145,51.9597003],[1.3504996,51.9595666],[1.3499878,51.9594329],[1.3494739,51.9593053],[1.3493566,51.9592722],[1.3487283,51.9591001],[1.3478906,51.9588632],[1.347534,51.9587165],[1.3470319,51.9584871],[1.3465198,51.9582384],[1.3461983,51.9580664],[1.3458417,51.9578671],[1.3454151,51.9576274]]]}},
{"type":"Feature","properties":{"highway":"pedestrian","name":"The Promenade","category":"Pedestrian area/street"},"geometry":{"type":"MultiLineString","coordinates":[[[1.3625957,51.9627838],[1.363026,51.962945],[1.3634956,51.9630884],[1.3637254,51.9631476],[1.3640258,51.9632021],[1.3659758,51.9635492],[1.3672766,51.963764],[1.3674198,51.9637819]]]}}
]
}
