{
"type": "FeatureCollection",
"name": "EASSU_383_walking",
"crs": { "type": "name", "properties": { "name": "urn:ogc:def:crs:OGC:1.3:CRS84" } },
"features": [
{"type":"Feature","properties":{"highway":"track","name":null,"category":"Track"},"geometry":{"type":"MultiLineString","coordinates":[[[1.5223082,52.14145],[1.521869,52.1413319],[1.5214462,52.1412368],[1.5211711,52.1410749],[1.5208366,52.140816],[1.520174,52.1402438],[1.5194501,52.1395481],[1.5193515,52.1394534],[1.5190061,52.139455],[1.5185145,52.139557],[1.5180251,52.139588],[1.5174066,52.1395527],[1.5171988,52.1394805],[1.5163957,52.1389673],[1.516354,52.1389407],[1.5158277,52.1386488],[1.5157196,52.1386082],[1.5156273,52.1385815],[1.5154576,52.1384626],[1.5152485,52.138359],[1.5151757,52.1384025],[1.5151435,52.1384559]]]}},
{"type":"Feature","properties":{"highway":"track","name":null,"category":"Track"},"geometry":{"type":"MultiLineString","coordinates":[[[1.5200489,52.1280422],[1.5202264,52.1286694],[1.5203235,52.1291597],[1.5204194,52.1297986],[1.520457,52.13044],[1.5205041,52.1307072],[1.5206098,52.1309861],[1.520788,52.1312798],[1.5209278,52.1313543],[1.5214748,52.1315251],[1.5220242,52.1319486],[1.5222751,52.1321518],[1.5224697,52.1323833],[1.5227024,52.1327693],[1.5234641,52.1334495],[1.5235646,52.1336618],[1.5236622,52.1338153],[1.5240887,52.1341899],[1.5246251,52.1345577],[1.5251938,52.1349366],[1.5263986,52.1357624],[1.5269254,52.1361519],[1.5271196,52.1363803],[1.5271868,52.1364811],[1.5271586,52.1365829],[1.5266132,52.1368489]]]}},
{"type":"Feature","properties":{"highway":"track","name":null,"category":"Track"},"geometry":{"type":"MultiLineString","coordinates":[[[1.5053038,52.133283],[1.5053664,52.1334694],[1.5053395,52.1339806],[1.505318,52.1345277],[1.5054449,52.1349224],[1.505629,52.1350619],[1.5060195,52.1353181],[1.5063862,52.1355413],[1.5069355,52.1357849],[1.5078559,52.1360622],[1.5079704,52.1361263]]]}},
{"type":"Feature","properties":{"highway":"footway","name":null,"category":"Footpath (pedestrian only)"},"geometry":{"type":"MultiLineString","coordinates":[[[1.5087983,52.1345923],[1.5084927,52.1343524]]]}},
{"type":"Feature","properties":{"highway":"footway","name":null,"category":"Footpath (pedestrian only)"},"geometry":{"type":"MultiLineString","coordinates":[[[1.5062113,52.1338701],[1.5059505,52.1336829],[1.5056117,52.1334184],[1.5054249,52.1333348],[1.5053038,52.133283]]]}},
{"type":"Feature","properties":{"highway":"track","name":null,"category":"Track"},"geometry":{"type":"MultiLineString","coordinates":[[[1.5152485,52.138359],[1.5152747,52.1383443],[1.5155888,52.1381672],[1.5165459,52.1376379],[1.5167275,52.1375684],[1.5169645,52.1376339],[1.517156,52.1377574],[1.5172211,52.1378062],[1.5172891,52.1378729],[1.5175857,52.1380041],[1.5176282,52.1380301],[1.518015,52.1383251],[1.5185184,52.1385377],[1.5188858,52.1386896],[1.5191424,52.1388977],[1.5193012,52.139086],[1.5194083,52.1392971],[1.5193515,52.1394534]]]}},
{"type":"Feature","properties":{"highway":"track","name":null,"category":"Track"},"geometry":{"type":"MultiLineString","coordinates":[[[1.5120569,52.145707],[1.5121988,52.1453493],[1.5122187,52.1449696],[1.5122225,52.144224],[1.5122598,52.1434128],[1.5119894,52.1433695],[1.5118936,52.1433817],[1.5118038,52.1433577],[1.5117072,52.1432977],[1.5119315,52.1430075],[1.5121962,52.1426197],[1.5129501,52.1415684],[1.5149267,52.1387673],[1.5151435,52.1384559]]]}},
{"type":"Feature","properties":{"highway":"path","name":null,"category":"Shared path"},"geometry":{"type":"MultiLineString","coordinates":[[[1.5151435,52.1384559],[1.5113785,52.1362576],[1.5104715,52.1356398],[1.5099996,52.1354646],[1.509166,52.1348938],[1.5090281,52.1347684],[1.5087983,52.1345923]]]}},
{"type":"Feature","properties":{"highway":"track","name":null,"category":"Track"},"geometry":{"type":"MultiLineString","coordinates":[[[1.5144484,52.1320728],[1.5141389,52.1317593],[1.5135491,52.131132],[1.5128639,52.130561],[1.5135102,52.1301869],[1.5139012,52.129964],[1.5140761,52.1298016],[1.5138361,52.1295859],[1.5138305,52.1294956]]]}},
{"type":"Feature","properties":{"highway":"track","name":null,"category":"Track"},"geometry":{"type":"MultiLineString","coordinates":[[[1.5125319,52.1329663],[1.5123944,52.132845],[1.5116229,52.1316481],[1.5113881,52.1313881],[1.5114048,52.1312028],[1.5115784,52.1310973],[1.5128639,52.130561]]]}},
{"type":"Feature","properties":{"highway":"track","name":null,"category":"Track"},"geometry":{"type":"MultiLineString","coordinates":[[[1.5089929,52.1238845],[1.5106632,52.1245706],[1.5116876,52.1250412],[1.5126854,52.1256175],[1.51295,52.1255576],[1.5131823,52.1257192],[1.5133925,52.1258606],[1.5139621,52.1262054],[1.5142613,52.1263597],[1.5147341,52.1268141],[1.5156575,52.1276018],[1.5164279,52.1282461],[1.5171128,52.1286764],[1.5177413,52.1290151],[1.5180368,52.1291698]]]}},
{"type":"Feature","properties":{"highway":"track","name":null,"category":"Track"},"geometry":{"type":"MultiLineString","coordinates":[[[1.519227,52.1283196],[1.5195444,52.1280648],[1.519627,52.1279579],[1.519585,52.1278181],[1.5193585,52.1276841],[1.5191715,52.1276022],[1.5189952,52.1273763],[1.5177639,52.1270981],[1.5175983,52.1270929],[1.5166963,52.1270058],[1.516363,52.1269595],[1.5161923,52.1269358],[1.5156538,52.1269038],[1.5147341,52.1268141]]]}},
{"type":"Feature","properties":{"highway":"track","name":null,"category":"Track"},"geometry":{"type":"MultiLineString","coordinates":[[[1.5164999,52.1307207],[1.5168381,52.1301383]]]}},
{"type":"Feature","properties":{"highway":"track","name":null,"category":"Track"},"geometry":{"type":"MultiLineString","coordinates":[[[1.5141389,52.1317593],[1.5161085,52.1309282],[1.5164999,52.1307207],[1.5169408,52.1308735]]]}},
{"type":"Feature","properties":{"highway":"track","name":null,"category":"Track"},"geometry":{"type":"MultiLineString","coordinates":[[[1.5121376,52.1266795],[1.5120796,52.1266397],[1.5105919,52.1256993],[1.5099105,52.1252685]]]}},
{"type":"Feature","properties":{"highway":"track","name":null,"category":"Track"},"geometry":{"type":"MultiLineString","coordinates":[[[1.5157436,52.1254948],[1.515287,52.125763],[1.5147573,52.126059],[1.5142613,52.1263597],[1.5139163,52.1264211]]]}},
{"type":"Feature","properties":{"highway":"track","name":null,"category":"Track"},"geometry":{"type":"MultiLineString","coordinates":[[[1.51295,52.1255576],[1.5130434,52.1255009],[1.5133206,52.1253576],[1.5137669,52.1251268],[1.5143523,52.1248783],[1.516303,52.1245524],[1.5164751,52.1245204]]]}},
{"type":"Feature","properties":{"highway":"track","name":null,"category":"Track"},"geometry":{"type":"MultiLineString","coordinates":[[[1.5083746,52.1288531],[1.507993,52.1285157],[1.5068593,52.1273383],[1.5058384,52.1262512],[1.5056681,52.1260885],[1.5061302,52.1259326]]]}},
{"type":"Feature","properties":{"highway":"track","name":null,"category":"Track"},"geometry":{"type":"MultiLineString","coordinates":[[[1.5084347,52.1348739],[1.5083848,52.134857],[1.5083322,52.1348207],[1.508276,52.1347559],[1.5082048,52.1347267],[1.5081061,52.1346988]]]}},
{"type":"Feature","properties":{"highway":"track","name":null,"category":"Track"},"geometry":{"type":"MultiLineString","coordinates":[[[1.5084927,52.1343524],[1.509039,52.1341078],[1.5093113,52.1339843]]]}},
{"type":"Feature","properties":{"highway":"footway","name":null,"category":"Footpath (pedestrian only)"},"geometry":{"type":"MultiLineString","coordinates":[[[1.5084927,52.1343524],[1.508134,52.1345239],[1.5081061,52.1346988]]]}},
{"type":"Feature","properties":{"highway":"path","name":null,"category":"Shared path"},"geometry":{"type":"MultiLineString","coordinates":[[[1.5016201,52.1287975],[1.501973,52.1290648],[1.5022881,52.1293387],[1.5025189,52.1295724],[1.5025018,52.1298137],[1.5027077,52.1301814],[1.5029822,52.1306832],[1.5031133,52.1310777],[1.5032256,52.1313497],[1.5034377,52.131568],[1.5038167,52.1319635],[1.5048339,52.1326768],[1.5053517,52.1330005],[1.505665,52.133098],[1.5058856,52.1331441],[1.5060665,52.1331116],[1.5063356,52.133201],[1.506843,52.1334609],[1.5072225,52.1336803],[1.5075578,52.1339566],[1.5078358,52.1341543],[1.507999,52.1341299],[1.5081623,52.1340351],[1.5083123,52.1339078],[1.5084843,52.1338184],[1.5086564,52.1336966],[1.5086873,52.1335666],[1.5087623,52.1335178],[1.5088743,52.1335444],[1.5090226,52.1336587],[1.5091815,52.1337751],[1.5093403,52.1338645],[1.5093113,52.1339843]]]}},
{"type":"Feature","properties":{"highway":"path","name":null,"category":"Shared path"},"geometry":{"type":"MultiLineString","coordinates":[[[1.5009986,52.1366053],[1.5009484,52.1367044],[1.5009672,52.1367676],[1.5011107,52.136781],[1.5013197,52.1367791],[1.5016161,52.1367236],[1.5018407,52.1366776],[1.5021184,52.1366738],[1.5023898,52.1366719],[1.5025801,52.1367255],[1.502836,52.1366738],[1.5030606,52.1366546],[1.5031698,52.1366431],[1.5034943,52.1365397],[1.5039997,52.1365072],[1.5042555,52.1364517],[1.504867,52.1364804],[1.5051166,52.1365608],[1.5061025,52.1365914],[1.50682,52.136691],[1.5071382,52.1368787],[1.5072381,52.1370931],[1.5071258,52.1374378],[1.5068325,52.1379548],[1.5065018,52.138357],[1.5062522,52.1386518],[1.5059153,52.1390195],[1.5058131,52.1391925],[1.5057249,52.1393956],[1.5056102,52.1395472],[1.5053763,52.1395689],[1.5051734,52.1395743],[1.5049792,52.1395255],[1.504891,52.1395337],[1.5048027,52.1396312],[1.5048822,52.139707],[1.5048998,52.1398505],[1.504816,52.1399615],[1.5048777,52.1400969],[1.5048513,52.1402296],[1.504913,52.1402973],[1.5049086,52.1404571],[1.5049704,52.1405627],[1.5049439,52.1406737],[1.5048733,52.1407468],[1.5047983,52.140782],[1.5046307,52.1407414],[1.5044321,52.1407306],[1.5041762,52.1407116],[1.5038894,52.1407224],[1.5036468,52.140736],[1.5035188,52.1407387],[1.5032497,52.1406954],[1.5029187,52.1407143],[1.502654,52.1408416],[1.5024643,52.1408497],[1.5020981,52.1408741],[1.5018819,52.1409336],[1.5015775,52.140912],[1.5014407,52.1409093],[1.5012686,52.1409201],[1.5012147,52.1410679]]]}},
{"type":"Feature","properties":{"highway":"track","name":null,"category":"Track"},"geometry":{"type":"MultiLineString","coordinates":[[[1.5081061,52.1346988],[1.5081134,52.1347737],[1.5079903,52.1358116],[1.5079235,52.1359985],[1.5078559,52.1360622],[1.5076737,52.1360973],[1.5057191,52.1361922],[1.5020784,52.1362686]]]}},
{"type":"Feature","properties":{"highway":"track","name":null,"category":"Track"},"geometry":{"type":"MultiLineString","coordinates":[[[1.5081061,52.1346988],[1.5079408,52.1346718],[1.5074794,52.1346412],[1.5072816,52.134631]]]}},
{"type":"Feature","properties":{"highway":"path","name":null,"category":"Shared path"},"geometry":{"type":"MultiLineString","coordinates":[[[1.519227,52.1283196],[1.5192229,52.1283902],[1.5192309,52.128433],[1.5193248,52.1284693],[1.5193999,52.1285055],[1.5193895,52.1285806],[1.5192604,52.1286915],[1.5190202,52.1288955],[1.5188262,52.1290392],[1.5187565,52.1290639],[1.5186492,52.1291297],[1.5184721,52.1292187],[1.5183407,52.1292516],[1.5182263,52.129267]]]}},
{"type":"Feature","properties":{"highway":"footway","name":null,"category":"Footpath (pedestrian only)"},"geometry":{"type":"MultiLineString","coordinates":[[[1.5177413,52.1290151],[1.517866,52.1288581],[1.5178717,52.1288105],[1.5177988,52.1285707],[1.5177345,52.1282473],[1.5176586,52.127758],[1.517638,52.1275689],[1.5176472,52.1273338],[1.5176326,52.1271968],[1.5175983,52.1270929]]]}},
{"type":"Feature","properties":{"highway":"track","name":null,"category":"Track"},"geometry":{"type":"MultiLineString","coordinates":[[[1.5085203,52.1347656],[1.508363,52.1347399],[1.5081061,52.1346988]]]}},
{"type":"Feature","properties":{"highway":"track","name":null,"category":"Track"},"geometry":{"type":"MultiLineString","coordinates":[[[1.5072816,52.134631],[1.5068103,52.1346194],[1.5062025,52.1346869],[1.505908,52.1347912],[1.5056816,52.1348646],[1.5054449,52.1349224]]]}},
{"type":"Feature","properties":{"highway":"footway","name":null,"category":"Footpath (pedestrian only)"},"geometry":{"type":"MultiLineString","coordinates":[[[1.5072816,52.134631],[1.5071761,52.1345576],[1.5065701,52.1341687],[1.5062113,52.1338701]]]}},
{"type":"Feature","properties":{"highway":"path","name":null,"category":"Shared path"},"geometry":{"type":"MultiLineString","coordinates":[[[1.513299,52.123033],[1.5132326,52.1231046],[1.5132111,52.1232396],[1.5129858,52.1233352],[1.5128034,52.1233813],[1.5127605,52.1234142],[1.5127337,52.1234933],[1.5126479,52.1235328],[1.5125084,52.1235229],[1.5124279,52.1235624],[1.5124226,52.1236415],[1.5122938,52.1237106],[1.5120953,52.1238127],[1.5118915,52.1239049],[1.5119183,52.1241404],[1.5119344,52.1242343],[1.5119344,52.1243166],[1.5118512,52.124366],[1.5116984,52.124371],[1.5115669,52.1243562],[1.5115079,52.124338],[1.5114301,52.1243841],[1.5114114,52.12445],[1.5114128,52.1245344],[1.511414,52.1246065],[1.5116179,52.1247234],[1.5118781,52.1249325],[1.512216,52.1250988],[1.512436,52.1252503],[1.5124896,52.1252701],[1.5130582,52.125275],[1.5133206,52.1253576]]]}},
{"type":"Feature","properties":{"highway":"track","name":null,"category":"Track"},"geometry":{"type":"MultiLineString","coordinates":[[[1.516363,52.1269595],[1.5159684,52.1264458],[1.515287,52.125763]]]}},
{"type":"Feature","properties":{"highway":"track","name":null,"category":"Track"},"geometry":{"type":"MultiLineString","coordinates":[[[1.5115784,52.1310973],[1.5113309,52.1311402],[1.5110493,52.1311237],[1.5101561,52.1303976],[1.5086085,52.1288861]]]}},
{"type":"Feature","properties":{"highway":"track","name":null,"category":"Track"},"geometry":{"type":"MultiLineString","coordinates":[[[1.5220242,52.1319486],[1.5221791,52.1318663],[1.5224527,52.1317461],[1.5226941,52.1315782],[1.5229449,52.1314588],[1.5232413,52.13129],[1.5234585,52.1310851],[1.5237884,52.1307269],[1.5239038,52.1307129],[1.5253401,52.1317725],[1.525442,52.1317774],[1.5260214,52.1314349],[1.5263405,52.1316259],[1.5265417,52.1316506]]]}},
{"type":"Feature","properties":{"highway":"track","name":null,"category":"Track"},"geometry":{"type":"MultiLineString","coordinates":[[[1.5180368,52.1291698],[1.5182263,52.129267],[1.5184267,52.1293831]]]}},
{"type":"Feature","properties":{"highway":"track","name":null,"category":"Track"},"geometry":{"type":"MultiLineString","coordinates":[[[1.516909,52.1300582],[1.517247,52.1296796],[1.5180368,52.1291698]]]}},
{"type":"Feature","properties":{"highway":"track","name":null,"category":"Track"},"geometry":{"type":"MultiLineString","coordinates":[[[1.5180368,52.1291698],[1.5181519,52.1291016]]]}},
{"type":"Feature","properties":{"highway":"footway","name":null,"category":"Footpath (pedestrian only)"},"geometry":{"type":"MultiLineString","coordinates":[[[1.5189952,52.1273763],[1.5187677,52.1272622],[1.5185773,52.1271025],[1.5183305,52.1269148],[1.5182018,52.1269247],[1.5180006,52.1268522],[1.5179174,52.1266991],[1.5178182,52.1264603],[1.5175607,52.1261425],[1.517322,52.1258263],[1.517212,52.125581],[1.5170055,52.1255596],[1.5169438,52.1255242],[1.516928,52.1254877]]]}},
{"type":"Feature","properties":{"highway":"footway","name":null,"category":"Footpath (pedestrian only)"},"geometry":{"type":"MultiLineString","coordinates":[[[1.5169222,52.1254695],[1.5169193,52.1254142],[1.5169636,52.1252811],[1.5167078,52.1250145],[1.516303,52.1245524],[1.5150258,52.1229991],[1.51492,52.1228327]]]}},
{"type":"Feature","properties":{"highway":"footway","name":null,"category":"Footpath (pedestrian only)"},"geometry":{"type":"MultiLineString","coordinates":[[[1.516928,52.1254877],[1.5169242,52.125478],[1.5169222,52.1254695]]]}},
{"type":"Feature","properties":{"highway":"footway","name":null,"category":"Footpath (pedestrian only)"},"geometry":{"type":"MultiLineString","coordinates":[[[1.5136623,52.1263131],[1.5135941,52.1263642]]]}},
{"type":"Feature","properties":{"highway":"footway","name":null,"category":"Footpath (pedestrian only)"},"geometry":{"type":"MultiLineString","coordinates":[[[1.5139621,52.1262054],[1.513769,52.1262334],[1.5136623,52.1263131]]]}},
{"type":"Feature","properties":{"highway":"footway","name":null,"category":"Footpath (pedestrian only)"},"geometry":{"type":"MultiLineString","coordinates":[[[1.5135941,52.1263642],[1.5135223,52.1264178],[1.5134311,52.1265002],[1.5133184,52.1265035],[1.5129805,52.1263882],[1.512841,52.1263487],[1.5127015,52.1263717],[1.512326,52.1265957],[1.5120796,52.1266397],[1.5118915,52.1266319],[1.5110868,52.1266352],[1.5105075,52.1264145],[1.5101159,52.126105],[1.5099842,52.1259661]]]}}
]
}
