{
"type": "FeatureCollection",
"name": "712a2283fcb9_visibility",
"crs": { "type": "name", "properties": { "name": "urn:ogc:def:crs:OGC:1.3:CRS84" } },
"features": [
{ "type": "Feature", "properties": { "visible_points": 0, "total_points": 64, "visibility_pct": 0.0 }, "geometry": { "type": "Point", "coordinates": [ -0.186994066093041, 51.804812052349803 ] } },
{ "type": "Feature", "properties": { "visible_points": 0, "total_points": 66, "visibility_pct": 0.0 }, "geometry": { "type": "Point", "coordinates": [ -0.186793197430068, 51.80480895529584 ] } },
{ "type": "Feature", "properties": { "visible_points": 1, "total_points": 66, "visibility_pct": 1.5151515151515151 }, "geometry": { "type": "Point", "coordinates": [ -0.186592328804064, 51.804805857899261 ] } },
{ "type": "Feature", "properties": { "visible_points": 0, "total_points": 74, "visibility_pct": 0.0 }, "geometry": { "type": "Point", "coordinates": [ -0.18709018096557, 51.804921438326424 ] } },
{ "type": "Feature", "properties": { "visible_points": 0, "total_points": 76, "visibility_pct": 0.0 }, "geometry": { "type": "Point", "coordinates": [ -0.186889311789761, 51.804918341426017 ] } },
{ "type": "Feature", "properties": { "visible_points": 0, "total_points": 77, "visibility_pct": 0.0 }, "geometry": { "type": "Point", "coordinates": [ -0.186688442650921, 51.804915244182965 ] } },
{ "type": "Feature", "properties": { "visible_points": 0, "total_points": 76, "visibility_pct": 0.0 }, "geometry": { "type": "Point", "coordinates": [ -0.186487573549059, 51.804912146597268 ] } },
{ "type": "Feature", "properties": { "visible_points": 9, "total_points": 83, "visibility_pct": 10.843373493975903 }, "geometry": { "type": "Point", "coordinates": [ -0.18718629631394, 51.805030824232659 ] } },
{ "type": "Feature", "properties": { "visible_points": 1, "total_points": 86, "visibility_pct": 1.1627906976744187 }, "geometry": { "type": "Point", "coordinates": [ -0.186985426625291, 51.805027727485808 ] } },
{ "type": "Feature", "properties": { "visible_points": 0, "total_points": 88, "visibility_pct": 0.0 }, "geometry": { "type": "Point", "coordinates": [ -0.186784556973614, 51.805024630396304 ] } },
{ "type": "Feature", "properties": { "visible_points": 0, "total_points": 88, "visibility_pct": 0.0 }, "geometry": { "type": "Point", "coordinates": [ -0.186583687358905, 51.805021532964155 ] } },
{ "type": "Feature", "properties": { "visible_points": 0, "total_points": 86, "visibility_pct": 0.0 }, "geometry": { "type": "Point", "coordinates": [ -0.186382817781182, 51.805018435189339 ] } },
{ "type": "Feature", "properties": { "visible_points": 0, "total_points": 80, "visibility_pct": 0.0 }, "geometry": { "type": "Point", "coordinates": [ -0.186181948240442, 51.805015337071922 ] } },
{ "type": "Feature", "properties": { "visible_points": 15, "total_points": 88, "visibility_pct": 17.045454545454543 }, "geometry": { "type": "Point", "coordinates": [ -0.187282412138148, 51.805140210068515 ] } },
{ "type": "Feature", "properties": { "visible_points": 14, "total_points": 96, "visibility_pct": 14.583333333333334 }, "geometry": { "type": "Point", "coordinates": [ -0.187081541936666, 51.805137113475205 ] } },
{ "type": "Feature", "properties": { "visible_points": 1, "total_points": 99, "visibility_pct": 1.0101010101010102 }, "geometry": { "type": "Point", "coordinates": [ -0.186880671772141, 51.805134016539256 ] } },
{ "type": "Feature", "properties": { "visible_points": 0, "total_points": 100, "visibility_pct": 0.0 }, "geometry": { "type": "Point", "coordinates": [ -0.186679801644597, 51.805130919260634 ] } },
{ "type": "Feature", "properties": { "visible_points": 0, "total_points": 99, "visibility_pct": 0.0 }, "geometry": { "type": "Point", "coordinates": [ -0.186478931554024, 51.805127821639388 ] } },
{ "type": "Feature", "properties": { "visible_points": 0, "total_points": 93, "visibility_pct": 0.0 }, "geometry": { "type": "Point", "coordinates": [ -0.186278061500436, 51.80512472367549 ] } },
{ "type": "Feature", "properties": { "visible_points": 1, "total_points": 86, "visibility_pct": 1.1627906976744187 }, "geometry": { "type": "Point", "coordinates": [ -0.186077191483831, 51.805121625368955 ] } },
{ "type": "Feature", "properties": { "visible_points": 0, "total_points": 90, "visibility_pct": 0.0 }, "geometry": { "type": "Point", "coordinates": [ -0.187378528438211, 51.805249595833992 ] } },
{ "type": "Feature", "properties": { "visible_points": 27, "total_points": 100, "visibility_pct": 27.0 }, "geometry": { "type": "Point", "coordinates": [ -0.187177657723878, 51.805246499394237 ] } },
{ "type": "Feature", "properties": { "visible_points": 23, "total_points": 108, "visibility_pct": 21.296296296296298 }, "geometry": { "type": "Point", "coordinates": [ -0.186976787046517, 51.805243402611829 ] } },
{ "type": "Feature", "properties": { "visible_points": 0, "total_points": 111, "visibility_pct": 0.0 }, "geometry": { "type": "Point", "coordinates": [ -0.186775916406125, 51.805240305486755 ] } },
{ "type": "Feature", "properties": { "visible_points": 0, "total_points": 111, "visibility_pct": 0.0 }, "geometry": { "type": "Point", "coordinates": [ -0.186575045802706, 51.805237208019072 ] } },
{ "type": "Feature", "properties": { "visible_points": 0, "total_points": 105, "visibility_pct": 0.0 }, "geometry": { "type": "Point", "coordinates": [ -0.186374175236267, 51.805234110208715 ] } },
{ "type": "Feature", "properties": { "visible_points": 0, "total_points": 98, "visibility_pct": 0.0 }, "geometry": { "type": "Point", "coordinates": [ -0.186173304706813, 51.805231012055721 ] } },
{ "type": "Feature", "properties": { "visible_points": 0, "total_points": 91, "visibility_pct": 0.0 }, "geometry": { "type": "Point", "coordinates": [ -0.185972434214343, 51.805227913560067 ] } },
{ "type": "Feature", "properties": { "visible_points": 22, "total_points": 78, "visibility_pct": 28.205128205128204 }, "geometry": { "type": "Point", "coordinates": [ -0.187675516478256, 51.805362077472658 ] } },
{ "type": "Feature", "properties": { "visible_points": 24, "total_points": 90, "visibility_pct": 26.666666666666668 }, "geometry": { "type": "Point", "coordinates": [ -0.187474645214121, 51.805358981529096 ] } },
{ "type": "Feature", "properties": { "visible_points": 27, "total_points": 101, "visibility_pct": 26.732673267326735 }, "geometry": { "type": "Point", "coordinates": [ -0.187273773986945, 51.805355885242875 ] } },
{ "type": "Feature", "properties": { "visible_points": 29, "total_points": 110, "visibility_pct": 26.36363636363636 }, "geometry": { "type": "Point", "coordinates": [ -0.187072902796738, 51.805352788614009 ] } },
{ "type": "Feature", "properties": { "visible_points": 0, "total_points": 116, "visibility_pct": 0.0 }, "geometry": { "type": "Point", "coordinates": [ -0.186872031643496, 51.805349691642498 ] } },
{ "type": "Feature", "properties": { "visible_points": 0, "total_points": 118, "visibility_pct": 0.0 }, "geometry": { "type": "Point", "coordinates": [ -0.18667116052723, 51.805346594328341 ] } },
{ "type": "Feature", "properties": { "visible_points": 0, "total_points": 113, "visibility_pct": 0.0 }, "geometry": { "type": "Point", "coordinates": [ -0.186470289447941, 51.80534349667154 ] } },
{ "type": "Feature", "properties": { "visible_points": 0, "total_points": 107, "visibility_pct": 0.0 }, "geometry": { "type": "Point", "coordinates": [ -0.186269418405631, 51.805340398672094 ] } },
{ "type": "Feature", "properties": { "visible_points": 0, "total_points": 101, "visibility_pct": 0.0 }, "geometry": { "type": "Point", "coordinates": [ -0.186068547400309, 51.805337300329995 ] } },
{ "type": "Feature", "properties": { "visible_points": 0, "total_points": 95, "visibility_pct": 0.0 }, "geometry": { "type": "Point", "coordinates": [ -0.185867676431977, 51.805334201645252 ] } },
{ "type": "Feature", "properties": { "visible_points": 0, "total_points": 88, "visibility_pct": 0.0 }, "geometry": { "type": "Point", "coordinates": [ -0.185666805500636, 51.805331102617842 ] } },
{ "type": "Feature", "properties": { "visible_points": 0, "total_points": 74, "visibility_pct": 0.0 }, "geometry": { "type": "Point", "coordinates": [ -0.187771634242867, 51.805471462943821 ] } },
{ "type": "Feature", "properties": { "visible_points": 25, "total_points": 87, "visibility_pct": 28.735632183908045 }, "geometry": { "type": "Point", "coordinates": [ -0.187570762465888, 51.805468367153807 ] } },
{ "type": "Feature", "properties": { "visible_points": 22, "total_points": 100, "visibility_pct": 22.0 }, "geometry": { "type": "Point", "coordinates": [ -0.187369890725866, 51.805465271021156 ] } },
{ "type": "Feature", "properties": { "visible_points": 28, "total_points": 110, "visibility_pct": 25.454545454545453 }, "geometry": { "type": "Point", "coordinates": [ -0.187169019022811, 51.805462174545838 ] } },
{ "type": "Feature", "properties": { "visible_points": 31, "total_points": 117, "visibility_pct": 26.495726495726498 }, "geometry": { "type": "Point", "coordinates": [ -0.186968147356718, 51.805459077727882 ] } },
{ "type": "Feature", "properties": { "visible_points": 2, "total_points": 120, "visibility_pct": 1.6666666666666667 }, "geometry": { "type": "Point", "coordinates": [ -0.1867672757276, 51.80545598056726 ] } },
{ "type": "Feature", "properties": { "visible_points": 0, "total_points": 119, "visibility_pct": 0.0 }, "geometry": { "type": "Point", "coordinates": [ -0.186566404135457, 51.805452883064 ] } },
{ "type": "Feature", "properties": { "visible_points": 0, "total_points": 115, "visibility_pct": 0.0 }, "geometry": { "type": "Point", "coordinates": [ -0.186365532580293, 51.805449785218094 ] } },
{ "type": "Feature", "properties": { "visible_points": 0, "total_points": 110, "visibility_pct": 0.0 }, "geometry": { "type": "Point", "coordinates": [ -0.186164661062112, 51.805446687029551 ] } },
{ "type": "Feature", "properties": { "visible_points": 0, "total_points": 105, "visibility_pct": 0.0 }, "geometry": { "type": "Point", "coordinates": [ -0.185963789580923, 51.805443588498349 ] } },
{ "type": "Feature", "properties": { "visible_points": 0, "total_points": 99, "visibility_pct": 0.0 }, "geometry": { "type": "Point", "coordinates": [ -0.18576291813672, 51.805440489624488 ] } },
{ "type": "Feature", "properties": { "visible_points": 0, "total_points": 92, "visibility_pct": 0.0 }, "geometry": { "type": "Point", "coordinates": [ -0.18556204672952, 51.805437390408002 ] } },
{ "type": "Feature", "properties": { "visible_points": 22, "total_points": 68, "visibility_pct": 32.352941176470587 }, "geometry": { "type": "Point", "coordinates": [ -0.187867752483341, 51.805580848344583 ] } },
{ "type": "Feature", "properties": { "visible_points": 24, "total_points": 81, "visibility_pct": 29.629629629629626 }, "geometry": { "type": "Point", "coordinates": [ -0.187666880193514, 51.805577752708132 ] } },
{ "type": "Feature", "properties": { "visible_points": 28, "total_points": 94, "visibility_pct": 29.787234042553191 }, "geometry": { "type": "Point", "coordinates": [ -0.187466007940644, 51.805574656729029 ] } },
{ "type": "Feature", "properties": { "visible_points": 26, "total_points": 107, "visibility_pct": 24.299065420560748 }, "geometry": { "type": "Point", "coordinates": [ -0.187265135724734, 51.805571560407259 ] } },
{ "type": "Feature", "properties": { "visible_points": 30, "total_points": 118, "visibility_pct": 25.423728813559322 }, "geometry": { "type": "Point", "coordinates": [ -0.187064263545796, 51.805568463742851 ] } },
{ "type": "Feature", "properties": { "visible_points": 29, "total_points": 120, "visibility_pct": 24.166666666666668 }, "geometry": { "type": "Point", "coordinates": [ -0.186863391403821, 51.805565366735799 ] } },
{ "type": "Feature", "properties": { "visible_points": 28, "total_points": 120, "visibility_pct": 23.333333333333332 }, "geometry": { "type": "Point", "coordinates": [ -0.186662519298821, 51.805562269386101 ] } },
{ "type": "Feature", "properties": { "visible_points": 0, "total_points": 120, "visibility_pct": 0.0 }, "geometry": { "type": "Point", "coordinates": [ -0.186461647230801, 51.805559171693737 ] } },
{ "type": "Feature", "properties": { "visible_points": 3, "total_points": 117, "visibility_pct": 2.5641025641025639 }, "geometry": { "type": "Point", "coordinates": [ -0.18626077519976, 51.805556073658728 ] } },
{ "type": "Feature", "properties": { "visible_points": 0, "total_points": 113, "visibility_pct": 0.0 }, "geometry": { "type": "Point", "coordinates": [ -0.186059903205709, 51.80555297528106 ] } },
{ "type": "Feature", "properties": { "visible_points": 0, "total_points": 109, "visibility_pct": 0.0 }, "geometry": { "type": "Point", "coordinates": [ -0.185859031248645, 51.805549876560761 ] } },
{ "type": "Feature", "properties": { "visible_points": 0, "total_points": 104, "visibility_pct": 0.0 }, "geometry": { "type": "Point", "coordinates": [ -0.185658159328579, 51.805546777497803 ] } },
{ "type": "Feature", "properties": { "visible_points": 0, "total_points": 97, "visibility_pct": 0.0 }, "geometry": { "type": "Point", "coordinates": [ -0.185457287445508, 51.805543678092192 ] } },
{ "type": "Feature", "properties": { "visible_points": 0, "total_points": 68, "visibility_pct": 0.0 }, "geometry": { "type": "Point", "coordinates": [ -0.184854671205758, 51.805534377493203 ] } },
{ "type": "Feature", "properties": { "visible_points": 10, "total_points": 61, "visibility_pct": 16.393442622950818 }, "geometry": { "type": "Point", "coordinates": [ -0.187963871199681, 51.805690233674973 ] } },
{ "type": "Feature", "properties": { "visible_points": 0, "total_points": 73, "visibility_pct": 0.0 }, "geometry": { "type": "Point", "coordinates": [ -0.187762998397005, 51.805687138192077 ] } },
{ "type": "Feature", "properties": { "visible_points": 25, "total_points": 86, "visibility_pct": 29.069767441860467 }, "geometry": { "type": "Point", "coordinates": [ -0.187562125631281, 51.805684042366529 ] } },
{ "type": "Feature", "properties": { "visible_points": 33, "total_points": 99, "visibility_pct": 33.333333333333329 }, "geometry": { "type": "Point", "coordinates": [ -0.187361252902523, 51.805680946198322 ] } },
{ "type": "Feature", "properties": { "visible_points": 29, "total_points": 112, "visibility_pct": 25.892857142857146 }, "geometry": { "type": "Point", "coordinates": [ -0.187160380210727, 51.805677849687477 ] } },
{ "type": "Feature", "properties": { "visible_points": 25, "total_points": 118, "visibility_pct": 21.1864406779661 }, "geometry": { "type": "Point", "coordinates": [ -0.186959507555894, 51.805674752833951 ] } },
{ "type": "Feature", "properties": { "visible_points": 29, "total_points": 120, "visibility_pct": 24.166666666666668 }, "geometry": { "type": "Point", "coordinates": [ -0.186758634938039, 51.805671655637795 ] } },
{ "type": "Feature", "properties": { "visible_points": 28, "total_points": 120, "visibility_pct": 23.333333333333332 }, "geometry": { "type": "Point", "coordinates": [ -0.186557762357161, 51.805668558098994 ] } },
{ "type": "Feature", "properties": { "visible_points": 14, "total_points": 120, "visibility_pct": 11.666666666666666 }, "geometry": { "type": "Point", "coordinates": [ -0.186356889813255, 51.805665460217526 ] } },
{ "type": "Feature", "properties": { "visible_points": 0, "total_points": 119, "visibility_pct": 0.0 }, "geometry": { "type": "Point", "coordinates": [ -0.186156017306339, 51.805662361993427 ] } },
{ "type": "Feature", "properties": { "visible_points": 0, "total_points": 116, "visibility_pct": 0.0 }, "geometry": { "type": "Point", "coordinates": [ -0.185955144836413, 51.805659263426648 ] } },
{ "type": "Feature", "properties": { "visible_points": 0, "total_points": 113, "visibility_pct": 0.0 }, "geometry": { "type": "Point", "coordinates": [ -0.185754272403475, 51.805656164517238 ] } },
{ "type": "Feature", "properties": { "visible_points": 0, "total_points": 108, "visibility_pct": 0.0 }, "geometry": { "type": "Point", "coordinates": [ -0.185553400007539, 51.805653065265183 ] } },
{ "type": "Feature", "properties": { "visible_points": 0, "total_points": 101, "visibility_pct": 0.0 }, "geometry": { "type": "Point", "coordinates": [ -0.185352527648603, 51.805649965670469 ] } },
{ "type": "Feature", "properties": { "visible_points": 0, "total_points": 91, "visibility_pct": 0.0 }, "geometry": { "type": "Point", "coordinates": [ -0.18515165532667, 51.805646865733095 ] } },
{ "type": "Feature", "properties": { "visible_points": 0, "total_points": 69, "visibility_pct": 0.0 }, "geometry": { "type": "Point", "coordinates": [ -0.184749909049646, 51.805640664093012 ] } },
{ "type": "Feature", "properties": { "visible_points": 9, "total_points": 65, "visibility_pct": 13.846153846153847 }, "geometry": { "type": "Point", "coordinates": [ -0.187859117076361, 51.805796523605636 ] } },
{ "type": "Feature", "properties": { "visible_points": 0, "total_points": 77, "visibility_pct": 0.0 }, "geometry": { "type": "Point", "coordinates": [ -0.187658243797787, 51.805793427933637 ] } },
{ "type": "Feature", "properties": { "visible_points": 28, "total_points": 90, "visibility_pct": 31.111111111111111 }, "geometry": { "type": "Point", "coordinates": [ -0.187457370556174, 51.805790331918999 ] } },
{ "type": "Feature", "properties": { "visible_points": 32, "total_points": 103, "visibility_pct": 31.067961165048541 }, "geometry": { "type": "Point", "coordinates": [ -0.187256497351515, 51.805787235561688 ] } },
{ "type": "Feature", "properties": { "visible_points": 28, "total_points": 112, "visibility_pct": 25.0 }, "geometry": { "type": "Point", "coordinates": [ -0.187055624183829, 51.805784138861746 ] } },
{ "type": "Feature", "properties": { "visible_points": 26, "total_points": 116, "visibility_pct": 22.413793103448278 }, "geometry": { "type": "Point", "coordinates": [ -0.186854751053114, 51.805781041819131 ] } },
{ "type": "Feature", "properties": { "visible_points": 26, "total_points": 119, "visibility_pct": 21.84873949579832 }, "geometry": { "type": "Point", "coordinates": [ -0.186653877959368, 51.805777944433871 ] } },
{ "type": "Feature", "properties": { "visible_points": 24, "total_points": 120, "visibility_pct": 20.0 }, "geometry": { "type": "Point", "coordinates": [ -0.186453004902602, 51.805774846705944 ] } },
{ "type": "Feature", "properties": { "visible_points": 15, "total_points": 120, "visibility_pct": 12.5 }, "geometry": { "type": "Point", "coordinates": [ -0.18625213188282, 51.805771748635394 ] } },
{ "type": "Feature", "properties": { "visible_points": 0, "total_points": 120, "visibility_pct": 0.0 }, "geometry": { "type": "Point", "coordinates": [ -0.186051258900026, 51.80576865022217 ] } },
{ "type": "Feature", "properties": { "visible_points": 0, "total_points": 118, "visibility_pct": 0.0 }, "geometry": { "type": "Point", "coordinates": [ -0.185850385954219, 51.805765551466301 ] } },
{ "type": "Feature", "properties": { "visible_points": 0, "total_points": 116, "visibility_pct": 0.0 }, "geometry": { "type": "Point", "coordinates": [ -0.185649513045414, 51.805762452367787 ] } },
{ "type": "Feature", "properties": { "visible_points": 0, "total_points": 112, "visibility_pct": 0.0 }, "geometry": { "type": "Point", "coordinates": [ -0.185448640173601, 51.805759352926614 ] } },
{ "type": "Feature", "properties": { "visible_points": 0, "total_points": 103, "visibility_pct": 0.0 }, "geometry": { "type": "Point", "coordinates": [ -0.185247767338793, 51.805756253142789 ] } },
{ "type": "Feature", "properties": { "visible_points": 0, "total_points": 92, "visibility_pct": 0.0 }, "geometry": { "type": "Point", "coordinates": [ -0.185046894540997, 51.805753153016298 ] } },
{ "type": "Feature", "properties": { "visible_points": 0, "total_points": 81, "visibility_pct": 0.0 }, "geometry": { "type": "Point", "coordinates": [ -0.184846020880076, 51.805750052211124 ] } },
{ "type": "Feature", "properties": { "visible_points": 0, "total_points": 70, "visibility_pct": 0.0 }, "geometry": { "type": "Point", "coordinates": [ -0.184645146183792, 51.805746950578929 ] } },
{ "type": "Feature", "properties": { "visible_points": 13, "total_points": 68, "visibility_pct": 19.117647058823529 }, "geometry": { "type": "Point", "coordinates": [ -0.187754362440161, 51.805902813430372 ] } },
{ "type": "Feature", "properties": { "visible_points": 9, "total_points": 80, "visibility_pct": 11.25 }, "geometry": { "type": "Point", "coordinates": [ -0.187553488685691, 51.805899717569254 ] } },
{ "type": "Feature", "properties": { "visible_points": 1, "total_points": 91, "visibility_pct": 1.098901098901099 }, "geometry": { "type": "Point", "coordinates": [ -0.187352614968176, 51.80589662136552 ] } },
{ "type": "Feature", "properties": { "visible_points": 15, "total_points": 101, "visibility_pct": 14.85148514851485 }, "geometry": { "type": "Point", "coordinates": [ -0.187151741287627, 51.80589352481914 ] } },
{ "type": "Feature", "properties": { "visible_points": 6, "total_points": 108, "visibility_pct": 5.5555555555555554 }, "geometry": { "type": "Point", "coordinates": [ -0.186950867644046, 51.805890427930088 ] } },
{ "type": "Feature", "properties": { "visible_points": 23, "total_points": 113, "visibility_pct": 20.353982300884958 }, "geometry": { "type": "Point", "coordinates": [ -0.186749994037436, 51.805887330698361 ] } },
{ "type": "Feature", "properties": { "visible_points": 22, "total_points": 117, "visibility_pct": 18.803418803418804 }, "geometry": { "type": "Point", "coordinates": [ -0.186549120467806, 51.80588423312399 ] } },
{ "type": "Feature", "properties": { "visible_points": 19, "total_points": 120, "visibility_pct": 15.833333333333332 }, "geometry": { "type": "Point", "coordinates": [ -0.186348246935154, 51.805881135206981 ] } },
{ "type": "Feature", "properties": { "visible_points": 16, "total_points": 120, "visibility_pct": 13.333333333333334 }, "geometry": { "type": "Point", "coordinates": [ -0.186147373439492, 51.805878036947313 ] } },
{ "type": "Feature", "properties": { "visible_points": 0, "total_points": 120, "visibility_pct": 0.0 }, "geometry": { "type": "Point", "coordinates": [ -0.185946499980814, 51.805874938344978 ] } },
{ "type": "Feature", "properties": { "visible_points": 0, "total_points": 120, "visibility_pct": 0.0 }, "geometry": { "type": "Point", "coordinates": [ -0.185745626559132, 51.805871839400019 ] } },
{ "type": "Feature", "properties": { "visible_points": 0, "total_points": 119, "visibility_pct": 0.0 }, "geometry": { "type": "Point", "coordinates": [ -0.185544753174445, 51.805868740112388 ] } },
{ "type": "Feature", "properties": { "visible_points": 0, "total_points": 114, "visibility_pct": 0.0 }, "geometry": { "type": "Point", "coordinates": [ -0.185343879826761, 51.805865640482104 ] } },
{ "type": "Feature", "properties": { "visible_points": 0, "total_points": 104, "visibility_pct": 0.0 }, "geometry": { "type": "Point", "coordinates": [ -0.185143006516085, 51.80586254050916 ] } },
{ "type": "Feature", "properties": { "visible_points": 0, "total_points": 93, "visibility_pct": 0.0 }, "geometry": { "type": "Point", "coordinates": [ -0.184942132864618, 51.805859440121353 ] } },
{ "type": "Feature", "properties": { "visible_points": 0, "total_points": 81, "visibility_pct": 0.0 }, "geometry": { "type": "Point", "coordinates": [ -0.184741258090439, 51.80585633880451 ] } },
{ "type": "Feature", "properties": { "visible_points": 1, "total_points": 71, "visibility_pct": 1.4084507042253522 }, "geometry": { "type": "Point", "coordinates": [ -0.184540382757437, 51.805853236984142 ] } },
{ "type": "Feature", "properties": { "visible_points": 17, "total_points": 79, "visibility_pct": 21.518987341772153 }, "geometry": { "type": "Point", "coordinates": [ -0.187448733060704, 51.806006007098979 ] } },
{ "type": "Feature", "properties": { "visible_points": 1, "total_points": 89, "visibility_pct": 1.1235955056179776 }, "geometry": { "type": "Point", "coordinates": [ -0.187247858867289, 51.806002910706148 ] } },
{ "type": "Feature", "properties": { "visible_points": 1, "total_points": 97, "visibility_pct": 1.0309278350515463 }, "geometry": { "type": "Point", "coordinates": [ -0.187046984710843, 51.805999813970651 ] } },
{ "type": "Feature", "properties": { "visible_points": 0, "total_points": 103, "visibility_pct": 0.0 }, "geometry": { "type": "Point", "coordinates": [ -0.186846110591369, 51.805996716892494 ] } },
{ "type": "Feature", "properties": { "visible_points": 1, "total_points": 109, "visibility_pct": 0.91743119266055051 }, "geometry": { "type": "Point", "coordinates": [ -0.18664523650887, 51.805993619471671 ] } },
{ "type": "Feature", "properties": { "visible_points": 0, "total_points": 114, "visibility_pct": 0.0 }, "geometry": { "type": "Point", "coordinates": [ -0.186444362463346, 51.805990521708203 ] } },
{ "type": "Feature", "properties": { "visible_points": 11, "total_points": 118, "visibility_pct": 9.3220338983050848 }, "geometry": { "type": "Point", "coordinates": [ -0.186243488454812, 51.805987423602083 ] } },
{ "type": "Feature", "properties": { "visible_points": 0, "total_points": 120, "visibility_pct": 0.0 }, "geometry": { "type": "Point", "coordinates": [ -0.186042614483258, 51.805984325153311 ] } },
{ "type": "Feature", "properties": { "visible_points": 3, "total_points": 120, "visibility_pct": 2.5 }, "geometry": { "type": "Point", "coordinates": [ -0.185841740548704, 51.805981226361872 ] } },
{ "type": "Feature", "properties": { "visible_points": 0, "total_points": 120, "visibility_pct": 0.0 }, "geometry": { "type": "Point", "coordinates": [ -0.185640866651137, 51.805978127227782 ] } },
{ "type": "Feature", "properties": { "visible_points": 0, "total_points": 120, "visibility_pct": 0.0 }, "geometry": { "type": "Point", "coordinates": [ -0.185439992790577, 51.805975027751053 ] } },
{ "type": "Feature", "properties": { "visible_points": 0, "total_points": 114, "visibility_pct": 0.0 }, "geometry": { "type": "Point", "coordinates": [ -0.185239118967015, 51.805971927931658 ] } },
{ "type": "Feature", "properties": { "visible_points": 0, "total_points": 104, "visibility_pct": 0.0 }, "geometry": { "type": "Point", "coordinates": [ -0.185038245180463, 51.805968827769597 ] } },
{ "type": "Feature", "properties": { "visible_points": 0, "total_points": 93, "visibility_pct": 0.0 }, "geometry": { "type": "Point", "coordinates": [ -0.184837370438762, 51.805965726922423 ] } },
{ "type": "Feature", "properties": { "visible_points": 0, "total_points": 83, "visibility_pct": 0.0 }, "geometry": { "type": "Point", "coordinates": [ -0.184636494624369, 51.80596262529432 ] } },
{ "type": "Feature", "properties": { "visible_points": 7, "total_points": 85, "visibility_pct": 8.235294117647058 }, "geometry": { "type": "Point", "coordinates": [ -0.187143102253508, 51.806109199940821 ] } },
{ "type": "Feature", "properties": { "visible_points": 3, "total_points": 92, "visibility_pct": 3.2608695652173911 }, "geometry": { "type": "Point", "coordinates": [ -0.18694222762117, 51.806106103016219 ] } },
{ "type": "Feature", "properties": { "visible_points": 0, "total_points": 99, "visibility_pct": 0.0 }, "geometry": { "type": "Point", "coordinates": [ -0.186741353025793, 51.806103005748952 ] } },
{ "type": "Feature", "properties": { "visible_points": 0, "total_points": 105, "visibility_pct": 0.0 }, "geometry": { "type": "Point", "coordinates": [ -0.186540478467401, 51.806099908139046 ] } },
{ "type": "Feature", "properties": { "visible_points": 0, "total_points": 111, "visibility_pct": 0.0 }, "geometry": { "type": "Point", "coordinates": [ -0.186339603945991, 51.806096810186467 ] } },
{ "type": "Feature", "properties": { "visible_points": 0, "total_points": 116, "visibility_pct": 0.0 }, "geometry": { "type": "Point", "coordinates": [ -0.186138729461562, 51.806093711891243 ] } },
{ "type": "Feature", "properties": { "visible_points": 3, "total_points": 119, "visibility_pct": 2.5210084033613445 }, "geometry": { "type": "Point", "coordinates": [ -0.185937855014127, 51.806090613253353 ] } },
{ "type": "Feature", "properties": { "visible_points": 5, "total_points": 120, "visibility_pct": 4.1666666666666661 }, "geometry": { "type": "Point", "coordinates": [ -0.185736980603684, 51.806087514272825 ] } },
{ "type": "Feature", "properties": { "visible_points": 0, "total_points": 120, "visibility_pct": 0.0 }, "geometry": { "type": "Point", "coordinates": [ -0.185536106230238, 51.806084414949623 ] } },
{ "type": "Feature", "properties": { "visible_points": 0, "total_points": 118, "visibility_pct": 0.0 }, "geometry": { "type": "Point", "coordinates": [ -0.185335231893796, 51.806081315283762 ] } },
{ "type": "Feature", "properties": { "visible_points": 0, "total_points": 111, "visibility_pct": 0.0 }, "geometry": { "type": "Point", "coordinates": [ -0.185134357594361, 51.806078215275257 ] } },
{ "type": "Feature", "properties": { "visible_points": 0, "total_points": 102, "visibility_pct": 0.0 }, "geometry": { "type": "Point", "coordinates": [ -0.184933482894748, 51.806075114848525 ] } },
{ "type": "Feature", "properties": { "visible_points": 0, "total_points": 93, "visibility_pct": 0.0 }, "geometry": { "type": "Point", "coordinates": [ -0.184732607012073, 51.806072013510267 ] } },
{ "type": "Feature", "properties": { "visible_points": 7, "total_points": 80, "visibility_pct": 8.75 }, "geometry": { "type": "Point", "coordinates": [ -0.187038345126834, 51.806215489069587 ] } },
{ "type": "Feature", "properties": { "visible_points": 7, "total_points": 87, "visibility_pct": 8.0459770114942533 }, "geometry": { "type": "Point", "coordinates": [ -0.18683747001859, 51.806212391955881 ] } },
{ "type": "Feature", "properties": { "visible_points": 0, "total_points": 95, "visibility_pct": 0.0 }, "geometry": { "type": "Point", "coordinates": [ -0.186636594947321, 51.80620929449951 ] } },
{ "type": "Feature", "properties": { "visible_points": 0, "total_points": 102, "visibility_pct": 0.0 }, "geometry": { "type": "Point", "coordinates": [ -0.186435719913034, 51.806206196700479 ] } },
{ "type": "Feature", "properties": { "visible_points": 0, "total_points": 108, "visibility_pct": 0.0 }, "geometry": { "type": "Point", "coordinates": [ -0.186234844915725, 51.806203098558811 ] } },
{ "type": "Feature", "properties": { "visible_points": 3, "total_points": 114, "visibility_pct": 2.6315789473684208 }, "geometry": { "type": "Point", "coordinates": [ -0.186033969955407, 51.806200000074469 ] } },
{ "type": "Feature", "properties": { "visible_points": 7, "total_points": 118, "visibility_pct": 5.9322033898305087 }, "geometry": { "type": "Point", "coordinates": [ -0.185833095032087, 51.806196901247468 ] } },
{ "type": "Feature", "properties": { "visible_points": 0, "total_points": 120, "visibility_pct": 0.0 }, "geometry": { "type": "Point", "coordinates": [ -0.185632220145754, 51.806193802077821 ] } },
{ "type": "Feature", "properties": { "visible_points": 0, "total_points": 120, "visibility_pct": 0.0 }, "geometry": { "type": "Point", "coordinates": [ -0.185431345296425, 51.806190702565509 ] } },
{ "type": "Feature", "properties": { "visible_points": 0, "total_points": 116, "visibility_pct": 0.0 }, "geometry": { "type": "Point", "coordinates": [ -0.185230470484105, 51.806187602710551 ] } },
{ "type": "Feature", "properties": { "visible_points": 6, "total_points": 109, "visibility_pct": 5.5045871559633035 }, "geometry": { "type": "Point", "coordinates": [ -0.18502959570879, 51.80618450251292 ] } },
{ "type": "Feature", "properties": { "visible_points": 0, "total_points": 101, "visibility_pct": 0.0 }, "geometry": { "type": "Point", "coordinates": [ -0.184828719881801, 51.80618140162705 ] } },
{ "type": "Feature", "properties": { "visible_points": 3, "total_points": 93, "visibility_pct": 3.225806451612903 }, "geometry": { "type": "Point", "coordinates": [ -0.184627842945783, 51.806178300003999 ] } },
{ "type": "Feature", "properties": { "visible_points": 0, "total_points": 34, "visibility_pct": 0.0 }, "geometry": { "type": "Point", "coordinates": [ -0.182619075381608, 51.806147264800039 ] } },
{ "type": "Feature", "properties": { "visible_points": 7, "total_points": 83, "visibility_pct": 8.4337349397590362 }, "geometry": { "type": "Point", "coordinates": [ -0.18673271190311, 51.806318680789595 ] } },
{ "type": "Feature", "properties": { "visible_points": 9, "total_points": 90, "visibility_pct": 10.0 }, "geometry": { "type": "Point", "coordinates": [ -0.18653183635594, 51.806315583144119 ] } },
{ "type": "Feature", "properties": { "visible_points": 0, "total_points": 98, "visibility_pct": 0.0 }, "geometry": { "type": "Point", "coordinates": [ -0.186330960845755, 51.806312485155992 ] } },
{ "type": "Feature", "properties": { "visible_points": 1, "total_points": 105, "visibility_pct": 0.95238095238095244 }, "geometry": { "type": "Point", "coordinates": [ -0.186130085372554, 51.806309386825212 ] } },
{ "type": "Feature", "properties": { "visible_points": 4, "total_points": 111, "visibility_pct": 3.6036036036036037 }, "geometry": { "type": "Point", "coordinates": [ -0.185929209936343, 51.806306288151752 ] } },
{ "type": "Feature", "properties": { "visible_points": 5, "total_points": 116, "visibility_pct": 4.3103448275862073 }, "geometry": { "type": "Point", "coordinates": [ -0.185728334537132, 51.80630318913564 ] } },
{ "type": "Feature", "properties": { "visible_points": 4, "total_points": 120, "visibility_pct": 3.3333333333333335 }, "geometry": { "type": "Point", "coordinates": [ -0.185527459174917, 51.806300089776883 ] } },
{ "type": "Feature", "properties": { "visible_points": 2, "total_points": 119, "visibility_pct": 1.680672268907563 }, "geometry": { "type": "Point", "coordinates": [ -0.185326583849698, 51.806296990075467 ] } },
{ "type": "Feature", "properties": { "visible_points": 22, "total_points": 114, "visibility_pct": 19.298245614035086 }, "geometry": { "type": "Point", "coordinates": [ -0.185125708561497, 51.806293890031377 ] } },
{ "type": "Feature", "properties": { "visible_points": 15, "total_points": 108, "visibility_pct": 13.888888888888889 }, "geometry": { "type": "Point", "coordinates": [ -0.184924832810212, 51.806290789566624 ] } },
{ "type": "Feature", "properties": { "visible_points": 16, "total_points": 102, "visibility_pct": 15.686274509803921 }, "geometry": { "type": "Point", "coordinates": [ -0.184723955814551, 51.806287688210318 ] } },
{ "type": "Feature", "properties": { "visible_points": 15, "total_points": 95, "visibility_pct": 15.789473684210526 }, "geometry": { "type": "Point", "coordinates": [ -0.184523078318972, 51.806284586417057 ] } },
{ "type": "Feature", "properties": { "visible_points": 0, "total_points": 38, "visibility_pct": 0.0 }, "geometry": { "type": "Point", "coordinates": [ -0.182715182645362, 51.80625665479441 ] } },
{ "type": "Feature", "properties": { "visible_points": 9, "total_points": 86, "visibility_pct": 10.465116279069768 }, "geometry": { "type": "Point", "coordinates": [ -0.186427077251653, 51.806421871682794 ] } },
{ "type": "Feature", "properties": { "visible_points": 8, "total_points": 94, "visibility_pct": 8.5106382978723403 }, "geometry": { "type": "Point", "coordinates": [ -0.186226201265569, 51.80641877350557 ] } },
{ "type": "Feature", "properties": { "visible_points": 0, "total_points": 102, "visibility_pct": 0.0 }, "geometry": { "type": "Point", "coordinates": [ -0.186025325316471, 51.806415674985665 ] } },
{ "type": "Feature", "properties": { "visible_points": 0, "total_points": 108, "visibility_pct": 0.0 }, "geometry": { "type": "Point", "coordinates": [ -0.185824449404369, 51.806412576123101 ] } },
{ "type": "Feature", "properties": { "visible_points": 13, "total_points": 114, "visibility_pct": 11.403508771929824 }, "geometry": { "type": "Point", "coordinates": [ -0.18562357352926, 51.806409476917892 ] } },
{ "type": "Feature", "properties": { "visible_points": 21, "total_points": 119, "visibility_pct": 17.647058823529413 }, "geometry": { "type": "Point", "coordinates": [ -0.185422697691157, 51.806406377370017 ] } },
{ "type": "Feature", "properties": { "visible_points": 23, "total_points": 118, "visibility_pct": 19.491525423728813 }, "geometry": { "type": "Point", "coordinates": [ -0.185221821890055, 51.806403277479482 ] } },
{ "type": "Feature", "properties": { "visible_points": 18, "total_points": 113, "visibility_pct": 15.929203539823009 }, "geometry": { "type": "Point", "coordinates": [ -0.18502094612129, 51.806400177246971 ] } },
{ "type": "Feature", "properties": { "visible_points": 17, "total_points": 108, "visibility_pct": 15.74074074074074 }, "geometry": { "type": "Point", "coordinates": [ -0.184820069202503, 51.806397076322632 ] } },
{ "type": "Feature", "properties": { "visible_points": 20, "total_points": 101, "visibility_pct": 19.801980198019802 }, "geometry": { "type": "Point", "coordinates": [ -0.184619191148027, 51.806393974707959 ] } },
{ "type": "Feature", "properties": { "visible_points": 15, "total_points": 94, "visibility_pct": 15.957446808510639 }, "geometry": { "type": "Point", "coordinates": [ -0.184418313131643, 51.806390872749432 ] } },
{ "type": "Feature", "properties": { "visible_points": 0, "total_points": 46, "visibility_pct": 0.0 }, "geometry": { "type": "Point", "coordinates": [ -0.183012168128592, 51.806369149405676 ] } },
{ "type": "Feature", "properties": { "visible_points": 5, "total_points": 42, "visibility_pct": 11.904761904761903 }, "geometry": { "type": "Point", "coordinates": [ -0.182811290429872, 51.806366044694556 ] } },
{ "type": "Feature", "properties": { "visible_points": 11, "total_points": 82, "visibility_pct": 13.414634146341465 }, "geometry": { "type": "Point", "coordinates": [ -0.18632231763445, 51.806528160115548 ] } },
{ "type": "Feature", "properties": { "visible_points": 11, "total_points": 91, "visibility_pct": 12.087912087912088 }, "geometry": { "type": "Point", "coordinates": [ -0.186121441172467, 51.806525061749184 ] } },
{ "type": "Feature", "properties": { "visible_points": 0, "total_points": 99, "visibility_pct": 0.0 }, "geometry": { "type": "Point", "coordinates": [ -0.185920564747469, 51.806521963040169 ] } },
{ "type": "Feature", "properties": { "visible_points": 14, "total_points": 106, "visibility_pct": 13.20754716981132 }, "geometry": { "type": "Point", "coordinates": [ -0.185719688359473, 51.806518863988515 ] } },
{ "type": "Feature", "properties": { "visible_points": 16, "total_points": 112, "visibility_pct": 14.285714285714285 }, "geometry": { "type": "Point", "coordinates": [ -0.185518812008473, 51.806515764594188 ] } },
{ "type": "Feature", "properties": { "visible_points": 20, "total_points": 118, "visibility_pct": 16.949152542372879 }, "geometry": { "type": "Point", "coordinates": [ -0.185317935694474, 51.806512664857188 ] } },
{ "type": "Feature", "properties": { "visible_points": 14, "total_points": 117, "visibility_pct": 11.965811965811966 }, "geometry": { "type": "Point", "coordinates": [ -0.185117059417485, 51.806509564777535 ] } },
{ "type": "Feature", "properties": { "visible_points": 16, "total_points": 112, "visibility_pct": 14.285714285714285 }, "geometry": { "type": "Point", "coordinates": [ -0.18491618260451, 51.806506464266889 ] } },
{ "type": "Feature", "properties": { "visible_points": 19, "total_points": 106, "visibility_pct": 17.924528301886792 }, "geometry": { "type": "Point", "coordinates": [ -0.184715304497859, 51.806503362904643 ] } },
{ "type": "Feature", "properties": { "visible_points": 17, "total_points": 98, "visibility_pct": 17.346938775510203 }, "geometry": { "type": "Point", "coordinates": [ -0.184514425920977, 51.806500261124924 ] } },
{ "type": "Feature", "properties": { "visible_points": 13, "total_points": 90, "visibility_pct": 14.444444444444443 }, "geometry": { "type": "Point", "coordinates": [ -0.184313547383784, 51.806497159001125 ] } },
{ "type": "Feature", "properties": { "visible_points": 0, "total_points": 61, "visibility_pct": 0.0 }, "geometry": { "type": "Point", "coordinates": [ -0.183510033632008, 51.806484747065227 ] } },
{ "type": "Feature", "properties": { "visible_points": 0, "total_points": 56, "visibility_pct": 0.0 }, "geometry": { "type": "Point", "coordinates": [ -0.183309155293332, 51.806481643221048 ] } },
{ "type": "Feature", "properties": { "visible_points": 6, "total_points": 51, "visibility_pct": 11.76470588235294 }, "geometry": { "type": "Point", "coordinates": [ -0.183108276994379, 51.80647853903281 ] } },
{ "type": "Feature", "properties": { "visible_points": 14, "total_points": 87, "visibility_pct": 16.091954022988507 }, "geometry": { "type": "Point", "coordinates": [ -0.186016680566444, 51.806631349886878 ] } },
{ "type": "Feature", "properties": { "visible_points": 8, "total_points": 95, "visibility_pct": 8.4210526315789469 }, "geometry": { "type": "Point", "coordinates": [ -0.18581580366555, 51.806628250988766 ] } },
{ "type": "Feature", "properties": { "visible_points": 0, "total_points": 103, "visibility_pct": 0.0 }, "geometry": { "type": "Point", "coordinates": [ -0.185614926801654, 51.806625151747987 ] } },
{ "type": "Feature", "properties": { "visible_points": 16, "total_points": 110, "visibility_pct": 14.545454545454545 }, "geometry": { "type": "Point", "coordinates": [ -0.185414049974758, 51.806622052164528 ] } },
{ "type": "Feature", "properties": { "visible_points": 13, "total_points": 116, "visibility_pct": 11.206896551724139 }, "geometry": { "type": "Point", "coordinates": [ -0.185213173184869, 51.806618952238424 ] } },
{ "type": "Feature", "properties": { "visible_points": 14, "total_points": 114, "visibility_pct": 12.280701754385964 }, "geometry": { "type": "Point", "coordinates": [ -0.185012296381801, 51.806615851964828 ] } },
{ "type": "Feature", "properties": { "visible_points": 17, "total_points": 108, "visibility_pct": 15.74074074074074 }, "geometry": { "type": "Point", "coordinates": [ -0.184811418368478, 51.806612751007073 ] } },
{ "type": "Feature", "properties": { "visible_points": 14, "total_points": 100, "visibility_pct": 14.000000000000002 }, "geometry": { "type": "Point", "coordinates": [ -0.184610539231098, 51.806609649406184 ] } },
{ "type": "Feature", "properties": { "visible_points": 17, "total_points": 91, "visibility_pct": 18.681318681318682 }, "geometry": { "type": "Point", "coordinates": [ -0.184409660133402, 51.806606547461207 ] } },
{ "type": "Feature", "properties": { "visible_points": 0, "total_points": 68, "visibility_pct": 0.0 }, "geometry": { "type": "Point", "coordinates": [ -0.183807023078484, 51.80659723956181 ] } },
{ "type": "Feature", "properties": { "visible_points": 0, "total_points": 62, "visibility_pct": 0.0 }, "geometry": { "type": "Point", "coordinates": [ -0.18360614413959, 51.806594136240527 ] } },
{ "type": "Feature", "properties": { "visible_points": 5, "total_points": 56, "visibility_pct": 8.9285714285714288 }, "geometry": { "type": "Point", "coordinates": [ -0.183405265240399, 51.806591032575156 ] } },
{ "type": "Feature", "properties": { "visible_points": 11, "total_points": 83, "visibility_pct": 13.253012048192772 }, "geometry": { "type": "Point", "coordinates": [ -0.185911919447501, 51.806737637918637 ] } },
{ "type": "Feature", "properties": { "visible_points": 5, "total_points": 91, "visibility_pct": 5.4945054945054945 }, "geometry": { "type": "Point", "coordinates": [ -0.185711042070707, 51.806734538831414 ] } },
{ "type": "Feature", "properties": { "visible_points": 0, "total_points": 98, "visibility_pct": 0.0 }, "geometry": { "type": "Point", "coordinates": [ -0.185510164730906, 51.80673143940151 ] } },
{ "type": "Feature", "properties": { "visible_points": 9, "total_points": 104, "visibility_pct": 8.6538461538461533 }, "geometry": { "type": "Point", "coordinates": [ -0.18530928742812, 51.806728339628947 ] } },
{ "type": "Feature", "properties": { "visible_points": 0, "total_points": 106, "visibility_pct": 0.0 }, "geometry": { "type": "Point", "coordinates": [ -0.185108410162331, 51.806725239513717 ] } },
{ "type": "Feature", "properties": { "visible_points": 12, "total_points": 104, "visibility_pct": 11.538461538461538 }, "geometry": { "type": "Point", "coordinates": [ -0.18490753227877, 51.806722138953447 ] } },
{ "type": "Feature", "properties": { "visible_points": 1, "total_points": 99, "visibility_pct": 1.0101010101010102 }, "geometry": { "type": "Point", "coordinates": [ -0.184706653062004, 51.806719037593233 ] } },
{ "type": "Feature", "properties": { "visible_points": 16, "total_points": 91, "visibility_pct": 17.582417582417584 }, "geometry": { "type": "Point", "coordinates": [ -0.184505773403803, 51.806715935827071 ] } },
{ "type": "Feature", "properties": { "visible_points": 23, "total_points": 83, "visibility_pct": 27.710843373493976 }, "geometry": { "type": "Point", "coordinates": [ -0.184304893785292, 51.806712833716816 ] } },
{ "type": "Feature", "properties": { "visible_points": 0, "total_points": 76, "visibility_pct": 0.0 }, "geometry": { "type": "Point", "coordinates": [ -0.184104014206475, 51.806709731262501 ] } },
{ "type": "Feature", "properties": { "visible_points": 4, "total_points": 68, "visibility_pct": 5.8823529411764701 }, "geometry": { "type": "Point", "coordinates": [ -0.183903134667356, 51.806706628464092 ] } },
{ "type": "Feature", "properties": { "visible_points": 9, "total_points": 78, "visibility_pct": 11.538461538461538 }, "geometry": { "type": "Point", "coordinates": [ -0.18580715781563, 51.806843925844447 ] } },
{ "type": "Feature", "properties": { "visible_points": 17, "total_points": 85, "visibility_pct": 20.0 }, "geometry": { "type": "Point", "coordinates": [ -0.185606279962933, 51.806840826568106 ] } },
{ "type": "Feature", "properties": { "visible_points": 10, "total_points": 91, "visibility_pct": 10.989010989010989 }, "geometry": { "type": "Point", "coordinates": [ -0.185405402147233, 51.806837726949084 ] } },
{ "type": "Feature", "properties": { "visible_points": 0, "total_points": 94, "visibility_pct": 0.0 }, "geometry": { "type": "Point", "coordinates": [ -0.185204524368542, 51.806834626987396 ] } },
{ "type": "Feature", "properties": { "visible_points": 9, "total_points": 95, "visibility_pct": 9.4736842105263168 }, "geometry": { "type": "Point", "coordinates": [ -0.185003646525319, 51.806831526672767 ] } },
{ "type": "Feature", "properties": { "visible_points": 11, "total_points": 93, "visibility_pct": 11.827956989247312 }, "geometry": { "type": "Point", "coordinates": [ -0.184802767413708, 51.806828425686035 ] } },
{ "type": "Feature", "properties": { "visible_points": 9, "total_points": 88, "visibility_pct": 10.227272727272728 }, "geometry": { "type": "Point", "coordinates": [ -0.184601887194995, 51.806825324098689 ] } },
{ "type": "Feature", "properties": { "visible_points": 23, "total_points": 81, "visibility_pct": 28.39506172839506 }, "geometry": { "type": "Point", "coordinates": [ -0.184401007015973, 51.806822222167263 ] } },
{ "type": "Feature", "properties": { "visible_points": 22, "total_points": 74, "visibility_pct": 29.72972972972973 }, "geometry": { "type": "Point", "coordinates": [ -0.184200126876644, 51.806819119891742 ] } },
{ "type": "Feature", "properties": { "visible_points": 20, "total_points": 78, "visibility_pct": 25.641025641025639 }, "geometry": { "type": "Point", "coordinates": [ -0.185501517342224, 51.806947114198856 ] } },
{ "type": "Feature", "properties": { "visible_points": 9, "total_points": 81, "visibility_pct": 11.111111111111111 }, "geometry": { "type": "Point", "coordinates": [ -0.185300639050623, 51.806944014390723 ] } },
{ "type": "Feature", "properties": { "visible_points": 11, "total_points": 83, "visibility_pct": 13.253012048192772 }, "geometry": { "type": "Point", "coordinates": [ -0.185099760796034, 51.806940914239924 ] } },
{ "type": "Feature", "properties": { "visible_points": 11, "total_points": 84, "visibility_pct": 13.095238095238097 }, "geometry": { "type": "Point", "coordinates": [ -0.184898881837389, 51.806937813633361 ] } },
{ "type": "Feature", "properties": { "visible_points": 13, "total_points": 82, "visibility_pct": 15.853658536585366 }, "geometry": { "type": "Point", "coordinates": [ -0.184698001506984, 51.806934712276082 ] } },
{ "type": "Feature", "properties": { "visible_points": 21, "total_points": 77, "visibility_pct": 27.27272727272727 }, "geometry": { "type": "Point", "coordinates": [ -0.184497120767448, 51.806931610523456 ] } },
{ "type": "Feature", "properties": { "visible_points": 18, "total_points": 69, "visibility_pct": 26.086956521739129 }, "geometry": { "type": "Point", "coordinates": [ -0.185396754208579, 51.807053401723664 ] } },
{ "type": "Feature", "properties": { "visible_points": 16, "total_points": 71, "visibility_pct": 22.535211267605636 }, "geometry": { "type": "Point", "coordinates": [ -0.185195875441076, 51.80705030172642 ] } },
{ "type": "Feature", "properties": { "visible_points": 18, "total_points": 72, "visibility_pct": 25.0 }, "geometry": { "type": "Point", "coordinates": [ -0.184994996554176, 51.807047201371667 ] } },
{ "type": "Feature", "properties": { "visible_points": 22, "total_points": 72, "visibility_pct": 30.555555555555557 }, "geometry": { "type": "Point", "coordinates": [ -0.184794116339769, 51.807044100359256 ] } },
{ "type": "Feature", "properties": { "visible_points": 12, "total_points": 60, "visibility_pct": 20.0 }, "geometry": { "type": "Point", "coordinates": [ -0.185091111318584, 51.807156588956168 ] } }
]
}
