{
"type": "FeatureCollection",
"name": "BROXB_11_walking",
"crs": { "type": "name", "properties": { "name": "urn:ogc:def:crs:OGC:1.3:CRS84" } },
"features": [
{"type":"Feature","properties":{"highway":"path","name":null,"category":"Shared path"},"geometry":{"type":"MultiLineString","coordinates":[[[-0.0549218,51.6841251],[-0.0549372,51.6841566],[-0.0549616,51.6842594],[-0.0549918,51.6845291],[-0.0549893,51.684602],[-0.0549766,51.684681],[-0.0547796,51.6853122],[-0.0544177,51.6859199],[-0.0543189,51.6860246],[-0.0541995,51.6861169],[-0.0538844,51.6863428],[-0.0537524,51.6866424],[-0.0536025,51.6869838],[-0.0535165,51.6873042],[-0.0535112,51.6873727],[-0.0534692,51.6876234],[-0.0529599,51.6882155],[-0.0526443,51.6883517],[-0.0523264,51.6886487],[-0.0515197,51.6891928],[-0.0514108,51.6892279],[-0.0508134,51.6893033],[-0.0506516,51.68934],[-0.050441,51.6895698],[-0.0503497,51.6896041],[-0.0499683,51.6896369],[-0.049639,51.6898551],[-0.0495202,51.6900231],[-0.0494959,51.6900721],[-0.049378,51.6903704],[-0.0493798,51.6906417],[-0.0494205,51.690991],[-0.0494313,51.6910833],[-0.049572,51.6912785],[-0.0496879,51.6914025],[-0.0499463,51.6916579],[-0.0500802,51.6917239],[-0.0504699,51.6918175],[-0.0506612,51.6919109],[-0.0508083,51.6920293]]]}},
{"type":"Feature","properties":{"highway":"path","name":null,"category":"Shared path"},"geometry":{"type":"MultiLineString","coordinates":[[[-0.0374909,51.689183],[-0.037452,51.6892078]]]}},
{"type":"Feature","properties":{"highway":"path","name":null,"category":"Shared path"},"geometry":{"type":"MultiLineString","coordinates":[[[-0.0463556,51.6932542],[-0.0459278,51.6936553],[-0.045825,51.6937513],[-0.0457085,51.6937874]]]}},
{"type":"Feature","properties":{"highway":"footway","name":null,"category":"Footpath (pedestrian only)"},"geometry":{"type":"MultiLineString","coordinates":[[[-0.0388121,51.6984514],[-0.0386646,51.698442],[-0.0384508,51.6983999],[-0.0382985,51.6983686],[-0.0382158,51.6983391]]]}},
{"type":"Feature","properties":{"highway":"path","name":null,"category":"Shared path"},"geometry":{"type":"MultiLineString","coordinates":[[[-0.0549893,51.684602],[-0.0548878,51.6846742],[-0.0548289,51.6847161],[-0.0548006,51.6847363],[-0.0544468,51.6850214],[-0.0525514,51.6865484],[-0.0514179,51.687468],[-0.0478958,51.6873339]]]}},
{"type":"Feature","properties":{"highway":"footway","name":null,"category":"Footpath (pedestrian only)"},"geometry":{"type":"MultiLineString","coordinates":[[[-0.0536607,51.6953357],[-0.0534437,51.6952115],[-0.0525211,51.6947832],[-0.0517945,51.6944668],[-0.0508627,51.6940413],[-0.0507009,51.69406]]]}},
{"type":"Feature","properties":{"highway":"path","name":null,"category":"Shared path"},"geometry":{"type":"MultiLineString","coordinates":[[[-0.052475,51.6924638],[-0.0524749,51.692561],[-0.0525634,51.6927157],[-0.0526421,51.6928186],[-0.0527489,51.6928991],[-0.0530033,51.6929268],[-0.0531732,51.692928],[-0.0533171,51.6929291],[-0.0534673,51.6929302],[-0.0538815,51.6929877],[-0.0540225,51.6930249],[-0.0544275,51.6930691],[-0.0548165,51.6930831],[-0.0550739,51.6931596],[-0.0551839,51.6932594],[-0.0554119,51.6933308],[-0.0555621,51.6934772],[-0.0558169,51.6936019],[-0.0558947,51.693675],[-0.0559993,51.6936351],[-0.0561495,51.6936384],[-0.0562461,51.6937016],[-0.0562729,51.6938014],[-0.056289,51.693956],[-0.0563668,51.6939859],[-0.0565037,51.694065]]]}},
{"type":"Feature","properties":{"highway":"path","name":null,"category":"Shared path"},"geometry":{"type":"MultiLineString","coordinates":[[[-0.0515737,51.6923682],[-0.0515763,51.6924014],[-0.0517239,51.6924181],[-0.0519599,51.692438],[-0.0523166,51.692453],[-0.052475,51.6924638],[-0.0528531,51.6924895],[-0.0529401,51.6925284],[-0.0530355,51.692571],[-0.0532742,51.6927074],[-0.0533082,51.6927176],[-0.0536175,51.6928171],[-0.0538815,51.6929877],[-0.0539313,51.6930199],[-0.0540654,51.6932145],[-0.0540575,51.6933034],[-0.0541271,51.6934688],[-0.0542907,51.6935836],[-0.0542881,51.6936467],[-0.0542138,51.6937381]]]}},
{"type":"Feature","properties":{"highway":"path","name":null,"category":"Shared path"},"geometry":{"type":"MultiLineString","coordinates":[[[-0.0511255,51.6920138],[-0.0511701,51.692059],[-0.0515683,51.692305],[-0.0515737,51.6923682]]]}},
{"type":"Feature","properties":{"highway":"path","name":null,"category":"Shared path"},"geometry":{"type":"MultiLineString","coordinates":[[[-0.0527489,51.6928991],[-0.0528719,51.6927705],[-0.0528933,51.6926059],[-0.0529401,51.6925284]]]}},
{"type":"Feature","properties":{"highway":"path","name":null,"category":"Shared path"},"geometry":{"type":"MultiLineString","coordinates":[[[-0.0511497,51.6926361],[-0.0510451,51.6928822]]]}},
{"type":"Feature","properties":{"highway":"path","name":null,"category":"Shared path"},"geometry":{"type":"MultiLineString","coordinates":[[[-0.0524749,51.692561],[-0.0523363,51.6925457],[-0.0520601,51.6925241],[-0.0517275,51.6924875],[-0.0516253,51.6924443],[-0.0515763,51.6924014]]]}},
{"type":"Feature","properties":{"highway":"path","name":null,"category":"Shared path"},"geometry":{"type":"MultiLineString","coordinates":[[[-0.0517275,51.6924875],[-0.051529,51.6926072],[-0.0512715,51.6925956],[-0.0511497,51.6926361]]]}},
{"type":"Feature","properties":{"highway":"path","name":null,"category":"Shared path"},"geometry":{"type":"MultiLineString","coordinates":[[[-0.0394514,51.6927554],[-0.039342,51.6931537],[-0.0396044,51.6931931],[-0.0397648,51.6931926],[-0.0399518,51.6927981],[-0.0400585,51.6926019],[-0.040064,51.6925918],[-0.0401465,51.6924037]]]}},
{"type":"Feature","properties":{"highway":"path","name":null,"category":"Shared path"},"geometry":{"type":"MultiLineString","coordinates":[[[-0.0421065,51.6905366],[-0.0422405,51.6905787],[-0.0429592,51.6908528],[-0.043141,51.6909285],[-0.0432945,51.6909924],[-0.0434849,51.6910822],[-0.0435542,51.6911269]]]}},
{"type":"Feature","properties":{"highway":"path","name":null,"category":"Shared path"},"geometry":{"type":"MultiLineString","coordinates":[[[-0.0399518,51.6927981],[-0.0397014,51.6927346],[-0.0394514,51.6927554],[-0.0393747,51.6927372],[-0.0388796,51.6926202],[-0.0387401,51.6925254],[-0.0388554,51.6921929],[-0.0387669,51.6921463],[-0.0387508,51.6920649],[-0.0388075,51.69169],[-0.038901,51.6915262],[-0.0389922,51.6913333],[-0.0390486,51.6910889],[-0.0391478,51.690881],[-0.0391468,51.6908667],[-0.0391424,51.6908012],[-0.0391432,51.6907912],[-0.0391532,51.6906665],[-0.0391941,51.6905313],[-0.0392175,51.6904537],[-0.0393946,51.6902043],[-0.0395394,51.6900929],[-0.0396333,51.690038],[-0.0399176,51.6900164],[-0.0402958,51.6900713],[-0.0409476,51.690201],[-0.0415162,51.6903373],[-0.041779,51.6904055],[-0.0421065,51.6905366],[-0.0421224,51.690625],[-0.0421486,51.6907664]]]}},
{"type":"Feature","properties":{"highway":"path","name":null,"category":"Shared path"},"geometry":{"type":"MultiLineString","coordinates":[[[-0.0408161,51.6905202],[-0.0409476,51.690201]]]}},
{"type":"Feature","properties":{"highway":"path","name":null,"category":"Shared path"},"geometry":{"type":"MultiLineString","coordinates":[[[-0.0391941,51.6905313],[-0.0393329,51.6904737],[-0.0395072,51.6904421],[-0.0396655,51.6904354],[-0.0398666,51.690457],[-0.0400785,51.6904986],[-0.0408161,51.6905202],[-0.0409476,51.6905385],[-0.0411809,51.6905202],[-0.041484,51.6905302],[-0.0417951,51.6905851],[-0.0420607,51.6906782],[-0.0421486,51.6907664],[-0.0424201,51.6910024],[-0.0424989,51.69109],[-0.0426631,51.6912696],[-0.0428584,51.6912814]]]}},
{"type":"Feature","properties":{"highway":"path","name":null,"category":"Shared path"},"geometry":{"type":"MultiLineString","coordinates":[[[-0.0401465,51.6924037],[-0.0401747,51.6923242],[-0.0403381,51.6918147]]]}},
{"type":"Feature","properties":{"highway":"path","name":null,"category":"Shared path"},"geometry":{"type":"MultiLineString","coordinates":[[[-0.0398676,51.6911106],[-0.0398609,51.6910112],[-0.0398999,51.6909263],[-0.0398955,51.6908484],[-0.0399669,51.6908147],[-0.0400466,51.6908468],[-0.0401386,51.6908429],[-0.0402407,51.6908597],[-0.0402612,51.6909337],[-0.0402951,51.6909662]]]}},
{"type":"Feature","properties":{"highway":"path","name":null,"category":"Shared path"},"geometry":{"type":"MultiLineString","coordinates":[[[-0.0409476,51.6905385],[-0.0408975,51.6907076],[-0.0408052,51.6910187]]]}},
{"type":"Feature","properties":{"highway":"path","name":null,"category":"Shared path"},"geometry":{"type":"MultiLineString","coordinates":[[[-0.0399514,51.6918217],[-0.0400343,51.6918115],[-0.0401375,51.6917988],[-0.0403381,51.6918147],[-0.0405774,51.6918321],[-0.0407685,51.691845],[-0.0411313,51.6918714],[-0.0413097,51.6919086],[-0.041417,51.6920033],[-0.0415189,51.692168]]]}},
{"type":"Feature","properties":{"highway":"path","name":null,"category":"Shared path"},"geometry":{"type":"MultiLineString","coordinates":[[[-0.040418,51.6922998],[-0.0404534,51.69231],[-0.0408242,51.6922983],[-0.0410844,51.6923349],[-0.0412213,51.6923326],[-0.0412475,51.6923347],[-0.0412976,51.6923395],[-0.0414867,51.6923575],[-0.0418327,51.6923924],[-0.0418246,51.6924273],[-0.0418129,51.6924735],[-0.041775,51.692622],[-0.0417335,51.6927848]]]}},
{"type":"Feature","properties":{"highway":"path","name":null,"category":"Shared path"},"geometry":{"type":"MultiLineString","coordinates":[[[-0.0394514,51.6927554],[-0.0394808,51.6925531],[-0.0395807,51.6924882],[-0.0397445,51.6924766],[-0.0399798,51.692396],[-0.0401747,51.6923242]]]}},
{"type":"Feature","properties":{"highway":"path","name":null,"category":"Shared path"},"geometry":{"type":"MultiLineString","coordinates":[[[-0.0391478,51.690881],[-0.0392446,51.6909006],[-0.0396525,51.6909831],[-0.0398676,51.6911106],[-0.0399442,51.6911358]]]}},
{"type":"Feature","properties":{"highway":"path","name":null,"category":"Shared path"},"geometry":{"type":"MultiLineString","coordinates":[[[-0.0395807,51.6924882],[-0.0395099,51.6923459],[-0.0395716,51.6921031],[-0.0396467,51.6919634],[-0.0397996,51.691857],[-0.0399514,51.6918217]]]}},
{"type":"Feature","properties":{"highway":"path","name":null,"category":"Shared path"},"geometry":{"type":"MultiLineString","coordinates":[[[-0.0402992,51.6926196],[-0.0407813,51.6926551],[-0.0416648,51.6927754],[-0.0417335,51.6927848]]]}},
{"type":"Feature","properties":{"highway":"path","name":null,"category":"Shared path"},"geometry":{"type":"MultiLineString","coordinates":[[[-0.0418129,51.6924735],[-0.0415454,51.6924511]]]}},
{"type":"Feature","properties":{"highway":"path","name":null,"category":"Shared path"},"geometry":{"type":"MultiLineString","coordinates":[[[-0.0414867,51.6923575],[-0.0415103,51.6922188],[-0.0415189,51.692168],[-0.0416533,51.6918023],[-0.0417715,51.6914266],[-0.0418381,51.6913155],[-0.0419588,51.6912984]]]}},
{"type":"Feature","properties":{"highway":"path","name":null,"category":"Shared path"},"geometry":{"type":"MultiLineString","coordinates":[[[-0.0418129,51.6924735],[-0.0422914,51.6925128],[-0.042511,51.6925308],[-0.042785,51.6925494],[-0.0428633,51.6925548]]]}},
{"type":"Feature","properties":{"highway":"path","name":null,"category":"Shared path"},"geometry":{"type":"MultiLineString","coordinates":[[[-0.0400785,51.6904986],[-0.0397191,51.6906616],[-0.0394697,51.690733],[-0.0392497,51.6907763],[-0.0391432,51.6907912]]]}},
{"type":"Feature","properties":{"highway":"path","name":null,"category":"Shared path"},"geometry":{"type":"MultiLineString","coordinates":[[[-0.0411621,51.6925437],[-0.041775,51.692622]]]}},
{"type":"Feature","properties":{"highway":"path","name":null,"category":"Shared path"},"geometry":{"type":"MultiLineString","coordinates":[[[-0.0424989,51.69109],[-0.0424174,51.6911288],[-0.0423463,51.6911412],[-0.0422847,51.6911358],[-0.0422538,51.6911188],[-0.0422565,51.6910872],[-0.042276,51.6910745],[-0.0423108,51.691072],[-0.0423343,51.6910889],[-0.0423329,51.6911144],[-0.0423028,51.6911239],[-0.0422773,51.691118],[-0.0422739,51.6911067],[-0.0422779,51.6910926],[-0.0422927,51.6910855],[-0.0423115,51.6910893],[-0.0423162,51.6911026],[-0.0423034,51.6911101]]]}},
{"type":"Feature","properties":{"highway":"path","name":null,"category":"Shared path"},"geometry":{"type":"MultiLineString","coordinates":[[[-0.0428633,51.6925548],[-0.0430235,51.6926269],[-0.0430383,51.6926326],[-0.0430947,51.6928066],[-0.0430772,51.6928596],[-0.0430734,51.6929685],[-0.0430391,51.6930751],[-0.0430384,51.6932135],[-0.0430683,51.6933024],[-0.043074,51.6933395],[-0.0430478,51.693381]]]}},
{"type":"Feature","properties":{"highway":"path","name":null,"category":"Shared path"},"geometry":{"type":"MultiLineString","coordinates":[[[-0.0424764,51.6928979],[-0.0425655,51.6928367],[-0.0427315,51.6927815],[-0.0429101,51.6927652],[-0.0430947,51.6928066]]]}},
{"type":"Feature","properties":{"highway":"path","name":null,"category":"Shared path"},"geometry":{"type":"MultiLineString","coordinates":[[[-0.0428633,51.6925548],[-0.0430075,51.6925287],[-0.0430987,51.6924323],[-0.0431202,51.6922577],[-0.0430585,51.6919019],[-0.0429539,51.6916658],[-0.0427688,51.6914813],[-0.0426631,51.6912696]]]}},
{"type":"Feature","properties":{"highway":"path","name":null,"category":"Shared path"},"geometry":{"type":"MultiLineString","coordinates":[[[-0.0413097,51.6919086],[-0.0413821,51.691724],[-0.0414304,51.6915877],[-0.0414706,51.6914929],[-0.0415457,51.6914314],[-0.0416369,51.6913699],[-0.0418381,51.6913155]]]}},
{"type":"Feature","properties":{"highway":"path","name":null,"category":"Shared path"},"geometry":{"type":"MultiLineString","coordinates":[[[-0.0409597,51.6911435],[-0.041419,51.6912005],[-0.0418458,51.6912535]]]}},
{"type":"Feature","properties":{"highway":"path","name":null,"category":"Shared path"},"geometry":{"type":"MultiLineString","coordinates":[[[-0.0400343,51.6918115],[-0.0400484,51.6916191],[-0.0400571,51.6915012],[-0.0401592,51.6912068],[-0.0403226,51.6910606],[-0.0405214,51.6910536],[-0.0406311,51.6910121],[-0.0408052,51.6910187],[-0.0409309,51.6910489],[-0.041211,51.6910955],[-0.0414345,51.6911208],[-0.0415851,51.6911378],[-0.0416488,51.6911492]]]}},
{"type":"Feature","properties":{"highway":"path","name":null,"category":"Shared path"},"geometry":{"type":"MultiLineString","coordinates":[[[-0.040902,51.6913158],[-0.0409597,51.6911435],[-0.040902,51.6911341],[-0.0408269,51.6911304],[-0.040764,51.691149]]]}},
{"type":"Feature","properties":{"highway":"path","name":null,"category":"Shared path"},"geometry":{"type":"MultiLineString","coordinates":[[[-0.0407685,51.691845],[-0.0408283,51.6915986],[-0.040902,51.6913158],[-0.0407303,51.6912824]]]}},
{"type":"Feature","properties":{"highway":"path","name":null,"category":"Shared path"},"geometry":{"type":"MultiLineString","coordinates":[[[-0.040902,51.6913158],[-0.0410575,51.6913499],[-0.0411538,51.6914046],[-0.041197,51.691463],[-0.0411968,51.6915115],[-0.0411537,51.6916313],[-0.0411577,51.6916945],[-0.0411771,51.6917456],[-0.0411724,51.6917844],[-0.0411313,51.6918714]]]}},
{"type":"Feature","properties":{"highway":"path","name":null,"category":"Shared path"},"geometry":{"type":"MultiLineString","coordinates":[[[-0.0400484,51.6916191],[-0.0403843,51.6916991],[-0.0403381,51.6918147]]]}},
{"type":"Feature","properties":{"highway":"path","name":null,"category":"Shared path"},"geometry":{"type":"MultiLineString","coordinates":[[[-0.0396655,51.6904354],[-0.0393946,51.6902043]]]}},
{"type":"Feature","properties":{"highway":"path","name":null,"category":"Shared path"},"geometry":{"type":"MultiLineString","coordinates":[[[-0.0395949,51.6932265],[-0.0396044,51.6931931],[-0.0397014,51.6927346],[-0.0396655,51.6926435],[-0.0395807,51.6924882]]]}},
{"type":"Feature","properties":{"highway":"path","name":null,"category":"Shared path"},"geometry":{"type":"MultiLineString","coordinates":[[[-0.0430947,51.6928066],[-0.0432079,51.6928459]]]}},
{"type":"Feature","properties":{"highway":"path","name":null,"category":"Shared path"},"geometry":{"type":"MultiLineString","coordinates":[[[-0.0434049,51.6927485],[-0.0432536,51.6926572],[-0.0432723,51.6925085],[-0.0432883,51.6923693],[-0.0431202,51.6922577]]]}},
{"type":"Feature","properties":{"highway":"path","name":null,"category":"Shared path"},"geometry":{"type":"MultiLineString","coordinates":[[[-0.0432723,51.6925085],[-0.0434983,51.6925404],[-0.0435627,51.6924639],[-0.0436646,51.6924173],[-0.0438631,51.6923708],[-0.0440241,51.6923209],[-0.0440992,51.6922877]]]}},
{"type":"Feature","properties":{"highway":"path","name":null,"category":"Shared path"},"geometry":{"type":"MultiLineString","coordinates":[[[-0.0430383,51.6926326],[-0.0432168,51.692689],[-0.0434049,51.6927485]]]}},
{"type":"Feature","properties":{"highway":"path","name":null,"category":"Shared path"},"geometry":{"type":"MultiLineString","coordinates":[[[-0.0407778,51.6911083],[-0.040764,51.691149]]]}},
{"type":"Feature","properties":{"highway":"path","name":null,"category":"Shared path"},"geometry":{"type":"MultiLineString","coordinates":[[[-0.040902,51.6911341],[-0.0409064,51.6911248],[-0.0409309,51.6910489]]]}},
{"type":"Feature","properties":{"highway":"path","name":null,"category":"Shared path"},"geometry":{"type":"MultiLineString","coordinates":[[[-0.0415454,51.6924511],[-0.0414867,51.6923575]]]}},
{"type":"Feature","properties":{"highway":"path","name":null,"category":"Shared path"},"geometry":{"type":"MultiLineString","coordinates":[[[-0.0412966,51.6908146],[-0.041211,51.6910955]]]}},
{"type":"Feature","properties":{"highway":"path","name":null,"category":"Shared path"},"geometry":{"type":"MultiLineString","coordinates":[[[-0.0408975,51.6907076],[-0.041105,51.6907396],[-0.0412238,51.6907672],[-0.0412966,51.6908146],[-0.0415177,51.6908414],[-0.0417371,51.6908644],[-0.0416488,51.6911492],[-0.0416442,51.6911695]]]}},
{"type":"Feature","properties":{"highway":"path","name":null,"category":"Shared path"},"geometry":{"type":"MultiLineString","coordinates":[[[-0.0406478,51.6915692],[-0.0408283,51.6915986]]]}},
{"type":"Feature","properties":{"highway":"path","name":null,"category":"Shared path"},"geometry":{"type":"MultiLineString","coordinates":[[[-0.0400395,51.6911672],[-0.0401592,51.6912068]]]}},
{"type":"Feature","properties":{"highway":"path","name":null,"category":"Shared path"},"geometry":{"type":"MultiLineString","coordinates":[[[-0.0399442,51.6911358],[-0.0400395,51.6911672]]]}},
{"type":"Feature","properties":{"highway":"path","name":null,"category":"Shared path"},"geometry":{"type":"MultiLineString","coordinates":[[[-0.0418381,51.6913155],[-0.0418458,51.6912535]]]}},
{"type":"Feature","properties":{"highway":"path","name":null,"category":"Shared path"},"geometry":{"type":"MultiLineString","coordinates":[[[-0.0424764,51.6928979],[-0.0430533,51.6929661],[-0.0430734,51.6929685]]]}},
{"type":"Feature","properties":{"highway":"path","name":null,"category":"Shared path"},"geometry":{"type":"MultiLineString","coordinates":[[[-0.0430947,51.6928066],[-0.0432168,51.692689],[-0.0432536,51.6926572]]]}},
{"type":"Feature","properties":{"highway":"path","name":null,"category":"Shared path"},"geometry":{"type":"MultiLineString","coordinates":[[[-0.0417335,51.6927848],[-0.0424764,51.6928979],[-0.0424967,51.692915],[-0.0426121,51.6930117],[-0.0428289,51.6930706],[-0.0430391,51.6930751]]]}},
{"type":"Feature","properties":{"highway":"path","name":null,"category":"Shared path"},"geometry":{"type":"MultiLineString","coordinates":[[[-0.0422914,51.6925128],[-0.0422943,51.6924838]]]}},
{"type":"Feature","properties":{"highway":"path","name":null,"category":"Shared path"},"geometry":{"type":"MultiLineString","coordinates":[[[-0.042511,51.6925308],[-0.0425062,51.6924988]]]}},
{"type":"Feature","properties":{"highway":"path","name":null,"category":"Shared path"},"geometry":{"type":"MultiLineString","coordinates":[[[-0.0402992,51.6926196],[-0.0400585,51.6926019]]]}},
{"type":"Feature","properties":{"highway":"path","name":null,"category":"Shared path"},"geometry":{"type":"MultiLineString","coordinates":[[[-0.042785,51.6925494],[-0.0427798,51.6925237]]]}},
{"type":"Feature","properties":{"highway":"path","name":null,"category":"Shared path"},"geometry":{"type":"MultiLineString","coordinates":[[[-0.0388554,51.6921929],[-0.0395099,51.6923459]]]}},
{"type":"Feature","properties":{"highway":"path","name":null,"category":"Shared path"},"geometry":{"type":"MultiLineString","coordinates":[[[-0.0392446,51.6909006],[-0.0392446,51.6909563]]]}},
{"type":"Feature","properties":{"highway":"path","name":null,"category":"Shared path"},"geometry":{"type":"MultiLineString","coordinates":[[[-0.0402951,51.6909662],[-0.0403042,51.6909749]]]}},
{"type":"Feature","properties":{"highway":"path","name":null,"category":"Shared path"},"geometry":{"type":"MultiLineString","coordinates":[[[-0.0403042,51.6909749],[-0.0403195,51.6909896],[-0.0403226,51.6910606]]]}},
{"type":"Feature","properties":{"highway":"path","name":null,"category":"Shared path"},"geometry":{"type":"MultiLineString","coordinates":[[[-0.0416442,51.6911695],[-0.0418634,51.6912037]]]}},
{"type":"Feature","properties":{"highway":"path","name":null,"category":"Shared path"},"geometry":{"type":"MultiLineString","coordinates":[[[-0.0417371,51.6908644],[-0.0418006,51.6908507],[-0.0419139,51.6908389]]]}},
{"type":"Feature","properties":{"highway":"path","name":null,"category":"Shared path"},"geometry":{"type":"MultiLineString","coordinates":[[[-0.0418006,51.6908507],[-0.0419268,51.691024],[-0.0418634,51.6912037],[-0.0418458,51.6912535]]]}},
{"type":"Feature","properties":{"highway":"path","name":null,"category":"Shared path"},"geometry":{"type":"MultiLineString","coordinates":[[[-0.040764,51.691149],[-0.0407303,51.6912824],[-0.040682,51.6914414],[-0.0406478,51.6915692],[-0.0405774,51.6918321]]]}},
{"type":"Feature","properties":{"highway":"path","name":null,"category":"Shared path"},"geometry":{"type":"MultiLineString","coordinates":[[[-0.0421486,51.6907664],[-0.0419139,51.6908389]]]}},
{"type":"Feature","properties":{"highway":"path","name":null,"category":"Shared path"},"geometry":{"type":"MultiLineString","coordinates":[[[-0.0415177,51.6908414],[-0.0415431,51.6907585]]]}},
{"type":"Feature","properties":{"highway":"footway","name":null,"category":"Footpath (pedestrian only)"},"geometry":{"type":"MultiLineString","coordinates":[[[-0.0432034,51.6933709],[-0.0431306,51.6933745],[-0.0430478,51.693381]]]}},
{"type":"Feature","properties":{"highway":"path","name":null,"category":"Shared path"},"geometry":{"type":"MultiLineString","coordinates":[[[-0.0419641,51.6872141],[-0.0419544,51.6871379],[-0.0419362,51.6870685]]]}},
{"type":"Feature","properties":{"highway":"path","name":null,"category":"Shared path"},"geometry":{"type":"MultiLineString","coordinates":[[[-0.0417588,51.6877865],[-0.0422081,51.6880006],[-0.0427124,51.6884396],[-0.0428548,51.688608],[-0.0430017,51.6887984],[-0.0432488,51.6892045],[-0.0434522,51.6896315],[-0.0436029,51.6902487],[-0.0438282,51.6904881],[-0.0440642,51.690548],[-0.0442783,51.6905227],[-0.0443646,51.6903884],[-0.0444929,51.6902766],[-0.0445148,51.6901556],[-0.0446216,51.6899175],[-0.0446323,51.6896448],[-0.0445143,51.6894453],[-0.0442461,51.6892391],[-0.0438384,51.6890861],[-0.0433883,51.6889584]]]}},
{"type":"Feature","properties":{"highway":"path","name":null,"category":"Shared path"},"geometry":{"type":"MultiLineString","coordinates":[[[-0.0430017,51.6887984],[-0.0433883,51.6889584],[-0.0433776,51.6887123],[-0.0435108,51.6886713],[-0.0435702,51.6886689]]]}},
{"type":"Feature","properties":{"highway":"path","name":null,"category":"Shared path"},"geometry":{"type":"MultiLineString","coordinates":[[[-0.0433776,51.6887123],[-0.0431108,51.6886773],[-0.0428548,51.688608]]]}},
{"type":"Feature","properties":{"highway":"path","name":null,"category":"Shared path"},"geometry":{"type":"MultiLineString","coordinates":[[[-0.0415644,51.6883518],[-0.041128,51.6882866],[-0.0407394,51.6882326],[-0.0402421,51.6881934]]]}},
{"type":"Feature","properties":{"highway":"path","name":null,"category":"Shared path"},"geometry":{"type":"MultiLineString","coordinates":[[[-0.0436029,51.6902487],[-0.0432166,51.6904917]]]}},
{"type":"Feature","properties":{"highway":"path","name":null,"category":"Shared path"},"geometry":{"type":"MultiLineString","coordinates":[[[-0.0413864,51.688998],[-0.0405774,51.6889185]]]}},
{"type":"Feature","properties":{"highway":"path","name":null,"category":"Shared path"},"geometry":{"type":"MultiLineString","coordinates":[[[-0.0419255,51.6873137],[-0.0421035,51.687244],[-0.0422135,51.6872108]]]}},
{"type":"Feature","properties":{"highway":"path","name":null,"category":"Shared path"},"geometry":{"type":"MultiLineString","coordinates":[[[-0.0409541,51.6871821],[-0.0409687,51.6871618]]]}},
{"type":"Feature","properties":{"highway":"path","name":null,"category":"Shared path"},"geometry":{"type":"MultiLineString","coordinates":[[[-0.0327012,51.6879853],[-0.0330198,51.6878851]]]}},
{"type":"Feature","properties":{"highway":"path","name":null,"category":"Shared path"},"geometry":{"type":"MultiLineString","coordinates":[[[-0.0327395,51.6881285],[-0.0327204,51.6880795],[-0.0325719,51.687896],[-0.0326255,51.687881],[-0.0327012,51.6879853]]]}},
{"type":"Feature","properties":{"highway":"path","name":null,"category":"Shared path"},"geometry":{"type":"MultiLineString","coordinates":[[[-0.0330198,51.6878851],[-0.0329207,51.6877504],[-0.0329018,51.6877247]]]}},
{"type":"Feature","properties":{"highway":"path","name":null,"category":"Shared path"},"geometry":{"type":"MultiLineString","coordinates":[[[-0.0329207,51.6877504],[-0.0329608,51.6877463],[-0.0330573,51.6878744],[-0.0331637,51.6879066]]]}},
{"type":"Feature","properties":{"highway":"path","name":null,"category":"Shared path"},"geometry":{"type":"MultiLineString","coordinates":[[[-0.0329849,51.6876981],[-0.0331873,51.6876476]]]}},
{"type":"Feature","properties":{"highway":"path","name":null,"category":"Shared path"},"geometry":{"type":"MultiLineString","coordinates":[[[-0.0401747,51.6923242],[-0.0402435,51.6923116],[-0.0403401,51.6922967],[-0.040418,51.6922998]]]}},
{"type":"Feature","properties":{"highway":"path","name":null,"category":"Shared path"},"geometry":{"type":"MultiLineString","coordinates":[[[-0.0407685,51.691845],[-0.0406807,51.6921421],[-0.0410972,51.6921806],[-0.0415103,51.6922188]]]}},
{"type":"Feature","properties":{"highway":"path","name":null,"category":"Shared path"},"geometry":{"type":"MultiLineString","coordinates":[[[-0.0410972,51.6921806],[-0.0410608,51.6923028]]]}},
{"type":"Feature","properties":{"highway":"path","name":null,"category":"Shared path"},"geometry":{"type":"MultiLineString","coordinates":[[[-0.0435542,51.6911269],[-0.0436258,51.6911927],[-0.0436633,51.6912243],[-0.0436848,51.6912642],[-0.0436741,51.6913523]]]}},
{"type":"Feature","properties":{"highway":"path","name":null,"category":"Shared path"},"geometry":{"type":"MultiLineString","coordinates":[[[-0.0428584,51.6912814],[-0.0435542,51.6911269],[-0.0436609,51.6911049]]]}},
{"type":"Feature","properties":{"highway":"path","name":null,"category":"Shared path"},"geometry":{"type":"MultiLineString","coordinates":[[[-0.0436741,51.6913523],[-0.0437545,51.6914047],[-0.0438323,51.6915285],[-0.0438699,51.6916482],[-0.0439933,51.6918212],[-0.044184,51.691996]]]}},
{"type":"Feature","properties":{"highway":"path","name":null,"category":"Shared path"},"geometry":{"type":"MultiLineString","coordinates":[[[-0.0428584,51.6912814],[-0.0436741,51.6913523]]]}},
{"type":"Feature","properties":{"highway":"path","name":null,"category":"Shared path"},"geometry":{"type":"MultiLineString","coordinates":[[[-0.043141,51.6909285],[-0.0430679,51.6909649],[-0.0429874,51.6910264],[-0.0429177,51.6911012],[-0.0428667,51.691206],[-0.0428584,51.6912814]]]}},
{"type":"Feature","properties":{"highway":"path","name":null,"category":"Shared path"},"geometry":{"type":"MultiLineString","coordinates":[[[-0.0414345,51.6911208],[-0.041419,51.6912005]]]}},
{"type":"Feature","properties":{"highway":"path","name":null,"category":"Shared path"},"geometry":{"type":"MultiLineString","coordinates":[[[-0.0401465,51.6924037],[-0.040418,51.6924249],[-0.0407732,51.6924805],[-0.0408886,51.6924922],[-0.0411621,51.6925437]]]}},
{"type":"Feature","properties":{"highway":"footway","name":null,"category":"Footpath (pedestrian only)"},"geometry":{"type":"MultiLineString","coordinates":[[[-0.0350162,51.6922923],[-0.0350212,51.6922725]]]}},
{"type":"Feature","properties":{"highway":"footway","name":null,"category":"Footpath (pedestrian only)"},"geometry":{"type":"MultiLineString","coordinates":[[[-0.0349667,51.6922154],[-0.0349094,51.6921975]]]}},
{"type":"Feature","properties":{"highway":"footway","name":null,"category":"Footpath (pedestrian only)"},"geometry":{"type":"MultiLineString","coordinates":[[[-0.0345694,51.692338],[-0.034532,51.6923618]]]}},
{"type":"Feature","properties":{"highway":"footway","name":null,"category":"Footpath (pedestrian only)"},"geometry":{"type":"MultiLineString","coordinates":[[[-0.0348306,51.6923715],[-0.0347284,51.6922772],[-0.0346425,51.6923128],[-0.0345694,51.692338]]]}},
{"type":"Feature","properties":{"highway":"bridleway","name":"Park Lane (Bridleway Cheshunt 077)","category":"Bridleway"},"geometry":{"type":"MultiLineString","coordinates":[[[-0.0409687,51.6871618],[-0.0409908,51.687121],[-0.0419362,51.6870685],[-0.0420145,51.6870639],[-0.0429415,51.6870243],[-0.0431654,51.6869962],[-0.0433114,51.6869876],[-0.0435101,51.6869961],[-0.0436965,51.6870176],[-0.0441624,51.687164]]]}},
{"type":"Feature","properties":{"highway":"footway","name":"Park Lane","category":"Footpath (pedestrian only)"},"geometry":{"type":"MultiLineString","coordinates":[[[-0.0407085,51.6871316],[-0.04079,51.6871032]]]}},
{"type":"Feature","properties":{"highway":"footway","name":"Park Lane","category":"Footpath (pedestrian only)"},"geometry":{"type":"MultiLineString","coordinates":[[[-0.0408718,51.6871273],[-0.0409033,51.6871377],[-0.0409687,51.6871618]]]}},
{"type":"Feature","properties":{"highway":"footway","name":"Park Lane","category":"Footpath (pedestrian only)"},"geometry":{"type":"MultiLineString","coordinates":[[[-0.04079,51.6871032],[-0.0408282,51.6871138],[-0.0408718,51.6871273]]]}},
{"type":"Feature","properties":{"highway":"footway","name":"Park Lane","category":"Footpath (pedestrian only)"},"geometry":{"type":"MultiLineString","coordinates":[[[-0.0441624,51.687164],[-0.0442274,51.6871852]]]}},
{"type":"Feature","properties":{"highway":"footway","name":null,"category":"Footpath (pedestrian only)"},"geometry":{"type":"MultiLineString","coordinates":[[[-0.0433448,51.6934298],[-0.043337,51.693401],[-0.0433273,51.6933647]]]}},
{"type":"Feature","properties":{"highway":"footway","name":null,"category":"Footpath (pedestrian only)"},"geometry":{"type":"MultiLineString","coordinates":[[[-0.0453318,51.6938623],[-0.045293,51.6938623]]]}},
{"type":"Feature","properties":{"highway":"footway","name":null,"category":"Footpath (pedestrian only)"},"geometry":{"type":"MultiLineString","coordinates":[[[-0.0440192,51.6883663],[-0.0440835,51.6883276],[-0.0442298,51.6882768],[-0.0443528,51.6882671],[-0.0447623,51.6883312]]]}},
{"type":"Feature","properties":{"highway":"footway","name":null,"category":"Footpath (pedestrian only)"},"geometry":{"type":"MultiLineString","coordinates":[[[-0.044708,51.6939422],[-0.0447234,51.6939874],[-0.0447582,51.6939995]]]}},
{"type":"Feature","properties":{"highway":"footway","name":null,"category":"Footpath (pedestrian only)"},"geometry":{"type":"MultiLineString","coordinates":[[[-0.0452862,51.6939605],[-0.0452699,51.693979],[-0.0452286,51.6939929],[-0.0451761,51.693993],[-0.0451857,51.693811],[-0.0451919,51.6936638]]]}},
{"type":"Feature","properties":{"highway":"footway","name":null,"category":"Footpath (pedestrian only)"},"geometry":{"type":"MultiLineString","coordinates":[[[-0.0446582,51.6938263],[-0.0446914,51.6938258]]]}},
{"type":"Feature","properties":{"highway":"footway","name":null,"category":"Footpath (pedestrian only)"},"geometry":{"type":"MultiLineString","coordinates":[[[-0.0448268,51.6935454],[-0.0447828,51.6939782],[-0.0447582,51.6939995],[-0.0446987,51.6946344],[-0.0445966,51.6960773],[-0.0445277,51.6968406],[-0.0444429,51.6973936],[-0.0443435,51.697814],[-0.0439445,51.6990193],[-0.0433726,51.7007576]]]}},
{"type":"Feature","properties":{"highway":"footway","name":null,"category":"Footpath (pedestrian only)"},"geometry":{"type":"MultiLineString","coordinates":[[[-0.0451177,51.6882246],[-0.0451179,51.6881911]]]}},
{"type":"Feature","properties":{"highway":"footway","name":null,"category":"Footpath (pedestrian only)"},"geometry":{"type":"MultiLineString","coordinates":[[[-0.0450047,51.6882782],[-0.0450885,51.6882911]]]}},
{"type":"Feature","properties":{"highway":"footway","name":null,"category":"Footpath (pedestrian only)"},"geometry":{"type":"MultiLineString","coordinates":[[[-0.0451179,51.6881911],[-0.0450922,51.6881658],[-0.0450742,51.6881479]]]}},
{"type":"Feature","properties":{"highway":"footway","name":null,"category":"Footpath (pedestrian only)"},"geometry":{"type":"MultiLineString","coordinates":[[[-0.0450885,51.6882911],[-0.0451049,51.6882538],[-0.0451177,51.6882246]]]}},
{"type":"Feature","properties":{"highway":"footway","name":null,"category":"Footpath (pedestrian only)"},"geometry":{"type":"MultiLineString","coordinates":[[[-0.0449666,51.6883775],[-0.0449887,51.6883223],[-0.0450047,51.6882782]]]}},
{"type":"Feature","properties":{"highway":"footway","name":null,"category":"Footpath (pedestrian only)"},"geometry":{"type":"MultiLineString","coordinates":[[[-0.045448,51.6885503],[-0.0452929,51.6885429],[-0.0452871,51.6885756]]]}},
{"type":"Feature","properties":{"highway":"footway","name":null,"category":"Footpath (pedestrian only)"},"geometry":{"type":"MultiLineString","coordinates":[[[-0.0464307,51.6873286],[-0.0464262,51.6873517],[-0.0463326,51.6873493],[-0.0461282,51.6873866],[-0.0458512,51.6879453],[-0.0456791,51.6883663],[-0.0456245,51.6885658]]]}},
{"type":"Feature","properties":{"highway":"footway","name":null,"category":"Footpath (pedestrian only)"},"geometry":{"type":"MultiLineString","coordinates":[[[-0.0452871,51.6885756],[-0.0452007,51.6885721],[-0.0451107,51.6885683]]]}},
{"type":"Feature","properties":{"highway":"footway","name":null,"category":"Footpath (pedestrian only)"},"geometry":{"type":"MultiLineString","coordinates":[[[-0.0451107,51.6885683],[-0.0450613,51.6885705]]]}},
{"type":"Feature","properties":{"highway":"footway","name":null,"category":"Footpath (pedestrian only)"},"geometry":{"type":"MultiLineString","coordinates":[[[-0.0456245,51.6885658],[-0.0455369,51.6885574],[-0.045448,51.6885503]]]}},
{"type":"Feature","properties":{"highway":"footway","name":null,"category":"Footpath (pedestrian only)"},"geometry":{"type":"MultiLineString","coordinates":[[[-0.0344124,51.6892826],[-0.034412,51.6892716],[-0.0344419,51.6892809],[-0.0344795,51.6892856]]]}},
{"type":"Feature","properties":{"highway":"footway","name":null,"category":"Footpath (pedestrian only)"},"geometry":{"type":"MultiLineString","coordinates":[[[-0.0344095,51.6893468],[-0.0344136,51.6893209],[-0.0344124,51.6892826]]]}},
{"type":"Feature","properties":{"highway":"footway","name":null,"category":"Footpath (pedestrian only)"},"geometry":{"type":"MultiLineString","coordinates":[[[-0.0343294,51.6894844],[-0.0343096,51.6894363],[-0.0343033,51.6894008]]]}},
{"type":"Feature","properties":{"highway":"footway","name":null,"category":"Footpath (pedestrian only)"},"geometry":{"type":"MultiLineString","coordinates":[[[-0.0343033,51.6894008],[-0.034302,51.689361],[-0.0344098,51.6893695],[-0.0344095,51.6893468]]]}},
{"type":"Feature","properties":{"highway":"footway","name":null,"category":"Footpath (pedestrian only)"},"geometry":{"type":"MultiLineString","coordinates":[[[-0.0331236,51.6887188],[-0.0331079,51.6887195],[-0.0330876,51.6887203],[-0.0330658,51.6887378]]]}},
{"type":"Feature","properties":{"highway":"path","name":null,"category":"Shared path"},"geometry":{"type":"MultiLineString","coordinates":[[[-0.050815,51.6929848],[-0.0494259,51.6926699],[-0.0490022,51.6925738]]]}},
{"type":"Feature","properties":{"highway":"path","name":null,"category":"Shared path"},"geometry":{"type":"MultiLineString","coordinates":[[[-0.0372439,51.6895603],[-0.0372432,51.6895909],[-0.0373068,51.6896669]]]}},
{"type":"Feature","properties":{"highway":"path","name":null,"category":"Shared path"},"geometry":{"type":"MultiLineString","coordinates":[[[-0.039509,51.6880135],[-0.0394047,51.6879926],[-0.0393498,51.6879904],[-0.0392932,51.6880003],[-0.0391923,51.6880222],[-0.0390985,51.6880343],[-0.0390406,51.6880422]]]}},
{"type":"Feature","properties":{"highway":"path","name":null,"category":"Shared path"},"geometry":{"type":"MultiLineString","coordinates":[[[-0.0387159,51.6884838],[-0.0386172,51.6884939],[-0.0385057,51.6885104],[-0.0384102,51.6885214],[-0.0383358,51.6885203],[-0.0382774,51.6885082],[-0.0382155,51.6884808],[-0.0381677,51.6884413],[-0.0381288,51.6883941],[-0.0381126,51.6883683],[-0.0380952,51.6883612],[-0.038032,51.6884334]]]}},
{"type":"Feature","properties":{"highway":"path","name":null,"category":"Shared path"},"geometry":{"type":"MultiLineString","coordinates":[[[-0.03846,51.6887734],[-0.0384197,51.6886911],[-0.0383995,51.6886442],[-0.0383872,51.688619],[-0.0383677,51.6885883],[-0.0383323,51.6885532],[-0.0382934,51.6885225],[-0.0382726,51.6885131],[-0.0382456,51.6885071],[-0.0382049,51.6884972],[-0.0381235,51.6884906],[-0.038035,51.6884972],[-0.0379937,51.6885053],[-0.0379748,51.6885005],[-0.038032,51.6884334]]]}},
{"type":"Feature","properties":{"highway":"path","name":null,"category":"Shared path"},"geometry":{"type":"MultiLineString","coordinates":[[[-0.0382726,51.6885131],[-0.0382774,51.6885082]]]}},
{"type":"Feature","properties":{"highway":"footway","name":null,"category":"Footpath (pedestrian only)"},"geometry":{"type":"MultiLineString","coordinates":[[[-0.033539,51.6909867],[-0.0334899,51.6909619],[-0.0331264,51.6909876]]]}},
{"type":"Feature","properties":{"highway":"footway","name":null,"category":"Footpath (pedestrian only)"},"geometry":{"type":"MultiLineString","coordinates":[[[-0.0367178,51.6934921],[-0.036702,51.693553],[-0.0366799,51.6936561]]]}},
{"type":"Feature","properties":{"highway":"path","name":null,"category":"Shared path"},"geometry":{"type":"MultiLineString","coordinates":[[[-0.0357468,51.6934856],[-0.0357234,51.6935999]]]}},
{"type":"Feature","properties":{"highway":"path","name":null,"category":"Shared path"},"geometry":{"type":"MultiLineString","coordinates":[[[-0.0307543,51.6937497],[-0.0310465,51.6939926],[-0.0310842,51.6940032],[-0.0313023,51.6939431]]]}},
{"type":"Feature","properties":{"highway":"path","name":null,"category":"Shared path"},"geometry":{"type":"MultiLineString","coordinates":[[[-0.0330625,51.6970649],[-0.0329695,51.69706],[-0.0325965,51.6970517],[-0.0325134,51.6970499],[-0.0324789,51.6974252],[-0.0324884,51.6974719]]]}},
{"type":"Feature","properties":{"highway":"path","name":null,"category":"Shared path"},"geometry":{"type":"MultiLineString","coordinates":[[[-0.0326087,51.6968974],[-0.0326055,51.6969379],[-0.0325965,51.6970517]]]}},
{"type":"Feature","properties":{"highway":"path","name":null,"category":"Shared path"},"geometry":{"type":"MultiLineString","coordinates":[[[-0.0326055,51.6969379],[-0.0323674,51.6969297],[-0.0322008,51.696921],[-0.0321028,51.6969215],[-0.0320351,51.6969321],[-0.0319502,51.6969297],[-0.0318831,51.6969267]]]}},
{"type":"Feature","properties":{"highway":"footway","name":null,"category":"Footpath (pedestrian only)"},"geometry":{"type":"MultiLineString","coordinates":[[[-0.0331374,51.6957655],[-0.0332315,51.6957936],[-0.0332887,51.6958302],[-0.0333584,51.6958102],[-0.03343,51.695767],[-0.0335033,51.695746],[-0.0335659,51.695726],[-0.0335784,51.6957061],[-0.0335837,51.6956861]]]}},
{"type":"Feature","properties":{"highway":"footway","name":null,"category":"Footpath (pedestrian only)"},"geometry":{"type":"MultiLineString","coordinates":[[[-0.0490625,51.6924757],[-0.0488833,51.6924374],[-0.0489105,51.6923869],[-0.0489342,51.692343],[-0.0494754,51.6924403],[-0.0495035,51.6924005]]]}},
{"type":"Feature","properties":{"highway":"footway","name":null,"category":"Footpath (pedestrian only)"},"geometry":{"type":"MultiLineString","coordinates":[[[-0.0343294,51.6894844],[-0.0343356,51.6894952],[-0.0342863,51.6895054],[-0.0342355,51.6895181],[-0.0341195,51.6895472],[-0.0340095,51.6895991],[-0.0339136,51.6896644],[-0.033872,51.6896902],[-0.0338553,51.6897007]]]}},
{"type":"Feature","properties":{"highway":"footway","name":null,"category":"Footpath (pedestrian only)"},"geometry":{"type":"MultiLineString","coordinates":[[[-0.0342431,51.6886014],[-0.0343008,51.6886019],[-0.0343451,51.6886027]]]}},
{"type":"Feature","properties":{"highway":"footway","name":null,"category":"Footpath (pedestrian only)"},"geometry":{"type":"MultiLineString","coordinates":[[[-0.0343451,51.6886027],[-0.0343604,51.6886036],[-0.0343509,51.6887101],[-0.034337,51.6888667],[-0.0343164,51.6891433],[-0.0343763,51.6891511],[-0.0343736,51.6892326],[-0.0344103,51.6892359],[-0.034412,51.6892716]]]}},
{"type":"Feature","properties":{"highway":"footway","name":null,"category":"Footpath (pedestrian only)"},"geometry":{"type":"MultiLineString","coordinates":[[[-0.0343763,51.6891511],[-0.0344868,51.6891532]]]}},
{"type":"Feature","properties":{"highway":"footway","name":null,"category":"Footpath (pedestrian only)"},"geometry":{"type":"MultiLineString","coordinates":[[[-0.0342863,51.6895054],[-0.0342941,51.6895191]]]}},
{"type":"Feature","properties":{"highway":"footway","name":null,"category":"Footpath (pedestrian only)"},"geometry":{"type":"MultiLineString","coordinates":[[[-0.0343102,51.689544],[-0.0344371,51.6895479],[-0.0346079,51.6895435],[-0.0346803,51.6895646],[-0.0347697,51.6896355],[-0.0348064,51.6896671],[-0.034826,51.6896776],[-0.0348659,51.6896765]]]}},
{"type":"Feature","properties":{"highway":"footway","name":null,"category":"Footpath (pedestrian only)"},"geometry":{"type":"MultiLineString","coordinates":[[[-0.034532,51.6923618],[-0.0345167,51.6923675],[-0.0344979,51.6923756]]]}},
{"type":"Feature","properties":{"highway":"footway","name":null,"category":"Footpath (pedestrian only)"},"geometry":{"type":"MultiLineString","coordinates":[[[-0.0344979,51.6923756],[-0.0344166,51.6924047],[-0.0344371,51.6925025],[-0.0344421,51.6925105],[-0.0344631,51.6925438]]]}},
{"type":"Feature","properties":{"highway":"footway","name":null,"category":"Footpath (pedestrian only)"},"geometry":{"type":"MultiLineString","coordinates":[[[-0.0344631,51.6925438],[-0.034461,51.6925731],[-0.0344568,51.6926136]]]}},
{"type":"Feature","properties":{"highway":"footway","name":null,"category":"Footpath (pedestrian only)"},"geometry":{"type":"MultiLineString","coordinates":[[[-0.0344515,51.6926935],[-0.0344568,51.6926136]]]}},
{"type":"Feature","properties":{"highway":"footway","name":null,"category":"Footpath (pedestrian only)"},"geometry":{"type":"MultiLineString","coordinates":[[[-0.0341038,51.6920369],[-0.0341081,51.6919832]]]}},
{"type":"Feature","properties":{"highway":"footway","name":null,"category":"Footpath (pedestrian only)"},"geometry":{"type":"MultiLineString","coordinates":[[[-0.0505022,51.6939329],[-0.0505061,51.693949]]]}},
{"type":"Feature","properties":{"highway":"path","name":null,"category":"Shared path"},"geometry":{"type":"MultiLineString","coordinates":[[[-0.0504089,51.6939409],[-0.0504094,51.6938848],[-0.0504428,51.6938731]]]}},
{"type":"Feature","properties":{"highway":"path","name":null,"category":"Shared path"},"geometry":{"type":"MultiLineString","coordinates":[[[-0.0504934,51.6938947],[-0.050483,51.6938774],[-0.0504725,51.6938705]]]}},
{"type":"Feature","properties":{"highway":"footway","name":null,"category":"Footpath (pedestrian only)"},"geometry":{"type":"MultiLineString","coordinates":[[[-0.0476399,51.6937997],[-0.0477989,51.6938046],[-0.0478263,51.6938043]]]}},
{"type":"Feature","properties":{"highway":"footway","name":null,"category":"Footpath (pedestrian only)"},"geometry":{"type":"MultiLineString","coordinates":[[[-0.0478905,51.6938054],[-0.0479666,51.6938085]]]}},
{"type":"Feature","properties":{"highway":"footway","name":null,"category":"Footpath (pedestrian only)"},"geometry":{"type":"MultiLineString","coordinates":[[[-0.0345657,51.6928286],[-0.0345634,51.6928553]]]}},
{"type":"Feature","properties":{"highway":"footway","name":null,"category":"Footpath (pedestrian only)"},"geometry":{"type":"MultiLineString","coordinates":[[[-0.0345619,51.6928685],[-0.0345602,51.6928843],[-0.0345591,51.6929179]]]}},
{"type":"Feature","properties":{"highway":"footway","name":null,"category":"Footpath (pedestrian only)"},"geometry":{"type":"MultiLineString","coordinates":[[[-0.0345634,51.6928553],[-0.0345619,51.6928685]]]}},
{"type":"Feature","properties":{"highway":"footway","name":null,"category":"Footpath (pedestrian only)"},"geometry":{"type":"MultiLineString","coordinates":[[[-0.0466475,51.6947982],[-0.0469303,51.6947991]]]}},
{"type":"Feature","properties":{"highway":"footway","name":null,"category":"Footpath (pedestrian only)"},"geometry":{"type":"MultiLineString","coordinates":[[[-0.0456929,51.695891],[-0.0456812,51.6960415],[-0.0456721,51.6961755],[-0.0456673,51.6962519]]]}},
{"type":"Feature","properties":{"highway":"footway","name":"Albury Walk","category":"Footpath (pedestrian only)"},"geometry":{"type":"MultiLineString","coordinates":[[[-0.0396671,51.6934275],[-0.0396687,51.6934438],[-0.0396684,51.6934708],[-0.0396801,51.6934954]]]}},
{"type":"Feature","properties":{"highway":"footway","name":"Albury Walk","category":"Footpath (pedestrian only)"},"geometry":{"type":"MultiLineString","coordinates":[[[-0.0396709,51.6933634],[-0.0396674,51.6933896],[-0.0396672,51.693396]]]}},
{"type":"Feature","properties":{"highway":"footway","name":"Albury Walk","category":"Footpath (pedestrian only)"},"geometry":{"type":"MultiLineString","coordinates":[[[-0.0396672,51.693396],[-0.0396663,51.69342],[-0.0396671,51.6934275]]]}},
{"type":"Feature","properties":{"highway":"footway","name":null,"category":"Footpath (pedestrian only)"},"geometry":{"type":"MultiLineString","coordinates":[[[-0.0440192,51.6883663],[-0.0439594,51.6883453],[-0.0439348,51.6883367],[-0.043901,51.6883261],[-0.0438711,51.6883274],[-0.0438326,51.6883266]]]}},
{"type":"Feature","properties":{"highway":"footway","name":null,"category":"Footpath (pedestrian only)"},"geometry":{"type":"MultiLineString","coordinates":[[[-0.0438326,51.6883266],[-0.0438252,51.6882821],[-0.0438034,51.6882478],[-0.0437593,51.6882073],[-0.0437425,51.6881668],[-0.0437297,51.6881068],[-0.043747,51.6880608],[-0.0437788,51.688015],[-0.0438604,51.6879537],[-0.0438884,51.6879302],[-0.0439165,51.6878933]]]}},
{"type":"Feature","properties":{"highway":"footway","name":null,"category":"Footpath (pedestrian only)"},"geometry":{"type":"MultiLineString","coordinates":[[[-0.0438112,51.6883829],[-0.0438326,51.6883266]]]}},
{"type":"Feature","properties":{"highway":"footway","name":null,"category":"Footpath (pedestrian only)"},"geometry":{"type":"MultiLineString","coordinates":[[[-0.0440192,51.6883663],[-0.0439834,51.6883916],[-0.0439733,51.6884075]]]}},
{"type":"Feature","properties":{"highway":"footway","name":null,"category":"Footpath (pedestrian only)"},"geometry":{"type":"MultiLineString","coordinates":[[[-0.0433726,51.7007576],[-0.043353,51.700817],[-0.0433276,51.7008988]]]}},
{"type":"Feature","properties":{"highway":"path","name":null,"category":"Shared path"},"geometry":{"type":"MultiLineString","coordinates":[[[-0.0504087,51.693959],[-0.0504089,51.6939409]]]}},
{"type":"Feature","properties":{"highway":"footway","name":null,"category":"Footpath (pedestrian only)"},"geometry":{"type":"MultiLineString","coordinates":[[[-0.034623,51.6972118],[-0.0346236,51.6971767]]]}},
{"type":"Feature","properties":{"highway":"footway","name":null,"category":"Footpath (pedestrian only)"},"geometry":{"type":"MultiLineString","coordinates":[[[-0.034355,51.6973623],[-0.0343537,51.6973097]]]}},
{"type":"Feature","properties":{"highway":"footway","name":null,"category":"Footpath (pedestrian only)"},"geometry":{"type":"MultiLineString","coordinates":[[[-0.0345934,51.697631],[-0.0345845,51.6977202]]]}},
{"type":"Feature","properties":{"highway":"footway","name":null,"category":"Footpath (pedestrian only)"},"geometry":{"type":"MultiLineString","coordinates":[[[-0.0395407,51.6933436],[-0.0390523,51.6932785],[-0.0388735,51.6932598],[-0.0388311,51.6932688]]]}},
{"type":"Feature","properties":{"highway":"footway","name":null,"category":"Footpath (pedestrian only)"},"geometry":{"type":"MultiLineString","coordinates":[[[-0.0393832,51.693239],[-0.0389998,51.6931884],[-0.0384455,51.6931323],[-0.0382175,51.6931053],[-0.0381817,51.69307]]]}},
{"type":"Feature","properties":{"highway":"footway","name":null,"category":"Footpath (pedestrian only)"},"geometry":{"type":"MultiLineString","coordinates":[[[-0.0430478,51.693381],[-0.0430061,51.6933852]]]}},
{"type":"Feature","properties":{"highway":"footway","name":null,"category":"Footpath (pedestrian only)"},"geometry":{"type":"MultiLineString","coordinates":[[[-0.0433273,51.6933647],[-0.0432034,51.6933709]]]}},
{"type":"Feature","properties":{"highway":"footway","name":null,"category":"Footpath (pedestrian only)"},"geometry":{"type":"MultiLineString","coordinates":[[[-0.0345114,51.6947019],[-0.0345841,51.6947037],[-0.0346874,51.6947068]]]}},
{"type":"Feature","properties":{"highway":"footway","name":null,"category":"Footpath (pedestrian only)"},"geometry":{"type":"MultiLineString","coordinates":[[[-0.0341774,51.6914751],[-0.034115,51.6914863],[-0.034048,51.6914938]]]}},
{"type":"Feature","properties":{"highway":"footway","name":null,"category":"Footpath (pedestrian only)"},"geometry":{"type":"MultiLineString","coordinates":[[[-0.0338671,51.6910076],[-0.0339365,51.6909983],[-0.0340141,51.6909896]]]}},
{"type":"Feature","properties":{"highway":"footway","name":null,"category":"Footpath (pedestrian only)"},"geometry":{"type":"MultiLineString","coordinates":[[[-0.0338408,51.6904509],[-0.0337719,51.690459],[-0.0337187,51.6904648]]]}},
{"type":"Feature","properties":{"highway":"path","name":null,"category":"Shared path"},"geometry":{"type":"MultiLineString","coordinates":[[[-0.0327671,51.6880806],[-0.0327498,51.6880527]]]}},
{"type":"Feature","properties":{"highway":"footway","name":null,"category":"Footpath (pedestrian only)"},"geometry":{"type":"MultiLineString","coordinates":[[[-0.0408192,51.6856988],[-0.0407521,51.6858719],[-0.0406406,51.685927]]]}},
{"type":"Feature","properties":{"highway":"footway","name":null,"category":"Footpath (pedestrian only)"},"geometry":{"type":"MultiLineString","coordinates":[[[-0.0347394,51.6887182],[-0.0345088,51.6887113],[-0.0343509,51.6887101]]]}},
{"type":"Feature","properties":{"highway":"footway","name":null,"category":"Footpath (pedestrian only)"},"geometry":{"type":"MultiLineString","coordinates":[[[-0.0391871,51.687361],[-0.0388431,51.687314]]]}},
{"type":"Feature","properties":{"highway":"footway","name":null,"category":"Footpath (pedestrian only)"},"geometry":{"type":"MultiLineString","coordinates":[[[-0.0345845,51.6977202],[-0.0345784,51.6977634]]]}},
{"type":"Feature","properties":{"highway":"footway","name":null,"category":"Footpath (pedestrian only)"},"geometry":{"type":"MultiLineString","coordinates":[[[-0.0381817,51.69307],[-0.0381387,51.693062]]]}},
{"type":"Feature","properties":{"highway":"footway","name":null,"category":"Footpath (pedestrian only)"},"geometry":{"type":"MultiLineString","coordinates":[[[-0.0388311,51.6932688],[-0.0387709,51.6932612]]]}},
{"type":"Feature","properties":{"highway":"footway","name":null,"category":"Footpath (pedestrian only)"},"geometry":{"type":"MultiLineString","coordinates":[[[-0.0269904,51.6910983],[-0.027093,51.6911039],[-0.0278977,51.6911501],[-0.0278977,51.691128],[-0.0274155,51.6909297],[-0.0273563,51.6908951]]]}},
{"type":"Feature","properties":{"highway":"footway","name":null,"category":"Footpath (pedestrian only)"},"geometry":{"type":"MultiLineString","coordinates":[[[-0.033653,51.6912653],[-0.0335028,51.6913059],[-0.0331266,51.6913288]]]}},
{"type":"Feature","properties":{"highway":"footway","name":null,"category":"Footpath (pedestrian only)"},"geometry":{"type":"MultiLineString","coordinates":[[[-0.0330888,51.6886431],[-0.0330334,51.6886505],[-0.0329736,51.688698]]]}},
{"type":"Feature","properties":{"highway":"footway","name":null,"category":"Footpath (pedestrian only)"},"geometry":{"type":"MultiLineString","coordinates":[[[-0.0331169,51.6887042],[-0.0329736,51.688698],[-0.032849,51.6886925],[-0.0328215,51.6886888],[-0.0328061,51.6886809],[-0.0327954,51.6886726],[-0.032784,51.6886609],[-0.0327769,51.6886372],[-0.0327275,51.6886351]]]}},
{"type":"Feature","properties":{"highway":"pedestrian","name":"High Street","category":"Pedestrian area/street"},"geometry":{"type":"MultiLineString","coordinates":[[[-0.0331576,51.6859087],[-0.0331658,51.6859358],[-0.0332245,51.6861288],[-0.0332661,51.6863525],[-0.0333528,51.6867957],[-0.0333479,51.6868477],[-0.0333412,51.6869611],[-0.0331873,51.6876476],[-0.0331637,51.6879066],[-0.0331731,51.6881345],[-0.0331416,51.6882249]]]}},
{"type":"Feature","properties":{"highway":"pedestrian","name":null,"category":"Pedestrian area/street"},"geometry":{"type":"MultiLineString","coordinates":[[[-0.0405171,51.6922962],[-0.0405266,51.6922811]]]}}
]
}
