{
"type": "FeatureCollection",
"name": "967ebc8d24a1_visibility",
"crs": { "type": "name", "properties": { "name": "urn:ogc:def:crs:OGC:1.3:CRS84" } },
"features": [
{ "type": "Feature", "properties": { "visible_points": 6, "total_points": 61, "visibility_pct": 9.8360655737704921 }, "geometry": { "type": "Point", "coordinates": [ 1.262277717139176, 51.958011275473076 ] } },
{ "type": "Feature", "properties": { "visible_points": 7, "total_points": 62, "visibility_pct": 11.29032258064516 }, "geometry": { "type": "Point", "coordinates": [ 1.262479040684327, 51.958005698301328 ] } },
{ "type": "Feature", "properties": { "visible_points": 0, "total_points": 59, "visibility_pct": 0.0 }, "geometry": { "type": "Point", "coordinates": [ 1.262680364161686, 51.958000120784419 ] } },
{ "type": "Feature", "properties": { "visible_points": 4, "total_points": 63, "visibility_pct": 6.3492063492063489 }, "geometry": { "type": "Point", "coordinates": [ 1.261983557941645, 51.958127354024654 ] } },
{ "type": "Feature", "properties": { "visible_points": 4, "total_points": 68, "visibility_pct": 5.8823529411764701 }, "geometry": { "type": "Point", "coordinates": [ 1.262184882092471, 51.958121777362123 ] } },
{ "type": "Feature", "properties": { "visible_points": 8, "total_points": 71, "visibility_pct": 11.267605633802818 }, "geometry": { "type": "Point", "coordinates": [ 1.26238620617551, 51.958116200354475 ] } },
{ "type": "Feature", "properties": { "visible_points": 7, "total_points": 71, "visibility_pct": 9.8591549295774641 }, "geometry": { "type": "Point", "coordinates": [ 1.262587530190753, 51.958110623001666 ] } },
{ "type": "Feature", "properties": { "visible_points": 0, "total_points": 66, "visibility_pct": 0.0 }, "geometry": { "type": "Point", "coordinates": [ 1.262788854138198, 51.958105045303704 ] } },
{ "type": "Feature", "properties": { "visible_points": 4, "total_points": 55, "visibility_pct": 7.2727272727272725 }, "geometry": { "type": "Point", "coordinates": [ 1.261689397130484, 51.958243431823306 ] } },
{ "type": "Feature", "properties": { "visible_points": 5, "total_points": 66, "visibility_pct": 7.5757575757575761 }, "geometry": { "type": "Point", "coordinates": [ 1.261890721886976, 51.958237855670014 ] } },
{ "type": "Feature", "properties": { "visible_points": 4, "total_points": 73, "visibility_pct": 5.4794520547945202 }, "geometry": { "type": "Point", "coordinates": [ 1.262092046575687, 51.958232279171597 ] } },
{ "type": "Feature", "properties": { "visible_points": 4, "total_points": 78, "visibility_pct": 5.1282051282051277 }, "geometry": { "type": "Point", "coordinates": [ 1.26229337119661, 51.95822670232802 ] } },
{ "type": "Feature", "properties": { "visible_points": 7, "total_points": 81, "visibility_pct": 8.6419753086419746 }, "geometry": { "type": "Point", "coordinates": [ 1.26249469574974, 51.958221125139303 ] } },
{ "type": "Feature", "properties": { "visible_points": 0, "total_points": 79, "visibility_pct": 0.0 }, "geometry": { "type": "Point", "coordinates": [ 1.262696020235073, 51.95821554760542 ] } },
{ "type": "Feature", "properties": { "visible_points": 0, "total_points": 73, "visibility_pct": 0.0 }, "geometry": { "type": "Point", "coordinates": [ 1.262897344652603, 51.958209969726376 ] } },
{ "type": "Feature", "properties": { "visible_points": 1, "total_points": 64, "visibility_pct": 1.5625 }, "geometry": { "type": "Point", "coordinates": [ 1.261797885362222, 51.958348357235806 ] } },
{ "type": "Feature", "properties": { "visible_points": 0, "total_points": 76, "visibility_pct": 0.0 }, "geometry": { "type": "Point", "coordinates": [ 1.261999210588816, 51.958342780901468 ] } },
{ "type": "Feature", "properties": { "visible_points": 0, "total_points": 83, "visibility_pct": 0.0 }, "geometry": { "type": "Point", "coordinates": [ 1.262200535747625, 51.958337204221976 ] } },
{ "type": "Feature", "properties": { "visible_points": 6, "total_points": 88, "visibility_pct": 6.8181818181818175 }, "geometry": { "type": "Point", "coordinates": [ 1.262401860838647, 51.958331627197332 ] } },
{ "type": "Feature", "properties": { "visible_points": 3, "total_points": 91, "visibility_pct": 3.296703296703297 }, "geometry": { "type": "Point", "coordinates": [ 1.262603185861869, 51.958326049827527 ] } },
{ "type": "Feature", "properties": { "visible_points": 2, "total_points": 86, "visibility_pct": 2.3255813953488373 }, "geometry": { "type": "Point", "coordinates": [ 1.26280451081729, 51.95832047211259 ] } },
{ "type": "Feature", "properties": { "visible_points": 0, "total_points": 72, "visibility_pct": 0.0 }, "geometry": { "type": "Point", "coordinates": [ 1.261906374131855, 51.95845328255173 ] } },
{ "type": "Feature", "properties": { "visible_points": 0, "total_points": 85, "visibility_pct": 0.0 }, "geometry": { "type": "Point", "coordinates": [ 1.262107699828554, 51.958447706036324 ] } },
{ "type": "Feature", "properties": { "visible_points": 3, "total_points": 93, "visibility_pct": 3.225806451612903 }, "geometry": { "type": "Point", "coordinates": [ 1.262309025457464, 51.958442129175786 ] } },
{ "type": "Feature", "properties": { "visible_points": 0, "total_points": 98, "visibility_pct": 0.0 }, "geometry": { "type": "Point", "coordinates": [ 1.262510351018582, 51.958436551970067 ] } },
{ "type": "Feature", "properties": { "visible_points": 5, "total_points": 99, "visibility_pct": 5.0505050505050502 }, "geometry": { "type": "Point", "coordinates": [ 1.262711676511896, 51.958430974419201 ] } },
{ "type": "Feature", "properties": { "visible_points": 3, "total_points": 90, "visibility_pct": 3.3333333333333335 }, "geometry": { "type": "Point", "coordinates": [ 1.262913001937412, 51.958425396523189 ] } },
{ "type": "Feature", "properties": { "visible_points": 0, "total_points": 79, "visibility_pct": 0.0 }, "geometry": { "type": "Point", "coordinates": [ 1.262014863439389, 51.958558207771084 ] } },
{ "type": "Feature", "properties": { "visible_points": 0, "total_points": 92, "visibility_pct": 0.0 }, "geometry": { "type": "Point", "coordinates": [ 1.262216189606193, 51.95855263107461 ] } },
{ "type": "Feature", "properties": { "visible_points": 0, "total_points": 100, "visibility_pct": 0.0 }, "geometry": { "type": "Point", "coordinates": [ 1.262417515705203, 51.958547054032998 ] } },
{ "type": "Feature", "properties": { "visible_points": 2, "total_points": 102, "visibility_pct": 1.9607843137254901 }, "geometry": { "type": "Point", "coordinates": [ 1.262618841736421, 51.958541476646211 ] } },
{ "type": "Feature", "properties": { "visible_points": 6, "total_points": 100, "visibility_pct": 6.0 }, "geometry": { "type": "Point", "coordinates": [ 1.262820167699835, 51.958535898914278 ] } },
{ "type": "Feature", "properties": { "visible_points": 4, "total_points": 91, "visibility_pct": 4.395604395604396 }, "geometry": { "type": "Point", "coordinates": [ 1.263021493595441, 51.958530320837205 ] } },
{ "type": "Feature", "properties": { "visible_points": 0, "total_points": 84, "visibility_pct": 0.0 }, "geometry": { "type": "Point", "coordinates": [ 1.262123353284829, 51.958663132893847 ] } },
{ "type": "Feature", "properties": { "visible_points": 0, "total_points": 96, "visibility_pct": 0.0 }, "geometry": { "type": "Point", "coordinates": [ 1.262324679921737, 51.958657556016341 ] } },
{ "type": "Feature", "properties": { "visible_points": 0, "total_points": 101, "visibility_pct": 0.0 }, "geometry": { "type": "Point", "coordinates": [ 1.262526006490854, 51.95865197879364 ] } },
{ "type": "Feature", "properties": { "visible_points": 5, "total_points": 104, "visibility_pct": 4.8076923076923084 }, "geometry": { "type": "Point", "coordinates": [ 1.262727332992167, 51.958646401225792 ] } },
{ "type": "Feature", "properties": { "visible_points": 4, "total_points": 101, "visibility_pct": 3.9603960396039604 }, "geometry": { "type": "Point", "coordinates": [ 1.262928659425677, 51.958640823312798 ] } },
{ "type": "Feature", "properties": { "visible_points": 1, "total_points": 92, "visibility_pct": 1.0869565217391304 }, "geometry": { "type": "Point", "coordinates": [ 1.263129985791384, 51.958635245054637 ] } },
{ "type": "Feature", "properties": { "visible_points": 0, "total_points": 86, "visibility_pct": 0.0 }, "geometry": { "type": "Point", "coordinates": [ 1.262231843650366, 51.958768057878096 ] } },
{ "type": "Feature", "properties": { "visible_points": 0, "total_points": 97, "visibility_pct": 0.0 }, "geometry": { "type": "Point", "coordinates": [ 1.262433170765748, 51.958762480839233 ] } },
{ "type": "Feature", "properties": { "visible_points": 0, "total_points": 103, "visibility_pct": 0.0 }, "geometry": { "type": "Point", "coordinates": [ 1.26263449781364, 51.9587569034559 ] } },
{ "type": "Feature", "properties": { "visible_points": 2, "total_points": 105, "visibility_pct": 1.9047619047619049 }, "geometry": { "type": "Point", "coordinates": [ 1.262835824785828, 51.958751325708803 ] } },
{ "type": "Feature", "properties": { "visible_points": 1, "total_points": 102, "visibility_pct": 0.98039215686274506 }, "geometry": { "type": "Point", "coordinates": [ 1.263037151689441, 51.958745747614721 ] } },
{ "type": "Feature", "properties": { "visible_points": 3, "total_points": 93, "visibility_pct": 3.225806451612903 }, "geometry": { "type": "Point", "coordinates": [ 1.263238478525242, 51.958740169175499 ] } },
{ "type": "Feature", "properties": { "visible_points": 0, "total_points": 87, "visibility_pct": 0.0 }, "geometry": { "type": "Point", "coordinates": [ 1.262340333475074, 51.958872982187465 ] } },
{ "type": "Feature", "properties": { "visible_points": 0, "total_points": 98, "visibility_pct": 0.0 }, "geometry": { "type": "Point", "coordinates": [ 1.262541661159107, 51.958867404987458 ] } },
{ "type": "Feature", "properties": { "visible_points": 0, "total_points": 104, "visibility_pct": 0.0 }, "geometry": { "type": "Point", "coordinates": [ 1.262742988763613, 51.958861827443926 ] } },
{ "type": "Feature", "properties": { "visible_points": 0, "total_points": 106, "visibility_pct": 0.0 }, "geometry": { "type": "Point", "coordinates": [ 1.262944316263494, 51.958856249542883 ] } },
{ "type": "Feature", "properties": { "visible_points": 2, "total_points": 103, "visibility_pct": 1.9417475728155338 }, "geometry": { "type": "Point", "coordinates": [ 1.263145643694334, 51.958850671296567 ] } },
{ "type": "Feature", "properties": { "visible_points": 0, "total_points": 94, "visibility_pct": 0.0 }, "geometry": { "type": "Point", "coordinates": [ 1.263346971059809, 51.958845092706262 ] } },
{ "type": "Feature", "properties": { "visible_points": 0, "total_points": 84, "visibility_pct": 0.0 }, "geometry": { "type": "Point", "coordinates": [ 1.263548298359913, 51.958839513771977 ] } },
{ "type": "Feature", "properties": { "visible_points": 0, "total_points": 73, "visibility_pct": 0.0 }, "geometry": { "type": "Point", "coordinates": [ 1.263749625594647, 51.958833934493711 ] } },
{ "type": "Feature", "properties": { "visible_points": 0, "total_points": 88, "visibility_pct": 0.0 }, "geometry": { "type": "Point", "coordinates": [ 1.262448822432312, 51.958977905784018 ] } },
{ "type": "Feature", "properties": { "visible_points": 0, "total_points": 98, "visibility_pct": 0.0 }, "geometry": { "type": "Point", "coordinates": [ 1.262650150551416, 51.958972328403824 ] } },
{ "type": "Feature", "properties": { "visible_points": 0, "total_points": 105, "visibility_pct": 0.0 }, "geometry": { "type": "Point", "coordinates": [ 1.2628514786076, 51.958966750680815 ] } },
{ "type": "Feature", "properties": { "visible_points": 0, "total_points": 107, "visibility_pct": 0.0 }, "geometry": { "type": "Point", "coordinates": [ 1.263052806600882, 51.958961172614998 ] } },
{ "type": "Feature", "properties": { "visible_points": 0, "total_points": 104, "visibility_pct": 0.0 }, "geometry": { "type": "Point", "coordinates": [ 1.263254134531245, 51.958955594206387 ] } },
{ "type": "Feature", "properties": { "visible_points": 3, "total_points": 95, "visibility_pct": 3.1578947368421053 }, "geometry": { "type": "Point", "coordinates": [ 1.263455462398691, 51.958950015454938 ] } },
{ "type": "Feature", "properties": { "visible_points": 3, "total_points": 85, "visibility_pct": 3.5294117647058822 }, "geometry": { "type": "Point", "coordinates": [ 1.263656790203208, 51.958944436360703 ] } },
{ "type": "Feature", "properties": { "visible_points": 2, "total_points": 74, "visibility_pct": 2.7027027027027026 }, "geometry": { "type": "Point", "coordinates": [ 1.2638581179448, 51.958938856923652 ] } },
{ "type": "Feature", "properties": { "visible_points": 0, "total_points": 88, "visibility_pct": 0.0 }, "geometry": { "type": "Point", "coordinates": [ 1.262557311836372, 51.95908282916217 ] } },
{ "type": "Feature", "properties": { "visible_points": 0, "total_points": 98, "visibility_pct": 0.0 }, "geometry": { "type": "Point", "coordinates": [ 1.262758640381025, 51.959077251579515 ] } },
{ "type": "Feature", "properties": { "visible_points": 0, "total_points": 106, "visibility_pct": 0.0 }, "geometry": { "type": "Point", "coordinates": [ 1.262959968862765, 51.959071673654037 ] } },
{ "type": "Feature", "properties": { "visible_points": 6, "total_points": 108, "visibility_pct": 5.5555555555555554 }, "geometry": { "type": "Point", "coordinates": [ 1.263161297281593, 51.959066095385765 ] } },
{ "type": "Feature", "properties": { "visible_points": 6, "total_points": 105, "visibility_pct": 5.7142857142857144 }, "geometry": { "type": "Point", "coordinates": [ 1.263362625637499, 51.959060516774656 ] } },
{ "type": "Feature", "properties": { "visible_points": 6, "total_points": 96, "visibility_pct": 6.25 }, "geometry": { "type": "Point", "coordinates": [ 1.263563953930484, 51.959054937820774 ] } },
{ "type": "Feature", "properties": { "visible_points": 4, "total_points": 86, "visibility_pct": 4.6511627906976747 }, "geometry": { "type": "Point", "coordinates": [ 1.263765282160547, 51.959049358524062 ] } },
{ "type": "Feature", "properties": { "visible_points": 0, "total_points": 88, "visibility_pct": 0.0 }, "geometry": { "type": "Point", "coordinates": [ 1.262665801728913, 51.95918775242 ] } },
{ "type": "Feature", "properties": { "visible_points": 5, "total_points": 98, "visibility_pct": 5.1020408163265305 }, "geometry": { "type": "Point", "coordinates": [ 1.262867130699113, 51.959182174634876 ] } },
{ "type": "Feature", "properties": { "visible_points": 8, "total_points": 107, "visibility_pct": 7.4766355140186906 }, "geometry": { "type": "Point", "coordinates": [ 1.263068459606408, 51.959176596506943 ] } },
{ "type": "Feature", "properties": { "visible_points": 10, "total_points": 109, "visibility_pct": 9.1743119266055047 }, "geometry": { "type": "Point", "coordinates": [ 1.263269788450784, 51.959171018036194 ] } },
{ "type": "Feature", "properties": { "visible_points": 10, "total_points": 106, "visibility_pct": 9.433962264150944 }, "geometry": { "type": "Point", "coordinates": [ 1.263471117232234, 51.959165439222623 ] } },
{ "type": "Feature", "properties": { "visible_points": 14, "total_points": 97, "visibility_pct": 14.432989690721648 }, "geometry": { "type": "Point", "coordinates": [ 1.263672445950764, 51.959159860066251 ] } },
{ "type": "Feature", "properties": { "visible_points": 5, "total_points": 86, "visibility_pct": 5.8139534883720927 }, "geometry": { "type": "Point", "coordinates": [ 1.263873774606366, 51.959154280567063 ] } },
{ "type": "Feature", "properties": { "visible_points": 0, "total_points": 88, "visibility_pct": 0.0 }, "geometry": { "type": "Point", "coordinates": [ 1.262774292109932, 51.959292675557506 ] } },
{ "type": "Feature", "properties": { "visible_points": 6, "total_points": 98, "visibility_pct": 6.1224489795918364 }, "geometry": { "type": "Point", "coordinates": [ 1.26297562150569, 51.959287097569927 ] } },
{ "type": "Feature", "properties": { "visible_points": 8, "total_points": 107, "visibility_pct": 7.4766355140186906 }, "geometry": { "type": "Point", "coordinates": [ 1.263176950838533, 51.959281519239518 ] } },
{ "type": "Feature", "properties": { "visible_points": 9, "total_points": 110, "visibility_pct": 8.1818181818181817 }, "geometry": { "type": "Point", "coordinates": [ 1.263378280108454, 51.959275940566286 ] } },
{ "type": "Feature", "properties": { "visible_points": 16, "total_points": 107, "visibility_pct": 14.953271028037381 }, "geometry": { "type": "Point", "coordinates": [ 1.263579609315461, 51.959270361550253 ] } },
{ "type": "Feature", "properties": { "visible_points": 13, "total_points": 97, "visibility_pct": 13.402061855670103 }, "geometry": { "type": "Point", "coordinates": [ 1.263780938459531, 51.959264782191411 ] } },
{ "type": "Feature", "properties": { "visible_points": 5, "total_points": 84, "visibility_pct": 5.9523809523809517 }, "geometry": { "type": "Point", "coordinates": [ 1.263982267540673, 51.959259202489747 ] } },
{ "type": "Feature", "properties": { "visible_points": 1, "total_points": 88, "visibility_pct": 1.1363636363636365 }, "geometry": { "type": "Point", "coordinates": [ 1.262882782979436, 51.959397598574704 ] } },
{ "type": "Feature", "properties": { "visible_points": 7, "total_points": 98, "visibility_pct": 7.1428571428571423 }, "geometry": { "type": "Point", "coordinates": [ 1.263084112800744, 51.959392020384634 ] } },
{ "type": "Feature", "properties": { "visible_points": 11, "total_points": 107, "visibility_pct": 10.2803738317757 }, "geometry": { "type": "Point", "coordinates": [ 1.263285442559146, 51.959386441851755 ] } },
{ "type": "Feature", "properties": { "visible_points": 9, "total_points": 110, "visibility_pct": 8.1818181818181817 }, "geometry": { "type": "Point", "coordinates": [ 1.26348677225462, 51.959380862976047 ] } },
{ "type": "Feature", "properties": { "visible_points": 14, "total_points": 104, "visibility_pct": 13.461538461538462 }, "geometry": { "type": "Point", "coordinates": [ 1.263688101887168, 51.959375283757559 ] } },
{ "type": "Feature", "properties": { "visible_points": 10, "total_points": 91, "visibility_pct": 10.989010989010989 }, "geometry": { "type": "Point", "coordinates": [ 1.263889431456791, 51.959369704196241 ] } },
{ "type": "Feature", "properties": { "visible_points": 10, "total_points": 78, "visibility_pct": 12.820512820512819 }, "geometry": { "type": "Point", "coordinates": [ 1.264090760963477, 51.959364124292115 ] } },
{ "type": "Feature", "properties": { "visible_points": 0, "total_points": 76, "visibility_pct": 0.0 }, "geometry": { "type": "Point", "coordinates": [ 1.262789944027633, 51.959508099521287 ] } },
{ "type": "Feature", "properties": { "visible_points": 0, "total_points": 86, "visibility_pct": 0.0 }, "geometry": { "type": "Point", "coordinates": [ 1.262991274337423, 51.95950252147157 ] } },
{ "type": "Feature", "properties": { "visible_points": 5, "total_points": 95, "visibility_pct": 5.2631578947368416 }, "geometry": { "type": "Point", "coordinates": [ 1.263192604584296, 51.959496943079024 ] } },
{ "type": "Feature", "properties": { "visible_points": 9, "total_points": 102, "visibility_pct": 8.8235294117647065 }, "geometry": { "type": "Point", "coordinates": [ 1.26339393476825, 51.959491364343677 ] } },
{ "type": "Feature", "properties": { "visible_points": 12, "total_points": 101, "visibility_pct": 11.881188118811881 }, "geometry": { "type": "Point", "coordinates": [ 1.263595264889273, 51.959485785265514 ] } },
{ "type": "Feature", "properties": { "visible_points": 12, "total_points": 94, "visibility_pct": 12.76595744680851 }, "geometry": { "type": "Point", "coordinates": [ 1.263796594947376, 51.959480205844528 ] } },
{ "type": "Feature", "properties": { "visible_points": 11, "total_points": 82, "visibility_pct": 13.414634146341465 }, "geometry": { "type": "Point", "coordinates": [ 1.263997924942542, 51.959474626080748 ] } },
{ "type": "Feature", "properties": { "visible_points": 9, "total_points": 70, "visibility_pct": 12.857142857142856 }, "geometry": { "type": "Point", "coordinates": [ 1.264199254874778, 51.959469045974124 ] } },
{ "type": "Feature", "properties": { "visible_points": 0, "total_points": 73, "visibility_pct": 0.0 }, "geometry": { "type": "Point", "coordinates": [ 1.262898435448556, 51.959613022500299 ] } },
{ "type": "Feature", "properties": { "visible_points": 0, "total_points": 82, "visibility_pct": 0.0 }, "geometry": { "type": "Point", "coordinates": [ 1.263099766183905, 51.959607444248093 ] } },
{ "type": "Feature", "properties": { "visible_points": 9, "total_points": 89, "visibility_pct": 10.112359550561797 }, "geometry": { "type": "Point", "coordinates": [ 1.263301096856336, 51.959601865653106 ] } },
{ "type": "Feature", "properties": { "visible_points": 11, "total_points": 94, "visibility_pct": 11.702127659574469 }, "geometry": { "type": "Point", "coordinates": [ 1.263502427465844, 51.959596286715282 ] } },
{ "type": "Feature", "properties": { "visible_points": 12, "total_points": 90, "visibility_pct": 13.333333333333334 }, "geometry": { "type": "Point", "coordinates": [ 1.263703758012425, 51.959590707434636 ] } },
{ "type": "Feature", "properties": { "visible_points": 14, "total_points": 83, "visibility_pct": 16.867469879518072 }, "geometry": { "type": "Point", "coordinates": [ 1.263905088496078, 51.959585127811174 ] } },
{ "type": "Feature", "properties": { "visible_points": 11, "total_points": 72, "visibility_pct": 15.277777777777779 }, "geometry": { "type": "Point", "coordinates": [ 1.264106418916796, 51.959579547844896 ] } },
{ "type": "Feature", "properties": { "visible_points": 4, "total_points": 61, "visibility_pct": 6.557377049180328 }, "geometry": { "type": "Point", "coordinates": [ 1.264307749274574, 51.959573967535817 ] } },
{ "type": "Feature", "properties": { "visible_points": 0, "total_points": 69, "visibility_pct": 0.0 }, "geometry": { "type": "Point", "coordinates": [ 1.263006927357969, 51.959717945358982 ] } },
{ "type": "Feature", "properties": { "visible_points": 0, "total_points": 76, "visibility_pct": 0.0 }, "geometry": { "type": "Point", "coordinates": [ 1.263208258518883, 51.959712366904306 ] } },
{ "type": "Feature", "properties": { "visible_points": 9, "total_points": 81, "visibility_pct": 11.111111111111111 }, "geometry": { "type": "Point", "coordinates": [ 1.263409589616872, 51.959706788106828 ] } },
{ "type": "Feature", "properties": { "visible_points": 8, "total_points": 83, "visibility_pct": 9.6385542168674707 }, "geometry": { "type": "Point", "coordinates": [ 1.263610920651939, 51.959701208966528 ] } },
{ "type": "Feature", "properties": { "visible_points": 12, "total_points": 79, "visibility_pct": 15.18987341772152 }, "geometry": { "type": "Point", "coordinates": [ 1.263812251624078, 51.95969562948342 ] } },
{ "type": "Feature", "properties": { "visible_points": 9, "total_points": 72, "visibility_pct": 12.5 }, "geometry": { "type": "Point", "coordinates": [ 1.26401358253328, 51.959690049657489 ] } },
{ "type": "Feature", "properties": { "visible_points": 0, "total_points": 62, "visibility_pct": 0.0 }, "geometry": { "type": "Point", "coordinates": [ 1.264214913379549, 51.959684469488728 ] } },
{ "type": "Feature", "properties": { "visible_points": 1, "total_points": 63, "visibility_pct": 1.5873015873015872 }, "geometry": { "type": "Point", "coordinates": [ 1.263115419755885, 51.959822868097341 ] } },
{ "type": "Feature", "properties": { "visible_points": 1, "total_points": 68, "visibility_pct": 1.4705882352941175 }, "geometry": { "type": "Point", "coordinates": [ 1.26331675134236, 51.959817289440203 ] } },
{ "type": "Feature", "properties": { "visible_points": 9, "total_points": 72, "visibility_pct": 12.5 }, "geometry": { "type": "Point", "coordinates": [ 1.263518082865911, 51.959811710440249 ] } },
{ "type": "Feature", "properties": { "visible_points": 8, "total_points": 72, "visibility_pct": 11.111111111111111 }, "geometry": { "type": "Point", "coordinates": [ 1.263719414326537, 51.959806131097473 ] } },
{ "type": "Feature", "properties": { "visible_points": 0, "total_points": 68, "visibility_pct": 0.0 }, "geometry": { "type": "Point", "coordinates": [ 1.263920745724231, 51.959800551411874 ] } },
{ "type": "Feature", "properties": { "visible_points": 0, "total_points": 56, "visibility_pct": 0.0 }, "geometry": { "type": "Point", "coordinates": [ 1.263223912642295, 51.959927790715369 ] } },
{ "type": "Feature", "properties": { "visible_points": 0, "total_points": 60, "visibility_pct": 0.0 }, "geometry": { "type": "Point", "coordinates": [ 1.263425244654339, 51.959922211855748 ] } },
{ "type": "Feature", "properties": { "visible_points": 0, "total_points": 62, "visibility_pct": 0.0 }, "geometry": { "type": "Point", "coordinates": [ 1.263626576603454, 51.959916632653332 ] } }
]
}
