{
"type": "FeatureCollection",
"name": "LUTON_9_walking",
"crs": { "type": "name", "properties": { "name": "urn:ogc:def:crs:OGC:1.3:CRS84" } },
"features": [
{"type":"Feature","properties":{"highway":"footway","name":null,"category":"Footpath (pedestrian only)"},"geometry":{"type":"MultiLineString","coordinates":[[[-0.4212387,51.8892086],[-0.421166,51.8892025]]]}},
{"type":"Feature","properties":{"highway":"footway","name":"Rothesay Road","category":"Footpath (pedestrian only)"},"geometry":{"type":"MultiLineString","coordinates":[[[-0.4210828,51.8792026],[-0.4213967,51.8789997],[-0.4215286,51.8789756]]]}},
{"type":"Feature","properties":{"highway":"footway","name":null,"category":"Footpath (pedestrian only)"},"geometry":{"type":"MultiLineString","coordinates":[[[-0.4255183,51.885726],[-0.4256304,51.8858172],[-0.4256366,51.8858756]]]}},
{"type":"Feature","properties":{"highway":"footway","name":"Woodbury Hill Path","category":"Footpath (pedestrian only)"},"geometry":{"type":"MultiLineString","coordinates":[[[-0.4146845,51.8914356],[-0.4143328,51.8914802],[-0.4139841,51.8915208],[-0.4133139,51.8915921],[-0.4132894,51.8915984],[-0.4128339,51.8918957],[-0.4127917,51.8918986],[-0.4127538,51.8918975],[-0.4126475,51.8916277],[-0.4126158,51.8915926],[-0.4124329,51.891411]]]}},
{"type":"Feature","properties":{"highway":"footway","name":null,"category":"Footpath (pedestrian only)"},"geometry":{"type":"MultiLineString","coordinates":[[[-0.4135886,51.8827718],[-0.4137505,51.8824249]]]}},
{"type":"Feature","properties":{"highway":"footway","name":null,"category":"Footpath (pedestrian only)"},"geometry":{"type":"MultiLineString","coordinates":[[[-0.4134829,51.8827508],[-0.4135886,51.8827718],[-0.4134889,51.8829788]]]}},
{"type":"Feature","properties":{"highway":"path","name":null,"category":"Shared path"},"geometry":{"type":"MultiLineString","coordinates":[[[-0.4096338,51.8901497],[-0.4114369,51.8901263],[-0.4117954,51.890127],[-0.4120255,51.8901222],[-0.412277,51.8901176],[-0.4124647,51.8901088],[-0.4126021,51.890086],[-0.4127207,51.8900793],[-0.4128144,51.8900892],[-0.412967,51.8901127],[-0.4130682,51.8901248],[-0.4132162,51.8907003],[-0.4132154,51.8908156],[-0.4132597,51.8909557],[-0.4132858,51.8910817],[-0.4133193,51.8912091],[-0.4133325,51.8912773],[-0.4133301,51.891406],[-0.4133208,51.891441],[-0.4132832,51.8914906],[-0.4132175,51.8915356]]]}},
{"type":"Feature","properties":{"highway":"footway","name":"Lancrets Path","category":"Footpath (pedestrian only)"},"geometry":{"type":"MultiLineString","coordinates":[[[-0.4195353,51.8797604],[-0.4193839,51.8801631]]]}},
{"type":"Feature","properties":{"highway":"footway","name":"Alma Street Passage","category":"Footpath (pedestrian only)"},"geometry":{"type":"MultiLineString","coordinates":[[[-0.4193777,51.8805425],[-0.420058,51.8809029],[-0.4207322,51.8812631]]]}},
{"type":"Feature","properties":{"highway":"footway","name":"Beech Path","category":"Footpath (pedestrian only)"},"geometry":{"type":"MultiLineString","coordinates":[[[-0.4328955,51.8855127],[-0.4322255,51.8851042],[-0.4320219,51.8849625],[-0.4315,51.8846497],[-0.4308157,51.8842705],[-0.4300803,51.8838288]]]}},
{"type":"Feature","properties":{"highway":"footway","name":null,"category":"Footpath (pedestrian only)"},"geometry":{"type":"MultiLineString","coordinates":[[[-0.4334421,51.8834698],[-0.433711,51.8835362],[-0.4343337,51.8830847],[-0.4350407,51.8825343],[-0.4350718,51.882466]]]}},
{"type":"Feature","properties":{"highway":"footway","name":null,"category":"Footpath (pedestrian only)"},"geometry":{"type":"MultiLineString","coordinates":[[[-0.4186375,51.8921618],[-0.4187275,51.8922934],[-0.4188148,51.89242],[-0.4190292,51.8926575],[-0.419313,51.8929978],[-0.4193328,51.8930339],[-0.4194647,51.8933054],[-0.419477,51.8933228],[-0.4195508,51.893396],[-0.4195753,51.8934119],[-0.4196061,51.8934255],[-0.4197091,51.8934525],[-0.4197978,51.893468],[-0.4198626,51.8934678]]]}},
{"type":"Feature","properties":{"highway":"footway","name":null,"category":"Footpath (pedestrian only)"},"geometry":{"type":"MultiLineString","coordinates":[[[-0.4200844,51.8901112],[-0.419917,51.8900402]]]}},
{"type":"Feature","properties":{"highway":"footway","name":null,"category":"Footpath (pedestrian only)"},"geometry":{"type":"MultiLineString","coordinates":[[[-0.4185999,51.8920799],[-0.4191597,51.8920092]]]}},
{"type":"Feature","properties":{"highway":"footway","name":null,"category":"Footpath (pedestrian only)"},"geometry":{"type":"MultiLineString","coordinates":[[[-0.4189133,51.8904807],[-0.418681,51.8906209],[-0.4186001,51.8906815],[-0.4185231,51.8907557],[-0.4184971,51.8907942],[-0.4183323,51.8910296]]]}},
{"type":"Feature","properties":{"highway":"footway","name":null,"category":"Footpath (pedestrian only)"},"geometry":{"type":"MultiLineString","coordinates":[[[-0.4290006,51.8879296],[-0.428883,51.8879743],[-0.4287714,51.8879169],[-0.4285623,51.8877029],[-0.4284632,51.8876489]]]}},
{"type":"Feature","properties":{"highway":"footway","name":"Grove Road","category":"Footpath (pedestrian only)"},"geometry":{"type":"MultiLineString","coordinates":[[[-0.4241316,51.8799052],[-0.4242935,51.8798275]]]}},
{"type":"Feature","properties":{"highway":"footway","name":"St George Street West","category":"Footpath (pedestrian only)"},"geometry":{"type":"MultiLineString","coordinates":[[[-0.421293,51.879818],[-0.4214869,51.8798837]]]}},
{"type":"Feature","properties":{"highway":"footway","name":null,"category":"Footpath (pedestrian only)"},"geometry":{"type":"MultiLineString","coordinates":[[[-0.4237255,51.8818201],[-0.4233259,51.8817572],[-0.4233423,51.8816954],[-0.4233375,51.8816524],[-0.423311,51.8816025],[-0.4232669,51.8815369]]]}},
{"type":"Feature","properties":{"highway":"footway","name":null,"category":"Footpath (pedestrian only)"},"geometry":{"type":"MultiLineString","coordinates":[[[-0.42395,51.8814976],[-0.4241315,51.8816264],[-0.4237255,51.8818201]]]}},
{"type":"Feature","properties":{"highway":"footway","name":null,"category":"Footpath (pedestrian only)"},"geometry":{"type":"MultiLineString","coordinates":[[[-0.4237255,51.8818201],[-0.4238554,51.8820577],[-0.4242302,51.882055]]]}},
{"type":"Feature","properties":{"highway":"footway","name":null,"category":"Footpath (pedestrian only)"},"geometry":{"type":"MultiLineString","coordinates":[[[-0.4248033,51.8818721],[-0.4254744,51.8819954],[-0.4253837,51.8821814],[-0.4259085,51.8822093],[-0.4259053,51.882226],[-0.4252348,51.8821885]]]}},
{"type":"Feature","properties":{"highway":"footway","name":null,"category":"Footpath (pedestrian only)"},"geometry":{"type":"MultiLineString","coordinates":[[[-0.4233259,51.8817572],[-0.4232844,51.8818687]]]}},
{"type":"Feature","properties":{"highway":"footway","name":null,"category":"Footpath (pedestrian only)"},"geometry":{"type":"MultiLineString","coordinates":[[[-0.4217882,51.883071],[-0.4216029,51.8831608],[-0.4224055,51.8831676]]]}},
{"type":"Feature","properties":{"highway":"footway","name":null,"category":"Footpath (pedestrian only)"},"geometry":{"type":"MultiLineString","coordinates":[[[-0.4276809,51.8816032],[-0.4276296,51.8817741],[-0.4276442,51.8817856],[-0.4275706,51.882011],[-0.4276302,51.8820184],[-0.4275707,51.8821716],[-0.4274671,51.8821654],[-0.4273564,51.8822167],[-0.4268548,51.8821846],[-0.4266967,51.8821332],[-0.4264588,51.882095],[-0.4261442,51.8820594],[-0.4257554,51.8820275],[-0.4256759,51.8820184]]]}},
{"type":"Feature","properties":{"highway":"footway","name":null,"category":"Footpath (pedestrian only)"},"geometry":{"type":"MultiLineString","coordinates":[[[-0.4217882,51.883071],[-0.4222601,51.8828232],[-0.4220186,51.8826539],[-0.4218151,51.882761],[-0.4218525,51.8827912]]]}},
{"type":"Feature","properties":{"highway":"footway","name":null,"category":"Footpath (pedestrian only)"},"geometry":{"type":"MultiLineString","coordinates":[[[-0.4209551,51.8829837],[-0.4211994,51.882999],[-0.4213459,51.8829999],[-0.4214036,51.882992],[-0.4214797,51.8829617],[-0.4218525,51.8827912],[-0.4225928,51.8824131],[-0.4229683,51.88221],[-0.4230871,51.8821235],[-0.4232209,51.881995],[-0.4232844,51.8818687]]]}},
{"type":"Feature","properties":{"highway":"footway","name":null,"category":"Footpath (pedestrian only)"},"geometry":{"type":"MultiLineString","coordinates":[[[-0.4232209,51.881995],[-0.4230302,51.8820177]]]}},
{"type":"Feature","properties":{"highway":"footway","name":null,"category":"Footpath (pedestrian only)"},"geometry":{"type":"MultiLineString","coordinates":[[[-0.421166,51.8892025],[-0.4211721,51.8891569]]]}},
{"type":"Feature","properties":{"highway":"footway","name":null,"category":"Footpath (pedestrian only)"},"geometry":{"type":"MultiLineString","coordinates":[[[-0.4203451,51.8902954],[-0.420136,51.8904672],[-0.4197131,51.8908146],[-0.4195265,51.8909772],[-0.4193174,51.8911604],[-0.4192593,51.89124],[-0.4192184,51.891295],[-0.4191359,51.8914635],[-0.4191246,51.8915003],[-0.4191497,51.8918326],[-0.4191597,51.8920092],[-0.4191769,51.8920994],[-0.4193769,51.8923665],[-0.4196153,51.8925717],[-0.4200106,51.8928641],[-0.4200997,51.8929061],[-0.4202641,51.893027],[-0.4202885,51.893084],[-0.4202421,51.893257],[-0.4201745,51.8932908],[-0.4200925,51.8933901],[-0.4200553,51.8934171],[-0.4200194,51.8934329],[-0.4199633,51.8934511],[-0.4199148,51.8934608],[-0.4198626,51.8934678],[-0.419859,51.8935006],[-0.4198456,51.8935282],[-0.4194693,51.893891],[-0.4194655,51.8939292]]]}},
{"type":"Feature","properties":{"highway":"footway","name":null,"category":"Footpath (pedestrian only)"},"geometry":{"type":"MultiLineString","coordinates":[[[-0.4130682,51.8901248],[-0.4123873,51.8895225],[-0.4123036,51.8894002],[-0.4121387,51.8891087],[-0.4120469,51.8889431],[-0.4120047,51.8888213],[-0.4120234,51.8886709],[-0.4120983,51.8883843]]]}},
{"type":"Feature","properties":{"highway":"footway","name":null,"category":"Footpath (pedestrian only)"},"geometry":{"type":"MultiLineString","coordinates":[[[-0.4137818,51.88862],[-0.4135424,51.888589],[-0.4120983,51.8883843],[-0.4111769,51.8882411],[-0.4109378,51.8881952],[-0.409298,51.8878475]]]}},
{"type":"Feature","properties":{"highway":"footway","name":null,"category":"Footpath (pedestrian only)"},"geometry":{"type":"MultiLineString","coordinates":[[[-0.414761,51.8896327],[-0.4144477,51.8894092],[-0.4143516,51.8893243]]]}},
{"type":"Feature","properties":{"highway":"footway","name":null,"category":"Footpath (pedestrian only)"},"geometry":{"type":"MultiLineString","coordinates":[[[-0.4141977,51.8814514],[-0.414214,51.8814244],[-0.4142174,51.8813584],[-0.4141834,51.8813],[-0.4141156,51.8812612]]]}},
{"type":"Feature","properties":{"highway":"footway","name":null,"category":"Footpath (pedestrian only)"},"geometry":{"type":"MultiLineString","coordinates":[[[-0.4209364,51.8870281],[-0.4209746,51.8869618],[-0.4209374,51.88651],[-0.4208755,51.8859663],[-0.4208331,51.8856828],[-0.4207309,51.8852705],[-0.4206536,51.8849749],[-0.4205659,51.8847958],[-0.4201977,51.8841674],[-0.4200895,51.8840086],[-0.4200615,51.8839675],[-0.420009,51.8839141],[-0.4198859,51.8838365],[-0.4198194,51.883819],[-0.4198313,51.8837976]]]}},
{"type":"Feature","properties":{"highway":"footway","name":null,"category":"Footpath (pedestrian only)"},"geometry":{"type":"MultiLineString","coordinates":[[[-0.4211721,51.8891569],[-0.4211748,51.8890282]]]}},
{"type":"Feature","properties":{"highway":"footway","name":null,"category":"Footpath (pedestrian only)"},"geometry":{"type":"MultiLineString","coordinates":[[[-0.4144819,51.8845052],[-0.4139439,51.8841574],[-0.4139457,51.8841108]]]}},
{"type":"Feature","properties":{"highway":"footway","name":null,"category":"Footpath (pedestrian only)"},"geometry":{"type":"MultiLineString","coordinates":[[[-0.4146845,51.8914356],[-0.4146684,51.8914029],[-0.4146628,51.89135],[-0.4141835,51.8913966],[-0.4139769,51.8914089],[-0.4135935,51.8914593],[-0.4134596,51.8914944],[-0.4132175,51.8915356],[-0.413036,51.891559],[-0.4126475,51.8916277]]]}},
{"type":"Feature","properties":{"highway":"footway","name":null,"category":"Footpath (pedestrian only)"},"geometry":{"type":"MultiLineString","coordinates":[[[-0.4162496,51.8831797],[-0.4166871,51.8831994]]]}},
{"type":"Feature","properties":{"highway":"footway","name":null,"category":"Footpath (pedestrian only)"},"geometry":{"type":"MultiLineString","coordinates":[[[-0.4354166,51.8848824],[-0.4348168,51.8847025]]]}},
{"type":"Feature","properties":{"highway":"footway","name":null,"category":"Footpath (pedestrian only)"},"geometry":{"type":"MultiLineString","coordinates":[[[-0.4351039,51.8855136],[-0.4350637,51.8854624],[-0.4349214,51.8853806],[-0.4348533,51.8853639]]]}},
{"type":"Feature","properties":{"highway":"footway","name":null,"category":"Footpath (pedestrian only)"},"geometry":{"type":"MultiLineString","coordinates":[[[-0.4191597,51.8920092],[-0.4192523,51.8919054],[-0.4192859,51.8918765],[-0.4205473,51.8909245],[-0.420555,51.8906701],[-0.420446,51.8903332]]]}},
{"type":"Feature","properties":{"highway":"footway","name":null,"category":"Footpath (pedestrian only)"},"geometry":{"type":"MultiLineString","coordinates":[[[-0.4205473,51.8909245],[-0.4205366,51.8915786],[-0.4204454,51.8918964],[-0.4203491,51.8919982],[-0.4202767,51.8920397]]]}},
{"type":"Feature","properties":{"highway":"footway","name":null,"category":"Footpath (pedestrian only)"},"geometry":{"type":"MultiLineString","coordinates":[[[-0.4202061,51.8921334],[-0.4202265,51.8922307],[-0.4202189,51.8923062],[-0.4202083,51.8923912],[-0.4202051,51.892595],[-0.4202148,51.8927517],[-0.4202641,51.893027]]]}},
{"type":"Feature","properties":{"highway":"footway","name":null,"category":"Footpath (pedestrian only)"},"geometry":{"type":"MultiLineString","coordinates":[[[-0.4202421,51.893257],[-0.4202201,51.893459],[-0.4202688,51.8936695],[-0.4204067,51.893991]]]}},
{"type":"Feature","properties":{"highway":"footway","name":null,"category":"Footpath (pedestrian only)"},"geometry":{"type":"MultiLineString","coordinates":[[[-0.4198626,51.8934678],[-0.419903,51.8935145],[-0.4199416,51.8935431],[-0.4200602,51.8935871],[-0.4202688,51.8936695],[-0.4205161,51.8937602],[-0.4207816,51.893834],[-0.4206589,51.8939605],[-0.4206372,51.8940195]]]}},
{"type":"Feature","properties":{"highway":"footway","name":null,"category":"Footpath (pedestrian only)"},"geometry":{"type":"MultiLineString","coordinates":[[[-0.4194637,51.8939755],[-0.4199036,51.893992],[-0.4209672,51.8940925],[-0.4210131,51.8940607]]]}},
{"type":"Feature","properties":{"highway":"footway","name":null,"category":"Footpath (pedestrian only)"},"geometry":{"type":"MultiLineString","coordinates":[[[-0.4186375,51.8921618],[-0.4185089,51.8924328],[-0.4184488,51.8925809],[-0.4183034,51.8929307],[-0.4181866,51.8932538],[-0.4181692,51.8932935],[-0.4181641,51.8933073]]]}},
{"type":"Feature","properties":{"highway":"footway","name":null,"category":"Footpath (pedestrian only)"},"geometry":{"type":"MultiLineString","coordinates":[[[-0.4205473,51.8909245],[-0.4211549,51.8905772]]]}},
{"type":"Feature","properties":{"highway":"footway","name":null,"category":"Footpath (pedestrian only)"},"geometry":{"type":"MultiLineString","coordinates":[[[-0.4224118,51.8939968],[-0.4222774,51.8940291],[-0.4221511,51.8940443],[-0.4220587,51.8940805],[-0.4213808,51.8940634],[-0.4211256,51.8940708]]]}},
{"type":"Feature","properties":{"highway":"footway","name":null,"category":"Footpath (pedestrian only)"},"geometry":{"type":"MultiLineString","coordinates":[[[-0.4162887,51.8806058],[-0.4157969,51.8809439]]]}},
{"type":"Feature","properties":{"highway":"footway","name":null,"category":"Footpath (pedestrian only)"},"geometry":{"type":"MultiLineString","coordinates":[[[-0.414119,51.8808679],[-0.4141459,51.8808348],[-0.4147987,51.8800329]]]}},
{"type":"Feature","properties":{"highway":"footway","name":null,"category":"Footpath (pedestrian only)"},"geometry":{"type":"MultiLineString","coordinates":[[[-0.4257381,51.8795274],[-0.4258092,51.8795546],[-0.4259408,51.8796048],[-0.4260716,51.8796566],[-0.4262179,51.8796842],[-0.4263399,51.8796842],[-0.4265351,51.8796528],[-0.426672,51.8795843],[-0.4270434,51.8793956],[-0.4271518,51.8793507],[-0.4272613,51.8793614]]]}},
{"type":"Feature","properties":{"highway":"footway","name":null,"category":"Footpath (pedestrian only)"},"geometry":{"type":"MultiLineString","coordinates":[[[-0.4138803,51.8821818],[-0.4139252,51.8821911]]]}},
{"type":"Feature","properties":{"highway":"footway","name":"Moor Path","category":"Footpath (pedestrian only)"},"geometry":{"type":"MultiLineString","coordinates":[[[-0.424773,51.8860154],[-0.4243332,51.8853705],[-0.4242242,51.8852182],[-0.4240465,51.8849895],[-0.4239238,51.8849347],[-0.4234066,51.8847595],[-0.4230579,51.8846589],[-0.4209855,51.8840198],[-0.4206409,51.8839808],[-0.4205454,51.8839741]]]}},
{"type":"Feature","properties":{"highway":"footway","name":null,"category":"Footpath (pedestrian only)"},"geometry":{"type":"MultiLineString","coordinates":[[[-0.4208241,51.8835786],[-0.4208533,51.8835966],[-0.4210089,51.8835139],[-0.4211243,51.8834725]]]}},
{"type":"Feature","properties":{"highway":"footway","name":null,"category":"Footpath (pedestrian only)"},"geometry":{"type":"MultiLineString","coordinates":[[[-0.4210207,51.8834746],[-0.4210605,51.8834518]]]}},
{"type":"Feature","properties":{"highway":"footway","name":null,"category":"Footpath (pedestrian only)"},"geometry":{"type":"MultiLineString","coordinates":[[[-0.4198313,51.8837976],[-0.419857,51.8837638],[-0.4198763,51.8837384]]]}},
{"type":"Feature","properties":{"highway":"footway","name":null,"category":"Footpath (pedestrian only)"},"geometry":{"type":"MultiLineString","coordinates":[[[-0.4140378,51.8822464],[-0.4139963,51.8822379]]]}},
{"type":"Feature","properties":{"highway":"footway","name":null,"category":"Footpath (pedestrian only)"},"geometry":{"type":"MultiLineString","coordinates":[[[-0.4139252,51.8821911],[-0.4138751,51.8821705],[-0.4138714,51.8821568],[-0.4138858,51.8821261],[-0.4139112,51.8820765],[-0.4139577,51.8819857]]]}},
{"type":"Feature","properties":{"highway":"footway","name":null,"category":"Footpath (pedestrian only)"},"geometry":{"type":"MultiLineString","coordinates":[[[-0.4140488,51.8822247],[-0.4140378,51.8822464],[-0.4140279,51.8822657],[-0.414021,51.8822791]]]}},
{"type":"Feature","properties":{"highway":"footway","name":null,"category":"Footpath (pedestrian only)"},"geometry":{"type":"MultiLineString","coordinates":[[[-0.4138746,51.8821928],[-0.4138803,51.8821818],[-0.4139124,51.8821172]]]}},
{"type":"Feature","properties":{"highway":"footway","name":null,"category":"Footpath (pedestrian only)"},"geometry":{"type":"MultiLineString","coordinates":[[[-0.4137505,51.8824249],[-0.4137858,51.882357],[-0.4138646,51.8822125],[-0.4138746,51.8821928]]]}},
{"type":"Feature","properties":{"highway":"footway","name":null,"category":"Footpath (pedestrian only)"},"geometry":{"type":"MultiLineString","coordinates":[[[-0.4135567,51.882386],[-0.413576,51.8823477],[-0.4135903,51.8823176],[-0.4137858,51.882357]]]}},
{"type":"Feature","properties":{"highway":"footway","name":null,"category":"Footpath (pedestrian only)"},"geometry":{"type":"MultiLineString","coordinates":[[[-0.4139039,51.8821632],[-0.4138714,51.8821568]]]}},
{"type":"Feature","properties":{"highway":"footway","name":null,"category":"Footpath (pedestrian only)"},"geometry":{"type":"MultiLineString","coordinates":[[[-0.4135111,51.8824737],[-0.4135567,51.882386]]]}},
{"type":"Feature","properties":{"highway":"footway","name":null,"category":"Footpath (pedestrian only)"},"geometry":{"type":"MultiLineString","coordinates":[[[-0.4139577,51.8819857],[-0.4140666,51.8821021],[-0.4140841,51.8821612],[-0.4140583,51.8822076],[-0.4140488,51.8822247]]]}},
{"type":"Feature","properties":{"highway":"footway","name":null,"category":"Footpath (pedestrian only)"},"geometry":{"type":"MultiLineString","coordinates":[[[-0.4207816,51.893834],[-0.4210425,51.8938828],[-0.4210411,51.8939458],[-0.4210412,51.8940638]]]}},
{"type":"Feature","properties":{"highway":"footway","name":null,"category":"Footpath (pedestrian only)"},"geometry":{"type":"MultiLineString","coordinates":[[[-0.4210411,51.8939458],[-0.4210795,51.8939463],[-0.4211228,51.8939469]]]}},
{"type":"Feature","properties":{"highway":"footway","name":null,"category":"Footpath (pedestrian only)"},"geometry":{"type":"MultiLineString","coordinates":[[[-0.4324894,51.8891306],[-0.4324289,51.8891311],[-0.4323566,51.8891317]]]}},
{"type":"Feature","properties":{"highway":"footway","name":null,"category":"Footpath (pedestrian only)"},"geometry":{"type":"MultiLineString","coordinates":[[[-0.4328586,51.8906543],[-0.4328005,51.8906754],[-0.4327376,51.8906982]]]}},
{"type":"Feature","properties":{"highway":"footway","name":null,"category":"Footpath (pedestrian only)"},"geometry":{"type":"MultiLineString","coordinates":[[[-0.4293872,51.8916717],[-0.4293286,51.89169],[-0.4292711,51.891708]]]}},
{"type":"Feature","properties":{"highway":"footway","name":null,"category":"Footpath (pedestrian only)"},"geometry":{"type":"MultiLineString","coordinates":[[[-0.4323783,51.8869154],[-0.4323783,51.8868747],[-0.4323783,51.8868369]]]}},
{"type":"Feature","properties":{"highway":"footway","name":null,"category":"Footpath (pedestrian only)"},"geometry":{"type":"MultiLineString","coordinates":[[[-0.4343759,51.8869502],[-0.4343762,51.8869103],[-0.4343765,51.8868674]]]}},
{"type":"Feature","properties":{"highway":"footway","name":null,"category":"Footpath (pedestrian only)"},"geometry":{"type":"MultiLineString","coordinates":[[[-0.4353229,51.8870225],[-0.435338,51.8869745],[-0.4353492,51.8869386]]]}},
{"type":"Feature","properties":{"highway":"footway","name":null,"category":"Footpath (pedestrian only)"},"geometry":{"type":"MultiLineString","coordinates":[[[-0.4145354,51.8844346],[-0.4145745,51.8844705],[-0.4146179,51.8845103]]]}},
{"type":"Feature","properties":{"highway":"footway","name":null,"category":"Footpath (pedestrian only)"},"geometry":{"type":"MultiLineString","coordinates":[[[-0.4134135,51.8848783],[-0.4134567,51.8849157],[-0.4135019,51.8849549]]]}},
{"type":"Feature","properties":{"highway":"footway","name":null,"category":"Footpath (pedestrian only)"},"geometry":{"type":"MultiLineString","coordinates":[[[-0.4155859,51.8846801],[-0.4156276,51.8847239],[-0.415665,51.8847632]]]}},
{"type":"Feature","properties":{"highway":"footway","name":null,"category":"Footpath (pedestrian only)"},"geometry":{"type":"MultiLineString","coordinates":[[[-0.4161342,51.8851167],[-0.4161927,51.8851338],[-0.4162532,51.8851515]]]}},
{"type":"Feature","properties":{"highway":"footway","name":null,"category":"Footpath (pedestrian only)"},"geometry":{"type":"MultiLineString","coordinates":[[[-0.4151562,51.8855031],[-0.4149297,51.8852592]]]}},
{"type":"Feature","properties":{"highway":"footway","name":null,"category":"Footpath (pedestrian only)"},"geometry":{"type":"MultiLineString","coordinates":[[[-0.4146706,51.8853469],[-0.4149297,51.8852592],[-0.4150973,51.8852003],[-0.4151091,51.8851962],[-0.4152083,51.8851614],[-0.4153201,51.8851221],[-0.415494,51.8850344],[-0.4156328,51.8849925],[-0.4156551,51.8850149],[-0.4157531,51.8851208]]]}},
{"type":"Feature","properties":{"highway":"footway","name":null,"category":"Footpath (pedestrian only)"},"geometry":{"type":"MultiLineString","coordinates":[[[-0.4149153,51.884986],[-0.4151091,51.8851962]]]}},
{"type":"Feature","properties":{"highway":"footway","name":null,"category":"Footpath (pedestrian only)"},"geometry":{"type":"MultiLineString","coordinates":[[[-0.4150973,51.8852003],[-0.4151992,51.8853118]]]}},
{"type":"Feature","properties":{"highway":"footway","name":null,"category":"Footpath (pedestrian only)"},"geometry":{"type":"MultiLineString","coordinates":[[[-0.4152083,51.8851614],[-0.4153067,51.8852809]]]}},
{"type":"Feature","properties":{"highway":"footway","name":null,"category":"Footpath (pedestrian only)"},"geometry":{"type":"MultiLineString","coordinates":[[[-0.4145195,51.8860782],[-0.4145725,51.8860398],[-0.4143717,51.8858179],[-0.4147302,51.8857062],[-0.4147567,51.8857307],[-0.4149199,51.8856797],[-0.4148732,51.885604]]]}},
{"type":"Feature","properties":{"highway":"footway","name":null,"category":"Footpath (pedestrian only)"},"geometry":{"type":"MultiLineString","coordinates":[[[-0.4186428,51.8897079],[-0.4185467,51.8897005],[-0.4184913,51.8896985]]]}},
{"type":"Feature","properties":{"highway":"footway","name":null,"category":"Footpath (pedestrian only)"},"geometry":{"type":"MultiLineString","coordinates":[[[-0.4192034,51.8861593],[-0.4193338,51.8861231],[-0.4193721,51.8860886],[-0.4196152,51.8860292],[-0.4197512,51.886102]]]}},
{"type":"Feature","properties":{"highway":"footway","name":null,"category":"Footpath (pedestrian only)"},"geometry":{"type":"MultiLineString","coordinates":[[[-0.4212948,51.8870441],[-0.4212931,51.8869796],[-0.4212911,51.8869065]]]}},
{"type":"Feature","properties":{"highway":"footway","name":null,"category":"Footpath (pedestrian only)"},"geometry":{"type":"MultiLineString","coordinates":[[[-0.4212456,51.8871469],[-0.4211323,51.8871826],[-0.4210127,51.887192]]]}},
{"type":"Feature","properties":{"highway":"footway","name":null,"category":"Footpath (pedestrian only)"},"geometry":{"type":"MultiLineString","coordinates":[[[-0.4275122,51.8881672],[-0.4274355,51.888225],[-0.4275983,51.888418],[-0.4275721,51.8884792]]]}},
{"type":"Feature","properties":{"highway":"footway","name":null,"category":"Footpath (pedestrian only)"},"geometry":{"type":"MultiLineString","coordinates":[[[-0.4275983,51.888418],[-0.4278051,51.8883444],[-0.4278548,51.8883267],[-0.4279858,51.8883533],[-0.4280363,51.888411],[-0.4281711,51.888366]]]}},
{"type":"Feature","properties":{"highway":"footway","name":null,"category":"Footpath (pedestrian only)"},"geometry":{"type":"MultiLineString","coordinates":[[[-0.4278051,51.8883444],[-0.427632,51.8881511],[-0.4275122,51.8881672]]]}},
{"type":"Feature","properties":{"highway":"footway","name":null,"category":"Footpath (pedestrian only)"},"geometry":{"type":"MultiLineString","coordinates":[[[-0.4288731,51.888582],[-0.428787,51.8885785],[-0.428497,51.8882878]]]}},
{"type":"Feature","properties":{"highway":"footway","name":null,"category":"Footpath (pedestrian only)"},"geometry":{"type":"MultiLineString","coordinates":[[[-0.4277086,51.8896485],[-0.428094,51.8895125],[-0.4283901,51.8894081]]]}},
{"type":"Feature","properties":{"highway":"footway","name":null,"category":"Footpath (pedestrian only)"},"geometry":{"type":"MultiLineString","coordinates":[[[-0.428094,51.8895125],[-0.4280438,51.889467]]]}},
{"type":"Feature","properties":{"highway":"footway","name":null,"category":"Footpath (pedestrian only)"},"geometry":{"type":"MultiLineString","coordinates":[[[-0.428634,51.8907038],[-0.4285634,51.8907282],[-0.4285061,51.890748]]]}},
{"type":"Feature","properties":{"highway":"footway","name":null,"category":"Footpath (pedestrian only)"},"geometry":{"type":"MultiLineString","coordinates":[[[-0.4293577,51.8821866],[-0.4294435,51.8821698],[-0.4294945,51.8821236],[-0.4295619,51.8820927],[-0.4295912,51.8820498],[-0.4297305,51.8820392]]]}},
{"type":"Feature","properties":{"highway":"footway","name":null,"category":"Footpath (pedestrian only)"},"geometry":{"type":"MultiLineString","coordinates":[[[-0.4206703,51.8837095],[-0.4208748,51.8836256],[-0.4210371,51.8835321],[-0.4211243,51.8834725],[-0.4211574,51.8834338],[-0.4213261,51.8834792],[-0.4213553,51.883429]]]}},
{"type":"Feature","properties":{"highway":"footway","name":null,"category":"Footpath (pedestrian only)"},"geometry":{"type":"MultiLineString","coordinates":[[[-0.4199627,51.8840433],[-0.4198111,51.8840848]]]}},
{"type":"Feature","properties":{"highway":"footway","name":null,"category":"Footpath (pedestrian only)"},"geometry":{"type":"MultiLineString","coordinates":[[[-0.4200895,51.8840086],[-0.4200483,51.8840233]]]}},
{"type":"Feature","properties":{"highway":"footway","name":null,"category":"Footpath (pedestrian only)"},"geometry":{"type":"MultiLineString","coordinates":[[[-0.4200483,51.8840233],[-0.4199627,51.8840433]]]}},
{"type":"Feature","properties":{"highway":"footway","name":null,"category":"Footpath (pedestrian only)"},"geometry":{"type":"MultiLineString","coordinates":[[[-0.4211748,51.8890282],[-0.4211196,51.8881322],[-0.4211012,51.8878333],[-0.4210964,51.8878228]]]}},
{"type":"Feature","properties":{"highway":"footway","name":null,"category":"Footpath (pedestrian only)"},"geometry":{"type":"MultiLineString","coordinates":[[[-0.4210253,51.8873699],[-0.4208924,51.8873858]]]}},
{"type":"Feature","properties":{"highway":"footway","name":null,"category":"Footpath (pedestrian only)"},"geometry":{"type":"MultiLineString","coordinates":[[[-0.4210332,51.8873689],[-0.4210253,51.8873699]]]}},
{"type":"Feature","properties":{"highway":"footway","name":null,"category":"Footpath (pedestrian only)"},"geometry":{"type":"MultiLineString","coordinates":[[[-0.4210761,51.8877386],[-0.4210332,51.8873689],[-0.4210127,51.887192],[-0.4209479,51.8871478],[-0.4209474,51.8871259]]]}},
{"type":"Feature","properties":{"highway":"footway","name":null,"category":"Footpath (pedestrian only)"},"geometry":{"type":"MultiLineString","coordinates":[[[-0.4209474,51.8871259],[-0.4209465,51.8870891],[-0.4209364,51.8870281]]]}},
{"type":"Feature","properties":{"highway":"footway","name":null,"category":"Footpath (pedestrian only)"},"geometry":{"type":"MultiLineString","coordinates":[[[-0.4196063,51.8832697],[-0.4195082,51.8831526]]]}},
{"type":"Feature","properties":{"highway":"footway","name":null,"category":"Footpath (pedestrian only)"},"geometry":{"type":"MultiLineString","coordinates":[[[-0.4195082,51.8831526],[-0.4194707,51.8830935],[-0.4192699,51.8828114],[-0.4191753,51.8827925]]]}},
{"type":"Feature","properties":{"highway":"footway","name":null,"category":"Footpath (pedestrian only)"},"geometry":{"type":"MultiLineString","coordinates":[[[-0.4191753,51.8827925],[-0.4191833,51.8827537],[-0.419168,51.8827013]]]}},
{"type":"Feature","properties":{"highway":"footway","name":null,"category":"Footpath (pedestrian only)"},"geometry":{"type":"MultiLineString","coordinates":[[[-0.419168,51.8827013],[-0.4192422,51.8826858],[-0.4193109,51.8826715],[-0.4193763,51.8826578]]]}},
{"type":"Feature","properties":{"highway":"footway","name":null,"category":"Footpath (pedestrian only)"},"geometry":{"type":"MultiLineString","coordinates":[[[-0.4188119,51.8822598],[-0.4188308,51.882237],[-0.4188308,51.8821981],[-0.4187608,51.8820842],[-0.4186345,51.8819024]]]}},
{"type":"Feature","properties":{"highway":"footway","name":null,"category":"Footpath (pedestrian only)"},"geometry":{"type":"MultiLineString","coordinates":[[[-0.419168,51.8827013],[-0.4191425,51.8826356],[-0.4190616,51.8825089],[-0.4190032,51.8824266],[-0.4189492,51.8824026],[-0.4188551,51.8823924],[-0.418839,51.8823798]]]}},
{"type":"Feature","properties":{"highway":"footway","name":null,"category":"Footpath (pedestrian only)"},"geometry":{"type":"MultiLineString","coordinates":[[[-0.4188113,51.8823504],[-0.4187722,51.8823088]]]}},
{"type":"Feature","properties":{"highway":"footway","name":null,"category":"Footpath (pedestrian only)"},"geometry":{"type":"MultiLineString","coordinates":[[[-0.4186345,51.8819024],[-0.4187146,51.8818874],[-0.4187597,51.8818789]]]}},
{"type":"Feature","properties":{"highway":"footway","name":null,"category":"Footpath (pedestrian only)"},"geometry":{"type":"MultiLineString","coordinates":[[[-0.4186345,51.8819024],[-0.4181566,51.8812012],[-0.4180916,51.8811222],[-0.4180432,51.8810885],[-0.4179408,51.8810173],[-0.4179048,51.8810027],[-0.4178811,51.8809384],[-0.4178568,51.8808724],[-0.4178683,51.8807946],[-0.417863,51.8807762],[-0.4178454,51.8807144],[-0.4179088,51.8806637]]]}},
{"type":"Feature","properties":{"highway":"footway","name":null,"category":"Footpath (pedestrian only)"},"geometry":{"type":"MultiLineString","coordinates":[[[-0.4190297,51.882022],[-0.4189822,51.8819991],[-0.4189511,51.8819871],[-0.4188969,51.8819661]]]}},
{"type":"Feature","properties":{"highway":"footway","name":null,"category":"Footpath (pedestrian only)"},"geometry":{"type":"MultiLineString","coordinates":[[[-0.4188969,51.8819661],[-0.4188102,51.8819048],[-0.4187871,51.8818738],[-0.4187618,51.8818208],[-0.4187395,51.8817363]]]}},
{"type":"Feature","properties":{"highway":"footway","name":null,"category":"Footpath (pedestrian only)"},"geometry":{"type":"MultiLineString","coordinates":[[[-0.4187395,51.8817363],[-0.4187312,51.8816845],[-0.4187243,51.8816408]]]}},
{"type":"Feature","properties":{"highway":"footway","name":null,"category":"Footpath (pedestrian only)"},"geometry":{"type":"MultiLineString","coordinates":[[[-0.410846,51.8822928],[-0.4111263,51.8823764],[-0.4112148,51.8824427]]]}},
{"type":"Feature","properties":{"highway":"footway","name":null,"category":"Footpath (pedestrian only)"},"geometry":{"type":"MultiLineString","coordinates":[[[-0.4200729,51.8893825],[-0.4199043,51.8893009]]]}},
{"type":"Feature","properties":{"highway":"footway","name":null,"category":"Footpath (pedestrian only)"},"geometry":{"type":"MultiLineString","coordinates":[[[-0.4202178,51.8894527],[-0.4200729,51.8893825]]]}},
{"type":"Feature","properties":{"highway":"footway","name":null,"category":"Footpath (pedestrian only)"},"geometry":{"type":"MultiLineString","coordinates":[[[-0.4216029,51.8831608],[-0.4215353,51.8831774],[-0.4213553,51.883429]]]}},
{"type":"Feature","properties":{"highway":"footway","name":null,"category":"Footpath (pedestrian only)"},"geometry":{"type":"MultiLineString","coordinates":[[[-0.4315,51.8846497],[-0.4314651,51.8846828]]]}},
{"type":"Feature","properties":{"highway":"footway","name":null,"category":"Footpath (pedestrian only)"},"geometry":{"type":"MultiLineString","coordinates":[[[-0.4308157,51.8842705],[-0.4307782,51.8842986]]]}},
{"type":"Feature","properties":{"highway":"footway","name":null,"category":"Footpath (pedestrian only)"},"geometry":{"type":"MultiLineString","coordinates":[[[-0.4152572,51.8820358],[-0.4152501,51.8820514],[-0.4152465,51.8820592],[-0.4152309,51.8820933]]]}},
{"type":"Feature","properties":{"highway":"footway","name":null,"category":"Footpath (pedestrian only)"},"geometry":{"type":"MultiLineString","coordinates":[[[-0.4152047,51.8821393],[-0.4152002,51.8821487],[-0.4151847,51.8821814],[-0.4151658,51.882221]]]}},
{"type":"Feature","properties":{"highway":"footway","name":null,"category":"Footpath (pedestrian only)"},"geometry":{"type":"MultiLineString","coordinates":[[[-0.4160634,51.8824242],[-0.4160573,51.8824608],[-0.4160524,51.8824895]]]}},
{"type":"Feature","properties":{"highway":"footway","name":null,"category":"Footpath (pedestrian only)"},"geometry":{"type":"MultiLineString","coordinates":[[[-0.4148566,51.8822979],[-0.4148529,51.8823065],[-0.4148378,51.8823374],[-0.4148208,51.8823746],[-0.4148121,51.8823903]]]}},
{"type":"Feature","properties":{"highway":"footway","name":null,"category":"Footpath (pedestrian only)"},"geometry":{"type":"MultiLineString","coordinates":[[[-0.4170559,51.8833087],[-0.4171267,51.8833547],[-0.417171,51.8833835]]]}},
{"type":"Feature","properties":{"highway":"footway","name":null,"category":"Footpath (pedestrian only)"},"geometry":{"type":"MultiLineString","coordinates":[[[-0.4170559,51.8833087],[-0.4170222,51.8833127],[-0.4169321,51.8833234]]]}},
{"type":"Feature","properties":{"highway":"footway","name":null,"category":"Footpath (pedestrian only)"},"geometry":{"type":"MultiLineString","coordinates":[[[-0.4170559,51.8833087],[-0.417088,51.8832555],[-0.4171241,51.8831956]]]}},
{"type":"Feature","properties":{"highway":"footway","name":null,"category":"Footpath (pedestrian only)"},"geometry":{"type":"MultiLineString","coordinates":[[[-0.4167684,51.8832153],[-0.4167793,51.8831783],[-0.4167864,51.8831545],[-0.4167958,51.8831225]]]}},
{"type":"Feature","properties":{"highway":"footway","name":"Coupees Path","category":"Footpath (pedestrian only)"},"geometry":{"type":"MultiLineString","coordinates":[[[-0.4156364,51.8831748],[-0.4161256,51.8834786],[-0.4167909,51.8840082],[-0.4171968,51.8839568]]]}},
{"type":"Feature","properties":{"highway":"footway","name":null,"category":"Footpath (pedestrian only)"},"geometry":{"type":"MultiLineString","coordinates":[[[-0.4171856,51.8839159],[-0.4172515,51.8839059],[-0.417317,51.8838974]]]}},
{"type":"Feature","properties":{"highway":"footway","name":null,"category":"Footpath (pedestrian only)"},"geometry":{"type":"MultiLineString","coordinates":[[[-0.4171856,51.8839159],[-0.4171968,51.8839568]]]}},
{"type":"Feature","properties":{"highway":"footway","name":null,"category":"Footpath (pedestrian only)"},"geometry":{"type":"MultiLineString","coordinates":[[[-0.4105183,51.8823029],[-0.4105154,51.8822574],[-0.4105128,51.8822168],[-0.4105995,51.8822162],[-0.4106094,51.8821852],[-0.4106225,51.8821441]]]}},
{"type":"Feature","properties":{"highway":"footway","name":null,"category":"Footpath (pedestrian only)"},"geometry":{"type":"MultiLineString","coordinates":[[[-0.4141977,51.8814514],[-0.4139822,51.8819191]]]}},
{"type":"Feature","properties":{"highway":"footway","name":null,"category":"Footpath (pedestrian only)"},"geometry":{"type":"MultiLineString","coordinates":[[[-0.4139822,51.8819191],[-0.4139768,51.8819355],[-0.413969,51.8819592],[-0.4139577,51.8819857]]]}},
{"type":"Feature","properties":{"highway":"footway","name":null,"category":"Footpath (pedestrian only)"},"geometry":{"type":"MultiLineString","coordinates":[[[-0.4170749,51.8826656],[-0.417154,51.8826926],[-0.4172011,51.882705]]]}},
{"type":"Feature","properties":{"highway":"footway","name":null,"category":"Footpath (pedestrian only)"},"geometry":{"type":"MultiLineString","coordinates":[[[-0.4170749,51.8826656],[-0.4170193,51.8826923],[-0.416963,51.8827087]]]}},
{"type":"Feature","properties":{"highway":"footway","name":null,"category":"Footpath (pedestrian only)"},"geometry":{"type":"MultiLineString","coordinates":[[[-0.4170749,51.8826656],[-0.4170728,51.8826128],[-0.417078,51.8825934],[-0.4170839,51.8825637]]]}},
{"type":"Feature","properties":{"highway":"footway","name":null,"category":"Footpath (pedestrian only)"},"geometry":{"type":"MultiLineString","coordinates":[[[-0.4171628,51.8823962],[-0.4171464,51.8823473],[-0.4171292,51.8822957]]]}},
{"type":"Feature","properties":{"highway":"footway","name":null,"category":"Footpath (pedestrian only)"},"geometry":{"type":"MultiLineString","coordinates":[[[-0.4171292,51.8822957],[-0.4172236,51.8822895],[-0.4173071,51.8822841],[-0.4173141,51.8822837]]]}},
{"type":"Feature","properties":{"highway":"footway","name":null,"category":"Footpath (pedestrian only)"},"geometry":{"type":"MultiLineString","coordinates":[[[-0.4174264,51.8823831],[-0.4173974,51.8823389],[-0.4173636,51.882288]]]}},
{"type":"Feature","properties":{"highway":"footway","name":null,"category":"Footpath (pedestrian only)"},"geometry":{"type":"MultiLineString","coordinates":[[[-0.4171814,51.8825092],[-0.4172405,51.8825144],[-0.4172928,51.8825191]]]}},
{"type":"Feature","properties":{"highway":"footway","name":null,"category":"Footpath (pedestrian only)"},"geometry":{"type":"MultiLineString","coordinates":[[[-0.417299,51.8825655],[-0.4173972,51.8825505],[-0.417453,51.882542]]]}},
{"type":"Feature","properties":{"highway":"footway","name":null,"category":"Footpath (pedestrian only)"},"geometry":{"type":"MultiLineString","coordinates":[[[-0.417299,51.8825655],[-0.4172957,51.8826162],[-0.4172939,51.8826433],[-0.4172946,51.8826725]]]}},
{"type":"Feature","properties":{"highway":"footway","name":null,"category":"Footpath (pedestrian only)"},"geometry":{"type":"MultiLineString","coordinates":[[[-0.4172928,51.8825191],[-0.417299,51.8825655]]]}},
{"type":"Feature","properties":{"highway":"footway","name":null,"category":"Footpath (pedestrian only)"},"geometry":{"type":"MultiLineString","coordinates":[[[-0.4192746,51.8823099],[-0.4193069,51.8823568],[-0.419332,51.8823933]]]}},
{"type":"Feature","properties":{"highway":"footway","name":null,"category":"Footpath (pedestrian only)"},"geometry":{"type":"MultiLineString","coordinates":[[[-0.4170839,51.8825637],[-0.4171814,51.8825092],[-0.4171628,51.8823962]]]}},
{"type":"Feature","properties":{"highway":"footway","name":null,"category":"Footpath (pedestrian only)"},"geometry":{"type":"MultiLineString","coordinates":[[[-0.4255104,51.8830007],[-0.4255961,51.882969],[-0.4256477,51.8829525],[-0.4256208,51.8829249],[-0.4256514,51.8829109],[-0.4257117,51.8828814]]]}},
{"type":"Feature","properties":{"highway":"footway","name":null,"category":"Footpath (pedestrian only)"},"geometry":{"type":"MultiLineString","coordinates":[[[-0.4260907,51.8831834],[-0.4261194,51.8832126],[-0.4261535,51.883249]]]}},
{"type":"Feature","properties":{"highway":"footway","name":null,"category":"Footpath (pedestrian only)"},"geometry":{"type":"MultiLineString","coordinates":[[[-0.4256283,51.8828113],[-0.4255695,51.8827655],[-0.4255207,51.8827275]]]}},
{"type":"Feature","properties":{"highway":"footway","name":null,"category":"Footpath (pedestrian only)"},"geometry":{"type":"MultiLineString","coordinates":[[[-0.4258203,51.8829812],[-0.4258451,51.8829997],[-0.4259074,51.8830365]]]}},
{"type":"Feature","properties":{"highway":"footway","name":null,"category":"Footpath (pedestrian only)"},"geometry":{"type":"MultiLineString","coordinates":[[[-0.4231151,51.8814102],[-0.4231691,51.8814617],[-0.4232669,51.8815369]]]}},
{"type":"Feature","properties":{"highway":"path","name":null,"category":"Shared path"},"geometry":{"type":"MultiLineString","coordinates":[[[-0.4242302,51.882055],[-0.4242576,51.8820564],[-0.424298,51.882067],[-0.424375,51.8820889],[-0.4244435,51.8821243],[-0.4245535,51.8821923],[-0.4246555,51.8822252]]]}},
{"type":"Feature","properties":{"highway":"path","name":null,"category":"Shared path"},"geometry":{"type":"MultiLineString","coordinates":[[[-0.4255207,51.8827275],[-0.425344,51.8825937],[-0.4251001,51.8824091],[-0.4250222,51.8823086],[-0.4249708,51.8822549],[-0.4249626,51.8822213],[-0.4249857,51.8821973],[-0.4250467,51.8821862],[-0.4251026,51.8821781],[-0.4252348,51.8821885]]]}},
{"type":"Feature","properties":{"highway":"path","name":null,"category":"Shared path"},"geometry":{"type":"MultiLineString","coordinates":[[[-0.4251966,51.8821672],[-0.4251026,51.8821781]]]}},
{"type":"Feature","properties":{"highway":"footway","name":null,"category":"Footpath (pedestrian only)"},"geometry":{"type":"MultiLineString","coordinates":[[[-0.4246555,51.8822252],[-0.4249709,51.8825248],[-0.4255104,51.8830007],[-0.4255312,51.8830216],[-0.4258541,51.8833426],[-0.4257442,51.8834129],[-0.425769,51.8834391]]]}},
{"type":"Feature","properties":{"highway":"footway","name":null,"category":"Footpath (pedestrian only)"},"geometry":{"type":"MultiLineString","coordinates":[[[-0.425838,51.8835025],[-0.4258087,51.8834755],[-0.425795,51.883463],[-0.425769,51.8834391]]]}},
{"type":"Feature","properties":{"highway":"footway","name":null,"category":"Footpath (pedestrian only)"},"geometry":{"type":"MultiLineString","coordinates":[[[-0.4256283,51.8828113],[-0.4257117,51.8828814],[-0.4258203,51.8829812]]]}},
{"type":"Feature","properties":{"highway":"footway","name":null,"category":"Footpath (pedestrian only)"},"geometry":{"type":"MultiLineString","coordinates":[[[-0.4259074,51.8830365],[-0.4260907,51.8831834]]]}},
{"type":"Feature","properties":{"highway":"footway","name":null,"category":"Footpath (pedestrian only)"},"geometry":{"type":"MultiLineString","coordinates":[[[-0.4347896,51.8843493],[-0.4347757,51.8843684],[-0.4345616,51.8843136],[-0.4345386,51.8843465],[-0.4345071,51.884391],[-0.4344832,51.884385],[-0.4344377,51.8844513],[-0.434402,51.8844858],[-0.4343781,51.8844892],[-0.4333812,51.8842772],[-0.4333077,51.8843688]]]}},
{"type":"Feature","properties":{"highway":"footway","name":null,"category":"Footpath (pedestrian only)"},"geometry":{"type":"MultiLineString","coordinates":[[[-0.4350501,51.8844433],[-0.4348176,51.8843868],[-0.4347757,51.8843684]]]}},
{"type":"Feature","properties":{"highway":"footway","name":null,"category":"Footpath (pedestrian only)"},"geometry":{"type":"MultiLineString","coordinates":[[[-0.4345071,51.884391],[-0.4349896,51.884515]]]}},
{"type":"Feature","properties":{"highway":"footway","name":null,"category":"Footpath (pedestrian only)"},"geometry":{"type":"MultiLineString","coordinates":[[[-0.4193763,51.8826578],[-0.4195112,51.882843]]]}},
{"type":"Feature","properties":{"highway":"footway","name":null,"category":"Footpath (pedestrian only)"},"geometry":{"type":"MultiLineString","coordinates":[[[-0.4157628,51.8825029],[-0.4158265,51.8825031],[-0.4158935,51.8825039]]]}},
{"type":"Feature","properties":{"highway":"footway","name":null,"category":"Footpath (pedestrian only)"},"geometry":{"type":"MultiLineString","coordinates":[[[-0.4160634,51.8824242],[-0.4160564,51.8824121],[-0.4155569,51.8823257],[-0.4151495,51.882252],[-0.4148938,51.8822058],[-0.4145661,51.8821465],[-0.4140666,51.8821021]]]}},
{"type":"Feature","properties":{"highway":"footway","name":null,"category":"Footpath (pedestrian only)"},"geometry":{"type":"MultiLineString","coordinates":[[[-0.4148566,51.8822979],[-0.4148938,51.8822058]]]}},
{"type":"Feature","properties":{"highway":"footway","name":null,"category":"Footpath (pedestrian only)"},"geometry":{"type":"MultiLineString","coordinates":[[[-0.4151658,51.882221],[-0.415157,51.8822381],[-0.4151495,51.882252]]]}},
{"type":"Feature","properties":{"highway":"footway","name":null,"category":"Footpath (pedestrian only)"},"geometry":{"type":"MultiLineString","coordinates":[[[-0.4152047,51.8821393],[-0.4152199,51.8821155],[-0.4152309,51.8820933]]]}},
{"type":"Feature","properties":{"highway":"footway","name":null,"category":"Footpath (pedestrian only)"},"geometry":{"type":"MultiLineString","coordinates":[[[-0.4157628,51.8825029],[-0.4155925,51.8824971],[-0.41558,51.8825018],[-0.4155295,51.8825209],[-0.4153485,51.8825043],[-0.4148121,51.8823903]]]}},
{"type":"Feature","properties":{"highway":"footway","name":null,"category":"Footpath (pedestrian only)"},"geometry":{"type":"MultiLineString","coordinates":[[[-0.4158935,51.8825039],[-0.4160524,51.8824895],[-0.4163116,51.8825247],[-0.4167249,51.8826105],[-0.4168755,51.8826516],[-0.416963,51.8827087]]]}},
{"type":"Feature","properties":{"highway":"footway","name":null,"category":"Footpath (pedestrian only)"},"geometry":{"type":"MultiLineString","coordinates":[[[-0.416963,51.8827087],[-0.4170006,51.8827535],[-0.4170146,51.8828371],[-0.4169959,51.8829005],[-0.4168728,51.8831009],[-0.4168492,51.8831145],[-0.4167958,51.8831225]]]}},
{"type":"Feature","properties":{"highway":"footway","name":null,"category":"Footpath (pedestrian only)"},"geometry":{"type":"MultiLineString","coordinates":[[[-0.4171292,51.8822957],[-0.417081,51.8823014],[-0.416962,51.8823156],[-0.4152681,51.8820118],[-0.4152639,51.882011],[-0.4144786,51.8818603],[-0.4143891,51.8818851],[-0.4143211,51.8819409],[-0.4142778,51.8819609],[-0.414211,51.8819673],[-0.4139822,51.8819191]]]}},
{"type":"Feature","properties":{"highway":"footway","name":null,"category":"Footpath (pedestrian only)"},"geometry":{"type":"MultiLineString","coordinates":[[[-0.4152572,51.8820358],[-0.4152681,51.8820118]]]}},
{"type":"Feature","properties":{"highway":"footway","name":null,"category":"Footpath (pedestrian only)"},"geometry":{"type":"MultiLineString","coordinates":[[[-0.4144996,51.8819775],[-0.4152199,51.8821155],[-0.4161979,51.8822753]]]}},
{"type":"Feature","properties":{"highway":"footway","name":null,"category":"Footpath (pedestrian only)"},"geometry":{"type":"MultiLineString","coordinates":[[[-0.4166871,51.8831994],[-0.4167684,51.8832153],[-0.4168785,51.8832556],[-0.4169321,51.8833234]]]}},
{"type":"Feature","properties":{"highway":"footway","name":null,"category":"Footpath (pedestrian only)"},"geometry":{"type":"MultiLineString","coordinates":[[[-0.4125165,51.8807865],[-0.4126047,51.8807936],[-0.4126701,51.8807981],[-0.4127251,51.8808032]]]}},
{"type":"Feature","properties":{"highway":"footway","name":null,"category":"Footpath (pedestrian only)"},"geometry":{"type":"MultiLineString","coordinates":[[[-0.4143969,51.8798816],[-0.4143669,51.8799153],[-0.4143397,51.8799458]]]}},
{"type":"Feature","properties":{"highway":"footway","name":null,"category":"Footpath (pedestrian only)"},"geometry":{"type":"MultiLineString","coordinates":[[[-0.4154047,51.8803823],[-0.4153687,51.880358],[-0.4153244,51.8803281]]]}},
{"type":"Feature","properties":{"highway":"footway","name":null,"category":"Footpath (pedestrian only)"},"geometry":{"type":"MultiLineString","coordinates":[[[-0.4154841,51.8803589],[-0.4155259,51.8803315],[-0.4155804,51.8802958]]]}},
{"type":"Feature","properties":{"highway":"footway","name":null,"category":"Footpath (pedestrian only)"},"geometry":{"type":"MultiLineString","coordinates":[[[-0.4155804,51.8802958],[-0.4156247,51.8802829]]]}},
{"type":"Feature","properties":{"highway":"footway","name":null,"category":"Footpath (pedestrian only)"},"geometry":{"type":"MultiLineString","coordinates":[[[-0.4154841,51.8803589],[-0.4154047,51.8803823],[-0.4152194,51.8805191],[-0.4148224,51.8807918],[-0.4146379,51.8809185],[-0.414406,51.8810077]]]}},
{"type":"Feature","properties":{"highway":"footway","name":null,"category":"Footpath (pedestrian only)"},"geometry":{"type":"MultiLineString","coordinates":[[[-0.4171292,51.8822957],[-0.4169468,51.8821256],[-0.4166294,51.8818717]]]}},
{"type":"Feature","properties":{"highway":"footway","name":null,"category":"Footpath (pedestrian only)"},"geometry":{"type":"MultiLineString","coordinates":[[[-0.4166294,51.8818717],[-0.4160702,51.8816226],[-0.4155404,51.8814067],[-0.4153494,51.881285],[-0.4153472,51.8812366]]]}},
{"type":"Feature","properties":{"highway":"footway","name":null,"category":"Footpath (pedestrian only)"},"geometry":{"type":"MultiLineString","coordinates":[[[-0.4169518,51.8819556],[-0.4170009,51.8819982],[-0.4170313,51.8820246]]]}},
{"type":"Feature","properties":{"highway":"footway","name":null,"category":"Footpath (pedestrian only)"},"geometry":{"type":"MultiLineString","coordinates":[[[-0.4170313,51.8820246],[-0.4170276,51.8820346],[-0.4173071,51.8822841]]]}},
{"type":"Feature","properties":{"highway":"footway","name":null,"category":"Footpath (pedestrian only)"},"geometry":{"type":"MultiLineString","coordinates":[[[-0.410846,51.8822928],[-0.4113583,51.8822769],[-0.411635,51.8822795],[-0.4119999,51.8823588]]]}},
{"type":"Feature","properties":{"highway":"footway","name":null,"category":"Footpath (pedestrian only)"},"geometry":{"type":"MultiLineString","coordinates":[[[-0.4119999,51.8823588],[-0.4135125,51.8827033]]]}},
{"type":"Feature","properties":{"highway":"footway","name":null,"category":"Footpath (pedestrian only)"},"geometry":{"type":"MultiLineString","coordinates":[[[-0.4135125,51.8827033],[-0.413753,51.8827533],[-0.4140272,51.8828113],[-0.4142105,51.8828446],[-0.4145818,51.8829026],[-0.4162455,51.8831327],[-0.4162496,51.8831797]]]}},
{"type":"Feature","properties":{"highway":"footway","name":null,"category":"Footpath (pedestrian only)"},"geometry":{"type":"MultiLineString","coordinates":[[[-0.4148121,51.8823903],[-0.4146154,51.8823787],[-0.4145196,51.8823614],[-0.4145027,51.8823547],[-0.4144169,51.882321],[-0.4140841,51.8821612]]]}},
{"type":"Feature","properties":{"highway":"footway","name":null,"category":"Footpath (pedestrian only)"},"geometry":{"type":"MultiLineString","coordinates":[[[-0.4105183,51.8823029],[-0.410846,51.8822928]]]}},
{"type":"Feature","properties":{"highway":"footway","name":null,"category":"Footpath (pedestrian only)"},"geometry":{"type":"MultiLineString","coordinates":[[[-0.4139822,51.8819191],[-0.4138057,51.8818889],[-0.4137161,51.8818735],[-0.4130985,51.8818123],[-0.4126101,51.8817544],[-0.4122827,51.8817009],[-0.4110444,51.8814852],[-0.4110014,51.8814616],[-0.4109541,51.8814197],[-0.4109617,51.8813905],[-0.4109665,51.881329],[-0.4113594,51.8810123],[-0.4115823,51.8807796],[-0.4117536,51.8807224],[-0.4125165,51.8807865]]]}},
{"type":"Feature","properties":{"highway":"footway","name":null,"category":"Footpath (pedestrian only)"},"geometry":{"type":"MultiLineString","coordinates":[[[-0.4106225,51.8821441],[-0.4105542,51.8821155],[-0.4105082,51.8820664],[-0.4105082,51.8820074],[-0.4105064,51.881932],[-0.4107007,51.8815961],[-0.4107754,51.8815715],[-0.410878,51.8815486],[-0.4109541,51.8815636],[-0.411439,51.8816491],[-0.4117929,51.8817507],[-0.4125733,51.8818807],[-0.4128281,51.8819069],[-0.4132363,51.8819708],[-0.4138985,51.8820745],[-0.4139112,51.8820765],[-0.4140666,51.8821021]]]}},
{"type":"Feature","properties":{"highway":"path","name":null,"category":"Shared path"},"geometry":{"type":"MultiLineString","coordinates":[[[-0.4177986,51.8910437],[-0.4177585,51.8910263],[-0.4161294,51.8901633],[-0.4155366,51.8898898],[-0.4152739,51.8897752],[-0.414761,51.8896327]]]}},
{"type":"Feature","properties":{"highway":"footway","name":null,"category":"Footpath (pedestrian only)"},"geometry":{"type":"MultiLineString","coordinates":[[[-0.414761,51.8896327],[-0.414704,51.889654],[-0.4140289,51.8898315],[-0.4130682,51.8901248]]]}},
{"type":"Feature","properties":{"highway":"footway","name":null,"category":"Footpath (pedestrian only)"},"geometry":{"type":"MultiLineString","coordinates":[[[-0.409107,51.8878297],[-0.4091792,51.8878088],[-0.4091978,51.8878034],[-0.4114218,51.887159],[-0.4116714,51.8870874],[-0.4127008,51.8867936]]]}},
{"type":"Feature","properties":{"highway":"footway","name":null,"category":"Footpath (pedestrian only)"},"geometry":{"type":"MultiLineString","coordinates":[[[-0.4196952,51.8898935],[-0.4197516,51.889872],[-0.4203333,51.8895123],[-0.4210497,51.8890541]]]}},
{"type":"Feature","properties":{"highway":"footway","name":null,"category":"Footpath (pedestrian only)"},"geometry":{"type":"MultiLineString","coordinates":[[[-0.4203333,51.8895123],[-0.4202178,51.8894527]]]}},
{"type":"Feature","properties":{"highway":"footway","name":null,"category":"Footpath (pedestrian only)"},"geometry":{"type":"MultiLineString","coordinates":[[[-0.4202061,51.8921334],[-0.42016,51.8921449],[-0.4201132,51.8921465],[-0.420065,51.8921402],[-0.4200262,51.8921225],[-0.4199943,51.8921019],[-0.419977,51.8920748],[-0.4199753,51.8920506],[-0.4199889,51.8920112]]]}},
{"type":"Feature","properties":{"highway":"footway","name":null,"category":"Footpath (pedestrian only)"},"geometry":{"type":"MultiLineString","coordinates":[[[-0.4190297,51.882022],[-0.4190018,51.8820699],[-0.4189902,51.8821224],[-0.4190014,51.8821684],[-0.4190369,51.8822213],[-0.4190771,51.8822494]]]}},
{"type":"Feature","properties":{"highway":"footway","name":null,"category":"Footpath (pedestrian only)"},"geometry":{"type":"MultiLineString","coordinates":[[[-0.418839,51.8823798],[-0.4188113,51.8823504]]]}},
{"type":"Feature","properties":{"highway":"footway","name":null,"category":"Footpath (pedestrian only)"},"geometry":{"type":"MultiLineString","coordinates":[[[-0.4187597,51.8818789],[-0.4187871,51.8818738]]]}},
{"type":"Feature","properties":{"highway":"footway","name":null,"category":"Footpath (pedestrian only)"},"geometry":{"type":"MultiLineString","coordinates":[[[-0.419269,51.8823022],[-0.4192746,51.8823099]]]}},
{"type":"Feature","properties":{"highway":"footway","name":null,"category":"Footpath (pedestrian only)"},"geometry":{"type":"MultiLineString","coordinates":[[[-0.4202767,51.8920397],[-0.4202432,51.8919947],[-0.4202262,51.8919837],[-0.4201914,51.8919705],[-0.420155,51.8919635],[-0.4201023,51.8919644],[-0.420041,51.8919773],[-0.4200097,51.8919959],[-0.4199889,51.8920112]]]}},
{"type":"Feature","properties":{"highway":"footway","name":null,"category":"Footpath (pedestrian only)"},"geometry":{"type":"MultiLineString","coordinates":[[[-0.4199889,51.8920112],[-0.4194726,51.8918965],[-0.4193864,51.891883],[-0.4193378,51.8918774],[-0.4192859,51.8918765]]]}},
{"type":"Feature","properties":{"highway":"footway","name":null,"category":"Footpath (pedestrian only)"},"geometry":{"type":"MultiLineString","coordinates":[[[-0.4202767,51.8920397],[-0.4202796,51.8920633],[-0.4202673,51.8920952],[-0.420252,51.8921118],[-0.4202061,51.8921334]]]}},
{"type":"Feature","properties":{"highway":"footway","name":null,"category":"Footpath (pedestrian only)"},"geometry":{"type":"MultiLineString","coordinates":[[[-0.4185493,51.8916668],[-0.4185723,51.8915888],[-0.4186389,51.8914041],[-0.4186971,51.8912888],[-0.4188758,51.8907449]]]}},
{"type":"Feature","properties":{"highway":"footway","name":null,"category":"Footpath (pedestrian only)"},"geometry":{"type":"MultiLineString","coordinates":[[[-0.4183323,51.8910296],[-0.4181293,51.890979],[-0.4180108,51.8909495]]]}},
{"type":"Feature","properties":{"highway":"footway","name":null,"category":"Footpath (pedestrian only)"},"geometry":{"type":"MultiLineString","coordinates":[[[-0.4143979,51.8809524],[-0.4141,51.8809061],[-0.4130871,51.8808243],[-0.4129019,51.8808093],[-0.4127251,51.8808032]]]}},
{"type":"Feature","properties":{"highway":"footway","name":null,"category":"Footpath (pedestrian only)"},"geometry":{"type":"MultiLineString","coordinates":[[[-0.4141459,51.8808348],[-0.4136617,51.8807977],[-0.4131956,51.880753],[-0.412619,51.880705],[-0.4120651,51.880662],[-0.411766,51.8806396],[-0.4116668,51.8805999],[-0.4116185,51.8804947],[-0.4115219,51.8803383],[-0.411523,51.880301],[-0.4115233,51.8802902],[-0.4115501,51.8802604],[-0.4116569,51.8802437]]]}},
{"type":"Feature","properties":{"highway":"footway","name":null,"category":"Footpath (pedestrian only)"},"geometry":{"type":"MultiLineString","coordinates":[[[-0.419168,51.8827013],[-0.4186271,51.8826786],[-0.4182731,51.8826513],[-0.417565,51.8826008],[-0.4174845,51.8825809],[-0.417453,51.882542],[-0.4173866,51.8824393],[-0.4173772,51.882393],[-0.4174264,51.8823831]]]}},
{"type":"Feature","properties":{"highway":"footway","name":null,"category":"Footpath (pedestrian only)"},"geometry":{"type":"MultiLineString","coordinates":[[[-0.4191753,51.8827925],[-0.4186741,51.8827713],[-0.4176737,51.882689],[-0.4174872,51.8826744],[-0.4173973,51.8826678],[-0.4172946,51.8826725],[-0.4172377,51.8826819],[-0.4172011,51.882705]]]}},
{"type":"Feature","properties":{"highway":"footway","name":null,"category":"Footpath (pedestrian only)"},"geometry":{"type":"MultiLineString","coordinates":[[[-0.42395,51.8814976],[-0.4240143,51.8814948],[-0.4239433,51.8814195],[-0.4239392,51.8813863],[-0.424064,51.8813333],[-0.4243939,51.881258],[-0.4244457,51.8812041]]]}},
{"type":"Feature","properties":{"highway":"footway","name":null,"category":"Footpath (pedestrian only)"},"geometry":{"type":"MultiLineString","coordinates":[[[-0.4366044,51.8873889],[-0.4365826,51.8873865],[-0.4365365,51.8873697],[-0.4364999,51.8873748],[-0.4364548,51.8873536]]]}},
{"type":"Feature","properties":{"highway":"footway","name":null,"category":"Footpath (pedestrian only)"},"geometry":{"type":"MultiLineString","coordinates":[[[-0.430906,51.8866798],[-0.4310412,51.8866792],[-0.4310949,51.8867456]]]}},
{"type":"Feature","properties":{"highway":"footway","name":null,"category":"Footpath (pedestrian only)"},"geometry":{"type":"MultiLineString","coordinates":[[[-0.4310412,51.8866792],[-0.4310721,51.8866276]]]}},
{"type":"Feature","properties":{"highway":"footway","name":null,"category":"Footpath (pedestrian only)"},"geometry":{"type":"MultiLineString","coordinates":[[[-0.4304232,51.8869895],[-0.4304409,51.8870096],[-0.4304845,51.8870235],[-0.4304534,51.8870817]]]}},
{"type":"Feature","properties":{"highway":"footway","name":null,"category":"Footpath (pedestrian only)"},"geometry":{"type":"MultiLineString","coordinates":[[[-0.4304845,51.8870235],[-0.4305319,51.8870341]]]}},
{"type":"Feature","properties":{"highway":"footway","name":null,"category":"Footpath (pedestrian only)"},"geometry":{"type":"MultiLineString","coordinates":[[[-0.4295775,51.8861494],[-0.429563,51.8861655],[-0.4295259,51.8861574],[-0.4294897,51.886157]]]}},
{"type":"Feature","properties":{"highway":"footway","name":null,"category":"Footpath (pedestrian only)"},"geometry":{"type":"MultiLineString","coordinates":[[[-0.429563,51.8861655],[-0.4295709,51.8861918]]]}},
{"type":"Feature","properties":{"highway":"footway","name":null,"category":"Footpath (pedestrian only)"},"geometry":{"type":"MultiLineString","coordinates":[[[-0.4293802,51.8862386],[-0.4293828,51.8862079],[-0.4294421,51.8861782]]]}},
{"type":"Feature","properties":{"highway":"footway","name":null,"category":"Footpath (pedestrian only)"},"geometry":{"type":"MultiLineString","coordinates":[[[-0.4250252,51.8830648],[-0.424965,51.8830619],[-0.4237662,51.8830473]]]}},
{"type":"Feature","properties":{"highway":"footway","name":null,"category":"Footpath (pedestrian only)"},"geometry":{"type":"MultiLineString","coordinates":[[[-0.4212948,51.8870441],[-0.4212436,51.8870621],[-0.4212343,51.8871026],[-0.4212456,51.8871469]]]}},
{"type":"Feature","properties":{"highway":"footway","name":null,"category":"Footpath (pedestrian only)"},"geometry":{"type":"MultiLineString","coordinates":[[[-0.4171365,51.8936643],[-0.4171803,51.8936009],[-0.4173178,51.8933053],[-0.4173614,51.8932104]]]}},
{"type":"Feature","properties":{"highway":"footway","name":null,"category":"Footpath (pedestrian only)"},"geometry":{"type":"MultiLineString","coordinates":[[[-0.4181866,51.8932538],[-0.4182608,51.8932803],[-0.4184062,51.8932977],[-0.4184302,51.8933015],[-0.4185213,51.8934936],[-0.4186587,51.8936646],[-0.4186464,51.8937813],[-0.4186297,51.8938553],[-0.418657,51.894136]]]}},
{"type":"Feature","properties":{"highway":"path","name":null,"category":"Shared path"},"geometry":{"type":"MultiLineString","coordinates":[[[-0.412967,51.8901127],[-0.4128173,51.8900422],[-0.4126487,51.8900023],[-0.4124394,51.8899417],[-0.4122938,51.8899076],[-0.4121962,51.8898874],[-0.412092,51.8898673],[-0.411601,51.8898051],[-0.4109427,51.8897367],[-0.4105625,51.8897023],[-0.4101835,51.8896321],[-0.4098522,51.8895169],[-0.4094573,51.8893641]]]}},
{"type":"Feature","properties":{"highway":"path","name":null,"category":"Shared path"},"geometry":{"type":"MultiLineString","coordinates":[[[-0.4141148,51.8909061],[-0.4141593,51.8909419],[-0.4141788,51.8909721],[-0.414171,51.8910722],[-0.4141749,51.8912077],[-0.4141828,51.8912905],[-0.4141835,51.8913966]]]}},
{"type":"Feature","properties":{"highway":"path","name":null,"category":"Shared path"},"geometry":{"type":"MultiLineString","coordinates":[[[-0.4143167,51.8892838],[-0.4142375,51.8895421],[-0.4141726,51.8896749],[-0.4140289,51.8898315]]]}},
{"type":"Feature","properties":{"highway":"path","name":null,"category":"Shared path"},"geometry":{"type":"MultiLineString","coordinates":[[[-0.4130682,51.8901248],[-0.4133826,51.8901658],[-0.4134528,51.8901777],[-0.4138251,51.8902329],[-0.4138761,51.8902613],[-0.4139142,51.8903058],[-0.4139295,51.8903407],[-0.4139329,51.8903756],[-0.4139154,51.8904355],[-0.413878,51.8905776],[-0.4138292,51.8907573]]]}},
{"type":"Feature","properties":{"highway":"path","name":null,"category":"Shared path"},"geometry":{"type":"MultiLineString","coordinates":[[[-0.413036,51.891559],[-0.4132101,51.8914189],[-0.4130812,51.8909822],[-0.4129733,51.8904641],[-0.4129273,51.8902524],[-0.4128945,51.8901784],[-0.4128449,51.8901409],[-0.4127163,51.8901175],[-0.4124647,51.8901088]]]}},
{"type":"Feature","properties":{"highway":"footway","name":null,"category":"Footpath (pedestrian only)"},"geometry":{"type":"MultiLineString","coordinates":[[[-0.414704,51.889654],[-0.4138292,51.8907573],[-0.4135594,51.8911523],[-0.4134339,51.8912786],[-0.4133301,51.891406]]]}},
{"type":"Feature","properties":{"highway":"path","name":null,"category":"Shared path"},"geometry":{"type":"MultiLineString","coordinates":[[[-0.4133301,51.891406],[-0.4132101,51.8914189]]]}},
{"type":"Feature","properties":{"highway":"path","name":null,"category":"Shared path"},"geometry":{"type":"MultiLineString","coordinates":[[[-0.4148921,51.890483],[-0.4147191,51.8906534],[-0.4146211,51.890745],[-0.4144808,51.8908162],[-0.414435,51.8908261],[-0.4142388,51.8908712],[-0.4141687,51.8908876],[-0.4141148,51.8909061],[-0.4140535,51.890942],[-0.4139919,51.891081],[-0.4139471,51.8911526],[-0.4138577,51.8912274],[-0.4137851,51.8912805],[-0.4137247,51.8913266],[-0.4136522,51.8913663],[-0.413591,51.8913916],[-0.4135339,51.8914058],[-0.4134575,51.8914132],[-0.41339,51.8914164],[-0.4133301,51.891406]]]}},
{"type":"Feature","properties":{"highway":"footway","name":null,"category":"Footpath (pedestrian only)"},"geometry":{"type":"MultiLineString","coordinates":[[[-0.4114218,51.887159],[-0.4115537,51.8873164],[-0.4119262,51.8872196],[-0.4120441,51.8871834],[-0.4124898,51.8870549],[-0.4128337,51.886961]]]}},
{"type":"Feature","properties":{"highway":"footway","name":null,"category":"Footpath (pedestrian only)"},"geometry":{"type":"MultiLineString","coordinates":[[[-0.4124898,51.8870549],[-0.4124368,51.8871099],[-0.4124122,51.8871424],[-0.4123822,51.8871874],[-0.4123672,51.8872298]]]}},
{"type":"Feature","properties":{"highway":"footway","name":null,"category":"Footpath (pedestrian only)"},"geometry":{"type":"MultiLineString","coordinates":[[[-0.4117508,51.8874266],[-0.4119262,51.8872196]]]}},
{"type":"Feature","properties":{"highway":"footway","name":null,"category":"Footpath (pedestrian only)"},"geometry":{"type":"MultiLineString","coordinates":[[[-0.4132053,51.8875326],[-0.4130272,51.8875338],[-0.4129405,51.8875345],[-0.4128928,51.8875318],[-0.4128481,51.8875252],[-0.4127889,51.8875111],[-0.4127276,51.8874923],[-0.4126487,51.8874604],[-0.4125936,51.8874362]]]}},
{"type":"Feature","properties":{"highway":"path","name":null,"category":"Shared path"},"geometry":{"type":"MultiLineString","coordinates":[[[-0.4126487,51.8874604],[-0.4122754,51.8881593],[-0.4120983,51.8883843]]]}},
{"type":"Feature","properties":{"highway":"footway","name":null,"category":"Footpath (pedestrian only)"},"geometry":{"type":"MultiLineString","coordinates":[[[-0.4148921,51.890483],[-0.4148269,51.8909115],[-0.4146628,51.89135]]]}},
{"type":"Feature","properties":{"highway":"path","name":null,"category":"Shared path"},"geometry":{"type":"MultiLineString","coordinates":[[[-0.4148921,51.890483],[-0.41496,51.8907872],[-0.4150211,51.891014],[-0.4150781,51.8911747],[-0.4151129,51.8913057]]]}},
{"type":"Feature","properties":{"highway":"path","name":null,"category":"Shared path"},"geometry":{"type":"MultiLineString","coordinates":[[[-0.4148921,51.890483],[-0.414807,51.8901973],[-0.4147297,51.8900348],[-0.4146689,51.8898643],[-0.4146687,51.8897802],[-0.414704,51.889654]]]}},
{"type":"Feature","properties":{"highway":"path","name":null,"category":"Shared path"},"geometry":{"type":"MultiLineString","coordinates":[[[-0.4177986,51.8910437],[-0.417777,51.8910722],[-0.4174073,51.8910973],[-0.4169101,51.8911336],[-0.4164255,51.8911759],[-0.415553,51.8912606],[-0.4151129,51.8913057]]]}},
{"type":"Feature","properties":{"highway":"footway","name":null,"category":"Footpath (pedestrian only)"},"geometry":{"type":"MultiLineString","coordinates":[[[-0.4151129,51.8913057],[-0.4148872,51.8913277],[-0.4146628,51.89135]]]}},
{"type":"Feature","properties":{"highway":"footway","name":null,"category":"Footpath (pedestrian only)"},"geometry":{"type":"MultiLineString","coordinates":[[[-0.4211549,51.8905772],[-0.4210137,51.8905505],[-0.420498,51.8903178]]]}},
{"type":"Feature","properties":{"highway":"footway","name":null,"category":"Footpath (pedestrian only)"},"geometry":{"type":"MultiLineString","coordinates":[[[-0.4120441,51.8871834],[-0.4116714,51.8870874]]]}},
{"type":"Feature","properties":{"highway":"footway","name":null,"category":"Footpath (pedestrian only)"},"geometry":{"type":"MultiLineString","coordinates":[[[-0.4185363,51.8811955],[-0.4184898,51.8811716],[-0.4184605,51.8811566]]]}},
{"type":"Feature","properties":{"highway":"footway","name":null,"category":"Footpath (pedestrian only)"},"geometry":{"type":"MultiLineString","coordinates":[[[-0.4182314,51.8810154],[-0.4182015,51.8809974],[-0.4181852,51.8809876]]]}},
{"type":"Feature","properties":{"highway":"footway","name":null,"category":"Footpath (pedestrian only)"},"geometry":{"type":"MultiLineString","coordinates":[[[-0.4182314,51.8810154],[-0.4184605,51.8811566]]]}},
{"type":"Feature","properties":{"highway":"footway","name":null,"category":"Footpath (pedestrian only)"},"geometry":{"type":"MultiLineString","coordinates":[[[-0.4180259,51.8806689],[-0.4180328,51.8806795],[-0.418062,51.880724]]]}},
{"type":"Feature","properties":{"highway":"footway","name":null,"category":"Footpath (pedestrian only)"},"geometry":{"type":"MultiLineString","coordinates":[[[-0.418062,51.880724],[-0.4180534,51.8807475],[-0.4181852,51.8809876]]]}},
{"type":"Feature","properties":{"highway":"footway","name":null,"category":"Footpath (pedestrian only)"},"geometry":{"type":"MultiLineString","coordinates":[[[-0.4183323,51.8910296],[-0.4182161,51.8912375],[-0.4182138,51.8912686],[-0.4182227,51.8912945],[-0.4183514,51.8914385],[-0.4184162,51.891504],[-0.4184984,51.8915922],[-0.4185493,51.8916668],[-0.418561,51.8917857],[-0.4185619,51.8917952],[-0.4185804,51.891956],[-0.4185999,51.8920799],[-0.4186375,51.8921618]]]}},
{"type":"Feature","properties":{"highway":"footway","name":null,"category":"Footpath (pedestrian only)"},"geometry":{"type":"MultiLineString","coordinates":[[[-0.4188758,51.8907449],[-0.4188938,51.8905602],[-0.4189133,51.8904807],[-0.4190757,51.8903606],[-0.41944,51.8901486],[-0.4196036,51.8900653],[-0.4197322,51.8900445],[-0.419917,51.8900402],[-0.4197516,51.889872]]]}},
{"type":"Feature","properties":{"highway":"footway","name":null,"category":"Footpath (pedestrian only)"},"geometry":{"type":"MultiLineString","coordinates":[[[-0.421166,51.8892025],[-0.4210925,51.8892411],[-0.4210868,51.8892771],[-0.4210228,51.8896781],[-0.4209767,51.8897862],[-0.420686,51.8900144],[-0.4204715,51.8902239]]]}},
{"type":"Feature","properties":{"highway":"footway","name":null,"category":"Footpath (pedestrian only)"},"geometry":{"type":"MultiLineString","coordinates":[[[-0.4204877,51.8903263],[-0.420446,51.8903332],[-0.420439,51.8903343],[-0.4204081,51.8903315],[-0.4203763,51.8903232],[-0.4203451,51.8902954],[-0.4203396,51.8902784],[-0.4203442,51.89026],[-0.4203725,51.8902329],[-0.4203981,51.8902239],[-0.4204348,51.8902202],[-0.4204715,51.8902239],[-0.4204858,51.8902292],[-0.4205086,51.8902408],[-0.4205202,51.8902589],[-0.4205216,51.8902833],[-0.4205142,51.8903043],[-0.420498,51.8903178],[-0.4204877,51.8903263]]]}},
{"type":"Feature","properties":{"highway":"footway","name":null,"category":"Footpath (pedestrian only)"},"geometry":{"type":"MultiLineString","coordinates":[[[-0.4200844,51.8901112],[-0.4203725,51.8902329]]]}},
{"type":"Feature","properties":{"highway":"footway","name":null,"category":"Footpath (pedestrian only)"},"geometry":{"type":"MultiLineString","coordinates":[[[-0.4185231,51.8907557],[-0.4184131,51.8907287],[-0.4184349,51.8906954],[-0.4183085,51.8906596]]]}},
{"type":"Feature","properties":{"highway":"footway","name":null,"category":"Footpath (pedestrian only)"},"geometry":{"type":"MultiLineString","coordinates":[[[-0.4196952,51.8898935],[-0.4194381,51.8900308],[-0.4193908,51.8900528],[-0.4183325,51.8906391],[-0.4183085,51.8906596]]]}},
{"type":"Feature","properties":{"highway":"footway","name":null,"category":"Footpath (pedestrian only)"},"geometry":{"type":"MultiLineString","coordinates":[[[-0.4175779,51.8932361],[-0.4175987,51.8931925],[-0.4176647,51.8930954],[-0.417706,51.8930281],[-0.4177551,51.8929135]]]}},
{"type":"Feature","properties":{"highway":"footway","name":null,"category":"Footpath (pedestrian only)"},"geometry":{"type":"MultiLineString","coordinates":[[[-0.4184349,51.8906954],[-0.4184613,51.8906622]]]}},
{"type":"Feature","properties":{"highway":"footway","name":null,"category":"Footpath (pedestrian only)"},"geometry":{"type":"MultiLineString","coordinates":[[[-0.4202189,51.8923062],[-0.4206829,51.892305]]]}},
{"type":"Feature","properties":{"highway":"footway","name":null,"category":"Footpath (pedestrian only)"},"geometry":{"type":"MultiLineString","coordinates":[[[-0.4184488,51.8925809],[-0.4180352,51.8928178],[-0.4177751,51.8929051],[-0.4177551,51.8929135]]]}},
{"type":"Feature","properties":{"highway":"footway","name":null,"category":"Footpath (pedestrian only)"},"geometry":{"type":"MultiLineString","coordinates":[[[-0.420145,51.8825297],[-0.4200761,51.8825598]]]}},
{"type":"Feature","properties":{"highway":"footway","name":null,"category":"Footpath (pedestrian only)"},"geometry":{"type":"MultiLineString","coordinates":[[[-0.4173275,51.8815985],[-0.4168253,51.8815416]]]}},
{"type":"Feature","properties":{"highway":"footway","name":null,"category":"Footpath (pedestrian only)"},"geometry":{"type":"MultiLineString","coordinates":[[[-0.4169444,51.8805876],[-0.4170691,51.8806152]]]}},
{"type":"Feature","properties":{"highway":"footway","name":null,"category":"Footpath (pedestrian only)"},"geometry":{"type":"MultiLineString","coordinates":[[[-0.4172964,51.8932011],[-0.4173229,51.8931459]]]}},
{"type":"Feature","properties":{"highway":"footway","name":null,"category":"Footpath (pedestrian only)"},"geometry":{"type":"MultiLineString","coordinates":[[[-0.4192859,51.8918765],[-0.419245,51.8918736],[-0.4192153,51.8918657],[-0.4191763,51.8918487],[-0.4191497,51.8918326]]]}},
{"type":"Feature","properties":{"highway":"footway","name":null,"category":"Footpath (pedestrian only)"},"geometry":{"type":"MultiLineString","coordinates":[[[-0.4135056,51.8896008],[-0.4134309,51.889517]]]}},
{"type":"Feature","properties":{"highway":"footway","name":null,"category":"Footpath (pedestrian only)"},"geometry":{"type":"MultiLineString","coordinates":[[[-0.4135056,51.8896008],[-0.4136069,51.8896064],[-0.413678,51.8896379],[-0.4137257,51.8896785],[-0.4138053,51.8897735]]]}},
{"type":"Feature","properties":{"highway":"footway","name":null,"category":"Footpath (pedestrian only)"},"geometry":{"type":"MultiLineString","coordinates":[[[-0.4182567,51.8907494],[-0.4181426,51.8907252],[-0.4180811,51.890712],[-0.4180531,51.8907061]]]}},
{"type":"Feature","properties":{"highway":"footway","name":null,"category":"Footpath (pedestrian only)"},"geometry":{"type":"MultiLineString","coordinates":[[[-0.4180589,51.891098],[-0.4179704,51.8910765],[-0.417938,51.8910695],[-0.4178845,51.8910585],[-0.417843,51.8910493]]]}},
{"type":"Feature","properties":{"highway":"footway","name":"Parkrun ----- Start","category":"Footpath (pedestrian only)"},"geometry":{"type":"MultiLineString","coordinates":[[[-0.4202037,51.8904959],[-0.420136,51.8904672],[-0.420073,51.8904393]]]}},
{"type":"Feature","properties":{"highway":"footway","name":null,"category":"Footpath (pedestrian only)"},"geometry":{"type":"MultiLineString","coordinates":[[[-0.4183085,51.8906596],[-0.4182567,51.8907494],[-0.4181293,51.890979],[-0.4180589,51.891098]]]}},
{"type":"Feature","properties":{"highway":"footway","name":null,"category":"Footpath (pedestrian only)"},"geometry":{"type":"MultiLineString","coordinates":[[[-0.4169116,51.8888728],[-0.4186503,51.8885964],[-0.4187676,51.8885777]]]}},
{"type":"Feature","properties":{"highway":"footway","name":null,"category":"Footpath (pedestrian only)"},"geometry":{"type":"MultiLineString","coordinates":[[[-0.4169116,51.8888728],[-0.4165452,51.8889807],[-0.414761,51.8896327]]]}},
{"type":"Feature","properties":{"highway":"footway","name":null,"category":"Footpath (pedestrian only)"},"geometry":{"type":"MultiLineString","coordinates":[[[-0.418561,51.8917857],[-0.4184685,51.8917883]]]}},
{"type":"Feature","properties":{"highway":"path","name":null,"category":"Shared path"},"geometry":{"type":"MultiLineString","coordinates":[[[-0.4255382,51.8825026],[-0.4255788,51.882494],[-0.4256461,51.8824949],[-0.4257455,51.8824974]]]}},
{"type":"Feature","properties":{"highway":"footway","name":null,"category":"Footpath (pedestrian only)"},"geometry":{"type":"MultiLineString","coordinates":[[[-0.4253736,51.8815326],[-0.4254089,51.8814772],[-0.4249835,51.8814904]]]}},
{"type":"Feature","properties":{"highway":"footway","name":null,"category":"Footpath (pedestrian only)"},"geometry":{"type":"MultiLineString","coordinates":[[[-0.4344377,51.8844513],[-0.4345896,51.8844873]]]}},
{"type":"Feature","properties":{"highway":"footway","name":null,"category":"Footpath (pedestrian only)"},"geometry":{"type":"MultiLineString","coordinates":[[[-0.4134309,51.889517],[-0.4133442,51.8895378]]]}},
{"type":"Feature","properties":{"highway":"footway","name":null,"category":"Footpath (pedestrian only)"},"geometry":{"type":"MultiLineString","coordinates":[[[-0.4158654,51.8809768],[-0.4157969,51.8809439]]]}},
{"type":"Feature","properties":{"highway":"footway","name":null,"category":"Footpath (pedestrian only)"},"geometry":{"type":"MultiLineString","coordinates":[[[-0.4169799,51.880563],[-0.4170691,51.8806152]]]}},
{"type":"Feature","properties":{"highway":"footway","name":null,"category":"Footpath (pedestrian only)"},"geometry":{"type":"MultiLineString","coordinates":[[[-0.4294231,51.8862959],[-0.4293984,51.8862669],[-0.4293802,51.8862386]]]}},
{"type":"Feature","properties":{"highway":"footway","name":null,"category":"Footpath (pedestrian only)"},"geometry":{"type":"MultiLineString","coordinates":[[[-0.4157638,51.8812161],[-0.4155834,51.8813449]]]}},
{"type":"Feature","properties":{"highway":"footway","name":null,"category":"Footpath (pedestrian only)"},"geometry":{"type":"MultiLineString","coordinates":[[[-0.4337024,51.8868983],[-0.433707,51.8868433],[-0.4337075,51.8868374],[-0.4338501,51.8868408],[-0.4338552,51.886751]]]}},
{"type":"Feature","properties":{"highway":"footway","name":null,"category":"Footpath (pedestrian only)"},"geometry":{"type":"MultiLineString","coordinates":[[[-0.433003,51.8868858],[-0.433005,51.8868168],[-0.4330068,51.8867525]]]}},
{"type":"Feature","properties":{"highway":"footway","name":null,"category":"Footpath (pedestrian only)"},"geometry":{"type":"MultiLineString","coordinates":[[[-0.4268433,51.8809332],[-0.4269453,51.8809355]]]}},
{"type":"Feature","properties":{"highway":"footway","name":null,"category":"Footpath (pedestrian only)"},"geometry":{"type":"MultiLineString","coordinates":[[[-0.4268433,51.8809332],[-0.4266652,51.8808226],[-0.4267211,51.8807711],[-0.4267619,51.8806813],[-0.4267841,51.8804306],[-0.4268151,51.8801343],[-0.4268468,51.879912],[-0.4268846,51.879826]]]}},
{"type":"Feature","properties":{"highway":"footway","name":null,"category":"Footpath (pedestrian only)"},"geometry":{"type":"MultiLineString","coordinates":[[[-0.4255881,51.8809371],[-0.4256315,51.8809083],[-0.4256348,51.8807969],[-0.4255939,51.8807032],[-0.4255764,51.8805499],[-0.4256194,51.8802134],[-0.4257381,51.8795274],[-0.4259578,51.8789016],[-0.4259664,51.8788748]]]}},
{"type":"Feature","properties":{"highway":"footway","name":null,"category":"Footpath (pedestrian only)"},"geometry":{"type":"MultiLineString","coordinates":[[[-0.4259164,51.8794934],[-0.4257381,51.8795274]]]}},
{"type":"Feature","properties":{"highway":"footway","name":null,"category":"Footpath (pedestrian only)"},"geometry":{"type":"MultiLineString","coordinates":[[[-0.4256012,51.8810167],[-0.4255949,51.880973],[-0.4255881,51.8809371]]]}},
{"type":"Feature","properties":{"highway":"footway","name":null,"category":"Footpath (pedestrian only)"},"geometry":{"type":"MultiLineString","coordinates":[[[-0.4256348,51.8807969],[-0.4257833,51.8808373],[-0.4260671,51.8808625],[-0.4265319,51.8808712],[-0.4266082,51.8808526],[-0.4266652,51.8808226]]]}},
{"type":"Feature","properties":{"highway":"path","name":null,"category":"Shared path"},"geometry":{"type":"MultiLineString","coordinates":[[[-0.4267211,51.8807711],[-0.4261954,51.8800226],[-0.4259477,51.8796787],[-0.4258092,51.8795546]]]}},
{"type":"Feature","properties":{"highway":"footway","name":null,"category":"Footpath (pedestrian only)"},"geometry":{"type":"MultiLineString","coordinates":[[[-0.4255754,51.8835642],[-0.4251541,51.8831736],[-0.4250941,51.8831967]]]}},
{"type":"Feature","properties":{"highway":"footway","name":null,"category":"Footpath (pedestrian only)"},"geometry":{"type":"MultiLineString","coordinates":[[[-0.4250941,51.8831967],[-0.4250195,51.8831216],[-0.424965,51.8830619]]]}},
{"type":"Feature","properties":{"highway":"footway","name":null,"category":"Footpath (pedestrian only)"},"geometry":{"type":"MultiLineString","coordinates":[[[-0.4255312,51.8830216],[-0.4251541,51.8831736]]]}},
{"type":"Feature","properties":{"highway":"footway","name":null,"category":"Footpath (pedestrian only)"},"geometry":{"type":"MultiLineString","coordinates":[[[-0.4294897,51.886157],[-0.4294618,51.8861683],[-0.4294421,51.8861782]]]}},
{"type":"Feature","properties":{"highway":"footway","name":null,"category":"Footpath (pedestrian only)"},"geometry":{"type":"MultiLineString","coordinates":[[[-0.4295934,51.8861318],[-0.4295775,51.8861494]]]}},
{"type":"Feature","properties":{"highway":"footway","name":null,"category":"Footpath (pedestrian only)"},"geometry":{"type":"MultiLineString","coordinates":[[[-0.4295709,51.8861918],[-0.4296081,51.8862132]]]}},
{"type":"Feature","properties":{"highway":"footway","name":null,"category":"Footpath (pedestrian only)"},"geometry":{"type":"MultiLineString","coordinates":[[[-0.4305319,51.8870341],[-0.4305764,51.8870458]]]}},
{"type":"Feature","properties":{"highway":"footway","name":null,"category":"Footpath (pedestrian only)"},"geometry":{"type":"MultiLineString","coordinates":[[[-0.4304231,51.8869532],[-0.4304232,51.8869895]]]}},
{"type":"Feature","properties":{"highway":"footway","name":null,"category":"Footpath (pedestrian only)"},"geometry":{"type":"MultiLineString","coordinates":[[[-0.4304534,51.8870817],[-0.4304244,51.8871011]]]}},
{"type":"Feature","properties":{"highway":"footway","name":null,"category":"Footpath (pedestrian only)"},"geometry":{"type":"MultiLineString","coordinates":[[[-0.4256759,51.8820184],[-0.4256132,51.8820023],[-0.4251891,51.8819258],[-0.4248566,51.8818609],[-0.4248033,51.8818721],[-0.4246893,51.8818517],[-0.4243948,51.8818184],[-0.4242142,51.8816877],[-0.4242169,51.881667],[-0.4240412,51.8815232],[-0.4240143,51.8814948]]]}},
{"type":"Feature","properties":{"highway":"footway","name":null,"category":"Footpath (pedestrian only)"},"geometry":{"type":"MultiLineString","coordinates":[[[-0.4144609,51.8836791],[-0.4145055,51.8836727],[-0.4149945,51.8839535],[-0.4150693,51.8839535],[-0.4151379,51.8839522]]]}},
{"type":"Feature","properties":{"highway":"pedestrian","name":"Bridge Street","category":"Pedestrian area/street"},"geometry":{"type":"MultiLineString","coordinates":[[[-0.4175049,51.8812016],[-0.4171168,51.881473],[-0.4170524,51.8815181]]]}},
{"type":"Feature","properties":{"highway":"pedestrian","name":"Manchester Street","category":"Pedestrian area/street"},"geometry":{"type":"MultiLineString","coordinates":[[[-0.4173576,51.8797064],[-0.4173629,51.8797844],[-0.4173918,51.879901],[-0.4174347,51.8799668],[-0.4175172,51.880097],[-0.4175543,51.8801507],[-0.417569,51.880172],[-0.4176802,51.8803328],[-0.4179088,51.8806637]]]}},
{"type":"Feature","properties":{"highway":"pedestrian","name":"George Street","category":"Pedestrian area/street"},"geometry":{"type":"MultiLineString","coordinates":[[[-0.4173576,51.8797064],[-0.4175792,51.8796398]]]}},
{"type":"Feature","properties":{"highway":"pedestrian","name":"King Street","category":"Pedestrian area/street"},"geometry":{"type":"MultiLineString","coordinates":[[[-0.416502,51.8791628],[-0.4165667,51.8791059],[-0.4166209,51.8790597]]]}},
{"type":"Feature","properties":{"highway":"pedestrian","name":"George Street West","category":"Pedestrian area/street"},"geometry":{"type":"MultiLineString","coordinates":[[[-0.4160804,51.87893],[-0.41614,51.878866],[-0.416164,51.8788434]]]}},
{"type":"Feature","properties":{"highway":"pedestrian","name":"George Street","category":"Pedestrian area/street"},"geometry":{"type":"MultiLineString","coordinates":[[[-0.4129574,51.8781511],[-0.4130016,51.8781613],[-0.4137437,51.8782233],[-0.4148686,51.8784223],[-0.4150926,51.8784323],[-0.4152883,51.8785096],[-0.4157775,51.8787666],[-0.4160804,51.87893],[-0.4162403,51.87903],[-0.416502,51.8791628],[-0.4168174,51.8793309],[-0.4172649,51.8796125],[-0.4173576,51.8797064]]]}},
{"type":"Feature","properties":{"highway":"pedestrian","name":"Bute Street","category":"Pedestrian area/street"},"geometry":{"type":"MultiLineString","coordinates":[[[-0.4162792,51.8797232],[-0.4168174,51.8793309]]]}},
{"type":"Feature","properties":{"highway":"pedestrian","name":"Bute Street","category":"Pedestrian area/street"},"geometry":{"type":"MultiLineString","coordinates":[[[-0.413987,51.8813628],[-0.4140278,51.8813331],[-0.4141156,51.8812612],[-0.414406,51.8810077],[-0.4143979,51.8809524],[-0.414395,51.8809323],[-0.4144028,51.8808948]]]}},
{"type":"Feature","properties":{"highway":"pedestrian","name":"Guildford Street","category":"Pedestrian area/street"},"geometry":{"type":"MultiLineString","coordinates":[[[-0.4153793,51.881251],[-0.4153472,51.8812366],[-0.4152996,51.8812154],[-0.4148457,51.8810047],[-0.4146379,51.8809185],[-0.4145911,51.8808815]]]}},
{"type":"Feature","properties":{"highway":"pedestrian","name":"Bute Street","category":"Pedestrian area/street"},"geometry":{"type":"MultiLineString","coordinates":[[[-0.4159008,51.8800662],[-0.4156247,51.8802829]]]}},
{"type":"Feature","properties":{"highway":"pedestrian","name":null,"category":"Pedestrian area/street"},"geometry":{"type":"MultiLineString","coordinates":[[[-0.4162403,51.87903],[-0.4161848,51.8790862],[-0.4157474,51.8794328],[-0.4155308,51.8795099],[-0.4153335,51.8797535]]]}},
{"type":"Feature","properties":{"highway":"pedestrian","name":"Manchester Street","category":"Pedestrian area/street"},"geometry":{"type":"MultiLineString","coordinates":[[[-0.4179088,51.8806637],[-0.4179562,51.880707]]]}},
{"type":"Feature","properties":{"highway":"pedestrian","name":"Welbeck Road","category":"Pedestrian area/street"},"geometry":{"type":"MultiLineString","coordinates":[[[-0.4113929,51.8850258],[-0.4113228,51.8850014],[-0.410986,51.8848843]]]}},
{"type":"Feature","properties":{"highway":"pedestrian","name":"Bute Street","category":"Pedestrian area/street"},"geometry":{"type":"MultiLineString","coordinates":[[[-0.4162792,51.8797232],[-0.4160161,51.8799153]]]}},
{"type":"Feature","properties":{"highway":"pedestrian","name":"Bute Sqaure","category":"Pedestrian area/street"},"geometry":{"type":"MultiLineString","coordinates":[[[-0.4159348,51.8800846],[-0.4159008,51.8800662],[-0.4157414,51.87998],[-0.4157871,51.8799478],[-0.4159126,51.8798593],[-0.4160161,51.8799153],[-0.416106,51.8799639],[-0.4159847,51.8800494],[-0.4159348,51.8800846]]]}},
{"type":"Feature","properties":{"highway":"pedestrian","name":"Waller Street","category":"Pedestrian area/street"},"geometry":{"type":"MultiLineString","coordinates":[[[-0.4146273,51.879535],[-0.4153335,51.8797535],[-0.4155504,51.879834],[-0.4157871,51.8799478]]]}},
{"type":"Feature","properties":{"highway":"pedestrian","name":"Bridge Street","category":"Pedestrian area/street"},"geometry":{"type":"MultiLineString","coordinates":[[[-0.4178811,51.8809384],[-0.4175049,51.8812016]]]}},
{"type":"Feature","properties":{"highway":"pedestrian","name":null,"category":"Pedestrian area/street"},"geometry":{"type":"MultiLineString","coordinates":[[[-0.4170691,51.8806152],[-0.4178568,51.8808724]]]}},
{"type":"Feature","properties":{"highway":"pedestrian","name":null,"category":"Pedestrian area/street"},"geometry":{"type":"MultiLineString","coordinates":[[[-0.4175049,51.8812016],[-0.4174707,51.8811556],[-0.4171627,51.8807411],[-0.4170691,51.8806152]]]}},
{"type":"Feature","properties":{"highway":"pedestrian","name":null,"category":"Pedestrian area/street"},"geometry":{"type":"MultiLineString","coordinates":[[[-0.4164894,51.881196],[-0.4169106,51.8809115],[-0.4171627,51.8807411]]]}},
{"type":"Feature","properties":{"highway":"pedestrian","name":null,"category":"Pedestrian area/street"},"geometry":{"type":"MultiLineString","coordinates":[[[-0.4170691,51.8806152],[-0.4175543,51.8801507]]]}}
]
}
