{
"type": "FeatureCollection",
"name": "Mid Suffolk_15_min",
"crs": { "type": "name", "properties": { "name": "urn:ogc:def:crs:OGC:1.3:CRS84" } },
"features": [
{ "type": "Feature", "properties": { "park_offical_id": "MIDSU_0" }, "geometry": { "type": "Polygon", "coordinates": [ [ [ 0.966878144072635, 52.192353610480019 ], [ 0.9668553, 52.1923525 ], [ 0.9656398, 52.1923297 ], [ 0.9653901, 52.1924873 ], [ 0.9606087, 52.1965359 ], [ 0.9592623, 52.1978893 ], [ 0.9594471, 52.1995224 ], [ 0.9604532, 52.2001339 ], [ 0.9815396, 52.2019743 ], [ 0.988791, 52.1982245 ], [ 0.9892018, 52.1977266 ], [ 0.9892182, 52.1975482 ], [ 0.9832087, 52.1951029 ], [ 0.98165884537491, 52.194761738791442 ], [ 0.9805772, 52.1942576 ], [ 0.9745572, 52.1915349 ], [ 0.972935, 52.1915509 ], [ 0.972275982931019, 52.191924037572058 ], [ 0.966878144072635, 52.192353610480019 ] ] ] } },
{ "type": "Feature", "properties": { "park_offical_id": "MIDSU_1" }, "geometry": { "type": "Polygon", "coordinates": [ [ [ 1.0043743, 52.2349199 ], [ 1.0011189, 52.2367618 ], [ 1.0006028, 52.2386898 ], [ 1.0011126, 52.2396376 ], [ 1.0056675, 52.2416301 ], [ 1.0132628, 52.2383515 ], [ 1.0126351, 52.231493 ], [ 1.0043743, 52.2349199 ] ] ] } },
{ "type": "Feature", "properties": { "park_offical_id": "MIDSU_10" }, "geometry": { "type": "Polygon", "coordinates": [ [ [ 0.9983637, 52.2353168 ], [ 0.9995861, 52.2386671 ], [ 1.0011126, 52.2396376 ], [ 1.0056675, 52.2416301 ], [ 1.0132628, 52.2383515 ], [ 1.007006, 52.2352205 ], [ 1.0043743, 52.2349199 ], [ 0.9983637, 52.2353168 ] ] ] } },
{ "type": "Feature", "properties": { "park_offical_id": "MIDSU_100" }, "geometry": { "type": "Polygon", "coordinates": [ [ [ 0.9268612, 52.2446204 ], [ 0.9195094, 52.2451479 ], [ 0.9189701, 52.247854 ], [ 0.918879, 52.2483361 ], [ 0.9204239, 52.2506846 ], [ 0.9262194, 52.2503219 ], [ 0.9309038, 52.2458553 ], [ 0.9299265, 52.2448803 ], [ 0.9268612, 52.2446204 ] ] ] } },
{ "type": "Feature", "properties": { "park_offical_id": "MIDSU_101" }, "geometry": { "type": "Polygon", "coordinates": [ [ [ 1.015917936925319, 52.182963865441842 ], [ 1.0125232, 52.1831406 ], [ 1.0077086, 52.1846643 ], [ 1.0040887, 52.1867134 ], [ 1.0018214, 52.189999 ], [ 1.0046932, 52.1928886 ], [ 1.0066194, 52.1943575 ], [ 1.0094018, 52.1949664 ], [ 1.0098471, 52.195046 ], [ 1.0102402, 52.1948808 ], [ 1.0123708, 52.1939414 ], [ 1.0133306, 52.1934311 ], [ 1.0248086, 52.1871484 ], [ 1.0248171, 52.1864506 ], [ 1.0245435, 52.1830888 ], [ 1.02449, 52.1830232 ], [ 1.0211659, 52.1822599 ], [ 1.0196745, 52.182453 ], [ 1.015917936925319, 52.182963865441842 ] ] ] } },
{ "type": "Feature", "properties": { "park_offical_id": "MIDSU_109" }, "geometry": { "type": "Polygon", "coordinates": [ [ [ 0.807211, 52.2508041 ], [ 0.8040698, 52.2517772 ], [ 0.8000211, 52.2533989 ], [ 0.7996048, 52.2542342 ], [ 0.7976192, 52.2637172 ], [ 0.8023283, 52.2631631 ], [ 0.8106097, 52.2595296 ], [ 0.810463, 52.2562255 ], [ 0.8082515, 52.2520712 ], [ 0.807211, 52.2508041 ] ] ] } },
{ "type": "Feature", "properties": { "park_offical_id": "MIDSU_11" }, "geometry": { "type": "Polygon", "coordinates": [ [ [ 0.9427529, 52.1949813 ], [ 0.9385835, 52.1978975 ], [ 0.9284126, 52.2045621 ], [ 0.9282434, 52.2047601 ], [ 0.9385196, 52.2053708 ], [ 0.9512575, 52.2055985 ], [ 0.9526071, 52.2045919 ], [ 0.9548899, 52.1989482 ], [ 0.9552647, 52.1980034 ], [ 0.947453, 52.1949678 ], [ 0.9427529, 52.1949813 ] ] ] } },
{ "type": "Feature", "properties": { "park_offical_id": "MIDSU_12" }, "geometry": { "type": "Polygon", "coordinates": [ [ [ 0.8311561, 52.2268418 ], [ 0.8265798, 52.227723 ], [ 0.8256027, 52.2284393 ], [ 0.8196564, 52.2333739 ], [ 0.8229626, 52.241168 ], [ 0.8239931, 52.2409272 ], [ 0.842375, 52.2347081 ], [ 0.8445914, 52.2318808 ], [ 0.8394893, 52.2289656 ], [ 0.8332342, 52.2270572 ], [ 0.8315374, 52.2267833 ], [ 0.8311561, 52.2268418 ] ] ] } },
{ "type": "Feature", "properties": { "park_offical_id": "MIDSU_126" }, "geometry": { "type": "Polygon", "coordinates": [ [ [ 0.9670778, 52.2169294 ], [ 0.9665655, 52.2173636 ], [ 0.9630139, 52.2205151 ], [ 0.9626599, 52.2211174 ], [ 0.9621062, 52.222148 ], [ 0.9631426, 52.2228611 ], [ 0.9660032, 52.2234616 ], [ 0.9689395, 52.2233863 ], [ 0.974979, 52.2198049 ], [ 0.9747606, 52.2121798 ], [ 0.9670778, 52.2169294 ] ] ] } },
{ "type": "Feature", "properties": { "park_offical_id": "MIDSU_128" }, "geometry": { "type": "Polygon", "coordinates": [ [ [ 1.0172336, 52.1806691 ], [ 1.0150237, 52.1840451 ], [ 1.0150994, 52.1841947 ], [ 1.0179106, 52.1857257 ], [ 1.0190103, 52.1858171 ], [ 1.020884, 52.1858626 ], [ 1.0239508, 52.1855983 ], [ 1.0293648, 52.1813156 ], [ 1.023989, 52.1784211 ], [ 1.0232742, 52.1782907 ], [ 1.0172336, 52.1806691 ] ] ] } },
{ "type": "Feature", "properties": { "park_offical_id": "MIDSU_13" }, "geometry": { "type": "Polygon", "coordinates": [ [ [ 0.9085728, 52.2474439 ], [ 0.9204239, 52.2506846 ], [ 0.9262194, 52.2503219 ], [ 0.9283093, 52.2471301 ], [ 0.9199861, 52.2427286 ], [ 0.9180047, 52.2419914 ], [ 0.9085728, 52.2474439 ] ] ] } },
{ "type": "Feature", "properties": { "park_offical_id": "MIDSU_132" }, "geometry": { "type": "Polygon", "coordinates": [ [ [ 1.0232742, 52.1782907 ], [ 1.0187105, 52.1817612 ], [ 1.0182209, 52.1832979 ], [ 1.0195813, 52.1869317 ], [ 1.0206793, 52.1869223 ], [ 1.0214394, 52.1865247 ], [ 1.0296253, 52.1812772 ], [ 1.0248446, 52.1789177 ], [ 1.0232742, 52.1782907 ] ] ] } },
{ "type": "Feature", "properties": { "park_offical_id": "MIDSU_14" }, "geometry": { "type": "Polygon", "coordinates": [ [ [ 0.9668001, 52.1950245 ], [ 0.9660421, 52.1979483 ], [ 0.9730276, 52.2005503 ], [ 0.9815396, 52.2019743 ], [ 0.9907817, 52.1981782 ], [ 0.9920706, 52.1964999 ], [ 0.9920767, 52.1963096 ], [ 0.991918, 52.1955519 ], [ 0.983867254427374, 52.194623822610403 ], [ 0.9838491, 52.1946192 ], [ 0.98288619035088, 52.194417172909297 ], [ 0.9821306, 52.1939692 ], [ 0.9766396, 52.1910836 ], [ 0.9741683, 52.190469 ], [ 0.9716536, 52.1908303 ], [ 0.9668001, 52.1950245 ] ] ] } },
{ "type": "Feature", "properties": { "park_offical_id": "MIDSU_15" }, "geometry": { "type": "Polygon", "coordinates": [ [ [ 0.8362731, 52.2123982 ], [ 0.8355081, 52.2124601 ], [ 0.8302876, 52.2137149 ], [ 0.8203441, 52.2170509 ], [ 0.8197495, 52.2178422 ], [ 0.8334414, 52.2222245 ], [ 0.8368873, 52.2228167 ], [ 0.8369828, 52.2222948 ], [ 0.83745, 52.2130174 ], [ 0.8362731, 52.2123982 ] ] ] } },
{ "type": "Feature", "properties": { "park_offical_id": "MIDSU_16" }, "geometry": { "type": "Polygon", "coordinates": [ [ [ 0.8111685, 52.2520961 ], [ 0.8102115, 52.2522297 ], [ 0.8057911, 52.2530918 ], [ 0.8019021, 52.2543447 ], [ 0.8005207, 52.2555038 ], [ 0.7999066, 52.2561986 ], [ 0.7998797, 52.2563064 ], [ 0.7997669, 52.2612043 ], [ 0.8098693, 52.2649513 ], [ 0.8106932, 52.2637859 ], [ 0.8150436, 52.2569074 ], [ 0.8150268, 52.2559095 ], [ 0.8150029, 52.2554979 ], [ 0.8149161, 52.2540862 ], [ 0.8141861, 52.2534357 ], [ 0.8127718, 52.2526526 ], [ 0.8111685, 52.2520961 ] ] ] } },
{ "type": "Feature", "properties": { "park_offical_id": "MIDSU_17" }, "geometry": { "type": "Polygon", "coordinates": [ [ [ 0.852607, 52.2313915 ], [ 0.8539604, 52.2413565 ], [ 0.8611755, 52.2428756 ], [ 0.8622148, 52.2427213 ], [ 0.8760101, 52.2374696 ], [ 0.8728499, 52.2358357 ], [ 0.8615057, 52.2303726 ], [ 0.852607, 52.2313915 ] ] ] } },
{ "type": "Feature", "properties": { "park_offical_id": "MIDSU_18" }, "geometry": { "type": "Polygon", "coordinates": [ [ [ 0.9299542, 52.2166527 ], [ 0.9296513, 52.2168221 ], [ 0.923879376384595, 52.220435296408098 ], [ 0.9139453, 52.2222383 ], [ 0.910808, 52.2243912 ], [ 0.9236418, 52.2283973 ], [ 0.930821869638046, 52.226605710834313 ], [ 0.9348775, 52.2278099 ], [ 0.9372132, 52.2277233 ], [ 0.9403637, 52.227469 ], [ 0.9397232, 52.2252448 ], [ 0.9345566, 52.2174926 ], [ 0.9299542, 52.2166527 ] ] ] } },
{ "type": "Feature", "properties": { "park_offical_id": "MIDSU_19" }, "geometry": { "type": "Polygon", "coordinates": [ [ [ 0.9481129, 52.2181796 ], [ 0.9621062, 52.222148 ], [ 0.9631458, 52.2221686 ], [ 0.9656556, 52.2214323 ], [ 0.9666252, 52.2205548 ], [ 0.9666259, 52.2205441 ], [ 0.9657451, 52.2137172 ], [ 0.9654768, 52.2133821 ], [ 0.9531927, 52.2098716 ], [ 0.9483086, 52.2127891 ], [ 0.9481129, 52.2181796 ] ] ] } },
{ "type": "Feature", "properties": { "park_offical_id": "MIDSU_2" }, "geometry": { "type": "Polygon", "coordinates": [ [ [ 1.0091557, 52.1837277 ], [ 1.0040887, 52.1867134 ], [ 1.0022655, 52.1898336 ], [ 1.0024923, 52.1900891 ], [ 1.0032043, 52.1905843 ], [ 1.0062493, 52.1920176 ], [ 1.0108326, 52.1935942 ], [ 1.0133306, 52.1934311 ], [ 1.017341583915137, 52.190528831579719 ], [ 1.0239816, 52.1868498 ], [ 1.0239508, 52.1855983 ], [ 1.0227907, 52.1809487 ], [ 1.0172336, 52.1806691 ], [ 1.0106698, 52.183083 ], [ 1.0091557, 52.1837277 ] ] ] } },
{ "type": "Feature", "properties": { "park_offical_id": "MIDSU_20" }, "geometry": { "type": "Polygon", "coordinates": [ [ [ 1.0232742, 52.1782907 ], [ 1.0172336, 52.1806691 ], [ 1.0150237, 52.1840451 ], [ 1.0150994, 52.1841947 ], [ 1.0179106, 52.1857257 ], [ 1.0190103, 52.1858171 ], [ 1.020884, 52.1858626 ], [ 1.0239508, 52.1855983 ], [ 1.0293648, 52.1813156 ], [ 1.023989, 52.1784211 ], [ 1.0232742, 52.1782907 ] ] ] } },
{ "type": "Feature", "properties": { "park_offical_id": "MIDSU_21" }, "geometry": { "type": "Polygon", "coordinates": [ [ [ 1.0043743, 52.2349199 ], [ 0.9983637, 52.2353168 ], [ 0.9995861, 52.2386671 ], [ 1.0011126, 52.2396376 ], [ 1.0056675, 52.2416301 ], [ 1.0132628, 52.2383515 ], [ 1.007006, 52.2352205 ], [ 1.0043743, 52.2349199 ] ] ] } },
{ "type": "Feature", "properties": { "park_offical_id": "MIDSU_22" }, "geometry": { "type": "Polygon", "coordinates": [ [ [ 0.991006, 52.234292 ], [ 0.9888148, 52.2371189 ], [ 1.0056675, 52.2416301 ], [ 1.0132628, 52.2383515 ], [ 1.0073705, 52.231379 ], [ 1.0032738, 52.2291994 ], [ 0.9942869, 52.2318014 ], [ 0.991006, 52.234292 ] ] ] } },
{ "type": "Feature", "properties": { "park_offical_id": "MIDSU_23" }, "geometry": { "type": "LineString", "coordinates": [ [ 0.9914434, 52.2438326 ], [ 0.9934245, 52.2452823 ] ] } },
{ "type": "Feature", "properties": { "park_offical_id": "MIDSU_24" }, "geometry": { "type": "Polygon", "coordinates": [ [ [ 0.8907154, 52.2300059 ], [ 0.8916427, 52.2357591 ], [ 0.9030949, 52.2410749 ], [ 0.9035481, 52.2411021 ], [ 0.913539, 52.238112 ], [ 0.9144014, 52.2372484 ], [ 0.9174554, 52.2319068 ], [ 0.914876, 52.2310358 ], [ 0.9132881, 52.2306884 ], [ 0.9105799, 52.2305532 ], [ 0.9092916, 52.2304961 ], [ 0.904129803826484, 52.230528228713233 ], [ 0.8975449, 52.228641 ], [ 0.8907154, 52.2300059 ] ] ] } },
{ "type": "Feature", "properties": { "park_offical_id": "MIDSU_25" }, "geometry": { "type": "Polygon", "coordinates": [ [ [ 1.0460736, 52.2046205 ], [ 1.0463908, 52.2040936 ], [ 1.0412078, 52.2020351 ], [ 1.0390723, 52.2012053 ], [ 1.034754, 52.2011429 ], [ 1.0364599, 52.2061171 ], [ 1.0460736, 52.2046205 ] ] ] } },
{ "type": "Feature", "properties": { "park_offical_id": "MIDSU_26" }, "geometry": { "type": "LineString", "coordinates": [ [ 0.9914434, 52.2438326 ], [ 0.9934245, 52.2452823 ] ] } },
{ "type": "Feature", "properties": { "park_offical_id": "MIDSU_27" }, "geometry": { "type": "Polygon", "coordinates": [ [ [ 1.0043743, 52.2349199 ], [ 1.0011189, 52.2367618 ], [ 1.0006028, 52.2386898 ], [ 1.0011126, 52.2396376 ], [ 1.0056675, 52.2416301 ], [ 1.0132628, 52.2383515 ], [ 1.0126351, 52.231493 ], [ 1.0043743, 52.2349199 ] ] ] } },
{ "type": "Feature", "properties": { "park_offical_id": "MIDSU_28" }, "geometry": { "type": "Polygon", "coordinates": [ [ [ 0.9073591, 52.2349603 ], [ 0.9056732, 52.2377195 ], [ 0.9057377, 52.2378521 ], [ 0.9072976, 52.2391131 ], [ 0.9099174, 52.2408106 ], [ 0.9184267, 52.2457186 ], [ 0.919938, 52.2462045 ], [ 0.9220955, 52.2442043 ], [ 0.9259975, 52.2365503 ], [ 0.9144712, 52.233567 ], [ 0.9111347, 52.2328857 ], [ 0.911095, 52.2328959 ], [ 0.9073591, 52.2349603 ] ] ] } },
{ "type": "Feature", "properties": { "park_offical_id": "MIDSU_29" }, "geometry": { "type": "Polygon", "coordinates": [ [ [ 1.0172336, 52.1806691 ], [ 1.0150237, 52.1840451 ], [ 1.0150994, 52.1841947 ], [ 1.0179106, 52.1857257 ], [ 1.0190103, 52.1858171 ], [ 1.020884, 52.1858626 ], [ 1.0239508, 52.1855983 ], [ 1.0293648, 52.1813156 ], [ 1.023989, 52.1784211 ], [ 1.0232742, 52.1782907 ], [ 1.0172336, 52.1806691 ] ] ] } },
{ "type": "Feature", "properties": { "park_offical_id": "MIDSU_3" }, "geometry": { "type": "Polygon", "coordinates": [ [ [ 1.0150237, 52.1840451 ], [ 1.0150994, 52.1841947 ], [ 1.0179106, 52.1857257 ], [ 1.0190103, 52.1858171 ], [ 1.020884, 52.1858626 ], [ 1.0239508, 52.1855983 ], [ 1.0293648, 52.1813156 ], [ 1.023989, 52.1784211 ], [ 1.0232742, 52.1782907 ], [ 1.0172336, 52.1806691 ], [ 1.0150237, 52.1840451 ] ] ] } },
{ "type": "Feature", "properties": { "park_offical_id": "MIDSU_30" }, "geometry": { "type": "Polygon", "coordinates": [ [ [ 0.9827621, 52.1699541 ], [ 0.9822092, 52.1720221 ], [ 0.989133, 52.1752826 ], [ 0.996864754326982, 52.174721130758847 ], [ 0.9969535, 52.1748014 ], [ 0.9992025, 52.1768295 ], [ 1.0004809, 52.177275 ], [ 1.0016769, 52.1775395 ], [ 1.0035753, 52.1776681 ], [ 1.006458, 52.1777168 ], [ 1.0089704, 52.1766028 ], [ 1.0105045, 52.1755743 ], [ 1.0081901, 52.1722814 ], [ 1.0025856, 52.1708934 ], [ 0.9998399, 52.1709552 ], [ 0.997434075177339, 52.171513519140589 ], [ 0.997272, 52.1713331 ], [ 0.9915157, 52.1692892 ], [ 0.9860115, 52.1689848 ], [ 0.9844699, 52.1692747 ], [ 0.9827621, 52.1699541 ] ] ] } },
{ "type": "Feature", "properties": { "park_offical_id": "MIDSU_32" }, "geometry": { "type": "Polygon", "coordinates": [ [ [ 1.0025856, 52.1708934 ], [ 0.9998399, 52.1709552 ], [ 1.000672, 52.1750016 ], [ 1.0009393, 52.1759986 ], [ 1.0010078, 52.1761116 ], [ 1.002873, 52.1789891 ], [ 1.0040567, 52.1794347 ], [ 1.0049074, 52.179589 ], [ 1.0059734, 52.1794905 ], [ 1.0110225, 52.1779628 ], [ 1.0114328, 52.1776524 ], [ 1.0129703, 52.1743547 ], [ 1.0127469, 52.1742279 ], [ 1.0081901, 52.1722814 ], [ 1.0025856, 52.1708934 ] ] ] } },
{ "type": "Feature", "properties": { "park_offical_id": "MIDSU_34" }, "geometry": { "type": "Polygon", "coordinates": [ [ [ 0.9761984, 52.1850718 ], [ 0.9742226, 52.1876933 ], [ 0.9737049, 52.1916968 ], [ 0.9738023, 52.1918654 ], [ 0.973869, 52.1919315 ], [ 0.9744775, 52.1922067 ], [ 0.978456840903216, 52.193231088570684 ], [ 0.9790182, 52.1944032 ], [ 0.9795521, 52.1950473 ], [ 0.9803835, 52.1955799 ], [ 0.9856482, 52.196667 ], [ 0.986595000418535, 52.196811318772184 ], [ 0.9892182, 52.1975482 ], [ 0.9901991, 52.1977547 ], [ 0.9904405, 52.1977004 ], [ 0.991449818788566, 52.197240647409195 ], [ 0.9980445, 52.1946623 ], [ 0.999130615219719, 52.19271927955846 ], [ 1.0009492, 52.191992 ], [ 1.0024923, 52.1900891 ], [ 1.0013815, 52.1855102 ], [ 1.0013249, 52.1853365 ], [ 0.9996481, 52.183849 ], [ 0.9930099, 52.1828958 ], [ 0.9906195, 52.1828258 ], [ 0.9904151, 52.1828807 ], [ 0.986767886139379, 52.1842152934206 ], [ 0.9761984, 52.1850718 ] ] ] } },
{ "type": "Feature", "properties": { "park_offical_id": "MIDSU_35" }, "geometry": { "type": "Polygon", "coordinates": [ [ [ 1.0106698, 52.183083 ], [ 0.9994528, 52.186823 ], [ 0.9989416, 52.1875157 ], [ 0.9992527, 52.189564 ], [ 0.9996493, 52.1913324 ], [ 1.0009492, 52.191992 ], [ 1.0066194, 52.1943575 ], [ 1.0094018, 52.1949664 ], [ 1.0098471, 52.195046 ], [ 1.0102402, 52.1948808 ], [ 1.0123708, 52.1939414 ], [ 1.0133306, 52.1934311 ], [ 1.0230307, 52.1864123 ], [ 1.0229778, 52.1858813 ], [ 1.0222408, 52.1838823 ], [ 1.0204126, 52.1831818 ], [ 1.0199897, 52.1830513 ], [ 1.0183212, 52.1825766 ], [ 1.0177052, 52.182477 ], [ 1.0106698, 52.183083 ] ] ] } },
{ "type": "Feature", "properties": { "park_offical_id": "MIDSU_37" }, "geometry": { "type": "Polygon", "coordinates": [ [ [ 1.0025856, 52.1708934 ], [ 0.9998399, 52.1709552 ], [ 0.9968115, 52.171658 ], [ 0.996158, 52.1720308 ], [ 0.9954026, 52.1724714 ], [ 0.9967462, 52.1746139 ], [ 0.9969535, 52.1748014 ], [ 0.9992025, 52.1768295 ], [ 1.0004809, 52.177275 ], [ 1.0016769, 52.1775395 ], [ 1.0035753, 52.1776681 ], [ 1.006458, 52.1777168 ], [ 1.0089704, 52.1766028 ], [ 1.0105045, 52.1755743 ], [ 1.0081901, 52.1722814 ], [ 1.0025856, 52.1708934 ] ] ] } },
{ "type": "Feature", "properties": { "park_offical_id": "MIDSU_38" }, "geometry": { "type": "Polygon", "coordinates": [ [ [ 1.0150237, 52.1840451 ], [ 1.0150994, 52.1841947 ], [ 1.0179106, 52.1857257 ], [ 1.0190103, 52.1858171 ], [ 1.020884, 52.1858626 ], [ 1.0239508, 52.1855983 ], [ 1.0293648, 52.1813156 ], [ 1.023989, 52.1784211 ], [ 1.0232742, 52.1782907 ], [ 1.0172336, 52.1806691 ], [ 1.0150237, 52.1840451 ] ] ] } },
{ "type": "Feature", "properties": { "park_offical_id": "MIDSU_4" }, "geometry": { "type": "Polygon", "coordinates": [ [ [ 0.9260845, 52.2358877 ], [ 0.919162101524681, 52.231829037693615 ], [ 0.9189505, 52.2315726 ], [ 0.9132881, 52.2306884 ], [ 0.9105799, 52.2305532 ], [ 0.9092916, 52.2304961 ], [ 0.9076381, 52.2310556 ], [ 0.9036783, 52.234044 ], [ 0.9025014, 52.2349741 ], [ 0.9032795, 52.2397846 ], [ 0.9035481, 52.2411021 ], [ 0.908925381592148, 52.242471985760517 ], [ 0.9196253, 52.2456713 ], [ 0.9216399, 52.2432898 ], [ 0.9237612, 52.2396672 ], [ 0.923597929675564, 52.239127429575653 ], [ 0.9260845, 52.2358877 ] ] ] } },
{ "type": "Feature", "properties": { "park_offical_id": "MIDSU_40" }, "geometry": { "type": "Polygon", "coordinates": [ [ [ 1.0172336, 52.1806691 ], [ 1.0077086, 52.1846643 ], [ 1.0054565, 52.1887109 ], [ 1.0063878, 52.1893696 ], [ 1.0106098, 52.1917127 ], [ 1.0121372, 52.1924167 ], [ 1.0126332, 52.1925437 ], [ 1.0251713, 52.1894017 ], [ 1.0245435, 52.1830888 ], [ 1.0232708, 52.1795125 ], [ 1.0172336, 52.1806691 ] ] ] } },
{ "type": "Feature", "properties": { "park_offical_id": "MIDSU_41" }, "geometry": { "type": "Polygon", "coordinates": [ [ [ 0.8229309, 52.2554864 ], [ 0.8286114, 52.2497429 ], [ 0.8191999, 52.2439078 ], [ 0.809287708477284, 52.245865516902619 ], [ 0.8066532, 52.2455635 ], [ 0.8029737, 52.2466053 ], [ 0.7998434, 52.2519269 ], [ 0.8013351, 52.2543338 ], [ 0.8028738, 52.25636 ], [ 0.809028, 52.2591549 ], [ 0.8106097, 52.2595296 ], [ 0.818458597452865, 52.256500353250537 ], [ 0.8229309, 52.2554864 ] ] ] } },
{ "type": "Feature", "properties": { "park_offical_id": "MIDSU_42" }, "geometry": { "type": "Polygon", "coordinates": [ [ [ 1.0232742, 52.1782907 ], [ 1.0187105, 52.1817612 ], [ 1.0182209, 52.1832979 ], [ 1.0195813, 52.1869317 ], [ 1.0206793, 52.1869223 ], [ 1.0214394, 52.1865247 ], [ 1.0296253, 52.1812772 ], [ 1.0248446, 52.1789177 ], [ 1.0232742, 52.1782907 ] ] ] } },
{ "type": "Feature", "properties": { "park_offical_id": "MIDSU_43" }, "geometry": { "type": "Polygon", "coordinates": [ [ [ 1.0187105, 52.1817612 ], [ 1.0182209, 52.1832979 ], [ 1.0195813, 52.1869317 ], [ 1.0206793, 52.1869223 ], [ 1.0214394, 52.1865247 ], [ 1.0296253, 52.1812772 ], [ 1.0248446, 52.1789177 ], [ 1.0232742, 52.1782907 ], [ 1.0187105, 52.1817612 ] ] ] } },
{ "type": "Feature", "properties": { "park_offical_id": "MIDSU_44" }, "geometry": { "type": "Polygon", "coordinates": [ [ [ 1.0025856, 52.1708934 ], [ 0.9998399, 52.1709552 ], [ 1.000672, 52.1750016 ], [ 1.0009393, 52.1759986 ], [ 1.0010078, 52.1761116 ], [ 1.002873, 52.1789891 ], [ 1.0040567, 52.1794347 ], [ 1.0049074, 52.179589 ], [ 1.0059734, 52.1794905 ], [ 1.0110225, 52.1779628 ], [ 1.0114328, 52.1776524 ], [ 1.0129703, 52.1743547 ], [ 1.0127469, 52.1742279 ], [ 1.0081901, 52.1722814 ], [ 1.0025856, 52.1708934 ] ] ] } },
{ "type": "Feature", "properties": { "park_offical_id": "MIDSU_45" }, "geometry": { "type": "Polygon", "coordinates": [ [ [ 0.8805609, 52.2201495 ], [ 0.8784924, 52.2213588 ], [ 0.8808706, 52.2288589 ], [ 0.8914588, 52.2318123 ], [ 0.8976075, 52.2291216 ], [ 0.9033287, 52.2244888 ], [ 0.8965155, 52.21769 ], [ 0.895785, 52.2176523 ], [ 0.8877321, 52.2180225 ], [ 0.8805609, 52.2201495 ] ] ] } },
{ "type": "Feature", "properties": { "park_offical_id": "MIDSU_49" }, "geometry": { "type": "Polygon", "coordinates": [ [ [ 0.9664536, 52.1900024 ], [ 0.96604, 52.190238 ], [ 0.9626857, 52.192854 ], [ 0.9601593, 52.1963093 ], [ 0.9601689, 52.1968096 ], [ 0.9606539, 52.1970704 ], [ 0.9620963, 52.1974896 ], [ 0.9730276, 52.2005503 ], [ 0.9815396, 52.2019743 ], [ 0.982884888212019, 52.201173092530247 ], [ 0.9885402, 52.1980091 ], [ 0.988676, 52.1978012 ], [ 0.987331, 52.1952185 ], [ 0.984888517189795, 52.191901747436432 ], [ 0.9841014, 52.188721 ], [ 0.9814119, 52.1875858 ], [ 0.9761633, 52.1882287 ], [ 0.9666985, 52.1899094 ], [ 0.9664536, 52.1900024 ] ] ] } },
{ "type": "Feature", "properties": { "park_offical_id": "MIDSU_5" }, "geometry": { "type": "Polygon", "coordinates": [ [ [ 0.973878, 52.2138338 ], [ 0.9571835, 52.2153201 ], [ 0.9570467, 52.2153387 ], [ 0.9535155, 52.2241396 ], [ 0.953673, 52.2243345 ], [ 0.9695642, 52.2275476 ], [ 0.9720346, 52.2259297 ], [ 0.974979, 52.2198049 ], [ 0.973878, 52.2138338 ] ] ] } },
{ "type": "Feature", "properties": { "park_offical_id": "MIDSU_50" }, "geometry": { "type": "Polygon", "coordinates": [ [ [ 1.0150994, 52.1841947 ], [ 1.0179106, 52.1857257 ], [ 1.0190103, 52.1858171 ], [ 1.020884, 52.1858626 ], [ 1.0239508, 52.1855983 ], [ 1.0293648, 52.1813156 ], [ 1.023989, 52.1784211 ], [ 1.0232742, 52.1782907 ], [ 1.0172336, 52.1806691 ], [ 1.0150237, 52.1840451 ], [ 1.0150994, 52.1841947 ] ] ] } },
{ "type": "Feature", "properties": { "park_offical_id": "MIDSU_51" }, "geometry": { "type": "Polygon", "coordinates": [ [ [ 0.993348, 52.1750141 ], [ 0.991317, 52.1759179 ], [ 0.9890045, 52.1778276 ], [ 0.9888077, 52.1816991 ], [ 0.9937491, 52.1842326 ], [ 0.9982124, 52.1863415 ], [ 0.9999145, 52.1860523 ], [ 1.0056674, 52.1842712 ], [ 1.0096586, 52.1822879 ], [ 1.010077, 52.1820584 ], [ 1.0114328, 52.1776524 ], [ 1.0116113, 52.1769749 ], [ 1.0113039, 52.1755677 ], [ 1.0073412, 52.1737805 ], [ 1.0018073, 52.1728769 ], [ 0.9976013, 52.1736394 ], [ 0.993348, 52.1750141 ] ] ] } },
{ "type": "Feature", "properties": { "park_offical_id": "MIDSU_55" }, "geometry": { "type": "Polygon", "coordinates": [ [ [ 1.0126351, 52.231493 ], [ 1.0043743, 52.2349199 ], [ 1.0011189, 52.2367618 ], [ 1.0006028, 52.2386898 ], [ 1.0011126, 52.2396376 ], [ 1.0056675, 52.2416301 ], [ 1.0132628, 52.2383515 ], [ 1.0126351, 52.231493 ] ] ] } },
{ "type": "Feature", "properties": { "park_offical_id": "MIDSU_6" }, "geometry": { "type": "Polygon", "coordinates": [ [ [ 1.0460736, 52.2046205 ], [ 1.0463908, 52.2040936 ], [ 1.0412078, 52.2020351 ], [ 1.0390723, 52.2012053 ], [ 1.034754, 52.2011429 ], [ 1.0364599, 52.2061171 ], [ 1.0460736, 52.2046205 ] ] ] } },
{ "type": "Feature", "properties": { "park_offical_id": "MIDSU_62" }, "geometry": { "type": "Polygon", "coordinates": [ [ [ 0.9983637, 52.2353168 ], [ 0.9995861, 52.2386671 ], [ 1.0011126, 52.2396376 ], [ 1.0056675, 52.2416301 ], [ 1.0132628, 52.2383515 ], [ 1.007006, 52.2352205 ], [ 1.0043743, 52.2349199 ], [ 0.9983637, 52.2353168 ] ] ] } },
{ "type": "Feature", "properties": { "park_offical_id": "MIDSU_63" }, "geometry": { "type": "Polygon", "coordinates": [ [ [ 0.8946002, 52.2312465 ], [ 0.8925681, 52.2355274 ], [ 0.9030949, 52.2410749 ], [ 0.9035481, 52.2411021 ], [ 0.909672428407548, 52.239956247557068 ], [ 0.9153564, 52.2399088 ], [ 0.9160642, 52.2384146 ], [ 0.9167037, 52.2365703 ], [ 0.917379471403182, 52.234583443296415 ], [ 0.9190377, 52.2317561 ], [ 0.9189505, 52.2315726 ], [ 0.9108433, 52.2279161 ], [ 0.8946002, 52.2312465 ] ] ] } },
{ "type": "Feature", "properties": { "park_offical_id": "MIDSU_64" }, "geometry": { "type": "Polygon", "coordinates": [ [ [ 0.981834472723286, 52.173220383672884 ], [ 0.981834472723285, 52.173220383672884 ], [ 0.9758657, 52.1752473 ], [ 0.9873815, 52.1842926 ], [ 0.9914011, 52.1855209 ], [ 0.9991899, 52.1818176 ], [ 1.0018755, 52.1797783 ], [ 0.999015778817513, 52.175460443639338 ], [ 0.9976942, 52.1731294 ], [ 0.996158, 52.1720308 ], [ 0.9875384, 52.1696169 ], [ 0.9822092, 52.1720221 ], [ 0.981834472723286, 52.173220383672884 ] ] ] } },
{ "type": "Feature", "properties": { "park_offical_id": "MIDSU_65" }, "geometry": { "type": "Polygon", "coordinates": [ [ [ 1.0229726, 52.1965744 ], [ 1.0214089, 52.1970098 ], [ 1.0201127, 52.1980429 ], [ 1.0189055, 52.1994879 ], [ 1.0182958, 52.20137 ], [ 1.0246984, 52.206888 ], [ 1.0326775, 52.2078778 ], [ 1.0386671, 52.2072292 ], [ 1.0390723, 52.2012053 ], [ 1.0265415, 52.1971155 ], [ 1.0229726, 52.1965744 ] ] ] } },
{ "type": "Feature", "properties": { "park_offical_id": "MIDSU_66" }, "geometry": { "type": "Polygon", "coordinates": [ [ [ 1.0058705, 52.1859638 ], [ 1.0040887, 52.1867134 ], [ 1.0005044, 52.1895874 ], [ 1.000124625140121, 52.190837845145239 ], [ 0.9996493, 52.1913324 ], [ 0.9992122, 52.1922653 ], [ 1.0035736, 52.1952066 ], [ 1.0129275, 52.1985578 ], [ 1.0138308, 52.1985298 ], [ 1.0141325, 52.1984974 ], [ 1.0165284, 52.198146 ], [ 1.0176669, 52.1972084 ], [ 1.0195529, 52.195089 ], [ 1.0196055, 52.1950263 ], [ 1.0186889, 52.188532 ], [ 1.018324, 52.1874276 ], [ 1.015838, 52.1860147 ], [ 1.0127029, 52.1853204 ], [ 1.011771523815267, 52.185471012596103 ], [ 1.008081, 52.18527 ], [ 1.0058705, 52.1859638 ] ] ] } },
{ "type": "Feature", "properties": { "park_offical_id": "MIDSU_67" }, "geometry": { "type": "Polygon", "coordinates": [ [ [ 1.0232742, 52.1782907 ], [ 1.0172336, 52.1806691 ], [ 1.0150237, 52.1840451 ], [ 1.0150994, 52.1841947 ], [ 1.0179106, 52.1857257 ], [ 1.0190103, 52.1858171 ], [ 1.020884, 52.1858626 ], [ 1.0239508, 52.1855983 ], [ 1.0293648, 52.1813156 ], [ 1.023989, 52.1784211 ], [ 1.0232742, 52.1782907 ] ] ] } },
{ "type": "Feature", "properties": { "park_offical_id": "MIDSU_69" }, "geometry": { "type": "Polygon", "coordinates": [ [ [ 1.0364599, 52.2061171 ], [ 1.0460736, 52.2046205 ], [ 1.0463908, 52.2040936 ], [ 1.0412078, 52.2020351 ], [ 1.0390723, 52.2012053 ], [ 1.034754, 52.2011429 ], [ 1.0364599, 52.2061171 ] ] ] } },
{ "type": "Feature", "properties": { "park_offical_id": "MIDSU_7" }, "geometry": { "type": "Polygon", "coordinates": [ [ [ 1.0347032, 52.1957704 ], [ 1.0343352, 52.1954041 ], [ 1.0285732, 52.1910502 ], [ 1.0251713, 52.1894017 ], [ 1.0187392, 52.1919546 ], [ 1.0108954, 52.1953368 ], [ 1.0127116, 52.1977398 ], [ 1.018168518615973, 52.201346616033582 ], [ 1.0246855, 52.2061513 ], [ 1.0254224, 52.2066227 ], [ 1.0303183, 52.2041505 ], [ 1.030644505486823, 52.203420699398123 ], [ 1.034754, 52.2011429 ], [ 1.0347032, 52.1957704 ] ] ] } },
{ "type": "Feature", "properties": { "park_offical_id": "MIDSU_72" }, "geometry": { "type": "Polygon", "coordinates": [ [ [ 0.9079479, 52.2338162 ], [ 0.9102751, 52.2378527 ], [ 0.910964966823788, 52.238008320535542 ], [ 0.9115227, 52.2389772 ], [ 0.9117537, 52.2392124 ], [ 0.9152228, 52.2397746 ], [ 0.918657406589548, 52.23973139790737 ], [ 0.918828, 52.239749 ], [ 0.9237612, 52.2396672 ], [ 0.929061, 52.2373769 ], [ 0.9304349, 52.2364217 ], [ 0.9303751, 52.2353776 ], [ 0.928857302403682, 52.234057683597825 ], [ 0.9285318, 52.2298192 ], [ 0.9283464, 52.229641 ], [ 0.9203919, 52.22802 ], [ 0.9105799, 52.2305532 ], [ 0.9079479, 52.2338162 ] ] ] } },
{ "type": "Feature", "properties": { "park_offical_id": "MIDSU_73" }, "geometry": { "type": "Polygon", "coordinates": [ [ [ 0.921403, 52.2298317 ], [ 0.9132881, 52.2306884 ], [ 0.9131366, 52.2308026 ], [ 0.9109164, 52.2325236 ], [ 0.9066727, 52.2375404 ], [ 0.9080549, 52.2388528 ], [ 0.9096807, 52.2402717 ], [ 0.9110948, 52.2405842 ], [ 0.9158472, 52.2412461 ], [ 0.9170456, 52.2412662 ], [ 0.9237612, 52.2396672 ], [ 0.9303751, 52.2353776 ], [ 0.9231359, 52.2306062 ], [ 0.921403, 52.2298317 ] ] ] } },
{ "type": "Feature", "properties": { "park_offical_id": "MIDSU_74" }, "geometry": { "type": "Polygon", "coordinates": [ [ [ 0.9076381, 52.2310556 ], [ 0.8984127, 52.2331652 ], [ 0.9030949, 52.2410749 ], [ 0.9035481, 52.2411021 ], [ 0.9158537, 52.2404456 ], [ 0.916509, 52.2393766 ], [ 0.917435, 52.2373194 ], [ 0.917186, 52.236396 ], [ 0.9141754, 52.2321924 ], [ 0.9105799, 52.2305532 ], [ 0.9076381, 52.2310556 ] ] ] } },
{ "type": "Feature", "properties": { "park_offical_id": "MIDSU_75" }, "geometry": { "type": "Polygon", "coordinates": [ [ [ 0.9009796, 52.2326547 ], [ 0.8994657, 52.2339013 ], [ 0.9030949, 52.2410749 ], [ 0.9035481, 52.2411021 ], [ 0.915448, 52.2401376 ], [ 0.9159951, 52.2395414 ], [ 0.917435, 52.2373194 ], [ 0.9140515, 52.2322179 ], [ 0.9103995, 52.231214 ], [ 0.9076381, 52.2310556 ], [ 0.9009796, 52.2326547 ] ] ] } },
{ "type": "Feature", "properties": { "park_offical_id": "MIDSU_77" }, "geometry": { "type": "Polygon", "coordinates": [ [ [ 0.9198334, 52.2313706 ], [ 0.9188946, 52.2309648 ], [ 0.9108433, 52.2279161 ], [ 0.8962594, 52.232472 ], [ 0.901782585331902, 52.238857990143472 ], [ 0.9030949, 52.2410749 ], [ 0.9180047, 52.2419914 ], [ 0.9192484, 52.2393059 ], [ 0.9205688, 52.2357461 ], [ 0.919139508258874, 52.233983563935986 ], [ 0.9198334, 52.2313706 ] ] ] } },
{ "type": "Feature", "properties": { "park_offical_id": "MIDSU_78" }, "geometry": { "type": "Polygon", "coordinates": [ [ [ 0.9035481, 52.2411021 ], [ 0.9170456, 52.2412662 ], [ 0.9192095, 52.2378672 ], [ 0.919116, 52.2362726 ], [ 0.9159938, 52.2319499 ], [ 0.9132423, 52.2307877 ], [ 0.9105799, 52.2305532 ], [ 0.9092916, 52.2304961 ], [ 0.8984127, 52.2331652 ], [ 0.9030949, 52.2410749 ], [ 0.9035481, 52.2411021 ] ] ] } },
{ "type": "Feature", "properties": { "park_offical_id": "MIDSU_8" }, "geometry": { "type": "Polygon", "coordinates": [ [ [ 0.9441929, 52.219603 ], [ 0.9435875, 52.2194268 ], [ 0.9301363, 52.2228738 ], [ 0.9283464, 52.229641 ], [ 0.9285318, 52.2298192 ], [ 0.9364293, 52.234644 ], [ 0.9396183, 52.2346056 ], [ 0.9480912, 52.2335848 ], [ 0.9545341, 52.2240119 ], [ 0.9441929, 52.219603 ] ] ] } },
{ "type": "Feature", "properties": { "park_offical_id": "MIDSU_81" }, "geometry": { "type": "Polygon", "coordinates": [ [ [ 0.9132881, 52.2306884 ], [ 0.9131366, 52.2308026 ], [ 0.9109164, 52.2325236 ], [ 0.9066727, 52.2375404 ], [ 0.9080549, 52.2388528 ], [ 0.9096807, 52.2402717 ], [ 0.9110948, 52.2405842 ], [ 0.9158472, 52.2412461 ], [ 0.9170456, 52.2412662 ], [ 0.9237612, 52.2396672 ], [ 0.9303751, 52.2353776 ], [ 0.9231359, 52.2306062 ], [ 0.921403, 52.2298317 ], [ 0.9132881, 52.2306884 ] ] ] } },
{ "type": "Feature", "properties": { "park_offical_id": "MIDSU_85" }, "geometry": { "type": "Polygon", "coordinates": [ [ [ 0.8061127, 52.2464926 ], [ 0.7981342, 52.2522372 ], [ 0.79821, 52.2526161 ], [ 0.798627, 52.2540644 ], [ 0.8018893, 52.2578497 ], [ 0.8022042, 52.2580941 ], [ 0.8106097, 52.2595296 ], [ 0.8177146, 52.2564964 ], [ 0.8187285, 52.2555976 ], [ 0.8205065, 52.2537559 ], [ 0.8200288, 52.2503472 ], [ 0.8136766, 52.2476629 ], [ 0.8066072, 52.246449 ], [ 0.8061127, 52.2464926 ] ] ] } },
{ "type": "Feature", "properties": { "park_offical_id": "MIDSU_86" }, "geometry": { "type": "Polygon", "coordinates": [ [ [ 0.82159395080672, 52.244664143190178 ], [ 0.8144214, 52.2467562 ], [ 0.8132868, 52.2473066 ], [ 0.8129229, 52.2478506 ], [ 0.8109962, 52.251494 ], [ 0.8106805, 52.2521752 ], [ 0.8107741, 52.2525451 ], [ 0.8114139, 52.2538057 ], [ 0.8114908, 52.2539533 ], [ 0.8232249, 52.2562716 ], [ 0.824127, 52.2563904 ], [ 0.8254648, 52.2559954 ], [ 0.8309777, 52.2530571 ], [ 0.8350414, 52.2496075 ], [ 0.8267896, 52.2431487 ], [ 0.8266253, 52.2430637 ], [ 0.82159395080672, 52.244664143190178 ] ] ] } },
{ "type": "Feature", "properties": { "park_offical_id": "MIDSU_89" }, "geometry": { "type": "Polygon", "coordinates": [ [ [ 0.9132881, 52.2306884 ], [ 0.9098505, 52.2325949 ], [ 0.9090791, 52.2334564 ], [ 0.9074033, 52.2374088 ], [ 0.9085255, 52.238716 ], [ 0.9110948, 52.2405842 ], [ 0.9168001, 52.2410685 ], [ 0.9221605, 52.2404319 ], [ 0.9311413, 52.2365849 ], [ 0.9299337, 52.2337242 ], [ 0.9246415, 52.2306883 ], [ 0.9222025, 52.2295351 ], [ 0.9132881, 52.2306884 ] ] ] } },
{ "type": "Feature", "properties": { "park_offical_id": "MIDSU_9" }, "geometry": { "type": "LineString", "coordinates": [ [ 0.9914434, 52.2438326 ], [ 0.9934245, 52.2452823 ] ] } },
{ "type": "Feature", "properties": { "park_offical_id": "MIDSU_92" }, "geometry": { "type": "Polygon", "coordinates": [ [ [ 0.9601035, 52.2398461 ], [ 0.9618144, 52.2433868 ], [ 0.9697212, 52.2466917 ], [ 0.972876460170171, 52.245692564822441 ], [ 0.9803071, 52.2472414 ], [ 0.9784197, 52.2386905 ], [ 0.9699619, 52.2312026 ], [ 0.967465173907199, 52.23374503346048 ], [ 0.9601035, 52.2398461 ] ] ] } },
{ "type": "Feature", "properties": { "park_offical_id": "MIDSU_93" }, "geometry": { "type": "Polygon", "coordinates": [ [ [ 0.8811049, 52.2195847 ], [ 0.8784924, 52.2213588 ], [ 0.8808706, 52.2288589 ], [ 0.8925171, 52.2285662 ], [ 0.89395, 52.2282141 ], [ 0.8991258, 52.2251204 ], [ 0.89909763452388, 52.224229986879941 ], [ 0.8998184, 52.2228324 ], [ 0.8965155, 52.21769 ], [ 0.8940231, 52.2168036 ], [ 0.8929445, 52.2164536 ], [ 0.8909132, 52.2166433 ], [ 0.8811049, 52.2195847 ] ] ] } },
{ "type": "Feature", "properties": { "park_offical_id": "MIDSU_95" }, "geometry": { "type": "Polygon", "coordinates": [ [ [ 0.8775257, 52.2185331 ], [ 0.8769384, 52.2197772 ], [ 0.8767091, 52.2202893 ], [ 0.8761374, 52.2217469 ], [ 0.8778668, 52.2307333 ], [ 0.8816632, 52.2315531 ], [ 0.8925171, 52.2285662 ], [ 0.8964244, 52.2252085 ], [ 0.8945007, 52.222397 ], [ 0.8929638, 52.221429 ], [ 0.8918145, 52.2207079 ], [ 0.8899528, 52.2201359 ], [ 0.8775257, 52.2185331 ] ] ] } },
{ "type": "Feature", "properties": { "park_offical_id": "MIDSU_96" }, "geometry": { "type": "Polygon", "coordinates": [ [ [ 0.877609, 52.2268594 ], [ 0.8778668, 52.2307333 ], [ 0.8821045, 52.2319906 ], [ 0.890996, 52.2302921 ], [ 0.9006007, 52.2248841 ], [ 0.8977163, 52.222605 ], [ 0.89497, 52.220708 ], [ 0.8938545, 52.2202925 ], [ 0.8877321, 52.2180225 ], [ 0.8811049, 52.2195847 ], [ 0.8784924, 52.2213588 ], [ 0.877609, 52.2268594 ] ] ] } },
{ "type": "Feature", "properties": { "park_offical_id": "MIDSU_97" }, "geometry": { "type": "MultiPolygon", "coordinates": [ [ [ [ 0.9163314, 52.2112354 ], [ 0.916478, 52.2112701 ], [ 0.9165086, 52.2111438 ], [ 0.9163314, 52.2112354 ] ] ], [ [ [ 0.8925673, 52.2167528 ], [ 0.892122, 52.2168116 ], [ 0.8951069, 52.2219397 ], [ 0.8990158, 52.2216429 ], [ 0.9106055, 52.2190955 ], [ 0.9110444, 52.218912 ], [ 0.9036941, 52.2153807 ], [ 0.8925673, 52.2167528 ] ] ] ] } },
{ "type": "Feature", "properties": { "park_offical_id": "MIDSU_98" }, "geometry": { "type": "Polygon", "coordinates": [ [ [ 0.9092916, 52.2304961 ], [ 0.8955938, 52.2322824 ], [ 0.8949947, 52.2323644 ], [ 0.8951685, 52.2328355 ], [ 0.8954893, 52.2331413 ], [ 0.903329, 52.2400092 ], [ 0.915328, 52.2400264 ], [ 0.9160642, 52.2384146 ], [ 0.9190377, 52.2317561 ], [ 0.9132881, 52.2306884 ], [ 0.9105799, 52.2305532 ], [ 0.9092916, 52.2304961 ] ] ] } },
{ "type": "Feature", "properties": { "park_offical_id": "MIDSU_99" }, "geometry": { "type": "Polygon", "coordinates": [ [ [ 1.0126351, 52.231493 ], [ 1.0043743, 52.2349199 ], [ 1.0011189, 52.2367618 ], [ 1.0006028, 52.2386898 ], [ 1.0011126, 52.2396376 ], [ 1.0056675, 52.2416301 ], [ 1.0132628, 52.2383515 ], [ 1.0126351, 52.231493 ] ] ] } }
]
}
