{
"type": "FeatureCollection",
"name": "STALB_89_cycling",
"crs": { "type": "name", "properties": { "name": "urn:ogc:def:crs:OGC:1.3:CRS84" } },
"features": [
{"type":"Feature","properties":{"highway":"path","name":"Snatchup Alley","category":"Shared path"},"geometry":{"type":"MultiLineString","coordinates":[[[-0.3332685,51.7579579],[-0.3329167,51.7581912],[-0.3325699,51.75839],[-0.3321676,51.7585929],[-0.3320956,51.7586211],[-0.3319238,51.758697],[-0.3317522,51.7587758]]]}},
{"type":"Feature","properties":{"highway":"cycleway","name":"St Albans Green Ring","category":"Dedicated cycleway"},"geometry":{"type":"MultiLineString","coordinates":[[[-0.3293593,51.7605336],[-0.3294619,51.760574],[-0.3296217,51.7606368],[-0.3298313,51.7607291],[-0.3301944,51.7609324],[-0.3305225,51.7611113],[-0.3306749,51.7611789],[-0.3308747,51.7612559],[-0.3310263,51.7612869],[-0.3312341,51.7612616],[-0.3314725,51.7612074]]]}},
{"type":"Feature","properties":{"highway":"path","name":null,"category":"Shared path"},"geometry":{"type":"MultiLineString","coordinates":[[[-0.3326664,51.7602589],[-0.3326865,51.7602846],[-0.3327013,51.7603169],[-0.3326892,51.7604067],[-0.3326911,51.7605079],[-0.3327258,51.7605439],[-0.3327694,51.7605832]]]}},
{"type":"Feature","properties":{"highway":"cycleway","name":null,"category":"Dedicated cycleway"},"geometry":{"type":"MultiLineString","coordinates":[[[-0.3385928,51.7658617],[-0.3380598,51.7658976],[-0.3379733,51.7659021],[-0.3371741,51.7659675],[-0.3366072,51.7659872],[-0.3361872,51.7659663],[-0.335988,51.7659079],[-0.3359283,51.7658753]]]}},
{"type":"Feature","properties":{"highway":"path","name":null,"category":"Shared path"},"geometry":{"type":"MultiLineString","coordinates":[[[-0.3348065,51.7544349],[-0.3348239,51.7544391],[-0.3349554,51.7543992],[-0.3350305,51.75441],[-0.3350358,51.7544291],[-0.3352437,51.7544715],[-0.3352772,51.7544847],[-0.3352799,51.754503],[-0.335229,51.7546176],[-0.3352491,51.7546558],[-0.3352678,51.7546856],[-0.3351552,51.7548276],[-0.335068,51.7548135]]]}},
{"type":"Feature","properties":{"highway":"path","name":null,"category":"Shared path"},"geometry":{"type":"MultiLineString","coordinates":[[[-0.3345814,51.7566602],[-0.3348307,51.7567567],[-0.335006,51.7568206]]]}},
{"type":"Feature","properties":{"highway":"path","name":null,"category":"Shared path"},"geometry":{"type":"MultiLineString","coordinates":[[[-0.3338262,51.7557321],[-0.3339523,51.7557794],[-0.3339389,51.7557952],[-0.3339295,51.7558168],[-0.3339563,51.7559729],[-0.3339443,51.7560052],[-0.3339241,51.7560484],[-0.3339318,51.756068]]]}},
{"type":"Feature","properties":{"highway":"path","name":null,"category":"Shared path"},"geometry":{"type":"MultiLineString","coordinates":[[[-0.3338262,51.7557321],[-0.3335835,51.7559206],[-0.3335142,51.7559844],[-0.3334053,51.7560848]]]}},
{"type":"Feature","properties":{"highway":"path","name":null,"category":"Shared path"},"geometry":{"type":"MultiLineString","coordinates":[[[-0.3343412,51.7561223],[-0.3341159,51.7560351],[-0.3340663,51.7560144],[-0.3339318,51.756068],[-0.3338705,51.7560924],[-0.3338383,51.7561015],[-0.3338021,51.7561057],[-0.3337565,51.7560949],[-0.3335473,51.7559994],[-0.3335142,51.7559844]]]}},
{"type":"Feature","properties":{"highway":"path","name":null,"category":"Shared path"},"geometry":{"type":"MultiLineString","coordinates":[[[-0.3326193,51.7565752],[-0.3323879,51.7567666]]]}},
{"type":"Feature","properties":{"highway":"path","name":null,"category":"Shared path"},"geometry":{"type":"MultiLineString","coordinates":[[[-0.3326193,51.7565752],[-0.3326073,51.7565441],[-0.3325804,51.7565104],[-0.3324799,51.7564606]]]}},
{"type":"Feature","properties":{"highway":"path","name":null,"category":"Shared path"},"geometry":{"type":"MultiLineString","coordinates":[[[-0.3315194,51.7641498],[-0.3313759,51.7639655],[-0.3312414,51.7637868],[-0.3312016,51.7637339],[-0.3311895,51.7637049],[-0.3311976,51.7636758],[-0.331223,51.7636476],[-0.3312579,51.7636269],[-0.3315205,51.7635493],[-0.3318446,51.7634535]]]}},
{"type":"Feature","properties":{"highway":"path","name":null,"category":"Shared path"},"geometry":{"type":"MultiLineString","coordinates":[[[-0.3322356,51.7638028],[-0.3323791,51.7637622],[-0.3324434,51.7636908],[-0.3324703,51.7636476],[-0.3325561,51.7636227],[-0.3325279,51.7635713],[-0.3326343,51.7635462]]]}},
{"type":"Feature","properties":{"highway":"path","name":null,"category":"Shared path"},"geometry":{"type":"MultiLineString","coordinates":[[[-0.3322208,51.7639198],[-0.3324703,51.7638635],[-0.3328078,51.7637868]]]}},
{"type":"Feature","properties":{"highway":"path","name":null,"category":"Shared path"},"geometry":{"type":"MultiLineString","coordinates":[[[-0.3315717,51.7636941],[-0.3315865,51.7636543],[-0.3315758,51.7636144],[-0.3315205,51.7635493]]]}},
{"type":"Feature","properties":{"highway":"path","name":null,"category":"Shared path"},"geometry":{"type":"MultiLineString","coordinates":[[[-0.3319358,51.7635299],[-0.3318923,51.7635439],[-0.331848,51.7635796],[-0.3318292,51.7636343],[-0.3318185,51.7636916],[-0.3318091,51.7637431],[-0.3317944,51.7637845]]]}},
{"type":"Feature","properties":{"highway":"path","name":null,"category":"Shared path"},"geometry":{"type":"MultiLineString","coordinates":[[[-0.328543,51.7645799],[-0.328488,51.7644512],[-0.3286183,51.7643374]]]}},
{"type":"Feature","properties":{"highway":"path","name":null,"category":"Shared path"},"geometry":{"type":"MultiLineString","coordinates":[[[-0.3297098,51.7582612],[-0.329567,51.758207],[-0.329247,51.7582222],[-0.3288132,51.7582563]]]}},
{"type":"Feature","properties":{"highway":"path","name":null,"category":"Shared path"},"geometry":{"type":"MultiLineString","coordinates":[[[-0.3294616,51.7580603],[-0.3293283,51.7580637]]]}},
{"type":"Feature","properties":{"highway":"path","name":null,"category":"Shared path"},"geometry":{"type":"MultiLineString","coordinates":[[[-0.3298626,51.7579831],[-0.3297901,51.7579773],[-0.329707,51.7579483],[-0.3296798,51.7579324]]]}},
{"type":"Feature","properties":{"highway":"path","name":null,"category":"Shared path"},"geometry":{"type":"MultiLineString","coordinates":[[[-0.3295675,51.7580437],[-0.3296198,51.7580404],[-0.3296587,51.7580263],[-0.3296842,51.7580089]]]}},
{"type":"Feature","properties":{"highway":"path","name":null,"category":"Shared path"},"geometry":{"type":"MultiLineString","coordinates":[[[-0.3297338,51.7581068],[-0.3297097,51.7580803],[-0.3296842,51.7580089],[-0.3296798,51.7579324],[-0.3296788,51.7579167],[-0.3296868,51.7577606]]]}},
{"type":"Feature","properties":{"highway":"path","name":null,"category":"Shared path"},"geometry":{"type":"MultiLineString","coordinates":[[[-0.3303688,51.7580162],[-0.3303728,51.7580435],[-0.3304091,51.758066],[-0.3305445,51.7581149],[-0.3306011,51.7581321]]]}},
{"type":"Feature","properties":{"highway":"path","name":null,"category":"Shared path"},"geometry":{"type":"MultiLineString","coordinates":[[[-0.3363631,51.7625765],[-0.3363121,51.7624234],[-0.3362954,51.7622901],[-0.3362357,51.7621021],[-0.3360398,51.762097],[-0.3359504,51.7620775]]]}},
{"type":"Feature","properties":{"highway":"path","name":null,"category":"Shared path"},"geometry":{"type":"MultiLineString","coordinates":[[[-0.335013,51.7576369],[-0.3349656,51.7576321]]]}},
{"type":"Feature","properties":{"highway":"path","name":null,"category":"Shared path"},"geometry":{"type":"MultiLineString","coordinates":[[[-0.3352182,51.7578894],[-0.3351401,51.7579828]]]}},
{"type":"Feature","properties":{"highway":"path","name":null,"category":"Shared path"},"geometry":{"type":"MultiLineString","coordinates":[[[-0.3350472,51.7578324],[-0.3349744,51.7579236]]]}},
{"type":"Feature","properties":{"highway":"path","name":null,"category":"Shared path"},"geometry":{"type":"MultiLineString","coordinates":[[[-0.3350318,51.7575838],[-0.3349656,51.7576321],[-0.3348803,51.7577042],[-0.3348078,51.7577718],[-0.3347479,51.75784]]]}},
{"type":"Feature","properties":{"highway":"path","name":null,"category":"Shared path"},"geometry":{"type":"MultiLineString","coordinates":[[[-0.334828,51.7575112],[-0.3348106,51.7575294],[-0.3348622,51.7576627],[-0.3348803,51.7577042]]]}},
{"type":"Feature","properties":{"highway":"path","name":null,"category":"Shared path"},"geometry":{"type":"MultiLineString","coordinates":[[[-0.3291159,51.7616399],[-0.3291127,51.7617988],[-0.3294424,51.7617937],[-0.3299655,51.7619478],[-0.3301363,51.7620758],[-0.3302765,51.7620847],[-0.3303838,51.7621312],[-0.3302467,51.7622224],[-0.3302095,51.7624348],[-0.3302381,51.7625019],[-0.3303351,51.7627295],[-0.3304077,51.7628916],[-0.3305705,51.763138],[-0.3308324,51.7633494],[-0.3309173,51.7633943],[-0.3310005,51.763403],[-0.3312098,51.7633658],[-0.331425,51.7633058],[-0.3316562,51.7632557],[-0.3322799,51.7631062],[-0.3323454,51.7630526],[-0.3323737,51.7629857],[-0.332379,51.7629058],[-0.3321968,51.7625871],[-0.3319933,51.7623352],[-0.3318977,51.7622037],[-0.3319182,51.762064]]]}},
{"type":"Feature","properties":{"highway":"path","name":null,"category":"Shared path"},"geometry":{"type":"MultiLineString","coordinates":[[[-0.3285023,51.7612729],[-0.3291159,51.7616399],[-0.329134,51.7616405]]]}},
{"type":"Feature","properties":{"highway":"track","name":null,"category":"Track"},"geometry":{"type":"MultiLineString","coordinates":[[[-0.3314509,51.7613035],[-0.3317726,51.7614055],[-0.3318424,51.7616246],[-0.331955,51.7618205],[-0.3319182,51.762064],[-0.3317189,51.762129],[-0.3318977,51.7622037]]]}},
{"type":"Feature","properties":{"highway":"track","name":null,"category":"Track"},"geometry":{"type":"MultiLineString","coordinates":[[[-0.3319182,51.762064],[-0.3321482,51.7619384],[-0.3324218,51.7618653],[-0.3326256,51.7618487],[-0.3327436,51.761862],[-0.3328456,51.7616728],[-0.3331566,51.7616039],[-0.3331192,51.7615333],[-0.3330977,51.7613739],[-0.3331078,51.7613594],[-0.3330547,51.761327],[-0.3331431,51.7609593]]]}},
{"type":"Feature","properties":{"highway":"track","name":null,"category":"Track"},"geometry":{"type":"MultiLineString","coordinates":[[[-0.3331566,51.7616039],[-0.3332644,51.7616652],[-0.3335488,51.7617216],[-0.3337902,51.7617116],[-0.333994,51.7617415],[-0.3341858,51.7616992]]]}},
{"type":"Feature","properties":{"highway":"track","name":null,"category":"Track"},"geometry":{"type":"MultiLineString","coordinates":[[[-0.3325134,51.7615158],[-0.3327441,51.7614294],[-0.3329426,51.761363],[-0.3330547,51.761327]]]}},
{"type":"Feature","properties":{"highway":"track","name":null,"category":"Track"},"geometry":{"type":"MultiLineString","coordinates":[[[-0.3331078,51.7613594],[-0.3334307,51.7612867],[-0.333699,51.7612203],[-0.333876,51.7612302],[-0.3339244,51.7612332],[-0.3339789,51.7612361]]]}},
{"type":"Feature","properties":{"highway":"track","name":null,"category":"Track"},"geometry":{"type":"MultiLineString","coordinates":[[[-0.3317726,51.7614055],[-0.3321916,51.7613995],[-0.3325134,51.7615158],[-0.3328456,51.7616728],[-0.3330981,51.7618743],[-0.3334254,51.7619773],[-0.333597,51.7622362],[-0.3336665,51.7624417]]]}},
{"type":"Feature","properties":{"highway":"track","name":null,"category":"Track"},"geometry":{"type":"MultiLineString","coordinates":[[[-0.3335488,51.7617216],[-0.3335648,51.7618345],[-0.3338009,51.7619905],[-0.3337258,51.7620237],[-0.333597,51.7622362]]]}},
{"type":"Feature","properties":{"highway":"track","name":null,"category":"Track"},"geometry":{"type":"MultiLineString","coordinates":[[[-0.3329426,51.761363],[-0.3326475,51.7612999],[-0.3323847,51.76128],[-0.3321647,51.7613497],[-0.3321916,51.7613995]]]}},
{"type":"Feature","properties":{"highway":"track","name":null,"category":"Track"},"geometry":{"type":"MultiLineString","coordinates":[[[-0.3325134,51.7615158],[-0.3323203,51.7616054],[-0.3320414,51.7616618],[-0.3318424,51.7616246]]]}},
{"type":"Feature","properties":{"highway":"track","name":null,"category":"Track"},"geometry":{"type":"MultiLineString","coordinates":[[[-0.3341858,51.7616992],[-0.3342623,51.761685],[-0.3346894,51.7616198],[-0.3352044,51.7614704],[-0.3350488,51.761052],[-0.3348423,51.7610172],[-0.3343997,51.7609391],[-0.3340779,51.7608595],[-0.3338546,51.7607669]]]}},
{"type":"Feature","properties":{"highway":"track","name":null,"category":"Track"},"geometry":{"type":"MultiLineString","coordinates":[[[-0.3352044,51.7614704],[-0.3354458,51.7613077],[-0.335655,51.7612048],[-0.335773,51.7611516],[-0.3358642,51.7610653],[-0.3362457,51.7607777],[-0.3358481,51.7607067],[-0.3353761,51.76073],[-0.3352356,51.7605878]]]}},
{"type":"Feature","properties":{"highway":"track","name":null,"category":"Track"},"geometry":{"type":"MultiLineString","coordinates":[[[-0.3353761,51.76073],[-0.3351347,51.7608329],[-0.3350435,51.7609358],[-0.3350488,51.761052]]]}},
{"type":"Feature","properties":{"highway":"track","name":null,"category":"Track"},"geometry":{"type":"MultiLineString","coordinates":[[[-0.335773,51.7611516],[-0.3356818,51.7612778],[-0.3356121,51.7615069],[-0.335537,51.7616065]]]}},
{"type":"Feature","properties":{"highway":"track","name":null,"category":"Track"},"geometry":{"type":"MultiLineString","coordinates":[[[-0.3352044,51.7614704],[-0.3352795,51.7616032],[-0.335258,51.7617061]]]}},
{"type":"Feature","properties":{"highway":"path","name":null,"category":"Shared path"},"geometry":{"type":"MultiLineString","coordinates":[[[-0.3351881,51.7663361],[-0.335309,51.7662273],[-0.3353318,51.7660366],[-0.3353393,51.7659964],[-0.3353355,51.7659707],[-0.3353028,51.7659352],[-0.3352239,51.7659119],[-0.3351435,51.7659022],[-0.33512,51.7659013],[-0.3350862,51.7659002]]]}},
{"type":"Feature","properties":{"highway":"path","name":null,"category":"Shared path"},"geometry":{"type":"MultiLineString","coordinates":[[[-0.3353318,51.7660366],[-0.33512,51.7659013]]]}},
{"type":"Feature","properties":{"highway":"cycleway","name":"St Albans Green Ring","category":"Dedicated cycleway"},"geometry":{"type":"MultiLineString","coordinates":[[[-0.3314725,51.7612074],[-0.3315849,51.7611947],[-0.3317671,51.7611071],[-0.3319307,51.761034],[-0.3321053,51.7609622],[-0.3324752,51.7609045],[-0.3326632,51.7609357],[-0.332789,51.7609626],[-0.3330226,51.760949],[-0.3331431,51.7609593],[-0.3337319,51.7608058]]]}},
{"type":"Feature","properties":{"highway":"track","name":"Beech Bottom Dyke Path","category":"Track"},"geometry":{"type":"MultiLineString","coordinates":[[[-0.3263734,51.7692534],[-0.3267682,51.7689259],[-0.3272403,51.7685275],[-0.3276587,51.768262],[-0.3285278,51.7679897],[-0.3293722,51.7676139],[-0.3296221,51.7675051],[-0.330298,51.7671797],[-0.3313816,51.7668013],[-0.3324331,51.7664494],[-0.3328944,51.7662634],[-0.3338385,51.7660377],[-0.3340443,51.7659988],[-0.3341384,51.765981],[-0.3342248,51.7659646],[-0.3350862,51.7659002]]]}},
{"type":"Feature","properties":{"highway":"path","name":null,"category":"Shared path"},"geometry":{"type":"MultiLineString","coordinates":[[[-0.3340443,51.7659988],[-0.3340775,51.7657646]]]}},
{"type":"Feature","properties":{"highway":"cycleway","name":"St Albans Green Ring","category":"Dedicated cycleway"},"geometry":{"type":"MultiLineString","coordinates":[[[-0.3356224,51.7649041],[-0.3355884,51.7645605],[-0.3355454,51.7641389],[-0.3354864,51.7639695],[-0.3352182,51.7633487],[-0.3350833,51.7631199],[-0.3346228,51.7623261],[-0.3342623,51.761685],[-0.3340186,51.761068]]]}},
{"type":"Feature","properties":{"highway":"path","name":null,"category":"Shared path"},"geometry":{"type":"MultiLineString","coordinates":[[[-0.3339864,51.7614233],[-0.3339244,51.7612332]]]}},
{"type":"Feature","properties":{"highway":"cycleway","name":"St Albans Green Ring","category":"Dedicated cycleway"},"geometry":{"type":"MultiLineString","coordinates":[[[-0.3337954,51.7610975],[-0.3337505,51.7610503],[-0.3337319,51.7608058]]]}},
{"type":"Feature","properties":{"highway":"cycleway","name":null,"category":"Dedicated cycleway"},"geometry":{"type":"MultiLineString","coordinates":[[[-0.3356224,51.7649041],[-0.3357627,51.7640679],[-0.335977,51.7632099],[-0.3359513,51.7627159],[-0.3359504,51.7620775],[-0.3360376,51.7618091],[-0.3361726,51.7610909],[-0.3362457,51.7607777],[-0.3363096,51.7606991],[-0.3363847,51.7606101]]]}},
{"type":"Feature","properties":{"highway":"cycleway","name":null,"category":"Dedicated cycleway"},"geometry":{"type":"MultiLineString","coordinates":[[[-0.3337319,51.7608058],[-0.3338546,51.7607669]]]}},
{"type":"Feature","properties":{"highway":"path","name":null,"category":"Shared path"},"geometry":{"type":"MultiLineString","coordinates":[[[-0.3325276,51.7630921],[-0.3326435,51.7632634]]]}},
{"type":"Feature","properties":{"highway":"cycleway","name":"St Albans Green Ring","category":"Dedicated cycleway"},"geometry":{"type":"MultiLineString","coordinates":[[[-0.3282432,51.7583008],[-0.3282333,51.7582464],[-0.3281949,51.7582251]]]}},
{"type":"Feature","properties":{"highway":"path","name":null,"category":"Shared path"},"geometry":{"type":"MultiLineString","coordinates":[[[-0.3286636,51.7582457],[-0.3285255,51.7582463],[-0.3281949,51.7582251]]]}},
{"type":"Feature","properties":{"highway":"cycleway","name":"St Albans Green Ring","category":"Dedicated cycleway"},"geometry":{"type":"MultiLineString","coordinates":[[[-0.3281949,51.7582251],[-0.3278992,51.7581981],[-0.3274432,51.7581799],[-0.3270315,51.7581807]]]}},
{"type":"Feature","properties":{"highway":"path","name":null,"category":"Shared path"},"geometry":{"type":"MultiLineString","coordinates":[[[-0.3317189,51.762129],[-0.3315137,51.7621227],[-0.3313615,51.7620844],[-0.3312022,51.7620208],[-0.3310731,51.7619748],[-0.3309249,51.7619584],[-0.3307935,51.7619628],[-0.3306873,51.7619978],[-0.3305068,51.7620756],[-0.3304059,51.762126],[-0.3303838,51.7621312]]]}},
{"type":"Feature","properties":{"highway":"path","name":null,"category":"Shared path"},"geometry":{"type":"MultiLineString","coordinates":[[[-0.3299524,51.7622335],[-0.3301709,51.7624285],[-0.3302381,51.7625019]]]}},
{"type":"Feature","properties":{"highway":"path","name":null,"category":"Shared path"},"geometry":{"type":"MultiLineString","coordinates":[[[-0.3326193,51.7565752],[-0.3326588,51.7565989],[-0.3327514,51.7566018],[-0.3327722,51.7565976]]]}},
{"type":"Feature","properties":{"highway":"track","name":null,"category":"Track"},"geometry":{"type":"MultiLineString","coordinates":[[[-0.3355293,51.7650104],[-0.3349473,51.7637763],[-0.3344055,51.7629363],[-0.3341641,51.7625345],[-0.3340342,51.7623599]]]}},
{"type":"Feature","properties":{"highway":"cycleway","name":null,"category":"Dedicated cycleway"},"geometry":{"type":"MultiLineString","coordinates":[[[-0.3358064,51.7650883],[-0.335642,51.7651017],[-0.3356224,51.7649041]]]}},
{"type":"Feature","properties":{"highway":"path","name":null,"category":"Shared path"},"geometry":{"type":"MultiLineString","coordinates":[[[-0.328488,51.7644512],[-0.3284208,51.7644262],[-0.3283565,51.7644162],[-0.3282809,51.7644077]]]}},
{"type":"Feature","properties":{"highway":"cycleway","name":"St Albans Green Ring","category":"Dedicated cycleway"},"geometry":{"type":"MultiLineString","coordinates":[[[-0.3340186,51.761068],[-0.3339224,51.7610842],[-0.3337954,51.7610975]]]}},
{"type":"Feature","properties":{"highway":"path","name":null,"category":"Shared path"},"geometry":{"type":"MultiLineString","coordinates":[[[-0.3339244,51.7612332],[-0.3337954,51.7610975]]]}},
{"type":"Feature","properties":{"highway":"cycleway","name":"St Albans Green Ring","category":"Dedicated cycleway"},"geometry":{"type":"MultiLineString","coordinates":[[[-0.3294619,51.760574],[-0.3295408,51.7604847]]]}},
{"type":"Feature","properties":{"highway":"cycleway","name":"St Albans Greeen Ring","category":"Dedicated cycleway"},"geometry":{"type":"MultiLineString","coordinates":[[[-0.329396,51.7604028],[-0.3292676,51.7605259]]]}},
{"type":"Feature","properties":{"highway":"cycleway","name":"St Albans Green Ring","category":"Dedicated cycleway"},"geometry":{"type":"MultiLineString","coordinates":[[[-0.3279969,51.7584172],[-0.328252,51.7583956]]]}},
{"type":"Feature","properties":{"highway":"cycleway","name":"St Albans Green Ring","category":"Dedicated cycleway"},"geometry":{"type":"MultiLineString","coordinates":[[[-0.328252,51.7583956],[-0.3287589,51.7583685],[-0.3292417,51.7583453],[-0.3293222,51.7583486],[-0.3294166,51.7584046]]]}},
{"type":"Feature","properties":{"highway":"cycleway","name":null,"category":"Dedicated cycleway"},"geometry":{"type":"MultiLineString","coordinates":[[[-0.3360453,51.7570743],[-0.3359842,51.7570768],[-0.3359327,51.7570465],[-0.335879,51.7570149],[-0.335879,51.7569726]]]}},
{"type":"Feature","properties":{"highway":"path","name":null,"category":"Shared path"},"geometry":{"type":"MultiLineString","coordinates":[[[-0.3288132,51.7582563],[-0.3286636,51.7582457]]]}},
{"type":"Feature","properties":{"highway":"path","name":null,"category":"Shared path"},"geometry":{"type":"MultiLineString","coordinates":[[[-0.3285263,51.7582871],[-0.3286629,51.7582767],[-0.3288132,51.7582563]]]}},
{"type":"Feature","properties":{"highway":"cycleway","name":"St Albans Green Ring","category":"Dedicated cycleway"},"geometry":{"type":"MultiLineString","coordinates":[[[-0.328252,51.7583956],[-0.3282481,51.7583532]]]}},
{"type":"Feature","properties":{"highway":"cycleway","name":"St Albans Green Ring","category":"Dedicated cycleway"},"geometry":{"type":"MultiLineString","coordinates":[[[-0.3282481,51.7583532],[-0.3282432,51.7583008]]]}}
]
}
