{
"type": "FeatureCollection",
"name": "WESSU_49_cycling",
"crs": { "type": "name", "properties": { "name": "urn:ogc:def:crs:OGC:1.3:CRS84" } },
"features": [
{"type":"Feature","properties":{"highway":"cycleway","name":"Kevelaer Way","category":"Dedicated cycleway"},"geometry":{"type":"MultiLineString","coordinates":[[[0.7276964,52.2447597],[0.7276331,52.2447488],[0.7266822,52.2445088]]]}},
{"type":"Feature","properties":{"highway":"cycleway","name":null,"category":"Dedicated cycleway"},"geometry":{"type":"MultiLineString","coordinates":[[[0.7051051,52.2460862],[0.7051187,52.246041],[0.7051266,52.2460197]]]}},
{"type":"Feature","properties":{"highway":"cycleway","name":null,"category":"Dedicated cycleway"},"geometry":{"type":"MultiLineString","coordinates":[[[0.7057001,52.2431832],[0.7057139,52.2430379],[0.7055789,52.2429307]]]}},
{"type":"Feature","properties":{"highway":"cycleway","name":null,"category":"Dedicated cycleway"},"geometry":{"type":"MultiLineString","coordinates":[[[0.7113554,52.2409346],[0.711407,52.2409556],[0.7114425,52.2409901],[0.7114483,52.2410253],[0.7114385,52.2410968],[0.711378,52.2411871],[0.7113842,52.2411987]]]}},
{"type":"Feature","properties":{"highway":"cycleway","name":null,"category":"Dedicated cycleway"},"geometry":{"type":"MultiLineString","coordinates":[[[0.710532,52.2401964],[0.7105305,52.2402295],[0.7104767,52.2403181],[0.710385,52.2404744],[0.7103503,52.2405265]]]}},
{"type":"Feature","properties":{"highway":"cycleway","name":null,"category":"Dedicated cycleway"},"geometry":{"type":"MultiLineString","coordinates":[[[0.7056924,52.245677],[0.7056964,52.2456757],[0.7066253,52.2457128],[0.7068568,52.2457204],[0.7069054,52.2457106],[0.7069452,52.2456859],[0.7069672,52.2456647],[0.7070046,52.2453913],[0.7070067,52.2453759],[0.7070442,52.2450783],[0.707065,52.2449933],[0.7070946,52.2447879],[0.7070704,52.244697],[0.7070355,52.2446384],[0.7070541,52.2445977]]]}},
{"type":"Feature","properties":{"highway":"cycleway","name":null,"category":"Dedicated cycleway"},"geometry":{"type":"MultiLineString","coordinates":[[[0.7078417,52.2446319],[0.7078403,52.2446565],[0.7075131,52.2447281],[0.7073597,52.2449556],[0.7073838,52.2450129],[0.7073069,52.2454649],[0.7073071,52.2454747],[0.7073037,52.2455262],[0.7072961,52.2455947]]]}},
{"type":"Feature","properties":{"highway":"cycleway","name":null,"category":"Dedicated cycleway"},"geometry":{"type":"MultiLineString","coordinates":[[[0.7082476,52.2494338],[0.7084328,52.2495011],[0.7084635,52.2494837],[0.7083897,52.2493185],[0.7083949,52.2492131],[0.7088345,52.2491814]]]}},
{"type":"Feature","properties":{"highway":"cycleway","name":null,"category":"Dedicated cycleway"},"geometry":{"type":"MultiLineString","coordinates":[[[0.7119822,52.2445986],[0.7119948,52.2446809],[0.7119779,52.2448556],[0.7118764,52.2449241]]]}},
{"type":"Feature","properties":{"highway":"cycleway","name":null,"category":"Dedicated cycleway"},"geometry":{"type":"MultiLineString","coordinates":[[[0.7115838,52.2417033],[0.7116113,52.2416853],[0.7116497,52.2414472]]]}},
{"type":"Feature","properties":{"highway":"cycleway","name":null,"category":"Dedicated cycleway"},"geometry":{"type":"MultiLineString","coordinates":[[[0.7064045,52.2476021],[0.7064071,52.2476661],[0.7065592,52.2476676],[0.7066314,52.2476799],[0.7068078,52.2477816],[0.7068964,52.2478368],[0.7069792,52.2478364],[0.7070259,52.247834],[0.7070983,52.2478258],[0.707177,52.2478351]]]}},
{"type":"Feature","properties":{"highway":"track","name":null,"category":"Track"},"geometry":{"type":"MultiLineString","coordinates":[[[0.7168358,52.2506256],[0.7170158,52.2506505],[0.7182837,52.2508645],[0.7184438,52.2504526],[0.7171424,52.2502148],[0.7170485,52.2501901]]]}},
{"type":"Feature","properties":{"highway":"cycleway","name":"Cotton Lane","category":"Dedicated cycleway"},"geometry":{"type":"MultiLineString","coordinates":[[[0.7172332,52.2497676],[0.7172462,52.2497565],[0.7172561,52.2497399]]]}},
{"type":"Feature","properties":{"highway":"cycleway","name":"Qwysson Avenue","category":"Dedicated cycleway"},"geometry":{"type":"MultiLineString","coordinates":[[[0.718235,52.2492754],[0.7181878,52.2493798]]]}},
{"type":"Feature","properties":{"highway":"cycleway","name":null,"category":"Dedicated cycleway"},"geometry":{"type":"MultiLineString","coordinates":[[[0.7123582,52.2391249],[0.7122981,52.2391142],[0.7122282,52.2391011],[0.7120363,52.2390666],[0.71165,52.2390141],[0.7113925,52.2389405],[0.7111436,52.238993],[0.7109959,52.2391234],[0.7109302,52.2391472],[0.7107364,52.2391898],[0.7106042,52.2391812]]]}},
{"type":"Feature","properties":{"highway":"cycleway","name":"Shaker's Lane","category":"Dedicated cycleway"},"geometry":{"type":"MultiLineString","coordinates":[[[0.7272155,52.2468846],[0.7271871,52.2468474],[0.7271174,52.2465359],[0.7271169,52.246491],[0.727115,52.2463055],[0.7271775,52.2460734],[0.7274954,52.2452677],[0.7276964,52.2447597]]]}},
{"type":"Feature","properties":{"highway":"cycleway","name":"Kevelaer Way","category":"Dedicated cycleway"},"geometry":{"type":"MultiLineString","coordinates":[[[0.7266822,52.2445088],[0.7257038,52.2442775]]]}},
{"type":"Feature","properties":{"highway":"cycleway","name":null,"category":"Dedicated cycleway"},"geometry":{"type":"MultiLineString","coordinates":[[[0.7195303,52.2427385],[0.7196951,52.24284],[0.7198482,52.2428868],[0.7199964,52.2429497],[0.720046,52.2429594],[0.7206523,52.2430234],[0.720923,52.2430441],[0.7212938,52.2430799]]]}},
{"type":"Feature","properties":{"highway":"cycleway","name":null,"category":"Dedicated cycleway"},"geometry":{"type":"MultiLineString","coordinates":[[[0.7147535,52.2391124],[0.7147464,52.2390586],[0.7146957,52.238869],[0.7146564,52.2386405],[0.7146326,52.2384097],[0.7146135,52.2382162],[0.7145773,52.2381861]]]}},
{"type":"Feature","properties":{"highway":"cycleway","name":null,"category":"Dedicated cycleway"},"geometry":{"type":"MultiLineString","coordinates":[[[0.7147514,52.2391755],[0.7147535,52.2391124]]]}},
{"type":"Feature","properties":{"highway":"cycleway","name":null,"category":"Dedicated cycleway"},"geometry":{"type":"MultiLineString","coordinates":[[[0.7147514,52.2392277],[0.7147514,52.2391755]]]}},
{"type":"Feature","properties":{"highway":"cycleway","name":null,"category":"Dedicated cycleway"},"geometry":{"type":"MultiLineString","coordinates":[[[0.715379,52.2425073],[0.7153847,52.2424828]]]}},
{"type":"Feature","properties":{"highway":"cycleway","name":null,"category":"Dedicated cycleway"},"geometry":{"type":"MultiLineString","coordinates":[[[0.721445,52.2390839],[0.7213763,52.239168]]]}},
{"type":"Feature","properties":{"highway":"bridleway","name":null,"category":"Bridleway"},"geometry":{"type":"MultiLineString","coordinates":[[[0.7240437,52.2438353],[0.7236356,52.2442651],[0.7230455,52.2448537],[0.7227546,52.2451932],[0.7227183,52.2452811],[0.7227075,52.2454672]]]}},
{"type":"Feature","properties":{"highway":"cycleway","name":null,"category":"Dedicated cycleway"},"geometry":{"type":"MultiLineString","coordinates":[[[0.7199646,52.2420041],[0.7198673,52.2420552],[0.7197715,52.2421718],[0.7196891,52.2422287],[0.7195643,52.2423258],[0.7194677,52.242373],[0.7194006,52.242382],[0.7193026,52.2423817],[0.7192927,52.242408]]]}},
{"type":"Feature","properties":{"highway":"cycleway","name":"Kevelaer Way","category":"Dedicated cycleway"},"geometry":{"type":"MultiLineString","coordinates":[[[0.7225135,52.2430231],[0.7226579,52.2431151]]]}},
{"type":"Feature","properties":{"highway":"cycleway","name":"Kevelaer Way","category":"Dedicated cycleway"},"geometry":{"type":"MultiLineString","coordinates":[[[0.7215674,52.2431063],[0.7217027,52.2431194],[0.7218012,52.2431096],[0.7221934,52.2430168],[0.7223069,52.2429917],[0.7223856,52.2429856],[0.7224523,52.2429983],[0.7225135,52.2430231]]]}},
{"type":"Feature","properties":{"highway":"cycleway","name":null,"category":"Dedicated cycleway"},"geometry":{"type":"MultiLineString","coordinates":[[[0.7212938,52.2430799],[0.7214818,52.243098]]]}},
{"type":"Feature","properties":{"highway":"cycleway","name":"Kevelaer Way","category":"Dedicated cycleway"},"geometry":{"type":"MultiLineString","coordinates":[[[0.7226579,52.2431151],[0.7226817,52.2431302]]]}},
{"type":"Feature","properties":{"highway":"track","name":null,"category":"Track"},"geometry":{"type":"MultiLineString","coordinates":[[[0.7218815,52.2405961],[0.72219,52.2407088],[0.7227113,52.2408975]]]}},
{"type":"Feature","properties":{"highway":"cycleway","name":null,"category":"Dedicated cycleway"},"geometry":{"type":"MultiLineString","coordinates":[[[0.7204754,52.2384515],[0.7204534,52.2384861],[0.7203287,52.2385965]]]}},
{"type":"Feature","properties":{"highway":"cycleway","name":"Harrington Close","category":"Dedicated cycleway"},"geometry":{"type":"MultiLineString","coordinates":[[[0.7205793,52.2387035],[0.7203287,52.2385965],[0.72024,52.2385738]]]}},
{"type":"Feature","properties":{"highway":"cycleway","name":null,"category":"Dedicated cycleway"},"geometry":{"type":"MultiLineString","coordinates":[[[0.7213763,52.239168],[0.7213204,52.2391967]]]}},
{"type":"Feature","properties":{"highway":"cycleway","name":null,"category":"Dedicated cycleway"},"geometry":{"type":"MultiLineString","coordinates":[[[0.7213204,52.2391967],[0.7212976,52.2392073],[0.7213237,52.239232],[0.7213419,52.2392569],[0.7213332,52.2392737],[0.7212588,52.2393426],[0.7212701,52.2393456],[0.7213081,52.2393618],[0.7213325,52.2393735],[0.7213392,52.2393854],[0.7213354,52.2393975],[0.7212152,52.2395346]]]}},
{"type":"Feature","properties":{"highway":"cycleway","name":null,"category":"Dedicated cycleway"},"geometry":{"type":"MultiLineString","coordinates":[[[0.7107752,52.2436751],[0.7107519,52.2436091],[0.7106084,52.2435576],[0.7096456,52.2435336],[0.7095323,52.2435168],[0.7094473,52.2435105],[0.7093935,52.2434891],[0.7093853,52.2434422],[0.7093906,52.2433559],[0.7093759,52.2433108],[0.7093531,52.2432738],[0.7093289,52.2432533],[0.7092565,52.2432287],[0.7091747,52.2432213],[0.708248,52.2431794],[0.7079262,52.2431671],[0.7078832,52.2431671],[0.7078497,52.243172],[0.7078148,52.2431745],[0.7077639,52.2431703]]]}},
{"type":"Feature","properties":{"highway":"cycleway","name":null,"category":"Dedicated cycleway"},"geometry":{"type":"MultiLineString","coordinates":[[[0.7117289,52.2406929],[0.7117834,52.2406969],[0.7118405,52.240701]]]}},
{"type":"Feature","properties":{"highway":"cycleway","name":null,"category":"Dedicated cycleway"},"geometry":{"type":"MultiLineString","coordinates":[[[0.712394,52.239072],[0.7124912,52.2389504]]]}},
{"type":"Feature","properties":{"highway":"cycleway","name":null,"category":"Dedicated cycleway"},"geometry":{"type":"MultiLineString","coordinates":[[[0.7414185,52.2484664],[0.741271,52.248429],[0.7411488,52.2483901],[0.7410449,52.248388],[0.7405093,52.2483284],[0.7402561,52.2482755],[0.7395245,52.2482311],[0.7394528,52.2482277],[0.738899,52.2481867],[0.7384169,52.2481456],[0.7381862,52.2481394],[0.737829,52.2480909],[0.7374977,52.2480666],[0.7372581,52.2480431],[0.737053,52.2480431],[0.7369231,52.248026],[0.7367339,52.24801],[0.736415,52.2479761],[0.7360362,52.2479419],[0.7354988,52.2478827],[0.7349709,52.247748],[0.7342217,52.2476452],[0.733182,52.2475532],[0.732431,52.2475487],[0.7321105,52.2475967],[0.7318496,52.2476654],[0.7316266,52.2476661],[0.7311842,52.2476257],[0.7307068,52.2476854],[0.7292492,52.247989],[0.7288786,52.2480837],[0.7287059,52.2480852],[0.7285752,52.2481166],[0.728389,52.2481774],[0.7281388,52.2482669],[0.7280049,52.2483247],[0.7278127,52.2484123],[0.7276034,52.2485203],[0.7275293,52.2485326]]]}},
{"type":"Feature","properties":{"highway":"cycleway","name":null,"category":"Dedicated cycleway"},"geometry":{"type":"MultiLineString","coordinates":[[[0.7123582,52.2391249],[0.712394,52.239072]]]}},
{"type":"Feature","properties":{"highway":"cycleway","name":null,"category":"Dedicated cycleway"},"geometry":{"type":"MultiLineString","coordinates":[[[0.7118972,52.2407034],[0.7119427,52.2403934],[0.7119768,52.2402288],[0.7120224,52.2400084],[0.7120623,52.2398374],[0.712109,52.2396652],[0.7121671,52.2395195],[0.71221,52.2393973],[0.7122727,52.2392594],[0.7123582,52.2391249]]]}},
{"type":"Feature","properties":{"highway":"cycleway","name":null,"category":"Dedicated cycleway"},"geometry":{"type":"MultiLineString","coordinates":[[[0.708813,52.2490949],[0.7088345,52.2491814],[0.7088345,52.2492197]]]}},
{"type":"Feature","properties":{"highway":"track","name":null,"category":"Track"},"geometry":{"type":"MultiLineString","coordinates":[[[0.7178749,52.2527061],[0.7179862,52.2526897]]]}},
{"type":"Feature","properties":{"highway":"cycleway","name":null,"category":"Dedicated cycleway"},"geometry":{"type":"MultiLineString","coordinates":[[[0.7035091,52.2475267],[0.7035786,52.2475721],[0.7039074,52.2476078],[0.7040441,52.2476137],[0.7040675,52.2476491],[0.7041307,52.2476579],[0.7041846,52.2476523],[0.7042103,52.2476267],[0.7042631,52.2476198],[0.7047639,52.2476233],[0.7049946,52.2476331],[0.7050407,52.2476561],[0.7051103,52.2476579],[0.7051769,52.2476627],[0.7052445,52.2476381],[0.7054452,52.2476446],[0.7055174,52.2476004]]]}},
{"type":"Feature","properties":{"highway":"cycleway","name":"Kevelaer Way","category":"Dedicated cycleway"},"geometry":{"type":"MultiLineString","coordinates":[[[0.7240437,52.2438353],[0.7243133,52.2439307],[0.7257038,52.2442775]]]}},
{"type":"Feature","properties":{"highway":"cycleway","name":"Kevelaer Way","category":"Dedicated cycleway"},"geometry":{"type":"MultiLineString","coordinates":[[[0.7226817,52.2431302],[0.7230602,52.2433368],[0.7240437,52.2438353]]]}},
{"type":"Feature","properties":{"highway":"cycleway","name":null,"category":"Dedicated cycleway"},"geometry":{"type":"MultiLineString","coordinates":[[[0.7077639,52.2431703],[0.7077201,52.243168],[0.7076474,52.2431606],[0.7076288,52.2432268],[0.7075537,52.2432183],[0.7074757,52.2432116],[0.707459,52.2432848],[0.7074038,52.24328],[0.7073939,52.2433166]]]}},
{"type":"Feature","properties":{"highway":"cycleway","name":null,"category":"Dedicated cycleway"},"geometry":{"type":"MultiLineString","coordinates":[[[0.7160346,52.245048],[0.7160977,52.2450519]]]}},
{"type":"Feature","properties":{"highway":"path","name":null,"category":"Shared path"},"geometry":{"type":"MultiLineString","coordinates":[[[0.7242717,52.2496379],[0.724365,52.2494534],[0.7243489,52.2493976],[0.724365,52.2493385],[0.7244285,52.2491853],[0.7244411,52.2491549]]]}},
{"type":"Feature","properties":{"highway":"cycleway","name":"Kevelaer Way","category":"Dedicated cycleway"},"geometry":{"type":"MultiLineString","coordinates":[[[0.7214818,52.243098],[0.7215674,52.2431063]]]}},
{"type":"Feature","properties":{"highway":"path","name":null,"category":"Shared path"},"geometry":{"type":"MultiLineString","coordinates":[[[0.7250346,52.2391711],[0.7250642,52.2392072]]]}},
{"type":"Feature","properties":{"highway":"path","name":null,"category":"Shared path"},"geometry":{"type":"MultiLineString","coordinates":[[[0.7249743,52.2391185],[0.7250346,52.2391711]]]}},
{"type":"Feature","properties":{"highway":"path","name":null,"category":"Shared path"},"geometry":{"type":"MultiLineString","coordinates":[[[0.7250642,52.2392072],[0.7250802,52.2392359],[0.7250534,52.2392819],[0.7247221,52.2395053],[0.723896,52.2402773],[0.7233864,52.2405729],[0.7229465,52.2410131],[0.7224315,52.2416405],[0.7220453,52.242212],[0.7216322,52.2427359],[0.7215545,52.2430053],[0.7215674,52.2431063]]]}},
{"type":"Feature","properties":{"highway":"cycleway","name":null,"category":"Dedicated cycleway"},"geometry":{"type":"MultiLineString","coordinates":[[[0.7118405,52.240701],[0.7118972,52.2407034]]]}},
{"type":"Feature","properties":{"highway":"cycleway","name":null,"category":"Dedicated cycleway"},"geometry":{"type":"MultiLineString","coordinates":[[[0.7117042,52.2413612],[0.7116799,52.2413374],[0.7116184,52.2413186]]]}},
{"type":"Feature","properties":{"highway":"cycleway","name":null,"category":"Dedicated cycleway"},"geometry":{"type":"MultiLineString","coordinates":[[[0.71144,52.241214],[0.711509,52.2412388],[0.7114742,52.2412739],[0.7115566,52.2412997]]]}},
{"type":"Feature","properties":{"highway":"path","name":null,"category":"Shared path"},"geometry":{"type":"MultiLineString","coordinates":[[[0.7227546,52.2451932],[0.7224115,52.2450892]]]}},
{"type":"Feature","properties":{"highway":"cycleway","name":null,"category":"Dedicated cycleway"},"geometry":{"type":"MultiLineString","coordinates":[[[0.7112264,52.2409279],[0.7113554,52.2409346]]]}},
{"type":"Feature","properties":{"highway":"cycleway","name":null,"category":"Dedicated cycleway"},"geometry":{"type":"MultiLineString","coordinates":[[[0.712266,52.2390495],[0.7122282,52.2391011]]]}},
{"type":"Feature","properties":{"highway":"cycleway","name":null,"category":"Dedicated cycleway"},"geometry":{"type":"MultiLineString","coordinates":[[[0.7123518,52.2389337],[0.712266,52.2390495]]]}},
{"type":"Feature","properties":{"highway":"cycleway","name":null,"category":"Dedicated cycleway"},"geometry":{"type":"MultiLineString","coordinates":[[[0.7126415,52.2386019],[0.7125463,52.2386898],[0.7124189,52.2388294],[0.7123518,52.2389337]]]}},
{"type":"Feature","properties":{"highway":"track","name":null,"category":"Track"},"geometry":{"type":"MultiLineString","coordinates":[[[0.7239631,52.2384672],[0.7239924,52.2384722],[0.7240355,52.2384796],[0.7240529,52.2384738],[0.7245183,52.2380188],[0.7246122,52.2379581],[0.7247034,52.2379071],[0.7247865,52.2378677],[0.7248482,52.2378168],[0.7248767,52.2377893],[0.7248992,52.2377675]]]}},
{"type":"Feature","properties":{"highway":"track","name":null,"category":"Track"},"geometry":{"type":"MultiLineString","coordinates":[[[0.7248482,52.2378168],[0.72482,52.2379212]]]}},
{"type":"Feature","properties":{"highway":"path","name":null,"category":"Shared path"},"geometry":{"type":"MultiLineString","coordinates":[[[0.7185934,52.2525614],[0.7182552,52.2524591],[0.7181301,52.2523978],[0.7180156,52.2522971],[0.717962,52.2522445],[0.7178388,52.2522868],[0.7178059,52.2522974],[0.7177705,52.2523009],[0.7176366,52.2521745],[0.7176111,52.2521964]]]}},
{"type":"Feature","properties":{"highway":"path","name":null,"category":"Shared path"},"geometry":{"type":"MultiLineString","coordinates":[[[0.7180156,52.2522971],[0.7180979,52.2522314],[0.7183554,52.252111],[0.7186343,52.2519577],[0.7189455,52.2517651],[0.7192745,52.2515461],[0.7193997,52.2514695],[0.7194998,52.2513754],[0.7195892,52.2512593],[0.7197895,52.2510929],[0.7199969,52.2509024],[0.7201292,52.2507579],[0.7202187,52.2506104]]]}},
{"type":"Feature","properties":{"highway":"path","name":null,"category":"Shared path"},"geometry":{"type":"MultiLineString","coordinates":[[[0.7192745,52.2515461],[0.719414,52.2515308],[0.7195391,52.25166],[0.7196858,52.251857],[0.7199001,52.2521317]]]}},
{"type":"Feature","properties":{"highway":"path","name":null,"category":"Shared path"},"geometry":{"type":"MultiLineString","coordinates":[[[0.717962,52.2522445],[0.7180979,52.2522314]]]}},
{"type":"Feature","properties":{"highway":"path","name":null,"category":"Shared path"},"geometry":{"type":"MultiLineString","coordinates":[[[0.7213016,52.246807],[0.7216134,52.2465611],[0.7216641,52.2465813],[0.721827,52.2465867],[0.7219745,52.2466016],[0.7220427,52.2466204],[0.722199,52.2466973]]]}},
{"type":"Feature","properties":{"highway":"cycleway","name":null,"category":"Dedicated cycleway"},"geometry":{"type":"MultiLineString","coordinates":[[[0.7073415,52.2502482],[0.7073976,52.250187],[0.7076531,52.2500721],[0.7077765,52.250029],[0.7081779,52.2498865],[0.7084176,52.2498034],[0.7084794,52.2497983],[0.708551,52.2497924],[0.7087795,52.2498187],[0.7091843,52.249917],[0.7100513,52.2501742],[0.7107438,52.2504086],[0.7107861,52.2504211],[0.7110574,52.2505189],[0.7111818,52.2505651],[0.7114543,52.250697],[0.7115073,52.2507227],[0.7116961,52.2508586],[0.7121163,52.2511195]]]}},
{"type":"Feature","properties":{"highway":"cycleway","name":null,"category":"Dedicated cycleway"},"geometry":{"type":"MultiLineString","coordinates":[[[0.7133626,52.2528519],[0.7132802,52.252795],[0.7132404,52.2527871],[0.7131303,52.2527213],[0.7131097,52.2526769],[0.7130942,52.2526324],[0.712883,52.2522421],[0.7128163,52.2521132],[0.7127932,52.2520718],[0.7128321,52.2520289],[0.712774,52.2518599]]]}},
{"type":"Feature","properties":{"highway":"cycleway","name":null,"category":"Dedicated cycleway"},"geometry":{"type":"MultiLineString","coordinates":[[[0.7114053,52.2408947],[0.7113554,52.2409346]]]}},
{"type":"Feature","properties":{"highway":"cycleway","name":null,"category":"Dedicated cycleway"},"geometry":{"type":"MultiLineString","coordinates":[[[0.7055174,52.2476004],[0.7055846,52.2475486],[0.7059825,52.2475466],[0.7064961,52.2475425],[0.7066109,52.247603]]]}},
{"type":"Feature","properties":{"highway":"cycleway","name":null,"category":"Dedicated cycleway"},"geometry":{"type":"MultiLineString","coordinates":[[[0.7042631,52.2476198],[0.7042614,52.247568],[0.7042614,52.2475263]]]}},
{"type":"Feature","properties":{"highway":"track","name":null,"category":"Track"},"geometry":{"type":"MultiLineString","coordinates":[[[0.7166083,52.2513748],[0.7166095,52.2514542],[0.7166369,52.2514897],[0.7167051,52.2515294],[0.7168571,52.2515827],[0.716997,52.2516172],[0.717137,52.2516684],[0.7174067,52.2517541],[0.7178232,52.2519025]]]}},
{"type":"Feature","properties":{"highway":"track","name":null,"category":"Track"},"geometry":{"type":"MultiLineString","coordinates":[[[0.7169159,52.2511028],[0.7173122,52.2512282],[0.7176767,52.2513544],[0.7178828,52.2514138],[0.7180052,52.2514399],[0.7180597,52.2514692],[0.7180996,52.2515099],[0.7180956,52.2515457],[0.7179932,52.251698],[0.7178575,52.2518869],[0.7178232,52.2519025]]]}},
{"type":"Feature","properties":{"highway":"path","name":null,"category":"Shared path"},"geometry":{"type":"MultiLineString","coordinates":[[[0.7178381,52.252174],[0.7177935,52.2521483],[0.7176331,52.252047],[0.7174914,52.2519926],[0.7171991,52.2519039],[0.7170637,52.2518822],[0.7168713,52.2518686],[0.7166417,52.2518604],[0.7164639,52.2518687],[0.716351,52.2518928]]]}},
{"type":"Feature","properties":{"highway":"cycleway","name":null,"category":"Dedicated cycleway"},"geometry":{"type":"MultiLineString","coordinates":[[[0.7276034,52.2485203],[0.7275927,52.2485361],[0.7275912,52.2485827],[0.7275718,52.2486122],[0.7275704,52.2486413],[0.7275778,52.2486725],[0.7275983,52.2487463],[0.7275945,52.2487584],[0.7275831,52.2487691],[0.7275261,52.2488107]]]}},
{"type":"Feature","properties":{"highway":"cycleway","name":null,"category":"Dedicated cycleway"},"geometry":{"type":"MultiLineString","coordinates":[[[0.7074301,52.2475649],[0.7074049,52.247628],[0.707383,52.2476317],[0.70718,52.2478273],[0.707177,52.2478351]]]}},
{"type":"Feature","properties":{"highway":"cycleway","name":null,"category":"Dedicated cycleway"},"geometry":{"type":"MultiLineString","coordinates":[[[0.7164867,52.2436952],[0.7165425,52.2437002]]]}},
{"type":"Feature","properties":{"highway":"cycleway","name":null,"category":"Dedicated cycleway"},"geometry":{"type":"MultiLineString","coordinates":[[[0.7143754,52.2534252],[0.7144521,52.2533697]]]}},
{"type":"Feature","properties":{"highway":"cycleway","name":null,"category":"Dedicated cycleway"},"geometry":{"type":"MultiLineString","coordinates":[[[0.7081262,52.2494874],[0.7081866,52.2494633],[0.7082476,52.2494338]]]}},
{"type":"Feature","properties":{"highway":"cycleway","name":null,"category":"Dedicated cycleway"},"geometry":{"type":"MultiLineString","coordinates":[[[0.7081262,52.2494874],[0.7082374,52.2495655],[0.7082777,52.2496044],[0.7082884,52.2496623],[0.7082811,52.2496889]]]}},
{"type":"Feature","properties":{"highway":"cycleway","name":null,"category":"Dedicated cycleway"},"geometry":{"type":"MultiLineString","coordinates":[[[0.7082811,52.2496889],[0.7083856,52.2497443],[0.7084794,52.2497983]]]}},
{"type":"Feature","properties":{"highway":"cycleway","name":null,"category":"Dedicated cycleway"},"geometry":{"type":"MultiLineString","coordinates":[[[0.7147889,52.2519756],[0.7147907,52.2519576],[0.7147918,52.2519133],[0.7147889,52.2518746]]]}},
{"type":"Feature","properties":{"highway":"cycleway","name":null,"category":"Dedicated cycleway"},"geometry":{"type":"MultiLineString","coordinates":[[[0.7147889,52.2519756],[0.714919,52.2520133],[0.714986,52.2520363],[0.7150343,52.2520831],[0.7151121,52.2521381],[0.7151872,52.2521734],[0.7153106,52.2522136],[0.7153777,52.2522596],[0.7154085,52.2523072],[0.7154098,52.2523392],[0.7153803,52.2524164]]]}},
{"type":"Feature","properties":{"highway":"cycleway","name":null,"category":"Dedicated cycleway"},"geometry":{"type":"MultiLineString","coordinates":[[[0.7147889,52.2518746],[0.7148788,52.2518573],[0.714986,52.2517966],[0.7151818,52.2516685],[0.7153109,52.2515882],[0.7153414,52.2515691],[0.7154393,52.2515059],[0.7154806,52.251454]]]}},
{"type":"Feature","properties":{"highway":"cycleway","name":null,"category":"Dedicated cycleway"},"geometry":{"type":"MultiLineString","coordinates":[[[0.7154393,52.2515059],[0.7155494,52.2515032]]]}},
{"type":"Feature","properties":{"highway":"cycleway","name":null,"category":"Dedicated cycleway"},"geometry":{"type":"MultiLineString","coordinates":[[[0.7147889,52.2518746],[0.7147286,52.2518721],[0.7146467,52.251859]]]}},
{"type":"Feature","properties":{"highway":"cycleway","name":null,"category":"Dedicated cycleway"},"geometry":{"type":"MultiLineString","coordinates":[[[0.7147286,52.2518721],[0.7146883,52.2519085]]]}},
{"type":"Feature","properties":{"highway":"cycleway","name":null,"category":"Dedicated cycleway"},"geometry":{"type":"MultiLineString","coordinates":[[[0.7144521,52.2533697],[0.7145076,52.2533125],[0.7145685,52.253237]]]}},
{"type":"Feature","properties":{"highway":"cycleway","name":null,"category":"Dedicated cycleway"},"geometry":{"type":"MultiLineString","coordinates":[[[0.7145685,52.253237],[0.7147603,52.2530818],[0.7149145,52.2529037],[0.7151452,52.2526631],[0.7151868,52.2526097],[0.7152726,52.2525638],[0.7152867,52.2525444],[0.7153803,52.2524164]]]}},
{"type":"Feature","properties":{"highway":"cycleway","name":null,"category":"Dedicated cycleway"},"geometry":{"type":"MultiLineString","coordinates":[[[0.7121163,52.2511195],[0.7121888,52.2511652]]]}},
{"type":"Feature","properties":{"highway":"cycleway","name":null,"category":"Dedicated cycleway"},"geometry":{"type":"MultiLineString","coordinates":[[[0.7072961,52.2455947],[0.7072006,52.2455986],[0.7071404,52.2455951],[0.7071646,52.2453836],[0.7070747,52.2453779],[0.7070067,52.2453759]]]}},
{"type":"Feature","properties":{"highway":"cycleway","name":null,"category":"Dedicated cycleway"},"geometry":{"type":"MultiLineString","coordinates":[[[0.7192927,52.242408],[0.7192175,52.2427084]]]}},
{"type":"Feature","properties":{"highway":"cycleway","name":null,"category":"Dedicated cycleway"},"geometry":{"type":"MultiLineString","coordinates":[[[0.7121681,52.2408977],[0.7121056,52.2408936]]]}},
{"type":"Feature","properties":{"highway":"cycleway","name":null,"category":"Dedicated cycleway"},"geometry":{"type":"MultiLineString","coordinates":[[[0.7121681,52.2408977],[0.7122673,52.2409084]]]}},
{"type":"Feature","properties":{"highway":"cycleway","name":null,"category":"Dedicated cycleway"},"geometry":{"type":"MultiLineString","coordinates":[[[0.712099,52.2409726],[0.712154,52.2409769],[0.7122646,52.2409843]]]}},
{"type":"Feature","properties":{"highway":"cycleway","name":null,"category":"Dedicated cycleway"},"geometry":{"type":"MultiLineString","coordinates":[[[0.7121612,52.2409391],[0.7121681,52.2408977]]]}},
{"type":"Feature","properties":{"highway":"cycleway","name":null,"category":"Dedicated cycleway"},"geometry":{"type":"MultiLineString","coordinates":[[[0.712154,52.2409769],[0.7121612,52.2409391]]]}},
{"type":"Feature","properties":{"highway":"cycleway","name":null,"category":"Dedicated cycleway"},"geometry":{"type":"MultiLineString","coordinates":[[[0.705209,52.2457467],[0.7053085,52.2457606],[0.7053647,52.2457666],[0.7054104,52.2457642],[0.7054914,52.2457412],[0.7055455,52.2457259],[0.7056924,52.245677]]]}},
{"type":"Feature","properties":{"highway":"cycleway","name":null,"category":"Dedicated cycleway"},"geometry":{"type":"MultiLineString","coordinates":[[[0.7124912,52.2389504],[0.7127084,52.2387153],[0.7129201,52.2385354],[0.7130707,52.2384148],[0.7132902,52.2382513],[0.7136131,52.2380404],[0.7138002,52.2379309],[0.7140153,52.2378256],[0.7143305,52.2376754],[0.7146526,52.2375449],[0.7148769,52.2374654],[0.7154198,52.2372572],[0.7155554,52.2372426]]]}},
{"type":"Feature","properties":{"highway":"cycleway","name":null,"category":"Dedicated cycleway"},"geometry":{"type":"MultiLineString","coordinates":[[[0.7117289,52.2406929],[0.7116821,52.2406862]]]}},
{"type":"Feature","properties":{"highway":"cycleway","name":null,"category":"Dedicated cycleway"},"geometry":{"type":"MultiLineString","coordinates":[[[0.7116184,52.2413186],[0.7115566,52.2412997]]]}},
{"type":"Feature","properties":{"highway":"cycleway","name":null,"category":"Dedicated cycleway"},"geometry":{"type":"MultiLineString","coordinates":[[[0.7113842,52.2411987],[0.71144,52.241214]]]}},
{"type":"Feature","properties":{"highway":"cycleway","name":null,"category":"Dedicated cycleway"},"geometry":{"type":"MultiLineString","coordinates":[[[0.7116497,52.2414472],[0.7116947,52.2413884],[0.7117042,52.2413612]]]}},
{"type":"Feature","properties":{"highway":"cycleway","name":null,"category":"Dedicated cycleway"},"geometry":{"type":"MultiLineString","coordinates":[[[0.7115397,52.2417323],[0.7115838,52.2417033]]]}},
{"type":"Feature","properties":{"highway":"path","name":null,"category":"Shared path"},"geometry":{"type":"MultiLineString","coordinates":[[[0.717962,52.2522445],[0.7178976,52.2522085]]]}},
{"type":"Feature","properties":{"highway":"path","name":null,"category":"Shared path"},"geometry":{"type":"MultiLineString","coordinates":[[[0.7178976,52.2522085],[0.7178381,52.252174]]]}},
{"type":"Feature","properties":{"highway":"cycle_lane_on_street","name":"Shaker's Lane","category":"Cycle lane on street"},"geometry":{"type":"MultiLineString","coordinates":[[[0.7275293,52.2485326],[0.7275213,52.2484702],[0.727518,52.2484222],[0.7275101,52.2480144],[0.7275,52.247859],[0.7274411,52.2475621],[0.7273661,52.24734],[0.7272394,52.2470215],[0.7272059,52.2469377],[0.7272045,52.2469156],[0.7272155,52.2468846]]]}},
{"type":"Feature","properties":{"highway":"cycle_lane_on_street","name":"Raingate Street","category":"Cycle lane on street"},"geometry":{"type":"MultiLineString","coordinates":[[[0.7197375,52.2422586],[0.7199646,52.2420041]]]}},
{"type":"Feature","properties":{"highway":"cycle_lane_on_street","name":"Maynewater Lane","category":"Cycle lane on street"},"geometry":{"type":"MultiLineString","coordinates":[[[0.7205844,52.2392273],[0.7202684,52.2391832],[0.7200725,52.2391662],[0.71976,52.2391661],[0.7196246,52.2391792]]]}}
]
}
