{
"type": "FeatureCollection",
"name": "BROXB_27_cycling",
"crs": { "type": "name", "properties": { "name": "urn:ogc:def:crs:OGC:1.3:CRS84" } },
"features": [
{"type":"Feature","properties":{"highway":"cycleway","name":null,"category":"Dedicated cycleway"},"geometry":{"type":"MultiLineString","coordinates":[[[-0.0048271,51.7634608],[-0.0048316,51.7634298],[-0.0048341,51.763231],[-0.0048344,51.7632208]]]}},
{"type":"Feature","properties":{"highway":"cycleway","name":null,"category":"Dedicated cycleway"},"geometry":{"type":"MultiLineString","coordinates":[[[0.0053696,51.7800545],[0.0051515,51.7798029],[0.0047265,51.7792872],[0.0043481,51.7788456],[0.0039342,51.7783577],[0.0034437,51.7778174],[0.0032441,51.777557],[0.0030731,51.7772901],[0.002962,51.7771028],[0.002882,51.7769418],[0.0027946,51.7768065],[0.0027009,51.7766817],[0.0025799,51.7765744],[0.0024195,51.7764671],[0.0022131,51.7763592],[0.0021152,51.7762984],[0.0019778,51.7761786],[0.0019131,51.7760807],[0.0018587,51.7759309],[0.0018536,51.7757951],[0.0018829,51.7757108],[0.0019274,51.7755934],[0.002029,51.7754546],[0.0021936,51.7752819],[0.0023244,51.7751391],[0.0023925,51.7750507],[0.002445,51.7749593],[0.0024864,51.7748905],[0.0025185,51.7748069],[0.0025569,51.7746567],[0.0025611,51.7745008],[0.002573,51.7743346],[0.0025896,51.774181],[0.0026263,51.7740678],[0.0026977,51.7739414],[0.0028303,51.7738128],[0.0030464,51.773655],[0.0032617,51.773498],[0.0035424,51.7732765],[0.0037202,51.7731298],[0.003891,51.7729646],[0.0040493,51.7727961],[0.004155,51.7726417],[0.0042836,51.7724516],[0.0043606,51.7722975],[0.0044282,51.7721391],[0.0044981,51.7719655],[0.0045972,51.7716918],[0.0047046,51.7714342],[0.0048423,51.7711693],[0.0050385,51.7709023],[0.0052305,51.7706678],[0.0057622,51.7701426],[0.0058216,51.7700779]]]}},
{"type":"Feature","properties":{"highway":"track","name":null,"category":"Track"},"geometry":{"type":"MultiLineString","coordinates":[[[0.0063464,51.7723627],[0.0065044,51.7720834],[0.0065506,51.772018],[0.0066267,51.7719777],[0.0067385,51.7719393],[0.0069393,51.7719258],[0.0071619,51.7719225],[0.0074278,51.7718922],[0.0075744,51.771862],[0.0077535,51.7717747],[0.0082885,51.7715357],[0.0083658,51.7714977],[0.0084026,51.7714797]]]}},
{"type":"Feature","properties":{"highway":"track","name":null,"category":"Track"},"geometry":{"type":"MultiLineString","coordinates":[[[0.0078279,51.7731354],[0.0077798,51.7731631],[0.0077342,51.773199],[0.0076238,51.7733046],[0.0070334,51.7739664],[0.006138,51.7749538],[0.0060957,51.7750165],[0.0060805,51.7750654],[0.0060987,51.7751041],[0.006156,51.7751513],[0.0063217,51.7752396],[0.0064746,51.7753085],[0.006767,51.7753952],[0.0076243,51.7756741],[0.0077762,51.7757258],[0.0079,51.775784],[0.0080225,51.7758411],[0.008094,51.7758743],[0.0081223,51.7759094],[0.0081199,51.775937],[0.0078917,51.7761558],[0.007867,51.7761774]]]}},
{"type":"Feature","properties":{"highway":"cycleway","name":null,"category":"Dedicated cycleway"},"geometry":{"type":"MultiLineString","coordinates":[[[-0.0041966,51.7630496],[-0.004249,51.7631108],[-0.0042966,51.763149],[-0.0043617,51.7631915],[-0.0044513,51.7632446],[-0.0045425,51.7632924],[-0.0046182,51.7633354],[-0.0046942,51.7633727],[-0.0047353,51.7633928],[-0.0047835,51.7634119],[-0.0048316,51.7634298]]]}},
{"type":"Feature","properties":{"highway":"track","name":null,"category":"Track"},"geometry":{"type":"MultiLineString","coordinates":[[[-0.0063818,51.7707391],[-0.0063141,51.7707275],[-0.0062472,51.770724],[-0.0059798,51.7707251],[-0.005911,51.7707275],[-0.0058748,51.7707334],[-0.0058499,51.7707464],[-0.0058327,51.7707677],[-0.0056608,51.7709911],[-0.0056379,51.7710065],[-0.0056035,51.7710171],[-0.0055596,51.7710218],[-0.0037833,51.7711034],[-0.0021234,51.7711837],[-0.001581,51.7712062],[-0.001539,51.7712062],[-0.0014988,51.7712038],[-0.0014587,51.7711944],[-0.0014207,51.7711798],[-0.0013774,51.7711534],[-0.0013308,51.7711176],[-0.0012811,51.7710715],[-0.0012563,51.7710407],[-0.0012372,51.7710218],[-0.0012142,51.7710041],[-0.0011837,51.7709864],[-0.0011474,51.7709698],[-0.001104,51.7709596],[-0.0010538,51.7709533],[-0.0006658,51.7709569]]]}},
{"type":"Feature","properties":{"highway":"track","name":"Moorhen Trail","category":"Track"},"geometry":{"type":"MultiLineString","coordinates":[[[0.0093028,51.7734352],[0.0092091,51.7734505],[0.0091471,51.7734461],[0.0090852,51.773438],[0.0090232,51.7734196],[0.0089241,51.7733898],[0.0088391,51.7733633],[0.0083645,51.773207],[0.008231,51.7731671],[0.0081329,51.7731477],[0.0080181,51.7731358],[0.007961,51.7731339],[0.0078919,51.7731326],[0.0078279,51.7731354]]]}},
{"type":"Feature","properties":{"highway":"track","name":null,"category":"Track"},"geometry":{"type":"MultiLineString","coordinates":[[[0.0102164,51.7725588],[0.0101773,51.772583],[0.0100491,51.7726978],[0.0100115,51.7727293],[0.0096237,51.7731338],[0.0094792,51.7733245],[0.0094311,51.7733691],[0.0093918,51.7734038],[0.0093028,51.7734352]]]}},
{"type":"Feature","properties":{"highway":"cycleway","name":null,"category":"Dedicated cycleway"},"geometry":{"type":"MultiLineString","coordinates":[[[0.0128544,51.7634322],[0.0128767,51.7636073],[0.0129207,51.7639692],[0.0129872,51.7646446],[0.0129633,51.7648189],[0.0129073,51.765005],[0.0128165,51.7652175],[0.0126778,51.7654404],[0.0125089,51.7656285],[0.0122445,51.7658379],[0.0120391,51.765982],[0.0118923,51.7660713],[0.0116534,51.7662027],[0.0114429,51.7662521],[0.0112511,51.7662986],[0.0110124,51.7664364],[0.0108702,51.7666082],[0.0107637,51.7667489],[0.0106568,51.7669077],[0.0105268,51.7670769],[0.0103464,51.7672069],[0.0100929,51.7673129],[0.0098221,51.7674019],[0.009558,51.7674931],[0.0093324,51.7675491],[0.0091246,51.7676312],[0.0089543,51.7677383],[0.0088416,51.7678412],[0.008733,51.7679715],[0.008708,51.7681269],[0.0086474,51.7682937],[0.0086185,51.768437],[0.0085462,51.7685106],[0.0084461,51.7685907],[0.0082506,51.7686492],[0.0076802,51.7688106],[0.0073543,51.768916],[0.0071652,51.7690089],[0.0069386,51.7691566],[0.0067152,51.7693382],[0.0066221,51.7694139],[0.006445,51.7695699],[0.0062989,51.7697168],[0.0061107,51.7699064]]]}},
{"type":"Feature","properties":{"highway":"path","name":null,"category":"Shared path"},"geometry":{"type":"MultiLineString","coordinates":[[[-0.0074544,51.7744339],[-0.0074279,51.7740926],[-0.0074305,51.7740744],[-0.00746,51.7740578],[-0.0075868,51.7740514]]]}},
{"type":"Feature","properties":{"highway":"cycleway","name":null,"category":"Dedicated cycleway"},"geometry":{"type":"MultiLineString","coordinates":[[[0.0061845,51.7695824],[0.0063485,51.7695475],[0.006547,51.7694405],[0.0066221,51.7694139]]]}},
{"type":"Feature","properties":{"highway":"cycleway","name":null,"category":"Dedicated cycleway"},"geometry":{"type":"MultiLineString","coordinates":[[[0.0058216,51.7700779],[0.0061107,51.7699064]]]}},
{"type":"Feature","properties":{"highway":"cycleway","name":null,"category":"Dedicated cycleway"},"geometry":{"type":"MultiLineString","coordinates":[[[-0.0046942,51.7633727],[-0.0047052,51.7633955],[-0.004709,51.7634132],[-0.0047152,51.7634339],[-0.0047189,51.7634576],[-0.004722,51.7635016]]]}},
{"type":"Feature","properties":{"highway":"path","name":null,"category":"Shared path"},"geometry":{"type":"MultiLineString","coordinates":[[[0.0117165,51.773653],[0.0118556,51.7737655]]]}},
{"type":"Feature","properties":{"highway":"cycleway","name":null,"category":"Dedicated cycleway"},"geometry":{"type":"MultiLineString","coordinates":[[[-0.0033568,51.7626661],[-0.0033874,51.7626357]]]}},
{"type":"Feature","properties":{"highway":"cycleway","name":null,"category":"Dedicated cycleway"},"geometry":{"type":"MultiLineString","coordinates":[[[-0.0021397,51.7623893],[-0.0021257,51.7624332]]]}},
{"type":"Feature","properties":{"highway":"cycleway","name":null,"category":"Dedicated cycleway"},"geometry":{"type":"MultiLineString","coordinates":[[[-0.0027439,51.7624375],[-0.0027332,51.7624877],[-0.0027285,51.762525]]]}},
{"type":"Feature","properties":{"highway":"cycleway","name":null,"category":"Dedicated cycleway"},"geometry":{"type":"MultiLineString","coordinates":[[[-0.0034168,51.7624322],[-0.003165,51.7624495],[-0.002927,51.7624512],[-0.0027439,51.7624375],[-0.0026105,51.7624333],[-0.0023805,51.7624176],[-0.0021397,51.7623893]]]}},
{"type":"Feature","properties":{"highway":"cycleway","name":null,"category":"Dedicated cycleway"},"geometry":{"type":"MultiLineString","coordinates":[[[-0.0023764,51.7625006],[-0.0023855,51.7624613]]]}},
{"type":"Feature","properties":{"highway":"cycleway","name":null,"category":"Dedicated cycleway"},"geometry":{"type":"MultiLineString","coordinates":[[[-0.0023764,51.7625006],[-0.0027285,51.762525],[-0.0028747,51.7625429],[-0.0030611,51.7625769],[-0.0032058,51.7626206],[-0.0033568,51.7626661]]]}},
{"type":"Feature","properties":{"highway":"cycleway","name":null,"category":"Dedicated cycleway"},"geometry":{"type":"MultiLineString","coordinates":[[[-0.0057796,51.7630381],[-0.005695,51.7630475],[-0.0055931,51.7630737],[-0.0053912,51.7631525],[-0.0052471,51.7631924],[-0.0050788,51.7632194],[-0.0049192,51.7632289],[-0.0048341,51.763231]]]}},
{"type":"Feature","properties":{"highway":"cycleway","name":null,"category":"Dedicated cycleway"},"geometry":{"type":"MultiLineString","coordinates":[[[-0.0048357,51.7631548],[-0.004836,51.7631355],[-0.0049628,51.7631339],[-0.0051103,51.7631223],[-0.0052518,51.7630932],[-0.0054415,51.763038],[-0.0055616,51.7629766],[-0.0056353,51.762928],[-0.0056422,51.7629186],[-0.0056601,51.7628683],[-0.0056507,51.7628405],[-0.005583,51.7627645],[-0.0054979,51.7627068],[-0.0054114,51.7626736],[-0.0053035,51.7626438]]]}},
{"type":"Feature","properties":{"highway":"cycleway","name":null,"category":"Dedicated cycleway"},"geometry":{"type":"MultiLineString","coordinates":[[[-0.0048344,51.7632208],[-0.0048351,51.7631856],[-0.0048357,51.7631548]]]}},
{"type":"Feature","properties":{"highway":"track","name":null,"category":"Track"},"geometry":{"type":"MultiLineString","coordinates":[[[0.0108446,51.7729852],[0.0109556,51.7729021],[0.0110504,51.7727914],[0.0111051,51.7727159],[0.0112097,51.7726014],[0.0113599,51.7724894],[0.0114859,51.772423],[0.0116496,51.7723583],[0.0118722,51.7722819],[0.0121458,51.772184],[0.0123952,51.7720819],[0.0128324,51.7718811],[0.0149324,51.770929],[0.015032,51.7708736],[0.0151194,51.7708095],[0.0153552,51.7705994],[0.015715,51.7702673],[0.0162231,51.7697692],[0.0164028,51.7696113],[0.0165319,51.7695258],[0.0166234,51.7694679],[0.0166823,51.769417],[0.0166894,51.7693597],[0.0166732,51.7693302],[0.0166071,51.7692868],[0.0165004,51.7692497],[0.0163622,51.7691805],[0.015933,51.7689282]]]}},
{"type":"Feature","properties":{"highway":"track","name":null,"category":"Track"},"geometry":{"type":"MultiLineString","coordinates":[[[0.0151376,51.7684675],[0.0103466,51.771898],[0.0102326,51.7719781],[0.0101802,51.7720372],[0.0101587,51.7720906],[0.0101679,51.772144],[0.0102172,51.7721974],[0.0103066,51.7722526],[0.0109567,51.7726339],[0.0110017,51.7726764],[0.0110362,51.7727279],[0.0110504,51.7727914]]]}},
{"type":"Feature","properties":{"highway":"path","name":null,"category":"Shared path"},"geometry":{"type":"MultiLineString","coordinates":[[[0.0066103,51.7692869],[0.0066418,51.7692989],[0.0067152,51.7693382]]]}}
]
}
