{
"type": "FeatureCollection",
"name": "HERTS_106_walking",
"crs": { "type": "name", "properties": { "name": "urn:ogc:def:crs:OGC:1.3:CRS84" } },
"features": [
{"type":"Feature","properties":{"highway":"track","name":null,"category":"Track"},"geometry":{"type":"MultiLineString","coordinates":[[[-0.2182872,51.7066723],[-0.2180348,51.7065975],[-0.2179705,51.7065786],[-0.2176906,51.706504],[-0.2175137,51.7064489],[-0.2172858,51.7063434],[-0.2170672,51.7062046],[-0.2169558,51.7061572],[-0.2167969,51.7061115],[-0.2164997,51.7060569],[-0.2162893,51.7060084],[-0.2159386,51.7059025],[-0.2156838,51.7058144],[-0.2154116,51.7056905],[-0.2152593,51.7056432],[-0.2146552,51.7054873],[-0.2144647,51.7054121],[-0.2141945,51.7052696],[-0.2141187,51.7052505],[-0.2140322,51.7052364],[-0.2139457,51.7052326],[-0.2138411,51.7052438],[-0.2137585,51.7052615]]]}},
{"type":"Feature","properties":{"highway":"track","name":null,"category":"Track"},"geometry":{"type":"MultiLineString","coordinates":[[[-0.219054,51.7071037],[-0.2191604,51.7070918],[-0.2192267,51.7070706],[-0.2192965,51.7070348],[-0.2193233,51.7069747],[-0.2193367,51.706877],[-0.2193756,51.7066812],[-0.2195909,51.7066227]]]}},
{"type":"Feature","properties":{"highway":"footway","name":null,"category":"Footpath (pedestrian only)"},"geometry":{"type":"MultiLineString","coordinates":[[[-0.2119951,51.7057022],[-0.2121572,51.7060203],[-0.2127707,51.7072174],[-0.2145388,51.7086002],[-0.2146735,51.7088313]]]}},
{"type":"Feature","properties":{"highway":"track","name":null,"category":"Track"},"geometry":{"type":"MultiLineString","coordinates":[[[-0.2117371,51.7054912],[-0.2117678,51.7055509]]]}},
{"type":"Feature","properties":{"highway":"track","name":null,"category":"Track"},"geometry":{"type":"MultiLineString","coordinates":[[[-0.2104979,51.7049742],[-0.2106015,51.7050053],[-0.2107249,51.7050552],[-0.2108644,51.7051483],[-0.2109663,51.7052314],[-0.2111326,51.7052846],[-0.2112481,51.7053953],[-0.2115379,51.7053679],[-0.2117147,51.7054377]]]}},
{"type":"Feature","properties":{"highway":"track","name":null,"category":"Track"},"geometry":{"type":"MultiLineString","coordinates":[[[-0.2195909,51.7066227],[-0.2199911,51.7066564]]]}},
{"type":"Feature","properties":{"highway":"track","name":null,"category":"Track"},"geometry":{"type":"MultiLineString","coordinates":[[[-0.2292217,51.7085234],[-0.2280484,51.7078451],[-0.2276822,51.7076391],[-0.2241899,51.7055415],[-0.2237876,51.7051858],[-0.2220817,51.7039957]]]}},
{"type":"Feature","properties":{"highway":"bridleway","name":"Bridgefoot Lane","category":"Bridleway"},"geometry":{"type":"MultiLineString","coordinates":[[[-0.2153917,51.6928162],[-0.2146958,51.6927684],[-0.2139512,51.6927278],[-0.2134566,51.6927245],[-0.2131906,51.6927298],[-0.2129373,51.692741],[-0.2128389,51.6927393],[-0.2125814,51.6927201],[-0.2123789,51.6927131],[-0.2121872,51.6927205]]]}},
{"type":"Feature","properties":{"highway":"track","name":null,"category":"Track"},"geometry":{"type":"MultiLineString","coordinates":[[[-0.220428,51.7067658],[-0.2203444,51.7069452],[-0.2201942,51.7072311],[-0.2201995,51.7076599],[-0.2203229,51.7086472],[-0.2204356,51.7096876],[-0.2206287,51.7103391],[-0.2209023,51.7108842],[-0.22127,51.7114268]]]}},
{"type":"Feature","properties":{"highway":"footway","name":null,"category":"Footpath (pedestrian only)"},"geometry":{"type":"MultiLineString","coordinates":[[[-0.2208501,51.7002386],[-0.2215935,51.7003705],[-0.2217355,51.7004248],[-0.2219334,51.7005005],[-0.2220561,51.7005932],[-0.2221421,51.7009016]]]}},
{"type":"Feature","properties":{"highway":"footway","name":null,"category":"Footpath (pedestrian only)"},"geometry":{"type":"MultiLineString","coordinates":[[[-0.2161111,51.7030114],[-0.2146767,51.7035832],[-0.213562,51.7048705],[-0.2134582,51.7049241]]]}},
{"type":"Feature","properties":{"highway":"footway","name":null,"category":"Footpath (pedestrian only)"},"geometry":{"type":"MultiLineString","coordinates":[[[-0.2134582,51.7049241],[-0.2137352,51.7052152],[-0.2137585,51.7052615]]]}},
{"type":"Feature","properties":{"highway":"footway","name":null,"category":"Footpath (pedestrian only)"},"geometry":{"type":"MultiLineString","coordinates":[[[-0.2231839,51.6990526],[-0.223082,51.6990676]]]}},
{"type":"Feature","properties":{"highway":"bridleway","name":"Bridgefoot Lane","category":"Bridleway"},"geometry":{"type":"MultiLineString","coordinates":[[[-0.2183902,51.6928857],[-0.2182805,51.6928387],[-0.2177045,51.6929097],[-0.2173043,51.6929555],[-0.2168507,51.6930106],[-0.2165699,51.6930227],[-0.2162732,51.6929725],[-0.2156849,51.6928597],[-0.2153917,51.6928162]]]}},
{"type":"Feature","properties":{"highway":"track","name":null,"category":"Track"},"geometry":{"type":"MultiLineString","coordinates":[[[-0.2183902,51.6928857],[-0.2181,51.692931],[-0.2178171,51.6929681],[-0.217478,51.6930482],[-0.2173336,51.6931122],[-0.2172675,51.6932271],[-0.2172298,51.6932933],[-0.2171647,51.6933551],[-0.2169998,51.693472],[-0.2167892,51.6936314],[-0.2165912,51.6937473],[-0.2161933,51.6937988],[-0.2159917,51.6938172],[-0.215745,51.6938487],[-0.2155336,51.6938665],[-0.2153483,51.6938667],[-0.2150755,51.6938452]]]}},
{"type":"Feature","properties":{"highway":"footway","name":null,"category":"Footpath (pedestrian only)"},"geometry":{"type":"MultiLineString","coordinates":[[[-0.2107578,51.6970667],[-0.2109804,51.6966356]]]}},
{"type":"Feature","properties":{"highway":"footway","name":null,"category":"Footpath (pedestrian only)"},"geometry":{"type":"MultiLineString","coordinates":[[[-0.2156229,51.6992644],[-0.2156016,51.6994087],[-0.2155818,51.6995425],[-0.2155735,51.6995603],[-0.2155006,51.6997169],[-0.2153767,51.6999832],[-0.2153775,51.7000669],[-0.2153776,51.7000828],[-0.2153145,51.7002118],[-0.215241,51.7003622],[-0.2151955,51.7004552],[-0.2151722,51.7005069],[-0.2151054,51.7006553],[-0.2150631,51.7007492],[-0.2150035,51.7008328],[-0.2149699,51.70088],[-0.2148819,51.7009616],[-0.2148651,51.7009744],[-0.2146904,51.7011072],[-0.2146788,51.7011126],[-0.2144657,51.701211],[-0.2142751,51.7012804],[-0.2141717,51.7012877],[-0.2140994,51.7012875],[-0.2138579,51.701302],[-0.2136272,51.7013159],[-0.2135669,51.7013175],[-0.2134814,51.7013208],[-0.2134931,51.7012719],[-0.2134981,51.7012065],[-0.2135242,51.7011221],[-0.2135554,51.7010075],[-0.2136095,51.7008709],[-0.2136593,51.7007452],[-0.2137092,51.7006193],[-0.2137549,51.700504],[-0.2138052,51.7003771],[-0.2138257,51.7003252],[-0.2138589,51.7002526],[-0.2139161,51.7001274],[-0.2139625,51.7000259],[-0.2139692,51.7000052],[-0.214024,51.6998893],[-0.2140277,51.6998757],[-0.2140284,51.6998537],[-0.2140027,51.6998171],[-0.2139659,51.69978],[-0.2138869,51.6997502],[-0.2138,51.6997264],[-0.2135717,51.6996879],[-0.2132544,51.69963]]]}},
{"type":"Feature","properties":{"highway":"track","name":null,"category":"Track"},"geometry":{"type":"MultiLineString","coordinates":[[[-0.2199911,51.7066564],[-0.2202884,51.7066767]]]}},
{"type":"Feature","properties":{"highway":"footway","name":null,"category":"Footpath (pedestrian only)"},"geometry":{"type":"MultiLineString","coordinates":[[[-0.2036203,51.7057061],[-0.2036777,51.7056996],[-0.203814,51.7056841],[-0.2046171,51.705633],[-0.2048671,51.7056332],[-0.2051997,51.7056619],[-0.2059065,51.705804],[-0.2063115,51.7058526],[-0.2067949,51.7059865],[-0.2074534,51.7060662],[-0.2076083,51.7060733],[-0.207778,51.7061011],[-0.208181,51.7061339],[-0.2085204,51.7061588],[-0.2089883,51.7062054],[-0.2093297,51.7062482],[-0.2095369,51.706254],[-0.2096777,51.7062361],[-0.2107902,51.7059021],[-0.2110677,51.7057962],[-0.2112827,51.7056964],[-0.2114665,51.7056244],[-0.2116881,51.705595]]]}},
{"type":"Feature","properties":{"highway":"track","name":null,"category":"Track"},"geometry":{"type":"MultiLineString","coordinates":[[[-0.2123934,51.7056494],[-0.2119951,51.7057022]]]}},
{"type":"Feature","properties":{"highway":"track","name":null,"category":"Track"},"geometry":{"type":"MultiLineString","coordinates":[[[-0.2118051,51.7056399],[-0.2118548,51.7056542],[-0.2119951,51.7057022]]]}},
{"type":"Feature","properties":{"highway":"bridleway","name":null,"category":"Bridleway"},"geometry":{"type":"MultiLineString","coordinates":[[[-0.2229975,51.7022735],[-0.2252226,51.701622],[-0.22556,51.7016037],[-0.226836,51.7010297],[-0.2276022,51.7006642],[-0.2292434,51.6999062],[-0.2300402,51.6996067],[-0.2305478,51.6994113],[-0.2307567,51.6993455],[-0.2308238,51.699306],[-0.2308623,51.6991686]]]}},
{"type":"Feature","properties":{"highway":"track","name":null,"category":"Track"},"geometry":{"type":"MultiLineString","coordinates":[[[-0.2202884,51.7066767],[-0.2203752,51.7066974],[-0.220434,51.7067218],[-0.2204523,51.706647],[-0.2204592,51.7062685],[-0.220469,51.7061644],[-0.220486,51.7060991],[-0.2205425,51.7059513],[-0.2206195,51.7057525],[-0.2207494,51.705488],[-0.2210975,51.7048844],[-0.2214275,51.7044212],[-0.2217599,51.7039681]]]}},
{"type":"Feature","properties":{"highway":"track","name":null,"category":"Track"},"geometry":{"type":"MultiLineString","coordinates":[[[-0.2188336,51.7068364],[-0.2187402,51.7068041],[-0.2187084,51.7067927],[-0.2186904,51.7067862],[-0.21867,51.7067789],[-0.2186606,51.7067755],[-0.2185812,51.7067537],[-0.2184924,51.7067276],[-0.2182872,51.7066723]]]}},
{"type":"Feature","properties":{"highway":"footway","name":null,"category":"Footpath (pedestrian only)"},"geometry":{"type":"MultiLineString","coordinates":[[[-0.2179442,51.7066317],[-0.2178363,51.7066031],[-0.2173092,51.7064414],[-0.2172328,51.7064182],[-0.217092,51.7063051],[-0.2170437,51.7062794],[-0.2169605,51.7062532],[-0.2168445,51.7062455],[-0.2167969,51.7062291],[-0.2167248,51.7061763],[-0.2165917,51.7061264],[-0.2163255,51.7060708],[-0.215655,51.705868],[-0.2153492,51.7057325],[-0.2144755,51.7054898],[-0.2142374,51.7053481],[-0.2141321,51.7053045],[-0.2140322,51.7052862],[-0.2138834,51.7052841],[-0.2137585,51.7052615]]]}},
{"type":"Feature","properties":{"highway":"path","name":null,"category":"Shared path"},"geometry":{"type":"MultiLineString","coordinates":[[[-0.2221421,51.7009016],[-0.2221802,51.7010736]]]}},
{"type":"Feature","properties":{"highway":"footway","name":null,"category":"Footpath (pedestrian only)"},"geometry":{"type":"MultiLineString","coordinates":[[[-0.2221421,51.7009016],[-0.2223609,51.7009885],[-0.2224474,51.7010125]]]}},
{"type":"Feature","properties":{"highway":"track","name":null,"category":"Track"},"geometry":{"type":"MultiLineString","coordinates":[[[-0.2201027,51.7038465],[-0.2200064,51.7038936],[-0.2199234,51.7039365],[-0.2198669,51.7039672]]]}},
{"type":"Feature","properties":{"highway":"footway","name":null,"category":"Footpath (pedestrian only)"},"geometry":{"type":"MultiLineString","coordinates":[[[-0.220989,51.7035068],[-0.2208996,51.7034871],[-0.2207728,51.7034934],[-0.2201027,51.7038465]]]}},
{"type":"Feature","properties":{"highway":"footway","name":null,"category":"Footpath (pedestrian only)"},"geometry":{"type":"MultiLineString","coordinates":[[[-0.2171764,51.7027635],[-0.2173716,51.7028403],[-0.2176177,51.702937]]]}},
{"type":"Feature","properties":{"highway":"footway","name":null,"category":"Footpath (pedestrian only)"},"geometry":{"type":"MultiLineString","coordinates":[[[-0.2166719,51.702729],[-0.2166085,51.7027487],[-0.2165617,51.7027633]]]}},
{"type":"Feature","properties":{"highway":"track","name":null,"category":"Track"},"geometry":{"type":"MultiLineString","coordinates":[[[-0.2183856,51.70148],[-0.218354,51.7015042],[-0.2182152,51.7016107],[-0.2178021,51.7017736],[-0.2173354,51.7020097],[-0.2169492,51.7023271],[-0.2168401,51.7024389],[-0.2167183,51.702604],[-0.2166702,51.7026926],[-0.2166719,51.702729]]]}},
{"type":"Feature","properties":{"highway":"track","name":null,"category":"Track"},"geometry":{"type":"MultiLineString","coordinates":[[[-0.2137585,51.7052615],[-0.213642,51.705287],[-0.213528,51.705334],[-0.2131505,51.705366],[-0.2129486,51.705361],[-0.2128273,51.7053423],[-0.2126019,51.7053585],[-0.2118246,51.7054253],[-0.2117147,51.7054377]]]}},
{"type":"Feature","properties":{"highway":"footway","name":null,"category":"Footpath (pedestrian only)"},"geometry":{"type":"MultiLineString","coordinates":[[[-0.2117147,51.7054377],[-0.2116581,51.7054585],[-0.2116386,51.7054943],[-0.2116544,51.7055264]]]}},
{"type":"Feature","properties":{"highway":"track","name":null,"category":"Track"},"geometry":{"type":"MultiLineString","coordinates":[[[-0.2186015,51.6957291],[-0.2186725,51.6957268],[-0.2188125,51.6957076],[-0.218907,51.6956618],[-0.2189636,51.6956184],[-0.218993,51.6955534],[-0.2190184,51.6954717],[-0.2190561,51.6954044],[-0.2191285,51.6952893],[-0.2191763,51.6951356],[-0.2191832,51.6949852],[-0.2191624,51.6948869],[-0.2190893,51.6947231],[-0.2190284,51.6946056],[-0.2189183,51.6944261],[-0.2188089,51.6941697],[-0.2187457,51.6940446],[-0.2186787,51.6939697],[-0.2185886,51.6938766],[-0.2185796,51.6938254],[-0.2186107,51.6937657],[-0.2186289,51.6936929],[-0.21856,51.6935604],[-0.2184561,51.6933631],[-0.2184162,51.6933308],[-0.2183326,51.693263],[-0.2183032,51.6931741],[-0.2183277,51.6930588],[-0.2183645,51.6929567],[-0.2183902,51.6928857]]]}},
{"type":"Feature","properties":{"highway":"footway","name":null,"category":"Footpath (pedestrian only)"},"geometry":{"type":"MultiLineString","coordinates":[[[-0.2099255,51.6958276],[-0.209927,51.6958538],[-0.2099285,51.6958781],[-0.2099099,51.6960384],[-0.209934,51.6960888],[-0.2099977,51.6961303],[-0.2107983,51.6963195]]]}},
{"type":"Feature","properties":{"highway":"track","name":null,"category":"Track"},"geometry":{"type":"MultiLineString","coordinates":[[[-0.2186034,51.6928366],[-0.2187639,51.692801]]]}},
{"type":"Feature","properties":{"highway":"footway","name":null,"category":"Footpath (pedestrian only)"},"geometry":{"type":"MultiLineString","coordinates":[[[-0.2096586,51.6891128],[-0.2096791,51.6891687],[-0.2097412,51.6893382],[-0.2098085,51.68956],[-0.2100379,51.6898783],[-0.2102168,51.6901379],[-0.2105871,51.6905397],[-0.210846,51.6906324],[-0.2113276,51.6906176],[-0.2113622,51.6906242],[-0.2115069,51.690652],[-0.2124465,51.6909772],[-0.2167411,51.6928698],[-0.2168063,51.6929158],[-0.2169069,51.6929154],[-0.2176492,51.6928472],[-0.2178175,51.6928231],[-0.2179402,51.6927957],[-0.2181011,51.692745],[-0.218272,51.6927281]]]}},
{"type":"Feature","properties":{"highway":"track","name":null,"category":"Track"},"geometry":{"type":"MultiLineString","coordinates":[[[-0.2188597,51.6927787],[-0.2187682,51.6927519],[-0.2186642,51.6927392],[-0.2184495,51.6927019]]]}},
{"type":"Feature","properties":{"highway":"footway","name":null,"category":"Footpath (pedestrian only)"},"geometry":{"type":"MultiLineString","coordinates":[[[-0.2135717,51.6996879],[-0.2135771,51.6996705],[-0.2135938,51.6996168],[-0.213708,51.6993579],[-0.2137653,51.6993359]]]}},
{"type":"Feature","properties":{"highway":"footway","name":null,"category":"Footpath (pedestrian only)"},"geometry":{"type":"MultiLineString","coordinates":[[[-0.2135938,51.6996168],[-0.2140921,51.6996982],[-0.2141137,51.6996447]]]}},
{"type":"Feature","properties":{"highway":"footway","name":null,"category":"Footpath (pedestrian only)"},"geometry":{"type":"MultiLineString","coordinates":[[[-0.2137653,51.6993359],[-0.2135302,51.699295]]]}},
{"type":"Feature","properties":{"highway":"footway","name":null,"category":"Footpath (pedestrian only)"},"geometry":{"type":"MultiLineString","coordinates":[[[-0.2083675,51.7009855],[-0.2085035,51.7010215],[-0.2086839,51.7010573],[-0.2091587,51.7012075],[-0.2092577,51.7012294]]]}},
{"type":"Feature","properties":{"highway":"footway","name":null,"category":"Footpath (pedestrian only)"},"geometry":{"type":"MultiLineString","coordinates":[[[-0.2092577,51.7012294],[-0.2093197,51.7012433],[-0.2093512,51.7012507]]]}},
{"type":"Feature","properties":{"highway":"footway","name":null,"category":"Footpath (pedestrian only)"},"geometry":{"type":"MultiLineString","coordinates":[[[-0.2128671,51.7014255],[-0.2128678,51.7013989],[-0.2128671,51.7013741]]]}},
{"type":"Feature","properties":{"highway":"footway","name":null,"category":"Footpath (pedestrian only)"},"geometry":{"type":"MultiLineString","coordinates":[[[-0.2135669,51.7013175],[-0.2137418,51.7013737],[-0.2138692,51.7013637],[-0.2139452,51.7013578],[-0.214025,51.7013413],[-0.2141594,51.7013135]]]}},
{"type":"Feature","properties":{"highway":"footway","name":null,"category":"Footpath (pedestrian only)"},"geometry":{"type":"MultiLineString","coordinates":[[[-0.2155229,51.7011551],[-0.2154625,51.7011267],[-0.2153132,51.7011552],[-0.215082,51.7010098],[-0.2151095,51.7009524],[-0.2152579,51.7006418],[-0.2152828,51.7005898],[-0.2153284,51.7004982],[-0.2154026,51.7003494],[-0.2155625,51.7000285],[-0.2156191,51.7000171],[-0.2156642,51.6999663],[-0.2156986,51.6998703],[-0.2157124,51.6997657],[-0.2157064,51.6997296],[-0.2156978,51.6996784],[-0.2157182,51.6995705],[-0.2157442,51.6994329],[-0.2157553,51.6993743],[-0.2157557,51.699288]]]}},
{"type":"Feature","properties":{"highway":"track","name":null,"category":"Track"},"geometry":{"type":"MultiLineString","coordinates":[[[-0.2185816,51.701166],[-0.2185786,51.7011496],[-0.2185703,51.7011032],[-0.2185261,51.7009897]]]}},
{"type":"Feature","properties":{"highway":"footway","name":null,"category":"Footpath (pedestrian only)"},"geometry":{"type":"MultiLineString","coordinates":[[[-0.2134208,51.700842],[-0.2134279,51.7008232],[-0.2134513,51.7007614],[-0.2135988,51.7004174],[-0.2137298,51.7001165],[-0.2137737,51.7000069],[-0.2137811,51.6999808],[-0.2137765,51.6999467],[-0.2137618,51.6999161],[-0.213728,51.6998769],[-0.2136846,51.6998464],[-0.2136391,51.6998224],[-0.2135668,51.6998068],[-0.2132848,51.6997594],[-0.2131347,51.6997342],[-0.2130888,51.6997262],[-0.2128909,51.6996915],[-0.2127375,51.6996647],[-0.2126443,51.6996475],[-0.2124749,51.6996163],[-0.2123979,51.6996018],[-0.2121652,51.6995581],[-0.2121442,51.6995542],[-0.2119223,51.6995075],[-0.2118123,51.6994844],[-0.2116163,51.6994424],[-0.2114436,51.6994055],[-0.211417,51.6993995],[-0.2112179,51.699355],[-0.2111808,51.6993467],[-0.2110171,51.6993109],[-0.2109222,51.6992902],[-0.2108272,51.6992751],[-0.2107501,51.6992628],[-0.2106303,51.699247],[-0.2104385,51.6992219],[-0.2102382,51.6991833],[-0.2100548,51.6991471],[-0.2099522,51.6991269],[-0.2098702,51.6991109],[-0.2096886,51.6990754],[-0.2095675,51.6990517],[-0.209284,51.6989944],[-0.2090606,51.6989489],[-0.2089004,51.698918],[-0.2086458,51.6988667],[-0.2085244,51.6988408]]]}},
{"type":"Feature","properties":{"highway":"footway","name":null,"category":"Footpath (pedestrian only)"},"geometry":{"type":"MultiLineString","coordinates":[[[-0.2134354,51.7013216],[-0.2133926,51.7013223],[-0.2133291,51.7013241]]]}},
{"type":"Feature","properties":{"highway":"footway","name":null,"category":"Footpath (pedestrian only)"},"geometry":{"type":"MultiLineString","coordinates":[[[-0.213383,51.7009418],[-0.2132835,51.7009153],[-0.2131473,51.7008836],[-0.2129044,51.7008309],[-0.2126124,51.7007701],[-0.2122562,51.7006878],[-0.2117486,51.7005804],[-0.2114164,51.7004994],[-0.2111952,51.7004562],[-0.2108684,51.7004022],[-0.2104807,51.7003381],[-0.210326,51.7003198],[-0.2101441,51.700305],[-0.2099098,51.7002908],[-0.20946,51.7002584],[-0.2091713,51.7002381],[-0.2088445,51.7002145],[-0.2086517,51.700199],[-0.2084752,51.7001855],[-0.2083273,51.7001804]]]}},
{"type":"Feature","properties":{"highway":"footway","name":null,"category":"Footpath (pedestrian only)"},"geometry":{"type":"MultiLineString","coordinates":[[[-0.2134279,51.7008232],[-0.2128607,51.7006964],[-0.2121352,51.7005316],[-0.2114097,51.7003689],[-0.2108868,51.7002811],[-0.2105949,51.7002332],[-0.2104167,51.7002087],[-0.2102553,51.7001959],[-0.20951,51.70014],[-0.2087255,51.7000825],[-0.2083285,51.7000517]]]}},
{"type":"Feature","properties":{"highway":"footway","name":null,"category":"Footpath (pedestrian only)"},"geometry":{"type":"MultiLineString","coordinates":[[[-0.2113842,51.6992561],[-0.211416,51.6991596],[-0.2114645,51.6990394],[-0.2114965,51.69896],[-0.2115206,51.6989012],[-0.2116015,51.6987037],[-0.2116628,51.6985543],[-0.2116807,51.6985106],[-0.2117196,51.6984088],[-0.2117731,51.6982683],[-0.2118286,51.6981229],[-0.2118503,51.698066],[-0.2118853,51.6979779],[-0.2119433,51.6978318],[-0.2120015,51.6976851],[-0.2120314,51.6976099],[-0.2120486,51.6975556],[-0.2120482,51.6975404],[-0.2120472,51.6975066],[-0.2120371,51.6974611],[-0.212007,51.6974192],[-0.2119765,51.697388],[-0.2119696,51.6973809],[-0.2119107,51.6973435],[-0.2118933,51.6973346],[-0.211846,51.6973106],[-0.2117899,51.697291],[-0.2117065,51.6972678],[-0.2115124,51.6972252],[-0.2114794,51.6972179],[-0.2113287,51.6971863],[-0.2111537,51.6971497],[-0.2109752,51.6971123],[-0.2107578,51.6970667],[-0.2105185,51.6970146],[-0.210333,51.6969741],[-0.2101396,51.696932],[-0.2100493,51.6969123],[-0.2099526,51.6968924],[-0.2097747,51.6968557],[-0.209603,51.6968203],[-0.2094077,51.6967801],[-0.209401,51.6967787],[-0.2091393,51.6967221],[-0.2090171,51.6966957],[-0.2089353,51.696678],[-0.2085674,51.6966041],[-0.2085008,51.696606]]]}},
{"type":"Feature","properties":{"highway":"footway","name":null,"category":"Footpath (pedestrian only)"},"geometry":{"type":"MultiLineString","coordinates":[[[-0.2115907,51.6982383],[-0.2116024,51.6982048],[-0.2116347,51.6981124],[-0.2116577,51.6980464],[-0.2116691,51.6980172],[-0.2117251,51.6978736],[-0.2118174,51.6976368],[-0.211846,51.6975671],[-0.2118455,51.6975304],[-0.2118136,51.6974796],[-0.2117454,51.6974287],[-0.2116464,51.6973851],[-0.2114766,51.6973444],[-0.2114306,51.6973347],[-0.2112471,51.6972961],[-0.211053,51.6972549],[-0.2108704,51.6972163],[-0.2106705,51.6971739],[-0.2104767,51.6971328],[-0.2102921,51.6970942],[-0.2101046,51.6970549],[-0.2099176,51.6970157],[-0.2097106,51.6969723],[-0.2094525,51.6969167],[-0.2089396,51.6968099],[-0.2085889,51.6967333],[-0.2085194,51.6967313]]]}},
{"type":"Feature","properties":{"highway":"footway","name":null,"category":"Footpath (pedestrian only)"},"geometry":{"type":"MultiLineString","coordinates":[[[-0.2116024,51.6982048],[-0.2114105,51.6981899],[-0.2111158,51.6981578],[-0.2109663,51.6981409],[-0.2108991,51.6981321],[-0.2108369,51.6981239],[-0.2106931,51.6980917],[-0.2105068,51.6980465],[-0.2103137,51.6980081],[-0.2101359,51.6979743],[-0.2099505,51.6979377],[-0.2097503,51.6978959],[-0.2095721,51.6978602],[-0.2093852,51.6978246],[-0.2091653,51.6977792],[-0.2085641,51.6976619]]]}},
{"type":"Feature","properties":{"highway":"footway","name":null,"category":"Footpath (pedestrian only)"},"geometry":{"type":"MultiLineString","coordinates":[[[-0.2085627,51.6977861],[-0.2095274,51.6979762],[-0.2095569,51.697982],[-0.2097413,51.6980183],[-0.2099261,51.6980547],[-0.2101232,51.6980935],[-0.2103093,51.6981301],[-0.2103368,51.6981355],[-0.2104964,51.6981713],[-0.2106836,51.6982133],[-0.2106914,51.6982152],[-0.2107843,51.6982379],[-0.2108713,51.6982497],[-0.2110764,51.6982777],[-0.2110848,51.6982788],[-0.2112696,51.6982964],[-0.2115608,51.6983241]]]}},
{"type":"Feature","properties":{"highway":"footway","name":null,"category":"Footpath (pedestrian only)"},"geometry":{"type":"MultiLineString","coordinates":[[[-0.2098982,51.7013631],[-0.2097752,51.7013433]]]}},
{"type":"Feature","properties":{"highway":"footway","name":null,"category":"Footpath (pedestrian only)"},"geometry":{"type":"MultiLineString","coordinates":[[[-0.209672,51.7013201],[-0.2095308,51.7012904],[-0.2093512,51.7012507]]]}},
{"type":"Feature","properties":{"highway":"footway","name":null,"category":"Footpath (pedestrian only)"},"geometry":{"type":"MultiLineString","coordinates":[[[-0.2097752,51.7013433],[-0.2097329,51.7013336],[-0.209672,51.7013201]]]}},
{"type":"Feature","properties":{"highway":"footway","name":null,"category":"Footpath (pedestrian only)"},"geometry":{"type":"MultiLineString","coordinates":[[[-0.2093681,51.7011722],[-0.2093955,51.7011771],[-0.2094151,51.7011806]]]}},
{"type":"Feature","properties":{"highway":"footway","name":null,"category":"Footpath (pedestrian only)"},"geometry":{"type":"MultiLineString","coordinates":[[[-0.2180502,51.7066584],[-0.2179442,51.7066317]]]}},
{"type":"Feature","properties":{"highway":"footway","name":null,"category":"Footpath (pedestrian only)"},"geometry":{"type":"MultiLineString","coordinates":[[[-0.2182872,51.7066723],[-0.2180502,51.7066584]]]}},
{"type":"Feature","properties":{"highway":"track","name":null,"category":"Track"},"geometry":{"type":"MultiLineString","coordinates":[[[-0.2185769,51.7061566],[-0.2184317,51.7060857]]]}},
{"type":"Feature","properties":{"highway":"track","name":null,"category":"Track"},"geometry":{"type":"MultiLineString","coordinates":[[[-0.2184924,51.7067276],[-0.2184838,51.7066786],[-0.2185732,51.706522],[-0.2187261,51.7064389],[-0.2187757,51.7063716],[-0.218769,51.7062968],[-0.2186631,51.7061987],[-0.2185769,51.7061566]]]}},
{"type":"Feature","properties":{"highway":"track","name":null,"category":"Track"},"geometry":{"type":"MultiLineString","coordinates":[[[-0.2184317,51.7060857],[-0.21837,51.7060641],[-0.2183037,51.7060537],[-0.2182399,51.7060683],[-0.2182017,51.7061206],[-0.218189,51.7062029],[-0.2181749,51.7062686],[-0.2181333,51.7063342],[-0.2180649,51.706392],[-0.2179697,51.7064526],[-0.2178792,51.7064851],[-0.2177974,51.7064988],[-0.2176906,51.706504]]]}},
{"type":"Feature","properties":{"highway":"track","name":null,"category":"Track"},"geometry":{"type":"MultiLineString","coordinates":[[[-0.2232932,51.6989516],[-0.2232096,51.6989475],[-0.2229935,51.6989354],[-0.2229962,51.6988352]]]}},
{"type":"Feature","properties":{"highway":"path","name":null,"category":"Shared path"},"geometry":{"type":"MultiLineString","coordinates":[[[-0.2229935,51.6989354],[-0.2227367,51.6990609],[-0.2216457,51.6994424],[-0.2214666,51.6994603],[-0.2210623,51.6994532]]]}},
{"type":"Feature","properties":{"highway":"track","name":null,"category":"Track"},"geometry":{"type":"MultiLineString","coordinates":[[[-0.2229962,51.6988352],[-0.2230351,51.6986711],[-0.2231517,51.6979313],[-0.2232617,51.6968208],[-0.223312,51.6961637]]]}},
{"type":"Feature","properties":{"highway":"track","name":null,"category":"Track"},"geometry":{"type":"MultiLineString","coordinates":[[[-0.2183902,51.6928857],[-0.2186034,51.6928366]]]}},
{"type":"Feature","properties":{"highway":"track","name":null,"category":"Track"},"geometry":{"type":"MultiLineString","coordinates":[[[-0.2187639,51.692801],[-0.2188597,51.6927787],[-0.218911,51.6927682]]]}},
{"type":"Feature","properties":{"highway":"footway","name":null,"category":"Footpath (pedestrian only)"},"geometry":{"type":"MultiLineString","coordinates":[[[-0.2168063,51.6929158],[-0.2166692,51.6929241],[-0.2165484,51.6929099],[-0.2163749,51.6928648],[-0.2161694,51.6927873],[-0.215881,51.6927378],[-0.2154982,51.6926882],[-0.2151508,51.6926648],[-0.2149644,51.6926462],[-0.2145739,51.692606],[-0.2142073,51.6925908],[-0.2139377,51.6925841],[-0.213749,51.6926022],[-0.2135787,51.6926337],[-0.2134216,51.6926509],[-0.2131897,51.6926581],[-0.2129094,51.6926519],[-0.2126459,51.6926447],[-0.2123941,51.6926237],[-0.212086,51.6926156],[-0.2118703,51.6925941],[-0.2116769,51.6925554],[-0.2113375,51.6924495],[-0.211282,51.692514]]]}},
{"type":"Feature","properties":{"highway":"track","name":null,"category":"Track"},"geometry":{"type":"MultiLineString","coordinates":[[[-0.2183645,51.6929567],[-0.2184066,51.6930568],[-0.2184273,51.6931463],[-0.2184162,51.6933308]]]}},
{"type":"Feature","properties":{"highway":"track","name":null,"category":"Track"},"geometry":{"type":"MultiLineString","coordinates":[[[-0.2118051,51.7056399],[-0.2116944,51.7056484],[-0.2114488,51.7056775],[-0.211311,51.7057161],[-0.211073,51.7058342],[-0.2107383,51.7059605],[-0.2103997,51.7060534],[-0.2099066,51.7061997],[-0.2094391,51.706339],[-0.2094002,51.7063854],[-0.2094097,51.706453],[-0.2095861,51.7068332],[-0.2097975,51.7072487],[-0.2098156,51.7073192],[-0.2097862,51.7073891],[-0.2096278,51.7075307],[-0.2095974,51.7076153],[-0.2095908,51.7078234],[-0.2095877,51.707929],[-0.2097297,51.7081839],[-0.2098891,51.7083628],[-0.2099896,51.7084597],[-0.2101698,51.7085847],[-0.21037,51.7087201],[-0.2104386,51.7087873],[-0.21048,51.7088495],[-0.2104984,51.7089444],[-0.2104872,51.7090264],[-0.2104441,51.7090912],[-0.2103309,51.7091663]]]}},
{"type":"Feature","properties":{"highway":"track","name":null,"category":"Track"},"geometry":{"type":"MultiLineString","coordinates":[[[-0.2180806,51.7030345],[-0.2182518,51.7029827]]]}},
{"type":"Feature","properties":{"highway":"footway","name":null,"category":"Footpath (pedestrian only)"},"geometry":{"type":"MultiLineString","coordinates":[[[-0.2117294,51.6981243],[-0.2116857,51.6981188],[-0.2116347,51.6981124],[-0.2115486,51.6981016]]]}},
{"type":"Feature","properties":{"highway":"footway","name":null,"category":"Footpath (pedestrian only)"},"geometry":{"type":"MultiLineString","coordinates":[[[-0.2111658,51.6991912],[-0.2112222,51.699152],[-0.2112509,51.699087],[-0.2114061,51.6986807],[-0.211547,51.6983636],[-0.2115608,51.6983241],[-0.2115655,51.6983107]]]}},
{"type":"Feature","properties":{"highway":"footway","name":null,"category":"Footpath (pedestrian only)"},"geometry":{"type":"MultiLineString","coordinates":[[[-0.2115655,51.6983107],[-0.2115822,51.6982627],[-0.2115907,51.6982383]]]}},
{"type":"Feature","properties":{"highway":"footway","name":null,"category":"Footpath (pedestrian only)"},"geometry":{"type":"MultiLineString","coordinates":[[[-0.2112201,51.6992073],[-0.2111658,51.6991912],[-0.2110386,51.6991825],[-0.2109207,51.6991572],[-0.2107666,51.6991376],[-0.210484,51.6990978],[-0.2102996,51.6990638],[-0.2101163,51.6990269],[-0.2099341,51.6989936],[-0.2097543,51.6989582],[-0.2095792,51.6989249],[-0.2094053,51.6988909],[-0.2091741,51.6988438],[-0.2086639,51.6987353],[-0.2085274,51.6987157]]]}},
{"type":"Feature","properties":{"highway":"footway","name":null,"category":"Footpath (pedestrian only)"},"geometry":{"type":"MultiLineString","coordinates":[[[-0.2113513,51.6992463],[-0.2112966,51.6992301],[-0.2112201,51.6992073]]]}},
{"type":"Feature","properties":{"highway":"footway","name":null,"category":"Footpath (pedestrian only)"},"geometry":{"type":"MultiLineString","coordinates":[[[-0.212565,51.6995041],[-0.2124667,51.6994852],[-0.2123476,51.6994617],[-0.2120825,51.6994094],[-0.2120765,51.6994082],[-0.2118441,51.6993617],[-0.2117262,51.6993381],[-0.2116557,51.6993213],[-0.211397,51.6992599],[-0.2113842,51.6992561],[-0.2113513,51.6992463]]]}},
{"type":"Feature","properties":{"highway":"footway","name":null,"category":"Footpath (pedestrian only)"},"geometry":{"type":"MultiLineString","coordinates":[[[-0.2126438,51.6995192],[-0.2126108,51.6995129],[-0.212565,51.6995041]]]}},
{"type":"Feature","properties":{"highway":"footway","name":null,"category":"Footpath (pedestrian only)"},"geometry":{"type":"MultiLineString","coordinates":[[[-0.2131621,51.699613],[-0.2129809,51.6995794],[-0.2129322,51.6995714],[-0.2128199,51.699553],[-0.2126438,51.6995192]]]}},
{"type":"Feature","properties":{"highway":"footway","name":null,"category":"Footpath (pedestrian only)"},"geometry":{"type":"MultiLineString","coordinates":[[[-0.2132544,51.69963],[-0.2132083,51.6996216],[-0.2131621,51.699613]]]}},
{"type":"Feature","properties":{"highway":"footway","name":null,"category":"Footpath (pedestrian only)"},"geometry":{"type":"MultiLineString","coordinates":[[[-0.2098982,51.7013631],[-0.2099153,51.7013453],[-0.2099458,51.7013301],[-0.2099911,51.7013133],[-0.2100389,51.7013128],[-0.2102017,51.7013375],[-0.2104172,51.7013629],[-0.2106914,51.7013882],[-0.2109972,51.7014012],[-0.2112961,51.7014021],[-0.2119403,51.7013926],[-0.2123505,51.7013835],[-0.2128668,51.7013642]]]}},
{"type":"Feature","properties":{"highway":"footway","name":null,"category":"Footpath (pedestrian only)"},"geometry":{"type":"MultiLineString","coordinates":[[[-0.2133884,51.7009275],[-0.2134083,51.700875],[-0.2134208,51.700842]]]}},
{"type":"Feature","properties":{"highway":"path","name":null,"category":"Shared path"},"geometry":{"type":"MultiLineString","coordinates":[[[-0.2155317,51.7012006],[-0.2153534,51.7011955],[-0.2152628,51.7011959],[-0.2150375,51.7012192],[-0.2148996,51.7012397],[-0.214756,51.7012621],[-0.2146442,51.7012902],[-0.2146042,51.7013003],[-0.2145475,51.7013041],[-0.2143337,51.7013185],[-0.2142458,51.7013232],[-0.2141594,51.7013135]]]}},
{"type":"Feature","properties":{"highway":"footway","name":null,"category":"Footpath (pedestrian only)"},"geometry":{"type":"MultiLineString","coordinates":[[[-0.2134354,51.7013216],[-0.2134814,51.7013208],[-0.2134732,51.701364],[-0.2134772,51.701389],[-0.2134969,51.7014116],[-0.213536,51.7014219],[-0.2135684,51.7014222],[-0.213625,51.7014129],[-0.2137229,51.7013882],[-0.2137418,51.7013737]]]}},
{"type":"Feature","properties":{"highway":"footway","name":null,"category":"Footpath (pedestrian only)"},"geometry":{"type":"MultiLineString","coordinates":[[[-0.2128677,51.7015361],[-0.2128678,51.7015416],[-0.2130656,51.7015339],[-0.2133444,51.7015406],[-0.2135182,51.7015261],[-0.2137998,51.7014774],[-0.2143052,51.7014399],[-0.2151879,51.7013846],[-0.2153004,51.7013696],[-0.2154527,51.7013321],[-0.2160109,51.7011878],[-0.2162333,51.701147],[-0.2165033,51.7011164],[-0.2166876,51.7011159],[-0.2169481,51.7011336],[-0.2176721,51.7012017]]]}},
{"type":"Feature","properties":{"highway":"footway","name":null,"category":"Footpath (pedestrian only)"},"geometry":{"type":"MultiLineString","coordinates":[[[-0.2128677,51.7015361],[-0.212867,51.7015041],[-0.212867,51.7014712]]]}},
{"type":"Feature","properties":{"highway":"footway","name":null,"category":"Footpath (pedestrian only)"},"geometry":{"type":"MultiLineString","coordinates":[[[-0.212867,51.7014712],[-0.2128671,51.7014255]]]}},
{"type":"Feature","properties":{"highway":"footway","name":null,"category":"Footpath (pedestrian only)"},"geometry":{"type":"MultiLineString","coordinates":[[[-0.2167183,51.702604],[-0.2171764,51.7027635]]]}},
{"type":"Feature","properties":{"highway":"track","name":null,"category":"Track"},"geometry":{"type":"MultiLineString","coordinates":[[[-0.2169783,51.7030579],[-0.2169698,51.7031861],[-0.2171658,51.7032019],[-0.2171417,51.7034433],[-0.2170304,51.7035163]]]}},
{"type":"Feature","properties":{"highway":"track","name":null,"category":"Track"},"geometry":{"type":"MultiLineString","coordinates":[[[-0.2188957,51.7013246],[-0.2187551,51.7013229],[-0.2186071,51.7013504]]]}},
{"type":"Feature","properties":{"highway":"track","name":null,"category":"Track"},"geometry":{"type":"MultiLineString","coordinates":[[[-0.2175246,51.7032071],[-0.2175339,51.7030835]]]}},
{"type":"Feature","properties":{"highway":"track","name":null,"category":"Track"},"geometry":{"type":"MultiLineString","coordinates":[[[-0.2112481,51.7053953],[-0.2111692,51.7055015],[-0.2110556,51.7055642],[-0.210849,51.7056167]]]}},
{"type":"Feature","properties":{"highway":"footway","name":null,"category":"Footpath (pedestrian only)"},"geometry":{"type":"MultiLineString","coordinates":[[[-0.2116702,51.7055586],[-0.2116881,51.705595]]]}},
{"type":"Feature","properties":{"highway":"footway","name":null,"category":"Footpath (pedestrian only)"},"geometry":{"type":"MultiLineString","coordinates":[[[-0.2116544,51.7055264],[-0.2116702,51.7055586]]]}},
{"type":"Feature","properties":{"highway":"track","name":null,"category":"Track"},"geometry":{"type":"MultiLineString","coordinates":[[[-0.2117678,51.7055509],[-0.2117817,51.7055827]]]}},
{"type":"Feature","properties":{"highway":"track","name":null,"category":"Track"},"geometry":{"type":"MultiLineString","coordinates":[[[-0.2165928,51.7024594],[-0.2166768,51.702407],[-0.2167625,51.7023754],[-0.2168689,51.7023502],[-0.2169113,51.7023223],[-0.2169079,51.7022745],[-0.2168715,51.702207]]]}},
{"type":"Feature","properties":{"highway":"track","name":null,"category":"Track"},"geometry":{"type":"MultiLineString","coordinates":[[[-0.2166768,51.702407],[-0.2166621,51.7023073]]]}},
{"type":"Feature","properties":{"highway":"footway","name":null,"category":"Footpath (pedestrian only)"},"geometry":{"type":"MultiLineString","coordinates":[[[-0.2176177,51.702937],[-0.2177637,51.7029943]]]}},
{"type":"Feature","properties":{"highway":"footway","name":null,"category":"Footpath (pedestrian only)"},"geometry":{"type":"MultiLineString","coordinates":[[[-0.2155317,51.7012006],[-0.2156213,51.701202],[-0.2159357,51.701126],[-0.2162533,51.7010601],[-0.2165384,51.7010313],[-0.2168351,51.7010467],[-0.2174684,51.7011078],[-0.2176856,51.7011275]]]}},
{"type":"Feature","properties":{"highway":"footway","name":null,"category":"Footpath (pedestrian only)"},"geometry":{"type":"MultiLineString","coordinates":[[[-0.217673,51.7011971],[-0.2176787,51.7011654],[-0.2176847,51.7011326]]]}},
{"type":"Feature","properties":{"highway":"footway","name":null,"category":"Footpath (pedestrian only)"},"geometry":{"type":"MultiLineString","coordinates":[[[-0.2178058,51.7012086],[-0.2178135,51.7011765],[-0.2178211,51.7011451]]]}},
{"type":"Feature","properties":{"highway":"track","name":null,"category":"Track"},"geometry":{"type":"MultiLineString","coordinates":[[[-0.2185899,51.7012122],[-0.2185816,51.701166]]]}},
{"type":"Feature","properties":{"highway":"footway","name":null,"category":"Footpath (pedestrian only)"},"geometry":{"type":"MultiLineString","coordinates":[[[-0.2207443,51.7001796],[-0.2207944,51.7002076]]]}},
{"type":"Feature","properties":{"highway":"track","name":null,"category":"Track"},"geometry":{"type":"MultiLineString","coordinates":[[[-0.2184495,51.6927019],[-0.2183931,51.6926967],[-0.2183673,51.6926943],[-0.2183227,51.6927101],[-0.218272,51.6927281],[-0.2183902,51.6928857]]]}},
{"type":"Feature","properties":{"highway":"path","name":null,"category":"Shared path"},"geometry":{"type":"MultiLineString","coordinates":[[[-0.2182044,51.692587],[-0.2181367,51.6926319],[-0.2180643,51.6926988],[-0.2179892,51.6927379],[-0.217912,51.6927666],[-0.2177545,51.6928011],[-0.2176318,51.6928169],[-0.2170303,51.6928697],[-0.2168311,51.6928709],[-0.2167411,51.6928698],[-0.2165877,51.6928535],[-0.216406,51.6928102],[-0.2160325,51.6927013],[-0.2157515,51.6926365],[-0.2156959,51.692634],[-0.2154203,51.6926381],[-0.2152721,51.6926315],[-0.2149791,51.6926028],[-0.2148356,51.6925837],[-0.2147678,51.6925662],[-0.2146968,51.6925401],[-0.214633,51.692533],[-0.2145881,51.6925351],[-0.214344,51.6925567],[-0.2142294,51.6925579],[-0.2139343,51.69255],[-0.2138364,51.6925554],[-0.2135032,51.6926082],[-0.2134113,51.6926186],[-0.2132504,51.6926278],[-0.2129929,51.6926211],[-0.2123451,51.6925704],[-0.211983,51.6925563],[-0.2117845,51.6925313],[-0.2115954,51.6924798],[-0.2113775,51.6924091],[-0.2113375,51.6924495]]]}},
{"type":"Feature","properties":{"highway":"track","name":null,"category":"Track"},"geometry":{"type":"MultiLineString","coordinates":[[[-0.2183227,51.6927101],[-0.2182299,51.6926049],[-0.2182044,51.692587]]]}},
{"type":"Feature","properties":{"highway":"footway","name":null,"category":"Footpath (pedestrian only)"},"geometry":{"type":"MultiLineString","coordinates":[[[-0.216514,51.7030288],[-0.2164166,51.7030246],[-0.2161111,51.7030114]]]}},
{"type":"Feature","properties":{"highway":"footway","name":null,"category":"Footpath (pedestrian only)"},"geometry":{"type":"MultiLineString","coordinates":[[[-0.2190643,51.6927367],[-0.2193202,51.6935638],[-0.2193397,51.6936374]]]}},
{"type":"Feature","properties":{"highway":"footway","name":null,"category":"Footpath (pedestrian only)"},"geometry":{"type":"MultiLineString","coordinates":[[[-0.2193397,51.6936374],[-0.2192304,51.6936993],[-0.2191459,51.6937866],[-0.2190909,51.6939096],[-0.2190895,51.6939886],[-0.2191137,51.69409],[-0.2193417,51.6945639],[-0.2195643,51.6950867],[-0.2195951,51.6951732],[-0.2195683,51.6952796],[-0.2195227,51.6953511],[-0.2194288,51.6954475],[-0.2193859,51.6955115],[-0.2193752,51.6955913],[-0.2193725,51.6958141],[-0.2193645,51.6958856],[-0.2193162,51.695977],[-0.2192961,51.6960859],[-0.2192974,51.6962015],[-0.2193242,51.6963345],[-0.2193216,51.6964284],[-0.2192478,51.696608],[-0.2192464,51.6967052],[-0.2192692,51.6968058],[-0.2193524,51.6969255],[-0.2194919,51.697105],[-0.2196166,51.6973444],[-0.2196608,51.69746],[-0.2196863,51.6975722],[-0.2197028,51.6976032],[-0.2197185,51.6976329],[-0.2198017,51.6976603],[-0.2198703,51.6976832],[-0.2199666,51.6977152],[-0.2200739,51.6977825],[-0.2201329,51.6978457],[-0.2201718,51.6979338],[-0.2201544,51.6980452],[-0.2200994,51.6981873],[-0.2200726,51.6983669],[-0.2200753,51.6985223],[-0.2201208,51.6986885],[-0.2202563,51.6989786],[-0.2202778,51.6990609],[-0.2202456,51.6991224],[-0.2201088,51.699223],[-0.2199774,51.6992903],[-0.2199291,51.6993452],[-0.2199197,51.6994175],[-0.219921,51.6994715],[-0.2199586,51.6995148],[-0.2199776,51.6995288],[-0.2200229,51.6995621],[-0.2200806,51.6996236],[-0.2201074,51.6997134],[-0.2201101,51.6997882],[-0.2201329,51.6998406],[-0.2201879,51.699873],[-0.2204152,51.6999707],[-0.2205238,51.7000259],[-0.2205743,51.7000627],[-0.2205896,51.7000908]]]}},
{"type":"Feature","properties":{"highway":"path","name":null,"category":"Shared path"},"geometry":{"type":"MultiLineString","coordinates":[[[-0.2197028,51.6976032],[-0.2196324,51.6976967],[-0.2195541,51.6976903],[-0.2195048,51.6976963],[-0.2194821,51.697688],[-0.219433,51.6976929],[-0.2194061,51.6977182],[-0.2193738,51.6977219],[-0.2192886,51.6976715],[-0.2191502,51.6976521]]]}},
{"type":"Feature","properties":{"highway":"track","name":null,"category":"Track"},"geometry":{"type":"MultiLineString","coordinates":[[[-0.213642,51.705287],[-0.2134582,51.7052742],[-0.2131812,51.705299],[-0.2129399,51.7053207],[-0.2128273,51.7053423]]]}},
{"type":"Feature","properties":{"highway":"track","name":null,"category":"Track"},"geometry":{"type":"MultiLineString","coordinates":[[[-0.2198669,51.7039672],[-0.2197976,51.7039934],[-0.2196901,51.7040123]]]}},
{"type":"Feature","properties":{"highway":"footway","name":null,"category":"Footpath (pedestrian only)"},"geometry":{"type":"MultiLineString","coordinates":[[[-0.2198669,51.7039672],[-0.2199519,51.7039589],[-0.2200444,51.7039095],[-0.2201027,51.7038465]]]}},
{"type":"Feature","properties":{"highway":"path","name":null,"category":"Shared path"},"geometry":{"type":"MultiLineString","coordinates":[[[-0.2217355,51.7004248],[-0.2217329,51.7004748],[-0.2217134,51.7005226],[-0.2216604,51.7005683]]]}},
{"type":"Feature","properties":{"highway":"path","name":null,"category":"Shared path"},"geometry":{"type":"MultiLineString","coordinates":[[[-0.2221342,51.7013334],[-0.2207728,51.7034934]]]}},
{"type":"Feature","properties":{"highway":"path","name":null,"category":"Shared path"},"geometry":{"type":"MultiLineString","coordinates":[[[-0.2221802,51.7010736],[-0.2222016,51.7011306],[-0.2222436,51.7011882]]]}},
{"type":"Feature","properties":{"highway":"path","name":null,"category":"Shared path"},"geometry":{"type":"MultiLineString","coordinates":[[[-0.2222305,51.7012342],[-0.2221875,51.7012943],[-0.2221342,51.7013334]]]}},
{"type":"Feature","properties":{"highway":"path","name":null,"category":"Shared path"},"geometry":{"type":"MultiLineString","coordinates":[[[-0.2222436,51.7011882],[-0.2222305,51.7012342]]]}},
{"type":"Feature","properties":{"highway":"footway","name":null,"category":"Footpath (pedestrian only)"},"geometry":{"type":"MultiLineString","coordinates":[[[-0.2210623,51.6994532],[-0.2209577,51.6994491],[-0.2208504,51.6994308],[-0.220782,51.699435],[-0.2207096,51.6994632],[-0.2203529,51.6995114],[-0.2201477,51.6995289],[-0.2200377,51.6995189],[-0.2199776,51.6995288]]]}},
{"type":"Feature","properties":{"highway":"footway","name":null,"category":"Footpath (pedestrian only)"},"geometry":{"type":"MultiLineString","coordinates":[[[-0.2206063,51.6974326],[-0.2204333,51.6975148],[-0.2201477,51.6975656],[-0.2199626,51.697637],[-0.219909,51.6976686],[-0.2198703,51.6976832]]]}},
{"type":"Feature","properties":{"highway":"footway","name":null,"category":"Footpath (pedestrian only)"},"geometry":{"type":"MultiLineString","coordinates":[[[-0.2202295,51.6958124],[-0.2200753,51.6958133],[-0.2195066,51.6958931],[-0.2194221,51.6958981],[-0.2193645,51.6958856]]]}},
{"type":"Feature","properties":{"highway":"footway","name":null,"category":"Footpath (pedestrian only)"},"geometry":{"type":"MultiLineString","coordinates":[[[-0.2206654,51.7001502],[-0.2207203,51.7001932]]]}},
{"type":"Feature","properties":{"highway":"footway","name":null,"category":"Footpath (pedestrian only)"},"geometry":{"type":"MultiLineString","coordinates":[[[-0.2205743,51.7000627],[-0.2206077,51.7000567],[-0.2208088,51.6999486],[-0.2208611,51.699932]]]}},
{"type":"Feature","properties":{"highway":"footway","name":null,"category":"Footpath (pedestrian only)"},"geometry":{"type":"MultiLineString","coordinates":[[[-0.2209309,51.7000047],[-0.2209853,51.7000447]]]}},
{"type":"Feature","properties":{"highway":"footway","name":null,"category":"Footpath (pedestrian only)"},"geometry":{"type":"MultiLineString","coordinates":[[[-0.2193397,51.6936374],[-0.2194892,51.6941166],[-0.2198996,51.6948556],[-0.2200712,51.6952896],[-0.2202295,51.6958124],[-0.2206063,51.6974326],[-0.2208598,51.6975888],[-0.2207002,51.6978432],[-0.2210033,51.6993967],[-0.2210623,51.6994532],[-0.2209805,51.6995688],[-0.2208652,51.6998323],[-0.2208611,51.699932],[-0.2208712,51.699954]]]}},
{"type":"Feature","properties":{"highway":"path","name":null,"category":"Shared path"},"geometry":{"type":"MultiLineString","coordinates":[[[-0.2111201,51.6932865],[-0.2111544,51.6933257],[-0.2112846,51.6935168],[-0.2113397,51.6936307],[-0.21128,51.6937844],[-0.2111514,51.6941944],[-0.2111423,51.6945588],[-0.2114086,51.6951253],[-0.2116015,51.6954897],[-0.211574,51.6955951],[-0.2118444,51.6956382],[-0.212767,51.6956116],[-0.2134429,51.6955817],[-0.2141081,51.6955551],[-0.2147143,51.6955086],[-0.2150523,51.6953656],[-0.2152829,51.6953955],[-0.2155297,51.6954254],[-0.2159803,51.6954121],[-0.2165811,51.6954121],[-0.2168547,51.6954254],[-0.2169459,51.6955352],[-0.2169888,51.6956682],[-0.2171283,51.695728],[-0.2174126,51.6957413],[-0.2181046,51.6957214],[-0.2186015,51.6957291]]]}},
{"type":"Feature","properties":{"highway":"path","name":null,"category":"Shared path"},"geometry":{"type":"MultiLineString","coordinates":[[[-0.211086,51.6964874],[-0.2111856,51.6965078],[-0.2112334,51.6965128],[-0.2113012,51.6965326],[-0.2114268,51.696519],[-0.2115006,51.6965375],[-0.2115364,51.6965634],[-0.2115544,51.696645],[-0.2116262,51.696729],[-0.2117936,51.6967871],[-0.2120588,51.6968267],[-0.2123,51.6968613],[-0.2125392,51.6968736],[-0.2127227,51.6968674],[-0.2128941,51.6968662],[-0.2130636,51.6968983],[-0.2131035,51.6969119],[-0.2132211,51.6970664],[-0.2133367,51.6972987],[-0.2133706,51.6973926],[-0.2133606,51.6974841],[-0.2134224,51.6975681],[-0.2133626,51.6976842],[-0.2133806,51.6977917],[-0.2132968,51.6978523],[-0.2134803,51.6977979],[-0.2136138,51.6978165],[-0.2137933,51.6979474],[-0.2139149,51.6979932],[-0.2141302,51.69816],[-0.2142299,51.6982032],[-0.2142478,51.6982465],[-0.2143395,51.6982873],[-0.2144711,51.6983651],[-0.2145628,51.6983626],[-0.2145967,51.6983095],[-0.2146904,51.6982922],[-0.2149954,51.6982885],[-0.2152546,51.6982539],[-0.2159345,51.6981155],[-0.2162335,51.6980599],[-0.2165286,51.6979697],[-0.2168476,51.6979141],[-0.2170649,51.6978696],[-0.2173619,51.6978387],[-0.2175613,51.6978053],[-0.2180059,51.6977559],[-0.2182192,51.6977361],[-0.2184445,51.6977275],[-0.2186837,51.69773],[-0.2189967,51.6976682],[-0.2191502,51.6976521]]]}},
{"type":"Feature","properties":{"highway":"path","name":null,"category":"Shared path"},"geometry":{"type":"MultiLineString","coordinates":[[[-0.2109804,51.6966356],[-0.211086,51.6964874]]]}},
{"type":"Feature","properties":{"highway":"path","name":null,"category":"Shared path"},"geometry":{"type":"MultiLineString","coordinates":[[[-0.2096791,51.6891687],[-0.2098916,51.6891178],[-0.2102064,51.6890654],[-0.210455,51.6890555],[-0.210701,51.6890818],[-0.2108756,51.6890916],[-0.2111375,51.6891047],[-0.2114893,51.6890998],[-0.2120184,51.689126],[-0.212476,51.6891506],[-0.2128331,51.6891703],[-0.2131532,51.6891654],[-0.213423,51.6891539],[-0.2136558,51.6891687],[-0.2138489,51.6892753],[-0.2140632,51.6894606],[-0.2141716,51.6896082],[-0.2143409,51.6898099],[-0.2144441,51.6898886],[-0.214542,51.6899083],[-0.2147695,51.6898804],[-0.2150525,51.6898213],[-0.2151504,51.6898066],[-0.2152608,51.6898481],[-0.2152985,51.6898623],[-0.2153514,51.6898984],[-0.2154308,51.6901018],[-0.2155049,51.6902379],[-0.2155393,51.6903789],[-0.2156054,51.6905462],[-0.2156715,51.6907626],[-0.2156715,51.6908528],[-0.2156742,51.6909086],[-0.2157773,51.6909348],[-0.2161821,51.6909053],[-0.216682,51.690879],[-0.2171555,51.6908758],[-0.2175999,51.6908594],[-0.2181025,51.6909069],[-0.2185311,51.6909348],[-0.2186157,51.690943],[-0.2186289,51.6910496],[-0.218584,51.6911988],[-0.2185628,51.6913628],[-0.2184729,51.6915563],[-0.2183671,51.6917203],[-0.2182639,51.6918596],[-0.2181475,51.6919908],[-0.2181501,51.6921843],[-0.218211,51.6924614],[-0.2183115,51.6925992],[-0.2183931,51.6926967]]]}},
{"type":"Feature","properties":{"highway":"path","name":null,"category":"Shared path"},"geometry":{"type":"MultiLineString","coordinates":[[[-0.211574,51.6955951],[-0.2115125,51.6956317],[-0.2114726,51.6957479],[-0.2112493,51.6957664],[-0.2111098,51.6957713],[-0.2109942,51.6958134],[-0.2108885,51.6957973],[-0.2106812,51.6958467],[-0.2104294,51.6959371],[-0.2106305,51.6960061],[-0.2108303,51.6960706],[-0.2109906,51.6961171],[-0.2111317,51.6961977],[-0.2111875,51.6962533],[-0.2111517,51.6963657],[-0.2110879,51.6964584],[-0.211086,51.6964874]]]}},
{"type":"Feature","properties":{"highway":"path","name":null,"category":"Shared path"},"geometry":{"type":"MultiLineString","coordinates":[[[-0.2108885,51.6957973],[-0.2104944,51.6957293],[-0.2102423,51.6957127],[-0.210088,51.6957459],[-0.2099255,51.6958276]]]}},
{"type":"Feature","properties":{"highway":"path","name":null,"category":"Shared path"},"geometry":{"type":"MultiLineString","coordinates":[[[-0.2104294,51.6959371],[-0.2100659,51.6958623],[-0.2099255,51.6958276]]]}},
{"type":"Feature","properties":{"highway":"track","name":null,"category":"Track"},"geometry":{"type":"MultiLineString","coordinates":[[[-0.223008,51.7022451],[-0.2230409,51.7021892],[-0.2231579,51.7020751],[-0.2232046,51.7020435]]]}},
{"type":"Feature","properties":{"highway":"track","name":null,"category":"Track"},"geometry":{"type":"MultiLineString","coordinates":[[[-0.2217599,51.7039681],[-0.2218311,51.7038788],[-0.2219214,51.7037617],[-0.2222624,51.7033033],[-0.2225802,51.7028386],[-0.2229145,51.7023255],[-0.2229975,51.7022735]]]}},
{"type":"Feature","properties":{"highway":"track","name":null,"category":"Track"},"geometry":{"type":"MultiLineString","coordinates":[[[-0.2229975,51.7022735],[-0.223008,51.7022451]]]}},
{"type":"Feature","properties":{"highway":"track","name":null,"category":"Track"},"geometry":{"type":"MultiLineString","coordinates":[[[-0.2220817,51.7039957],[-0.2220066,51.7039558],[-0.221944,51.7039438],[-0.2218821,51.7039467],[-0.2218156,51.7039518],[-0.2217599,51.7039681]]]}},
{"type":"Feature","properties":{"highway":"track","name":null,"category":"Track"},"geometry":{"type":"MultiLineString","coordinates":[[[-0.2204758,51.7067648],[-0.2204975,51.7068122],[-0.220534,51.707008],[-0.2206819,51.7071663],[-0.2208014,51.7072566],[-0.2210574,51.7073607]]]}},
{"type":"Feature","properties":{"highway":"track","name":null,"category":"Track"},"geometry":{"type":"MultiLineString","coordinates":[[[-0.220434,51.7067218],[-0.2204758,51.7067648]]]}},
{"type":"Feature","properties":{"highway":"track","name":null,"category":"Track"},"geometry":{"type":"MultiLineString","coordinates":[[[-0.220434,51.7067218],[-0.220428,51.7067658]]]}},
{"type":"Feature","properties":{"highway":"track","name":null,"category":"Track"},"geometry":{"type":"MultiLineString","coordinates":[[[-0.2187099,51.7070422],[-0.2187714,51.7070577],[-0.2189789,51.7071044],[-0.219054,51.7071037]]]}},
{"type":"Feature","properties":{"highway":"bridleway","name":null,"category":"Bridleway"},"geometry":{"type":"MultiLineString","coordinates":[[[-0.219054,51.7071037],[-0.2189995,51.7070798],[-0.2187291,51.7070075]]]}},
{"type":"Feature","properties":{"highway":"track","name":null,"category":"Track"},"geometry":{"type":"MultiLineString","coordinates":[[[-0.2117147,51.7054377],[-0.2117371,51.7054912]]]}},
{"type":"Feature","properties":{"highway":"footway","name":null,"category":"Footpath (pedestrian only)"},"geometry":{"type":"MultiLineString","coordinates":[[[-0.2118051,51.7056399],[-0.2116881,51.705595]]]}},
{"type":"Feature","properties":{"highway":"track","name":null,"category":"Track"},"geometry":{"type":"MultiLineString","coordinates":[[[-0.2117817,51.7055827],[-0.2118051,51.7056399]]]}},
{"type":"Feature","properties":{"highway":"footway","name":null,"category":"Footpath (pedestrian only)"},"geometry":{"type":"MultiLineString","coordinates":[[[-0.2187084,51.7067927],[-0.2186996,51.706774],[-0.21867,51.7067789]]]}},
{"type":"Feature","properties":{"highway":"footway","name":null,"category":"Footpath (pedestrian only)"},"geometry":{"type":"MultiLineString","coordinates":[[[-0.2133021,51.7013249],[-0.2132947,51.7012729],[-0.2133148,51.7011491],[-0.2133359,51.7010697],[-0.213383,51.7009418],[-0.2133884,51.7009275]]]}},
{"type":"Feature","properties":{"highway":"footway","name":null,"category":"Footpath (pedestrian only)"},"geometry":{"type":"MultiLineString","coordinates":[[[-0.2133291,51.7013241],[-0.2133021,51.7013249],[-0.2132922,51.7013332],[-0.2132609,51.7013441],[-0.2132203,51.7013495],[-0.2130714,51.7013526],[-0.2128668,51.7013642],[-0.2128671,51.7013741]]]}},
{"type":"Feature","properties":{"highway":"footway","name":null,"category":"Footpath (pedestrian only)"},"geometry":{"type":"MultiLineString","coordinates":[[[-0.2176847,51.7011326],[-0.2176856,51.7011275],[-0.2178223,51.70114],[-0.2178211,51.7011451]]]}},
{"type":"Feature","properties":{"highway":"footway","name":null,"category":"Footpath (pedestrian only)"},"geometry":{"type":"MultiLineString","coordinates":[[[-0.2178223,51.70114],[-0.21821,51.7011753],[-0.2184559,51.7011785],[-0.2185816,51.701166]]]}},
{"type":"Feature","properties":{"highway":"footway","name":null,"category":"Footpath (pedestrian only)"},"geometry":{"type":"MultiLineString","coordinates":[[[-0.217673,51.7011971],[-0.2176721,51.7012017],[-0.2178045,51.7012141],[-0.2178058,51.7012086]]]}},
{"type":"Feature","properties":{"highway":"footway","name":null,"category":"Footpath (pedestrian only)"},"geometry":{"type":"MultiLineString","coordinates":[[[-0.2178045,51.7012141],[-0.2183881,51.7012704],[-0.2184512,51.7012748],[-0.2185432,51.7012753]]]}}
]
}
