{
"type": "FeatureCollection",
"name": "THRRI_17_walking",
"crs": { "type": "name", "properties": { "name": "urn:ogc:def:crs:OGC:1.3:CRS84" } },
"features": [
{"type":"Feature","properties":{"highway":"footway","name":null,"category":"Footpath (pedestrian only)"},"geometry":{"type":"MultiLineString","coordinates":[[[-0.3923255,51.7087528],[-0.3918889,51.7092027],[-0.3917078,51.7093463],[-0.3916582,51.7094282],[-0.3911868,51.709788],[-0.390225,51.7104988],[-0.3893143,51.7111489],[-0.3889057,51.7113952],[-0.388059,51.7119055],[-0.3867548,51.712557],[-0.3849927,51.7132509],[-0.3847639,51.7132999]]]}},
{"type":"Feature","properties":{"highway":"footway","name":null,"category":"Footpath (pedestrian only)"},"geometry":{"type":"MultiLineString","coordinates":[[[-0.399094,51.7003582],[-0.3985837,51.7010113],[-0.3988439,51.7012357],[-0.3989156,51.7012844]]]}},
{"type":"Feature","properties":{"highway":"footway","name":null,"category":"Footpath (pedestrian only)"},"geometry":{"type":"MultiLineString","coordinates":[[[-0.39579,51.6978346],[-0.3952613,51.6982888],[-0.3953131,51.6988725]]]}},
{"type":"Feature","properties":{"highway":"footway","name":null,"category":"Footpath (pedestrian only)"},"geometry":{"type":"MultiLineString","coordinates":[[[-0.4021503,51.6980824],[-0.4021382,51.6981189],[-0.4020668,51.6982264],[-0.4019295,51.6984332]]]}},
{"type":"Feature","properties":{"highway":"footway","name":null,"category":"Footpath (pedestrian only)"},"geometry":{"type":"MultiLineString","coordinates":[[[-0.4034037,51.6968766],[-0.4026433,51.697218],[-0.4024715,51.6972693]]]}},
{"type":"Feature","properties":{"highway":"footway","name":null,"category":"Footpath (pedestrian only)"},"geometry":{"type":"MultiLineString","coordinates":[[[-0.4038124,51.7079296],[-0.4041024,51.7078234]]]}},
{"type":"Feature","properties":{"highway":"footway","name":null,"category":"Footpath (pedestrian only)"},"geometry":{"type":"MultiLineString","coordinates":[[[-0.4093225,51.6980834],[-0.4094005,51.6980613],[-0.409489,51.6980446]]]}},
{"type":"Feature","properties":{"highway":"footway","name":null,"category":"Footpath (pedestrian only)"},"geometry":{"type":"MultiLineString","coordinates":[[[-0.4180379,51.700192],[-0.4180653,51.7002672],[-0.4180908,51.700308],[-0.418127,51.7004367],[-0.41818,51.7006254],[-0.4181962,51.7006801]]]}},
{"type":"Feature","properties":{"highway":"footway","name":null,"category":"Footpath (pedestrian only)"},"geometry":{"type":"MultiLineString","coordinates":[[[-0.4107074,51.7095657],[-0.411646,51.7096787],[-0.4117817,51.7097421]]]}},
{"type":"Feature","properties":{"highway":"bridleway","name":null,"category":"Bridleway"},"geometry":{"type":"MultiLineString","coordinates":[[[-0.399104,51.7106503],[-0.3990548,51.7105879],[-0.3986059,51.710447],[-0.3980911,51.7102819],[-0.3976217,51.7100967],[-0.3973685,51.7099763],[-0.3966208,51.7095681],[-0.3958486,51.709249],[-0.3940913,51.7087092],[-0.3937435,51.7086539],[-0.3936854,51.7086213]]]}},
{"type":"Feature","properties":{"highway":"footway","name":null,"category":"Footpath (pedestrian only)"},"geometry":{"type":"MultiLineString","coordinates":[[[-0.4154479,51.7034185],[-0.4157092,51.7037835]]]}},
{"type":"Feature","properties":{"highway":"footway","name":"Oak Green Way","category":"Footpath (pedestrian only)"},"geometry":{"type":"MultiLineString","coordinates":[[[-0.417702,51.7007525],[-0.4176774,51.700702],[-0.4175234,51.7007039],[-0.417312,51.7007336],[-0.4171672,51.7007735],[-0.4170787,51.7007917],[-0.4168977,51.7008408],[-0.4168641,51.7008499],[-0.4168748,51.7008931],[-0.4167104,51.700921],[-0.416375,51.7009653],[-0.4163283,51.7009957]]]}},
{"type":"Feature","properties":{"highway":"path","name":null,"category":"Shared path"},"geometry":{"type":"MultiLineString","coordinates":[[[-0.4222553,51.7001209],[-0.4221242,51.7001519],[-0.421867,51.7002393],[-0.4215662,51.7003743],[-0.4215434,51.7004546],[-0.4214593,51.7005562],[-0.4213871,51.7006526]]]}},
{"type":"Feature","properties":{"highway":"path","name":null,"category":"Shared path"},"geometry":{"type":"MultiLineString","coordinates":[[[-0.4210667,51.6999045],[-0.4210952,51.6999648],[-0.4210982,51.7000135],[-0.4210394,51.7000718],[-0.4210045,51.7000987],[-0.4209975,51.7001118],[-0.4209224,51.7001483],[-0.4208491,51.7001488],[-0.4207507,51.7001463],[-0.4205903,51.700218],[-0.4204872,51.7002684],[-0.4203505,51.700274],[-0.4202757,51.7002101],[-0.4202226,51.7001558],[-0.4201943,51.6999925]]]}},
{"type":"Feature","properties":{"highway":"path","name":null,"category":"Shared path"},"geometry":{"type":"MultiLineString","coordinates":[[[-0.4199748,51.7004942],[-0.4200672,51.7004886],[-0.4202048,51.7004302],[-0.4203214,51.7003737],[-0.4203423,51.7003176],[-0.4203505,51.700274]]]}},
{"type":"Feature","properties":{"highway":"path","name":null,"category":"Shared path"},"geometry":{"type":"MultiLineString","coordinates":[[[-0.4209975,51.7001118],[-0.4210662,51.700103],[-0.4211443,51.7001064],[-0.4212954,51.7000922],[-0.4214706,51.6999963],[-0.421589,51.6999843],[-0.4216943,51.699996]]]}},
{"type":"Feature","properties":{"highway":"path","name":null,"category":"Shared path"},"geometry":{"type":"MultiLineString","coordinates":[[[-0.4237477,51.6999025],[-0.423699,51.6999808],[-0.4236717,51.6999965],[-0.4235796,51.7000187],[-0.4234976,51.7000662],[-0.4234189,51.700131],[-0.4233964,51.7001685],[-0.4233604,51.7001951],[-0.423334,51.7002292],[-0.4232153,51.7002382],[-0.42315,51.7002562],[-0.4230785,51.7002864],[-0.4230643,51.7003133],[-0.4230066,51.7003368],[-0.422932,51.7004274],[-0.4223605,51.7004585],[-0.4218448,51.7005702],[-0.4213871,51.7006526],[-0.4206647,51.700755],[-0.4203022,51.7008322],[-0.4200157,51.7009308],[-0.4199619,51.7009401],[-0.4194879,51.7010407],[-0.4194056,51.7010912]]]}},
{"type":"Feature","properties":{"highway":"path","name":null,"category":"Shared path"},"geometry":{"type":"MultiLineString","coordinates":[[[-0.4215662,51.7003743],[-0.4210662,51.700494],[-0.4207289,51.7006163],[-0.4206918,51.7006434],[-0.4206842,51.7007149],[-0.4206647,51.700755]]]}},
{"type":"Feature","properties":{"highway":"footway","name":null,"category":"Footpath (pedestrian only)"},"geometry":{"type":"MultiLineString","coordinates":[[[-0.4211045,51.6999017],[-0.421069,51.6998404]]]}},
{"type":"Feature","properties":{"highway":"footway","name":null,"category":"Footpath (pedestrian only)"},"geometry":{"type":"MultiLineString","coordinates":[[[-0.4240137,51.6998497],[-0.4239553,51.6998234],[-0.4239115,51.6998208],[-0.4238556,51.6998222],[-0.4238281,51.699825],[-0.4237393,51.6998341],[-0.4235664,51.699861],[-0.4234719,51.6998775],[-0.4233856,51.6998849],[-0.4233053,51.6998762],[-0.4231907,51.6998585],[-0.4230342,51.6998252],[-0.4229517,51.6998041],[-0.4228387,51.6997974],[-0.422688,51.6997997],[-0.4224888,51.6997952],[-0.4220314,51.6997997],[-0.4218663,51.6998052],[-0.4217386,51.6998136],[-0.4216087,51.6998381],[-0.4213263,51.6998753],[-0.4211045,51.6999017],[-0.4210667,51.6999045],[-0.4209751,51.6999143],[-0.4207045,51.6999475],[-0.4203594,51.6999774],[-0.4201943,51.6999925],[-0.4200778,51.7000069],[-0.4201054,51.7000685],[-0.4199663,51.7000851],[-0.4199401,51.7000367],[-0.4199049,51.7000444],[-0.4198688,51.7000611],[-0.4198379,51.7000873],[-0.4198269,51.700105],[-0.4198311,51.7001445],[-0.4198619,51.7002056]]]}},
{"type":"Feature","properties":{"highway":"footway","name":null,"category":"Footpath (pedestrian only)"},"geometry":{"type":"MultiLineString","coordinates":[[[-0.4191822,51.7007731],[-0.419068,51.7008014],[-0.4189665,51.700836],[-0.4189057,51.7007746],[-0.4188699,51.7007507]]]}},
{"type":"Feature","properties":{"highway":"footway","name":null,"category":"Footpath (pedestrian only)"},"geometry":{"type":"MultiLineString","coordinates":[[[-0.4199228,51.7004113],[-0.4198966,51.7003695],[-0.4199531,51.7003552]]]}},
{"type":"Feature","properties":{"highway":"footway","name":null,"category":"Footpath (pedestrian only)"},"geometry":{"type":"MultiLineString","coordinates":[[[-0.4203994,51.7015109],[-0.4203384,51.7015005],[-0.4202998,51.7014425]]]}},
{"type":"Feature","properties":{"highway":"footway","name":null,"category":"Footpath (pedestrian only)"},"geometry":{"type":"MultiLineString","coordinates":[[[-0.423123,51.7005073],[-0.4230395,51.7005271],[-0.4230045,51.7005553],[-0.4229585,51.7006181],[-0.4228646,51.700707],[-0.4227817,51.7008062],[-0.4226944,51.7009133],[-0.4226333,51.700984],[-0.4225633,51.701037],[-0.4224392,51.7011049],[-0.4223018,51.7011469],[-0.4220895,51.7011903],[-0.4218233,51.7012343],[-0.4212979,51.7013272],[-0.420833,51.7014065],[-0.4206024,51.7014462],[-0.4204467,51.7014772],[-0.4203384,51.7015005],[-0.4202595,51.701514],[-0.4201737,51.7015456],[-0.4199672,51.7015872]]]}},
{"type":"Feature","properties":{"highway":"footway","name":null,"category":"Footpath (pedestrian only)"},"geometry":{"type":"MultiLineString","coordinates":[[[-0.4205147,51.7015572],[-0.4205409,51.7015338],[-0.4206366,51.7015124],[-0.4208618,51.7014699],[-0.4213347,51.7013936],[-0.4218328,51.7013093],[-0.4221048,51.7012601],[-0.4223472,51.7012091],[-0.4225025,51.70116],[-0.4226302,51.7010864],[-0.4227033,51.7010318],[-0.4227767,51.7009482],[-0.4228616,51.7008517],[-0.4229523,51.7007472],[-0.4230479,51.7006608],[-0.4231048,51.7006355],[-0.4231537,51.7006326],[-0.4232139,51.7006488],[-0.4232593,51.700689],[-0.4232936,51.7007284],[-0.4233315,51.7007787],[-0.4234096,51.7009392],[-0.4234897,51.701123],[-0.4235229,51.7012038],[-0.4235274,51.701251],[-0.4235458,51.7013027],[-0.4235758,51.7013831],[-0.4236738,51.7015862],[-0.4238091,51.7018418],[-0.4238463,51.7019297],[-0.4239729,51.7021039],[-0.4241126,51.7022435]]]}},
{"type":"Feature","properties":{"highway":"footway","name":null,"category":"Footpath (pedestrian only)"},"geometry":{"type":"MultiLineString","coordinates":[[[-0.4205147,51.7015572],[-0.4204488,51.7015315],[-0.4203994,51.7015109]]]}},
{"type":"Feature","properties":{"highway":"footway","name":null,"category":"Footpath (pedestrian only)"},"geometry":{"type":"MultiLineString","coordinates":[[[-0.4210451,51.6997985],[-0.4210421,51.6997925],[-0.4205876,51.6998549]]]}},
{"type":"Feature","properties":{"highway":"footway","name":null,"category":"Footpath (pedestrian only)"},"geometry":{"type":"MultiLineString","coordinates":[[[-0.421069,51.6998404],[-0.4210558,51.6998164],[-0.4210451,51.6997985]]]}},
{"type":"Feature","properties":{"highway":"footway","name":null,"category":"Footpath (pedestrian only)"},"geometry":{"type":"MultiLineString","coordinates":[[[-0.4205876,51.6998549],[-0.4205204,51.699864],[-0.4204408,51.6998799]]]}},
{"type":"Feature","properties":{"highway":"footway","name":null,"category":"Footpath (pedestrian only)"},"geometry":{"type":"MultiLineString","coordinates":[[[-0.4204408,51.6998799],[-0.4201862,51.6999173],[-0.4201661,51.6999154],[-0.4201419,51.6999098],[-0.4201299,51.6999017],[-0.4201155,51.6998856],[-0.4198306,51.6992874],[-0.4197864,51.6991854]]]}},
{"type":"Feature","properties":{"highway":"footway","name":null,"category":"Footpath (pedestrian only)"},"geometry":{"type":"MultiLineString","coordinates":[[[-0.4197631,51.7000508],[-0.419741,51.7000028],[-0.4199866,51.6999617],[-0.4200062,51.6999457],[-0.4200296,51.6999221],[-0.4200111,51.6998772],[-0.4199534,51.6998651],[-0.4199252,51.699859],[-0.4198883,51.6998445],[-0.4196489,51.6993011]]]}},
{"type":"Feature","properties":{"highway":"path","name":null,"category":"Shared path"},"geometry":{"type":"MultiLineString","coordinates":[[[-0.4196489,51.6993011],[-0.4192756,51.6993711]]]}},
{"type":"Feature","properties":{"highway":"footway","name":null,"category":"Footpath (pedestrian only)"},"geometry":{"type":"MultiLineString","coordinates":[[[-0.422662,51.7027579],[-0.4225598,51.702781],[-0.4223392,51.7028118],[-0.4220943,51.7028451],[-0.4218823,51.7028751],[-0.4216814,51.7029108],[-0.4215617,51.7029478],[-0.4215384,51.7029526],[-0.4215034,51.7029488],[-0.4214871,51.7029368],[-0.4214537,51.7028848],[-0.4213426,51.7027158],[-0.4212028,51.7024707],[-0.4210515,51.7022158],[-0.4209575,51.702076],[-0.4208285,51.7019243],[-0.4206977,51.7017889],[-0.4205857,51.7016724],[-0.4205132,51.7016002],[-0.4205062,51.7015769],[-0.4205147,51.7015572]]]}},
{"type":"Feature","properties":{"highway":"footway","name":null,"category":"Footpath (pedestrian only)"},"geometry":{"type":"MultiLineString","coordinates":[[[-0.4210421,51.6997925],[-0.421052,51.6997887],[-0.4210591,51.6997867],[-0.4211646,51.6997612],[-0.4214755,51.6997074],[-0.4216342,51.6996859],[-0.4218098,51.6996753],[-0.4219176,51.6996698]]]}},
{"type":"Feature","properties":{"highway":"path","name":null,"category":"Shared path"},"geometry":{"type":"MultiLineString","coordinates":[[[-0.4199473,51.7008883],[-0.419906,51.7008318],[-0.4198811,51.7007916],[-0.4198707,51.7007499],[-0.4198185,51.7007091],[-0.4197186,51.7007034],[-0.4197009,51.7007167],[-0.4196019,51.7007599],[-0.4196996,51.7008005],[-0.4198148,51.7008691],[-0.4199473,51.7008883]]]}},
{"type":"Feature","properties":{"highway":"path","name":null,"category":"Shared path"},"geometry":{"type":"MultiLineString","coordinates":[[[-0.4194879,51.7010407],[-0.4194819,51.7009912],[-0.4194921,51.7009291],[-0.4195415,51.7008916],[-0.4195737,51.7008391],[-0.4195892,51.7007946],[-0.4196019,51.7007599],[-0.4195319,51.7007417],[-0.4194648,51.7007132],[-0.4193578,51.7007092],[-0.4192989,51.7007463],[-0.4191822,51.7007731]]]}},
{"type":"Feature","properties":{"highway":"path","name":null,"category":"Shared path"},"geometry":{"type":"MultiLineString","coordinates":[[[-0.4197009,51.7007167],[-0.4196996,51.7008005]]]}},
{"type":"Feature","properties":{"highway":"path","name":null,"category":"Shared path"},"geometry":{"type":"MultiLineString","coordinates":[[[-0.4199619,51.7009401],[-0.4199473,51.7008883]]]}},
{"type":"Feature","properties":{"highway":"footway","name":null,"category":"Footpath (pedestrian only)"},"geometry":{"type":"MultiLineString","coordinates":[[[-0.4194056,51.7010912],[-0.4184469,51.7013466],[-0.4183924,51.7013719]]]}},
{"type":"Feature","properties":{"highway":"path","name":null,"category":"Shared path"},"geometry":{"type":"MultiLineString","coordinates":[[[-0.4200157,51.7009308],[-0.4202998,51.7014425]]]}},
{"type":"Feature","properties":{"highway":"path","name":null,"category":"Shared path"},"geometry":{"type":"MultiLineString","coordinates":[[[-0.4197186,51.7007034],[-0.4198063,51.7006473],[-0.4198469,51.7005828],[-0.4198977,51.7005372],[-0.4199748,51.7004942],[-0.4199228,51.7004113]]]}},
{"type":"Feature","properties":{"highway":"footway","name":null,"category":"Footpath (pedestrian only)"},"geometry":{"type":"MultiLineString","coordinates":[[[-0.4107074,51.7095657],[-0.4105179,51.7096248],[-0.4104519,51.709662],[-0.4098548,51.7097196],[-0.4093568,51.7097698],[-0.4086697,51.7098497],[-0.4085077,51.709872],[-0.4079963,51.7100524],[-0.4058612,51.7107582],[-0.405746,51.7107974],[-0.4049537,51.7115963],[-0.4041013,51.7123641],[-0.4040558,51.7123823]]]}},
{"type":"Feature","properties":{"highway":"footway","name":null,"category":"Footpath (pedestrian only)"},"geometry":{"type":"MultiLineString","coordinates":[[[-0.4061618,51.700864],[-0.4060453,51.7007036],[-0.4059577,51.7006325],[-0.4058749,51.700593],[-0.4057514,51.7005272],[-0.4055776,51.7004401],[-0.4054402,51.7004065],[-0.4053445,51.7003336],[-0.4051748,51.7002685]]]}},
{"type":"Feature","properties":{"highway":"footway","name":null,"category":"Footpath (pedestrian only)"},"geometry":{"type":"MultiLineString","coordinates":[[[-0.4065123,51.6998348],[-0.4064077,51.6998453],[-0.4063262,51.6998718],[-0.4061734,51.699921],[-0.4060309,51.6999614],[-0.4059351,51.6999867],[-0.4058699,51.6999943],[-0.4058412,51.6999735],[-0.4058007,51.6999463],[-0.4057422,51.6999437]]]}},
{"type":"Feature","properties":{"highway":"footway","name":null,"category":"Footpath (pedestrian only)"},"geometry":{"type":"MultiLineString","coordinates":[[[-0.4099312,51.6999586],[-0.4098247,51.6999737],[-0.4097888,51.6999792],[-0.4097512,51.6999818],[-0.4096,51.6999764],[-0.4093883,51.6999684],[-0.4091575,51.6999486],[-0.4092831,51.7000933],[-0.4093148,51.7001549],[-0.4093393,51.7002049],[-0.4093175,51.7002926]]]}},
{"type":"Feature","properties":{"highway":"footway","name":null,"category":"Footpath (pedestrian only)"},"geometry":{"type":"MultiLineString","coordinates":[[[-0.4071759,51.6999649],[-0.4071216,51.6999401],[-0.4070841,51.6999285],[-0.4070351,51.6999294],[-0.4069948,51.6999392],[-0.4069703,51.6999481],[-0.4069531,51.699966],[-0.406943,51.6999892],[-0.4069487,51.7000106],[-0.4069775,51.7000383],[-0.4070282,51.7000644]]]}},
{"type":"Feature","properties":{"highway":"footway","name":null,"category":"Footpath (pedestrian only)"},"geometry":{"type":"MultiLineString","coordinates":[[[-0.4076639,51.6996482],[-0.4076598,51.6996772],[-0.4076395,51.6997625],[-0.4076232,51.6998786],[-0.4076339,51.699912],[-0.4077596,51.7000932],[-0.4077657,51.7001349],[-0.4077515,51.7001689],[-0.4077148,51.7002068],[-0.4073691,51.7004496],[-0.406951,51.7007433],[-0.4066394,51.7009453],[-0.4065763,51.7010027],[-0.4065488,51.7010437],[-0.4065278,51.7010871]]]}},
{"type":"Feature","properties":{"highway":"footway","name":null,"category":"Footpath (pedestrian only)"},"geometry":{"type":"MultiLineString","coordinates":[[[-0.4091575,51.6999486],[-0.4088947,51.6998686],[-0.4087042,51.6998229],[-0.4086033,51.6998148],[-0.40854,51.6998211],[-0.408455,51.6998381],[-0.4083931,51.6998306],[-0.4083483,51.6998155],[-0.4083001,51.6998013],[-0.4081862,51.6997635],[-0.4081194,51.6997231],[-0.4081315,51.6996485],[-0.4080977,51.6995365],[-0.4080305,51.6994317],[-0.4079375,51.6993392],[-0.4078466,51.6992899],[-0.4077509,51.6992324],[-0.4076648,51.6991918],[-0.4076163,51.6991761],[-0.4075513,51.6991729],[-0.4073649,51.6991491],[-0.4072987,51.6991302],[-0.407231,51.6990779],[-0.4071664,51.6990336],[-0.4070587,51.6990055],[-0.4069099,51.6989074]]]}},
{"type":"Feature","properties":{"highway":"footway","name":null,"category":"Footpath (pedestrian only)"},"geometry":{"type":"MultiLineString","coordinates":[[[-0.4072857,51.7000919],[-0.4072973,51.7001285],[-0.4073691,51.7004496]]]}},
{"type":"Feature","properties":{"highway":"footway","name":null,"category":"Footpath (pedestrian only)"},"geometry":{"type":"MultiLineString","coordinates":[[[-0.4077515,51.7001689],[-0.4073491,51.7001035],[-0.4072857,51.7000919],[-0.4072437,51.7000729]]]}},
{"type":"Feature","properties":{"highway":"footway","name":null,"category":"Footpath (pedestrian only)"},"geometry":{"type":"MultiLineString","coordinates":[[[-0.406951,51.7007433],[-0.4070295,51.7007856],[-0.407098,51.7008296],[-0.4071885,51.7009153]]]}},
{"type":"Feature","properties":{"highway":"footway","name":null,"category":"Footpath (pedestrian only)"},"geometry":{"type":"MultiLineString","coordinates":[[[-0.4059577,51.7006325],[-0.4060411,51.700647],[-0.406164,51.7006381],[-0.4062592,51.7006267]]]}},
{"type":"Feature","properties":{"highway":"footway","name":null,"category":"Footpath (pedestrian only)"},"geometry":{"type":"MultiLineString","coordinates":[[[-0.4066394,51.7009453],[-0.4065539,51.7009699],[-0.4064866,51.7009857],[-0.4064215,51.7009958],[-0.4063361,51.7010018]]]}},
{"type":"Feature","properties":{"highway":"footway","name":null,"category":"Footpath (pedestrian only)"},"geometry":{"type":"MultiLineString","coordinates":[[[-0.4081194,51.6997231],[-0.4080474,51.6997207],[-0.4079694,51.6997132],[-0.40789,51.6997145],[-0.4077963,51.6996968],[-0.4076639,51.6996482],[-0.4076271,51.6996268]]]}},
{"type":"Feature","properties":{"highway":"footway","name":null,"category":"Footpath (pedestrian only)"},"geometry":{"type":"MultiLineString","coordinates":[[[-0.4069703,51.6999481],[-0.4069127,51.6999267],[-0.4068162,51.6998946],[-0.406701,51.6998633],[-0.4065858,51.6998464],[-0.4065123,51.6998348],[-0.4065123,51.6995295],[-0.4063129,51.6994205]]]}},
{"type":"Feature","properties":{"highway":"footway","name":null,"category":"Footpath (pedestrian only)"},"geometry":{"type":"MultiLineString","coordinates":[[[-0.4224751,51.6955101],[-0.4220887,51.6955882],[-0.4219302,51.6956171],[-0.4215289,51.6956715],[-0.4213926,51.695688],[-0.4211958,51.6957033],[-0.4207503,51.6957459],[-0.4202601,51.695789],[-0.4196113,51.6958277],[-0.4193399,51.6958329],[-0.4190587,51.695822],[-0.4179379,51.6957512],[-0.4178184,51.6957423],[-0.4175548,51.6957399],[-0.4174612,51.695748],[-0.4170742,51.6957971],[-0.4166275,51.6958977],[-0.4166071,51.6959235],[-0.4166016,51.6959528],[-0.4166061,51.6959762],[-0.4166222,51.6960023],[-0.4171706,51.6970334],[-0.417481,51.6981249],[-0.4176369,51.6985315],[-0.4176849,51.6986715],[-0.4177382,51.6988615]]]}},
{"type":"Feature","properties":{"highway":"footway","name":null,"category":"Footpath (pedestrian only)"},"geometry":{"type":"MultiLineString","coordinates":[[[-0.4183924,51.7013719],[-0.417126,51.7017929],[-0.415847,51.7020966]]]}},
{"type":"Feature","properties":{"highway":"footway","name":null,"category":"Footpath (pedestrian only)"},"geometry":{"type":"MultiLineString","coordinates":[[[-0.4040558,51.7123823],[-0.4039889,51.7123758],[-0.4036888,51.7123374],[-0.403359,51.7122569],[-0.403014,51.7121491],[-0.4023791,51.7118905],[-0.4020443,51.7117748],[-0.4017384,51.7116496],[-0.401608,51.7115811],[-0.401538,51.7115305],[-0.4014579,51.7114727],[-0.4013219,51.7113786],[-0.4011769,51.7112945],[-0.4010004,51.7112035],[-0.4006682,51.7110674],[-0.4004175,51.7109835],[-0.4001561,51.7109047],[-0.3998327,51.7108276],[-0.3991908,51.7106579],[-0.399104,51.7106503]]]}},
{"type":"Feature","properties":{"highway":"footway","name":null,"category":"Footpath (pedestrian only)"},"geometry":{"type":"MultiLineString","coordinates":[[[-0.419849,51.7095467],[-0.4197499,51.7094834],[-0.4191311,51.7090851],[-0.4191063,51.7090661],[-0.4190062,51.7090034],[-0.4184215,51.7086747],[-0.4183624,51.7086372],[-0.4181331,51.7084908],[-0.4179489,51.7083766],[-0.417451,51.7080994],[-0.4173447,51.7080831],[-0.4170768,51.7080419],[-0.4165775,51.7080149],[-0.4161049,51.7079957],[-0.4160562,51.707991]]]}},
{"type":"Feature","properties":{"highway":"footway","name":null,"category":"Footpath (pedestrian only)"},"geometry":{"type":"MultiLineString","coordinates":[[[-0.4158168,51.7044625],[-0.4157917,51.7044238],[-0.4149237,51.7041084],[-0.4148649,51.7040839]]]}},
{"type":"Feature","properties":{"highway":"footway","name":null,"category":"Footpath (pedestrian only)"},"geometry":{"type":"MultiLineString","coordinates":[[[-0.4148649,51.7040839],[-0.4147096,51.704029],[-0.414139,51.703819],[-0.4139025,51.7037102],[-0.4136279,51.7037283],[-0.4133452,51.7037454],[-0.4128707,51.7037908],[-0.4126843,51.7038531]]]}},
{"type":"Feature","properties":{"highway":"track","name":null,"category":"Track"},"geometry":{"type":"MultiLineString","coordinates":[[[-0.4080944,51.7107413],[-0.4084205,51.7107264],[-0.408918,51.7107881],[-0.409392,51.710843],[-0.4094408,51.7109383],[-0.4095295,51.7110067],[-0.4096543,51.7111838],[-0.4096688,51.7112432],[-0.4095204,51.7114192],[-0.4094662,51.7115156],[-0.4095096,51.7115638],[-0.4095808,51.7116006],[-0.4101099,51.711632],[-0.4107266,51.711644],[-0.4113602,51.7116462],[-0.4114691,51.7116523],[-0.4115587,51.7116711],[-0.4116668,51.7117009],[-0.4122367,51.7118969],[-0.4126383,51.7120327],[-0.4130568,51.7121595],[-0.4136073,51.7123171],[-0.4140232,51.7124446]]]}},
{"type":"Feature","properties":{"highway":"footway","name":null,"category":"Footpath (pedestrian only)"},"geometry":{"type":"MultiLineString","coordinates":[[[-0.4042566,51.7041164],[-0.4042376,51.7041359],[-0.4042012,51.7041798],[-0.4042376,51.7041899],[-0.4040322,51.7044802],[-0.404016,51.7045028],[-0.4040119,51.704526],[-0.4040109,51.7045505],[-0.4040109,51.7045724],[-0.4040696,51.7046884],[-0.4041445,51.7048257],[-0.404184,51.7048734],[-0.4043965,51.7050653],[-0.4048417,51.705555],[-0.4047233,51.7055519],[-0.4046343,51.7055544],[-0.4045118,51.7055713],[-0.4036358,51.7057247],[-0.4031745,51.7058602],[-0.4022534,51.7061308],[-0.4015694,51.7063117],[-0.4012195,51.7063799],[-0.4009324,51.7064358],[-0.4008542,51.7064504]]]}},
{"type":"Feature","properties":{"highway":"footway","name":null,"category":"Footpath (pedestrian only)"},"geometry":{"type":"MultiLineString","coordinates":[[[-0.4012947,51.7074611],[-0.4013528,51.7074418]]]}},
{"type":"Feature","properties":{"highway":"footway","name":null,"category":"Footpath (pedestrian only)"},"geometry":{"type":"MultiLineString","coordinates":[[[-0.3967078,51.7095089],[-0.396816,51.7095733]]]}},
{"type":"Feature","properties":{"highway":"footway","name":null,"category":"Footpath (pedestrian only)"},"geometry":{"type":"MultiLineString","coordinates":[[[-0.4013499,51.7075288],[-0.4012947,51.7074611],[-0.4012275,51.7074682],[-0.4010971,51.7074047]]]}},
{"type":"Feature","properties":{"highway":"footway","name":null,"category":"Footpath (pedestrian only)"},"geometry":{"type":"MultiLineString","coordinates":[[[-0.3966208,51.7095681],[-0.3967078,51.7095089],[-0.3968203,51.7094445],[-0.3991409,51.7082548],[-0.3997926,51.7080105],[-0.4007368,51.7077362],[-0.4013094,51.7075983],[-0.4013499,51.7075288]]]}},
{"type":"Feature","properties":{"highway":"footway","name":null,"category":"Footpath (pedestrian only)"},"geometry":{"type":"MultiLineString","coordinates":[[[-0.4019295,51.6984332],[-0.4021822,51.69841],[-0.4022665,51.6984112],[-0.4024135,51.6984314],[-0.4025694,51.6984529],[-0.4029717,51.698573],[-0.4030303,51.698595]]]}},
{"type":"Feature","properties":{"highway":"footway","name":null,"category":"Footpath (pedestrian only)"},"geometry":{"type":"MultiLineString","coordinates":[[[-0.3994529,51.6965515],[-0.399449,51.696509],[-0.3994165,51.6963277],[-0.399384,51.6961942],[-0.3993292,51.6960721],[-0.3992094,51.695916],[-0.3991565,51.6958518],[-0.3994389,51.6958694],[-0.3996928,51.6958933],[-0.399384,51.6961942]]]}},
{"type":"Feature","properties":{"highway":"footway","name":null,"category":"Footpath (pedestrian only)"},"geometry":{"type":"MultiLineString","coordinates":[[[-0.3996928,51.6958933],[-0.3997652,51.6958937],[-0.4000855,51.6959239],[-0.4005278,51.6959364],[-0.400551,51.6958925]]]}},
{"type":"Feature","properties":{"highway":"footway","name":null,"category":"Footpath (pedestrian only)"},"geometry":{"type":"MultiLineString","coordinates":[[[-0.3997652,51.6958937],[-0.3997982,51.6957868],[-0.3998169,51.6957405],[-0.3998571,51.6957014],[-0.3999404,51.6956462],[-0.3999868,51.6956404]]]}},
{"type":"Feature","properties":{"highway":"footway","name":null,"category":"Footpath (pedestrian only)"},"geometry":{"type":"MultiLineString","coordinates":[[[-0.3991565,51.6958518],[-0.3990875,51.6956944],[-0.3990895,51.6956415],[-0.3990794,51.6955307],[-0.3990895,51.6954086],[-0.3991224,51.6953181],[-0.3991726,51.6952407]]]}},
{"type":"Feature","properties":{"highway":"footway","name":null,"category":"Footpath (pedestrian only)"},"geometry":{"type":"MultiLineString","coordinates":[[[-0.4087852,51.7023871],[-0.4087833,51.7024199],[-0.4087715,51.7025454],[-0.4087754,51.7028348],[-0.4085651,51.7029623],[-0.4085524,51.7030086]]]}},
{"type":"Feature","properties":{"highway":"footway","name":"FP66","category":"Footpath (pedestrian only)"},"geometry":{"type":"MultiLineString","coordinates":[[[-0.4084477,51.7021963],[-0.4083921,51.7022032],[-0.4079209,51.7022006],[-0.4078704,51.7021998]]]}},
{"type":"Feature","properties":{"highway":"footway","name":null,"category":"Footpath (pedestrian only)"},"geometry":{"type":"MultiLineString","coordinates":[[[-0.4084707,51.7018086],[-0.4084204,51.7016551],[-0.4084232,51.7015983],[-0.4083898,51.7015655]]]}},
{"type":"Feature","properties":{"highway":"footway","name":null,"category":"Footpath (pedestrian only)"},"geometry":{"type":"MultiLineString","coordinates":[[[-0.4094563,51.7015089],[-0.4094055,51.701533],[-0.4092684,51.7015638],[-0.4089748,51.7016078],[-0.4088541,51.7016259],[-0.4089348,51.7018878],[-0.4089452,51.7019175]]]}},
{"type":"Feature","properties":{"highway":"footway","name":null,"category":"Footpath (pedestrian only)"},"geometry":{"type":"MultiLineString","coordinates":[[[-0.4129745,51.7020508],[-0.4129455,51.7019937],[-0.4128796,51.7018932],[-0.4128121,51.7018095],[-0.412374,51.7013789],[-0.4123542,51.7013594],[-0.4121051,51.7011294],[-0.4120754,51.7011012]]]}},
{"type":"Feature","properties":{"highway":"footway","name":null,"category":"Footpath (pedestrian only)"},"geometry":{"type":"MultiLineString","coordinates":[[[-0.4191758,51.7046697],[-0.4191096,51.704619],[-0.41909,51.7045918],[-0.4190296,51.7045099],[-0.4189604,51.7044389],[-0.4188999,51.7043905],[-0.4188407,51.704314],[-0.4188042,51.704254],[-0.4187891,51.704204],[-0.4187853,51.7041572],[-0.4187375,51.7041002]]]}},
{"type":"Feature","properties":{"highway":"footway","name":null,"category":"Footpath (pedestrian only)"},"geometry":{"type":"MultiLineString","coordinates":[[[-0.4174847,51.7043812],[-0.4180712,51.704188],[-0.4183873,51.7040926],[-0.4184024,51.704109],[-0.4184654,51.7040895],[-0.4185517,51.704063],[-0.4185854,51.7041024]]]}},
{"type":"Feature","properties":{"highway":"footway","name":null,"category":"Footpath (pedestrian only)"},"geometry":{"type":"MultiLineString","coordinates":[[[-0.4165178,51.7046427],[-0.4155829,51.7048942],[-0.4145088,51.7051453],[-0.4143623,51.7052093],[-0.4141438,51.7052494],[-0.4140396,51.7051947]]]}},
{"type":"Feature","properties":{"highway":"footway","name":null,"category":"Footpath (pedestrian only)"},"geometry":{"type":"MultiLineString","coordinates":[[[-0.4142957,51.7059342],[-0.4142278,51.7059465],[-0.4130744,51.7061694],[-0.4130323,51.7061704],[-0.4129945,51.7061513],[-0.4129373,51.7061586]]]}},
{"type":"Feature","properties":{"highway":"footway","name":null,"category":"Footpath (pedestrian only)"},"geometry":{"type":"MultiLineString","coordinates":[[[-0.4166469,51.707408],[-0.4163213,51.707597],[-0.4160562,51.707991]]]}},
{"type":"Feature","properties":{"highway":"footway","name":null,"category":"Footpath (pedestrian only)"},"geometry":{"type":"MultiLineString","coordinates":[[[-0.4159582,51.7016744],[-0.415953,51.701661]]]}},
{"type":"Feature","properties":{"highway":"footway","name":null,"category":"Footpath (pedestrian only)"},"geometry":{"type":"MultiLineString","coordinates":[[[-0.415937,51.70162],[-0.4159339,51.7016121],[-0.4156975,51.7016459]]]}},
{"type":"Feature","properties":{"highway":"footway","name":null,"category":"Footpath (pedestrian only)"},"geometry":{"type":"MultiLineString","coordinates":[[[-0.4157217,51.7017083],[-0.4159582,51.7016744],[-0.4160377,51.7016636]]]}},
{"type":"Feature","properties":{"highway":"footway","name":null,"category":"Footpath (pedestrian only)"},"geometry":{"type":"MultiLineString","coordinates":[[[-0.415953,51.701661],[-0.4159452,51.7016411],[-0.415937,51.70162]]]}},
{"type":"Feature","properties":{"highway":"footway","name":null,"category":"Footpath (pedestrian only)"},"geometry":{"type":"MultiLineString","coordinates":[[[-0.4159339,51.7016121],[-0.4159869,51.7016032],[-0.4160023,51.7015951],[-0.4160166,51.7015538]]]}},
{"type":"Feature","properties":{"highway":"footway","name":null,"category":"Footpath (pedestrian only)"},"geometry":{"type":"MultiLineString","coordinates":[[[-0.4191876,51.7004396],[-0.4191825,51.700426],[-0.419268,51.700406],[-0.4197289,51.7002985],[-0.4198413,51.7002682]]]}},
{"type":"Feature","properties":{"highway":"footway","name":null,"category":"Footpath (pedestrian only)"},"geometry":{"type":"MultiLineString","coordinates":[[[-0.4156975,51.7016459],[-0.4157015,51.7016562],[-0.4157182,51.7016993],[-0.4157217,51.7017083]]]}},
{"type":"Feature","properties":{"highway":"footway","name":null,"category":"Footpath (pedestrian only)"},"geometry":{"type":"MultiLineString","coordinates":[[[-0.4157182,51.7016993],[-0.4157055,51.7017012],[-0.4157088,51.7017097],[-0.4156963,51.7017116],[-0.4156846,51.7016815],[-0.4156731,51.7016487],[-0.4156852,51.7016469],[-0.4156895,51.701658],[-0.4157015,51.7016562]]]}},
{"type":"Feature","properties":{"highway":"footway","name":null,"category":"Footpath (pedestrian only)"},"geometry":{"type":"MultiLineString","coordinates":[[[-0.4083764,51.7051483],[-0.4075998,51.7054505],[-0.4069625,51.7056999],[-0.4063978,51.7059118],[-0.4059648,51.7061369],[-0.404868,51.7063953],[-0.4044244,51.7064902],[-0.4035543,51.706758],[-0.4028712,51.7069651],[-0.4014564,51.707394],[-0.4013528,51.7074418]]]}},
{"type":"Feature","properties":{"highway":"footway","name":null,"category":"Footpath (pedestrian only)"},"geometry":{"type":"MultiLineString","coordinates":[[[-0.4088017,51.7048605],[-0.4089069,51.705005],[-0.4084249,51.7051341],[-0.4086351,51.7053984],[-0.408803,51.7055301],[-0.4088578,51.7055864],[-0.4090338,51.7057671],[-0.4094486,51.7056229],[-0.409481,51.7056066],[-0.4094995,51.7055898],[-0.4095124,51.705573],[-0.4095109,51.7055553]]]}},
{"type":"Feature","properties":{"highway":"footway","name":null,"category":"Footpath (pedestrian only)"},"geometry":{"type":"MultiLineString","coordinates":[[[-0.4003032,51.705512],[-0.4003538,51.7055232],[-0.4003766,51.7055504],[-0.4003976,51.705583],[-0.4004414,51.7057323],[-0.4004817,51.705855],[-0.4005238,51.7059614],[-0.4007525,51.7064192],[-0.4007751,51.7064622],[-0.4011591,51.7073666],[-0.4012947,51.7074611]]]}},
{"type":"Feature","properties":{"highway":"footway","name":null,"category":"Footpath (pedestrian only)"},"geometry":{"type":"MultiLineString","coordinates":[[[-0.4070777,51.704893],[-0.407097,51.7049238],[-0.4071162,51.7049339],[-0.4071253,51.7049452],[-0.4071344,51.7050292],[-0.4071405,51.7050492],[-0.4071789,51.7051176],[-0.4071971,51.7051358],[-0.4073875,51.7052762],[-0.4074016,51.7053001],[-0.4074157,51.7053289],[-0.4075831,51.70544],[-0.4075998,51.7054505]]]}},
{"type":"Feature","properties":{"highway":"footway","name":null,"category":"Footpath (pedestrian only)"},"geometry":{"type":"MultiLineString","coordinates":[[[-0.4116322,51.7039374],[-0.4115364,51.7039624],[-0.4114691,51.7039751],[-0.4112066,51.7040221],[-0.4109228,51.7040838],[-0.4108194,51.7040982],[-0.4106897,51.7041101],[-0.4106292,51.7041157],[-0.4103425,51.7041655],[-0.4103256,51.7041684],[-0.410014,51.7042143],[-0.4098237,51.7042424],[-0.4097367,51.7042662],[-0.4093805,51.7044218],[-0.409338,51.7044443],[-0.4090324,51.7047014],[-0.409022,51.7047086],[-0.4088017,51.7048605]]]}},
{"type":"Feature","properties":{"highway":"footway","name":null,"category":"Footpath (pedestrian only)"},"geometry":{"type":"MultiLineString","coordinates":[[[-0.4022534,51.7061308],[-0.4028022,51.7068814]]]}},
{"type":"Feature","properties":{"highway":"footway","name":null,"category":"Footpath (pedestrian only)"},"geometry":{"type":"MultiLineString","coordinates":[[[-0.4063978,51.7059118],[-0.4063915,51.7059063]]]}},
{"type":"Feature","properties":{"highway":"footway","name":null,"category":"Footpath (pedestrian only)"},"geometry":{"type":"MultiLineString","coordinates":[[[-0.4028712,51.7069651],[-0.4028466,51.7069391],[-0.4028022,51.7068814]]]}},
{"type":"Feature","properties":{"highway":"footway","name":null,"category":"Footpath (pedestrian only)"},"geometry":{"type":"MultiLineString","coordinates":[[[-0.4008542,51.7064504],[-0.4008067,51.7064577],[-0.4007751,51.7064622]]]}},
{"type":"Feature","properties":{"highway":"footway","name":null,"category":"Footpath (pedestrian only)"},"geometry":{"type":"MultiLineString","coordinates":[[[-0.4095109,51.7055553],[-0.4094923,51.7055366],[-0.4095458,51.7055113]]]}},
{"type":"Feature","properties":{"highway":"footway","name":null,"category":"Footpath (pedestrian only)"},"geometry":{"type":"MultiLineString","coordinates":[[[-0.4088017,51.7048605],[-0.4087074,51.7049335],[-0.4084047,51.7051124],[-0.4084249,51.7051341],[-0.4083764,51.7051483]]]}},
{"type":"Feature","properties":{"highway":"footway","name":null,"category":"Footpath (pedestrian only)"},"geometry":{"type":"MultiLineString","coordinates":[[[-0.4041445,51.7048257],[-0.4041036,51.7048756],[-0.4040635,51.7049395],[-0.4040578,51.7049608],[-0.4040578,51.7049838],[-0.4040773,51.705011]]]}},
{"type":"Feature","properties":{"highway":"footway","name":null,"category":"Footpath (pedestrian only)"},"geometry":{"type":"MultiLineString","coordinates":[[[-0.4063915,51.7059063],[-0.4062916,51.7058497],[-0.406172,51.705782],[-0.4061319,51.7057643],[-0.4060833,51.7057661],[-0.4053205,51.7059177],[-0.4052719,51.7059088],[-0.4052203,51.7058769],[-0.4049742,51.7056996],[-0.4048417,51.705555]]]}},
{"type":"Feature","properties":{"highway":"footway","name":null,"category":"Footpath (pedestrian only)"},"geometry":{"type":"MultiLineString","coordinates":[[[-0.4063915,51.7059063],[-0.4063868,51.705826],[-0.4063997,51.7055271],[-0.4063969,51.7054633],[-0.4063926,51.7054375],[-0.4063868,51.7054269],[-0.4063754,51.7054189],[-0.4063425,51.7054127],[-0.40635,51.7053798]]]}},
{"type":"Feature","properties":{"highway":"footway","name":null,"category":"Footpath (pedestrian only)"},"geometry":{"type":"MultiLineString","coordinates":[[[-0.4065014,51.7015089],[-0.4064514,51.7015017],[-0.406392,51.7014883],[-0.4061639,51.7014099],[-0.4059809,51.701335],[-0.4057944,51.7012283],[-0.405655,51.7011499],[-0.4056156,51.7011211],[-0.4055583,51.7010733],[-0.4055373,51.7010453],[-0.4054584,51.7008588],[-0.4053966,51.7007473],[-0.405352,51.7006834],[-0.4053329,51.7006447],[-0.4053317,51.7006116],[-0.405352,51.7005603],[-0.4054402,51.7004065]]]}},
{"type":"Feature","properties":{"highway":"footway","name":null,"category":"Footpath (pedestrian only)"},"geometry":{"type":"MultiLineString","coordinates":[[[-0.4071447,51.7000239],[-0.4071111,51.7000092]]]}},
{"type":"Feature","properties":{"highway":"footway","name":null,"category":"Footpath (pedestrian only)"},"geometry":{"type":"MultiLineString","coordinates":[[[-0.405655,51.7011499],[-0.4056381,51.7011039],[-0.4056368,51.7010597],[-0.4056381,51.7010273],[-0.4056521,51.7009358],[-0.4056903,51.7008514],[-0.4057488,51.7007631],[-0.4058749,51.700593]]]}},
{"type":"Feature","properties":{"highway":"footway","name":null,"category":"Footpath (pedestrian only)"},"geometry":{"type":"MultiLineString","coordinates":[[[-0.413333,51.7018862],[-0.4134547,51.7019469],[-0.4136271,51.7021961],[-0.4137709,51.7023048],[-0.4148536,51.7030344],[-0.4149986,51.7031375],[-0.4151417,51.7032183],[-0.415313,51.7033449],[-0.4154479,51.7034185],[-0.4156234,51.7027961],[-0.4156448,51.7026812],[-0.415847,51.7020966],[-0.4156963,51.7017116]]]}},
{"type":"Feature","properties":{"highway":"footway","name":null,"category":"Footpath (pedestrian only)"},"geometry":{"type":"MultiLineString","coordinates":[[[-0.4135469,51.7018761],[-0.4135712,51.7019136],[-0.4135027,51.7019324],[-0.4134547,51.7019469]]]}},
{"type":"Feature","properties":{"highway":"footway","name":null,"category":"Footpath (pedestrian only)"},"geometry":{"type":"MultiLineString","coordinates":[[[-0.4145741,51.696344],[-0.4143535,51.6960041],[-0.4142314,51.69582],[-0.4141814,51.6957469],[-0.4142296,51.695724],[-0.414299,51.6956798],[-0.4143383,51.6956312],[-0.4143814,51.69552],[-0.4144131,51.6954993],[-0.4144505,51.6954916]]]}},
{"type":"Feature","properties":{"highway":"footway","name":null,"category":"Footpath (pedestrian only)"},"geometry":{"type":"MultiLineString","coordinates":[[[-0.409018,51.6967301],[-0.4088953,51.6967356],[-0.4087698,51.6967303]]]}},
{"type":"Feature","properties":{"highway":"footway","name":null,"category":"Footpath (pedestrian only)"},"geometry":{"type":"MultiLineString","coordinates":[[[-0.40351,51.6931742],[-0.4035067,51.693064],[-0.4038021,51.6927983],[-0.403583,51.69269],[-0.4034675,51.6926911],[-0.4030418,51.6926936]]]}},
{"type":"Feature","properties":{"highway":"footway","name":null,"category":"Footpath (pedestrian only)"},"geometry":{"type":"MultiLineString","coordinates":[[[-0.4034675,51.6926911],[-0.4034655,51.6923169]]]}},
{"type":"Feature","properties":{"highway":"footway","name":null,"category":"Footpath (pedestrian only)"},"geometry":{"type":"MultiLineString","coordinates":[[[-0.402582,51.692932],[-0.402588,51.6921418]]]}},
{"type":"Feature","properties":{"highway":"footway","name":null,"category":"Footpath (pedestrian only)"},"geometry":{"type":"MultiLineString","coordinates":[[[-0.4038021,51.6927983],[-0.4039339,51.6928877],[-0.4041009,51.6927205],[-0.4041053,51.6926845],[-0.4042434,51.6926116]]]}},
{"type":"Feature","properties":{"highway":"footway","name":null,"category":"Footpath (pedestrian only)"},"geometry":{"type":"MultiLineString","coordinates":[[[-0.4041053,51.6926845],[-0.4034655,51.6923169]]]}},
{"type":"Feature","properties":{"highway":"footway","name":null,"category":"Footpath (pedestrian only)"},"geometry":{"type":"MultiLineString","coordinates":[[[-0.403583,51.69269],[-0.4041053,51.6926845]]]}},
{"type":"Feature","properties":{"highway":"footway","name":null,"category":"Footpath (pedestrian only)"},"geometry":{"type":"MultiLineString","coordinates":[[[-0.4045562,51.6925721],[-0.4046034,51.6925221],[-0.4050085,51.6926717]]]}},
{"type":"Feature","properties":{"highway":"footway","name":null,"category":"Footpath (pedestrian only)"},"geometry":{"type":"MultiLineString","coordinates":[[[-0.4045525,51.6932021],[-0.4050085,51.6926717],[-0.4053117,51.6924094],[-0.4054832,51.692261],[-0.4056334,51.6921264],[-0.4058169,51.6920159]]]}},
{"type":"Feature","properties":{"highway":"footway","name":null,"category":"Footpath (pedestrian only)"},"geometry":{"type":"MultiLineString","coordinates":[[[-0.4045525,51.6932021],[-0.4043644,51.6931639],[-0.4039339,51.6928877]]]}},
{"type":"Feature","properties":{"highway":"footway","name":null,"category":"Footpath (pedestrian only)"},"geometry":{"type":"MultiLineString","coordinates":[[[-0.4053117,51.6924094],[-0.4045205,51.6920378],[-0.4044409,51.6919664],[-0.4044026,51.691932],[-0.4041131,51.6913614]]]}},
{"type":"Feature","properties":{"highway":"footway","name":null,"category":"Footpath (pedestrian only)"},"geometry":{"type":"MultiLineString","coordinates":[[[-0.4054263,51.6929831],[-0.4052726,51.6930174],[-0.4050285,51.6932967],[-0.4047281,51.6932352],[-0.4045525,51.6932021]]]}},
{"type":"Feature","properties":{"highway":"footway","name":null,"category":"Footpath (pedestrian only)"},"geometry":{"type":"MultiLineString","coordinates":[[[-0.416932,51.6966978],[-0.4167944,51.6967368],[-0.4167719,51.6967661],[-0.416745,51.6967855],[-0.4165036,51.6968454],[-0.4163485,51.6968838],[-0.41551,51.6970917],[-0.4154917,51.697096],[-0.4143002,51.6973746],[-0.4139269,51.6974619],[-0.4138603,51.6974787],[-0.4134576,51.6975803],[-0.4132375,51.697661],[-0.4129748,51.6977821],[-0.4123371,51.6980952],[-0.4122877,51.6981178],[-0.4119846,51.6982567],[-0.4116812,51.6983692],[-0.4116678,51.698438],[-0.4110678,51.6985926],[-0.4107664,51.6986589],[-0.4105561,51.698708],[-0.4103043,51.698762],[-0.4100817,51.6988357],[-0.4099766,51.6987973]]]}},
{"type":"Feature","properties":{"highway":"footway","name":null,"category":"Footpath (pedestrian only)"},"geometry":{"type":"MultiLineString","coordinates":[[[-0.4144945,51.6963613],[-0.414521,51.6964022],[-0.4145917,51.6965322],[-0.4146191,51.6966023],[-0.4146337,51.6966398],[-0.4146883,51.6967893],[-0.4146978,51.6968733],[-0.4146765,51.6969793],[-0.4146111,51.6971008],[-0.4145458,51.6971767],[-0.4144911,51.6972312],[-0.4144032,51.6972982],[-0.4143002,51.6973746]]]}},
{"type":"Feature","properties":{"highway":"footway","name":null,"category":"Footpath (pedestrian only)"},"geometry":{"type":"MultiLineString","coordinates":[[[-0.4154917,51.697096],[-0.4153902,51.6970958],[-0.4153071,51.6970787],[-0.4151911,51.6970433],[-0.4149315,51.6969521],[-0.4148052,51.6969038],[-0.4146978,51.6968733],[-0.4145836,51.6968759],[-0.4143863,51.6968727],[-0.4143115,51.6968852],[-0.4142582,51.6968942],[-0.4141457,51.6969274],[-0.413533,51.6970905],[-0.4130622,51.6972021],[-0.4126347,51.6972975],[-0.4122746,51.6973769],[-0.4120306,51.697422],[-0.4118904,51.6974499],[-0.411835,51.6974767],[-0.4117917,51.6975078],[-0.411764,51.6975421],[-0.4117433,51.6975786],[-0.4117346,51.6976398],[-0.4117415,51.6976891],[-0.4117779,51.6977567],[-0.4118263,51.6978414],[-0.4118333,51.6979273],[-0.4118305,51.6979421],[-0.411809,51.698056],[-0.4117969,51.6981172],[-0.4117606,51.6982116],[-0.4116812,51.6983692]]]}},
{"type":"Feature","properties":{"highway":"footway","name":null,"category":"Footpath (pedestrian only)"},"geometry":{"type":"MultiLineString","coordinates":[[[-0.4122877,51.6981178],[-0.4121691,51.6981365],[-0.4120842,51.6981311],[-0.4119908,51.6981032],[-0.4119233,51.698056],[-0.4118713,51.6980024],[-0.4118305,51.6979421]]]}},
{"type":"Feature","properties":{"highway":"footway","name":null,"category":"Footpath (pedestrian only)"},"geometry":{"type":"MultiLineString","coordinates":[[[-0.4117415,51.6976891],[-0.4116533,51.6976264],[-0.4115625,51.6975925],[-0.4114616,51.6975662],[-0.4113583,51.6975601],[-0.411245,51.6975647],[-0.4111118,51.6976149],[-0.4110921,51.6976247],[-0.4110545,51.6976434],[-0.4108964,51.6976774]]]}},
{"type":"Feature","properties":{"highway":"footway","name":null,"category":"Footpath (pedestrian only)"},"geometry":{"type":"MultiLineString","coordinates":[[[-0.4143115,51.6968852],[-0.4144417,51.6968379],[-0.4145088,51.6968036],[-0.4145735,51.6967496],[-0.4146053,51.6967029],[-0.4146337,51.6966398]]]}},
{"type":"Feature","properties":{"highway":"footway","name":null,"category":"Footpath (pedestrian only)"},"geometry":{"type":"MultiLineString","coordinates":[[[-0.4103536,51.6973558],[-0.4104307,51.697497],[-0.410463,51.6975281],[-0.4105079,51.6975437],[-0.41056,51.6975549],[-0.4106857,51.6975782],[-0.4107702,51.6976027],[-0.4108456,51.6976417],[-0.4108964,51.6976774],[-0.4109175,51.6977141],[-0.4109426,51.6977753],[-0.4109426,51.697821],[-0.4109265,51.69787],[-0.4109067,51.6979045],[-0.4108798,51.6979434],[-0.4108672,51.697978],[-0.410869,51.6980147],[-0.4108834,51.6980403],[-0.4109103,51.698086],[-0.4109211,51.6981316],[-0.4109175,51.6981695],[-0.4109067,51.698204],[-0.4108834,51.6982407],[-0.4108474,51.6982663],[-0.4107971,51.6982964],[-0.4107522,51.6983131],[-0.4106899,51.6983252],[-0.410666,51.6983298],[-0.4106121,51.6983343],[-0.4105438,51.6983354],[-0.4104666,51.6983176],[-0.4103983,51.6982931],[-0.4103516,51.6982641],[-0.4103139,51.6982363],[-0.4102887,51.6981984],[-0.4102816,51.6981528],[-0.4102816,51.6981049],[-0.4102977,51.6980559],[-0.4103031,51.6980013],[-0.4102905,51.6979768],[-0.4102744,51.697949],[-0.4102384,51.6979089],[-0.4101881,51.6978766],[-0.4101181,51.6978488],[-0.4100498,51.6978366],[-0.4099744,51.6978288],[-0.4099007,51.697831],[-0.409853,51.6978333],[-0.4098325,51.6978343],[-0.4097624,51.697831],[-0.4097157,51.6978121],[-0.4096654,51.6977876],[-0.4096277,51.6977586],[-0.4096133,51.6977219],[-0.4096061,51.6976796],[-0.4096169,51.6976406],[-0.4096438,51.697605],[-0.4096852,51.6975749],[-0.409739,51.6975604],[-0.4097947,51.6975504],[-0.4098666,51.6975482],[-0.4099259,51.6975593],[-0.4100085,51.6975771],[-0.4100696,51.6975805],[-0.4101756,51.6975816],[-0.41026,51.6975716],[-0.4103337,51.6975526],[-0.410384,51.6975103],[-0.4104115,51.6974619]]]}},
{"type":"Feature","properties":{"highway":"footway","name":null,"category":"Footpath (pedestrian only)"},"geometry":{"type":"MultiLineString","coordinates":[[[-0.409853,51.6978333],[-0.4098504,51.6978755],[-0.4098271,51.6979056],[-0.4097858,51.6979457],[-0.4097265,51.6979802],[-0.409669,51.6980047],[-0.4096169,51.6980203],[-0.409489,51.6980446]]]}},
{"type":"Feature","properties":{"highway":"footway","name":null,"category":"Footpath (pedestrian only)"},"geometry":{"type":"MultiLineString","coordinates":[[[-0.409669,51.6980047],[-0.4097301,51.6980103],[-0.4097696,51.6980292],[-0.4098019,51.6980548],[-0.4098325,51.6980771],[-0.4098702,51.6980926],[-0.4098953,51.6981004]]]}},
{"type":"Feature","properties":{"highway":"footway","name":null,"category":"Footpath (pedestrian only)"},"geometry":{"type":"MultiLineString","coordinates":[[[-0.4102887,51.6981984],[-0.4102438,51.6982185],[-0.4102151,51.6982441],[-0.4101953,51.6982708],[-0.4101881,51.6983009],[-0.4101881,51.6983343],[-0.4102061,51.6983855],[-0.410242,51.6984189],[-0.4102852,51.6984456],[-0.4103283,51.6984634],[-0.4103929,51.6984734],[-0.4104576,51.6984757],[-0.4105223,51.698469],[-0.4105762,51.6984545],[-0.4106229,51.6984267],[-0.410657,51.6984011],[-0.4106822,51.6983743],[-0.4106911,51.6983487],[-0.4106899,51.6983252]]]}},
{"type":"Feature","properties":{"highway":"footway","name":null,"category":"Footpath (pedestrian only)"},"geometry":{"type":"MultiLineString","coordinates":[[[-0.4143814,51.69552],[-0.4139883,51.6954783],[-0.413472,51.6954229]]]}},
{"type":"Feature","properties":{"highway":"footway","name":null,"category":"Footpath (pedestrian only)"},"geometry":{"type":"MultiLineString","coordinates":[[[-0.4139883,51.6954783],[-0.4138617,51.6952482],[-0.4137131,51.6951465]]]}},
{"type":"Feature","properties":{"highway":"track","name":"East Lane","category":"Track"},"geometry":{"type":"MultiLineString","coordinates":[[[-0.4038124,51.7079296],[-0.4052819,51.7095327]]]}},
{"type":"Feature","properties":{"highway":"track","name":"East Lane","category":"Track"},"geometry":{"type":"MultiLineString","coordinates":[[[-0.4052819,51.7095327],[-0.4052905,51.7103943],[-0.405746,51.7107974],[-0.4061745,51.7111548],[-0.4067871,51.7119437]]]}},
{"type":"Feature","properties":{"highway":"track","name":"East Lane","category":"Track"},"geometry":{"type":"MultiLineString","coordinates":[[[-0.4067871,51.7119437],[-0.40705,51.7122823],[-0.4071855,51.7128359]]]}},
{"type":"Feature","properties":{"highway":"track","name":"East Lane","category":"Track"},"geometry":{"type":"MultiLineString","coordinates":[[[-0.4071855,51.7128359],[-0.4072505,51.7130824],[-0.4072829,51.7132144],[-0.407363,51.7136289]]]}},
{"type":"Feature","properties":{"highway":"track","name":null,"category":"Track"},"geometry":{"type":"MultiLineString","coordinates":[[[-0.3966123,51.706925],[-0.3966187,51.7069847],[-0.3965612,51.7071058],[-0.3963916,51.7072519],[-0.3962996,51.7072804],[-0.3961243,51.7072626],[-0.3951928,51.7071094],[-0.3951497,51.7070719],[-0.3952101,51.7069508],[-0.3952676,51.7068457],[-0.3953366,51.706778],[-0.3955062,51.7067602],[-0.3956413,51.7067638],[-0.3957908,51.7067032],[-0.3958483,51.7066248]]]}},
{"type":"Feature","properties":{"highway":"path","name":null,"category":"Shared path"},"geometry":{"type":"MultiLineString","coordinates":[[[-0.4017058,51.6988251],[-0.4016658,51.6989109],[-0.4014309,51.6994499]]]}},
{"type":"Feature","properties":{"highway":"path","name":null,"category":"Shared path"},"geometry":{"type":"MultiLineString","coordinates":[[[-0.3960924,51.6972883],[-0.395546,51.6967073]]]}},
{"type":"Feature","properties":{"highway":"path","name":null,"category":"Shared path"},"geometry":{"type":"MultiLineString","coordinates":[[[-0.4104867,51.7046212],[-0.4104415,51.7046484],[-0.4101319,51.7046985],[-0.409923,51.7047323],[-0.4097744,51.7047139],[-0.4097543,51.7046761]]]}},
{"type":"Feature","properties":{"highway":"path","name":null,"category":"Shared path"},"geometry":{"type":"MultiLineString","coordinates":[[[-0.4097744,51.7047139],[-0.4096556,51.7050218],[-0.4092045,51.7052423]]]}},
{"type":"Feature","properties":{"highway":"path","name":null,"category":"Shared path"},"geometry":{"type":"MultiLineString","coordinates":[[[-0.4091167,51.7051731],[-0.4090447,51.7051968],[-0.4086351,51.7053984]]]}},
{"type":"Feature","properties":{"highway":"path","name":null,"category":"Shared path"},"geometry":{"type":"MultiLineString","coordinates":[[[-0.4090068,51.7049922],[-0.4089069,51.705005]]]}},
{"type":"Feature","properties":{"highway":"path","name":null,"category":"Shared path"},"geometry":{"type":"MultiLineString","coordinates":[[[-0.4093892,51.7053878],[-0.4093088,51.7054342],[-0.4088578,51.7055864]]]}},
{"type":"Feature","properties":{"highway":"path","name":null,"category":"Shared path"},"geometry":{"type":"MultiLineString","coordinates":[[[-0.4094655,51.705448],[-0.4099115,51.7051674],[-0.4099395,51.7051497],[-0.4101344,51.7047231],[-0.4101319,51.7046985]]]}},
{"type":"Feature","properties":{"highway":"path","name":null,"category":"Shared path"},"geometry":{"type":"MultiLineString","coordinates":[[[-0.4099395,51.7051497],[-0.4101707,51.7049359],[-0.4101344,51.7047231]]]}},
{"type":"Feature","properties":{"highway":"path","name":null,"category":"Shared path"},"geometry":{"type":"MultiLineString","coordinates":[[[-0.4104415,51.7046484],[-0.4104712,51.7046637],[-0.4105472,51.7049144],[-0.4105505,51.7049891],[-0.4101783,51.7053054],[-0.4101383,51.7053556],[-0.4099065,51.7055652],[-0.409808,51.705669]]]}},
{"type":"Feature","properties":{"highway":"path","name":null,"category":"Shared path"},"geometry":{"type":"MultiLineString","coordinates":[[[-0.4101783,51.7053054],[-0.4101222,51.7053428],[-0.4097216,51.7055897],[-0.4096875,51.705618]]]}},
{"type":"Feature","properties":{"highway":"path","name":null,"category":"Shared path"},"geometry":{"type":"MultiLineString","coordinates":[[[-0.4112985,51.7054032],[-0.4109048,51.7057534]]]}},
{"type":"Feature","properties":{"highway":"footway","name":null,"category":"Footpath (pedestrian only)"},"geometry":{"type":"MultiLineString","coordinates":[[[-0.4091826,51.6922031],[-0.409121,51.6921888],[-0.4090628,51.6921752]]]}},
{"type":"Feature","properties":{"highway":"footway","name":null,"category":"Footpath (pedestrian only)"},"geometry":{"type":"MultiLineString","coordinates":[[[-0.4035392,51.6994891],[-0.4036201,51.6995141],[-0.4037048,51.69954],[-0.4040728,51.6997143],[-0.4044766,51.6999056],[-0.4046074,51.699915]]]}},
{"type":"Feature","properties":{"highway":"footway","name":null,"category":"Footpath (pedestrian only)"},"geometry":{"type":"MultiLineString","coordinates":[[[-0.402633,51.7014793],[-0.4027507,51.7014872],[-0.4028321,51.7014924]]]}},
{"type":"Feature","properties":{"highway":"footway","name":null,"category":"Footpath (pedestrian only)"},"geometry":{"type":"MultiLineString","coordinates":[[[-0.4171187,51.7062916],[-0.417047,51.7062664],[-0.4169996,51.7062464]]]}},
{"type":"Feature","properties":{"highway":"footway","name":null,"category":"Footpath (pedestrian only)"},"geometry":{"type":"MultiLineString","coordinates":[[[-0.4110028,51.701976],[-0.4110735,51.7019666],[-0.4111409,51.7019579]]]}},
{"type":"Feature","properties":{"highway":"footway","name":null,"category":"Footpath (pedestrian only)"},"geometry":{"type":"MultiLineString","coordinates":[[[-0.3982678,51.6991467],[-0.3980144,51.6991395],[-0.3977876,51.6991973],[-0.3976721,51.6993687],[-0.3976689,51.6994363],[-0.3976976,51.6995171],[-0.3973859,51.6998323]]]}},
{"type":"Feature","properties":{"highway":"footway","name":null,"category":"Footpath (pedestrian only)"},"geometry":{"type":"MultiLineString","coordinates":[[[-0.3929418,51.6975807],[-0.3929039,51.697602],[-0.3928672,51.6976226]]]}},
{"type":"Feature","properties":{"highway":"footway","name":null,"category":"Footpath (pedestrian only)"},"geometry":{"type":"MultiLineString","coordinates":[[[-0.3963381,51.6992484],[-0.3962839,51.69929],[-0.3962377,51.6993254]]]}},
{"type":"Feature","properties":{"highway":"footway","name":null,"category":"Footpath (pedestrian only)"},"geometry":{"type":"MultiLineString","coordinates":[[[-0.4130002,51.7060931],[-0.4129054,51.7061064],[-0.412835,51.7061202]]]}},
{"type":"Feature","properties":{"highway":"footway","name":null,"category":"Footpath (pedestrian only)"},"geometry":{"type":"MultiLineString","coordinates":[[[-0.4058687,51.6965151],[-0.4074114,51.6965981]]]}},
{"type":"Feature","properties":{"highway":"footway","name":null,"category":"Footpath (pedestrian only)"},"geometry":{"type":"MultiLineString","coordinates":[[[-0.415505,51.699787],[-0.4155191,51.6998397],[-0.4153307,51.6998576],[-0.4152415,51.6998892]]]}},
{"type":"Feature","properties":{"highway":"footway","name":null,"category":"Footpath (pedestrian only)"},"geometry":{"type":"MultiLineString","coordinates":[[[-0.4103425,51.7041655],[-0.4105188,51.7046344]]]}},
{"type":"Feature","properties":{"highway":"footway","name":null,"category":"Footpath (pedestrian only)"},"geometry":{"type":"MultiLineString","coordinates":[[[-0.4101034,51.7046151],[-0.410014,51.7042143]]]}},
{"type":"Feature","properties":{"highway":"footway","name":null,"category":"Footpath (pedestrian only)"},"geometry":{"type":"MultiLineString","coordinates":[[[-0.4097543,51.7046761],[-0.4097367,51.7042662]]]}},
{"type":"Feature","properties":{"highway":"footway","name":null,"category":"Footpath (pedestrian only)"},"geometry":{"type":"MultiLineString","coordinates":[[[-0.4107693,51.7043207],[-0.4106897,51.7041101]]]}},
{"type":"Feature","properties":{"highway":"footway","name":"FP66","category":"Footpath (pedestrian only)"},"geometry":{"type":"MultiLineString","coordinates":[[[-0.4078686,51.7023192],[-0.4078559,51.7023656],[-0.407805,51.7023972],[-0.4077948,51.702465],[-0.4078584,51.7024997],[-0.4078584,51.7025533],[-0.407833,51.7026369],[-0.407744,51.7027564]]]}},
{"type":"Feature","properties":{"highway":"footway","name":null,"category":"Footpath (pedestrian only)"},"geometry":{"type":"MultiLineString","coordinates":[[[-0.4089748,51.7016078],[-0.4088375,51.7013685]]]}},
{"type":"Feature","properties":{"highway":"footway","name":null,"category":"Footpath (pedestrian only)"},"geometry":{"type":"MultiLineString","coordinates":[[[-0.4071838,51.7020808],[-0.4071738,51.7017741],[-0.4066036,51.7017631],[-0.4064462,51.7017101]]]}},
{"type":"Feature","properties":{"highway":"footway","name":null,"category":"Footpath (pedestrian only)"},"geometry":{"type":"MultiLineString","coordinates":[[[-0.4050736,51.6994579],[-0.4049028,51.6991637]]]}},
{"type":"Feature","properties":{"highway":"footway","name":null,"category":"Footpath (pedestrian only)"},"geometry":{"type":"MultiLineString","coordinates":[[[-0.4046628,51.699047],[-0.4041746,51.6988265]]]}},
{"type":"Feature","properties":{"highway":"footway","name":null,"category":"Footpath (pedestrian only)"},"geometry":{"type":"MultiLineString","coordinates":[[[-0.4050329,51.6984085],[-0.4047146,51.6981615]]]}},
{"type":"Feature","properties":{"highway":"footway","name":null,"category":"Footpath (pedestrian only)"},"geometry":{"type":"MultiLineString","coordinates":[[[-0.3991726,51.6952407],[-0.3992304,51.6949007],[-0.3992068,51.6948425],[-0.3990632,51.6948563],[-0.3968949,51.6949854],[-0.3963108,51.6950266]]]}},
{"type":"Feature","properties":{"highway":"footway","name":null,"category":"Footpath (pedestrian only)"},"geometry":{"type":"MultiLineString","coordinates":[[[-0.3992141,51.6937995],[-0.3990733,51.6939836],[-0.3990698,51.6940659],[-0.3990789,51.6942121],[-0.3991619,51.6946653],[-0.3991861,51.694753],[-0.3992068,51.6948425]]]}},
{"type":"Feature","properties":{"highway":"footway","name":null,"category":"Footpath (pedestrian only)"},"geometry":{"type":"MultiLineString","coordinates":[[[-0.3992304,51.6949007],[-0.3996196,51.6948968],[-0.4000732,51.69494],[-0.4016388,51.6951083],[-0.4020805,51.6952868]]]}},
{"type":"Feature","properties":{"highway":"footway","name":null,"category":"Footpath (pedestrian only)"},"geometry":{"type":"MultiLineString","coordinates":[[[-0.4000732,51.69494],[-0.4012244,51.6946379]]]}},
{"type":"Feature","properties":{"highway":"footway","name":null,"category":"Footpath (pedestrian only)"},"geometry":{"type":"MultiLineString","coordinates":[[[-0.4074114,51.6965981],[-0.4076032,51.6965323],[-0.4084754,51.69647]]]}},
{"type":"Feature","properties":{"highway":"footway","name":null,"category":"Footpath (pedestrian only)"},"geometry":{"type":"MultiLineString","coordinates":[[[-0.4076581,51.6966283],[-0.4074114,51.6965981]]]}},
{"type":"Feature","properties":{"highway":"footway","name":null,"category":"Footpath (pedestrian only)"},"geometry":{"type":"MultiLineString","coordinates":[[[-0.4156731,51.7016487],[-0.41542,51.700927]]]}},
{"type":"Feature","properties":{"highway":"footway","name":null,"category":"Footpath (pedestrian only)"},"geometry":{"type":"MultiLineString","coordinates":[[[-0.41542,51.700927],[-0.4160283,51.7007907],[-0.416764,51.7006259],[-0.4168351,51.7005231],[-0.4169366,51.7005163],[-0.417104,51.7005051],[-0.418127,51.7004367],[-0.4191547,51.7002233],[-0.4194218,51.7001678]]]}},
{"type":"Feature","properties":{"highway":"footway","name":null,"category":"Footpath (pedestrian only)"},"geometry":{"type":"MultiLineString","coordinates":[[[-0.4168977,51.7008408],[-0.416764,51.7006259]]]}},
{"type":"Feature","properties":{"highway":"footway","name":null,"category":"Footpath (pedestrian only)"},"geometry":{"type":"MultiLineString","coordinates":[[[-0.4170787,51.7007917],[-0.4169366,51.7005163]]]}},
{"type":"Feature","properties":{"highway":"footway","name":null,"category":"Footpath (pedestrian only)"},"geometry":{"type":"MultiLineString","coordinates":[[[-0.417104,51.7005051],[-0.4168238,51.7001667]]]}},
{"type":"Feature","properties":{"highway":"footway","name":null,"category":"Footpath (pedestrian only)"},"geometry":{"type":"MultiLineString","coordinates":[[[-0.419268,51.700406],[-0.4193886,51.7005554],[-0.4194648,51.7007132]]]}},
{"type":"Feature","properties":{"highway":"footway","name":null,"category":"Footpath (pedestrian only)"},"geometry":{"type":"MultiLineString","coordinates":[[[-0.419268,51.700406],[-0.4191547,51.7002233]]]}},
{"type":"Feature","properties":{"highway":"footway","name":null,"category":"Footpath (pedestrian only)"},"geometry":{"type":"MultiLineString","coordinates":[[[-0.4160769,51.7004292],[-0.4159508,51.7005976],[-0.4160283,51.7007907],[-0.4160313,51.7007981],[-0.4161153,51.7010227]]]}},
{"type":"Feature","properties":{"highway":"footway","name":null,"category":"Footpath (pedestrian only)"},"geometry":{"type":"MultiLineString","coordinates":[[[-0.414375,51.7009338],[-0.4140812,51.700092]]]}},
{"type":"Feature","properties":{"highway":"footway","name":null,"category":"Footpath (pedestrian only)"},"geometry":{"type":"MultiLineString","coordinates":[[[-0.4127264,51.7012558],[-0.412374,51.7013789]]]}},
{"type":"Feature","properties":{"highway":"footway","name":null,"category":"Footpath (pedestrian only)"},"geometry":{"type":"MultiLineString","coordinates":[[[-0.4040558,51.7123823],[-0.4041376,51.7123943],[-0.4043861,51.7124299],[-0.4047558,51.7124702],[-0.4050218,51.7124826],[-0.4051555,51.7124872],[-0.4056532,51.7125417],[-0.406747,51.7128586],[-0.4069999,51.712947],[-0.4071768,51.7131104],[-0.407205,51.7131694],[-0.4072829,51.7132144]]]}},
{"type":"Feature","properties":{"highway":"bridleway","name":null,"category":"Bridleway"},"geometry":{"type":"MultiLineString","coordinates":[[[-0.4001136,51.7133829],[-0.4002453,51.7131182],[-0.4003988,51.7128615],[-0.4004414,51.7127943],[-0.4004608,51.7127254],[-0.4004597,51.7126449],[-0.4004378,51.712582],[-0.4003583,51.7124528],[-0.3999964,51.7120319],[-0.3995564,51.7115324],[-0.3992138,51.711169],[-0.3991767,51.7111176],[-0.3991345,51.7110414],[-0.3991166,51.7109305],[-0.399104,51.7106503]]]}},
{"type":"Feature","properties":{"highway":"footway","name":null,"category":"Footpath (pedestrian only)"},"geometry":{"type":"MultiLineString","coordinates":[[[-0.392612,51.708398],[-0.3926434,51.708375],[-0.3926584,51.7083544],[-0.3927049,51.7083513],[-0.3927341,51.7083396],[-0.393636,51.7069382],[-0.3936205,51.706894],[-0.3936813,51.7067706],[-0.3938159,51.7065577],[-0.3940229,51.7062096],[-0.3940521,51.7061676],[-0.3962322,51.7052778]]]}},
{"type":"Feature","properties":{"highway":"footway","name":null,"category":"Footpath (pedestrian only)"},"geometry":{"type":"MultiLineString","coordinates":[[[-0.3859461,51.7073675],[-0.3872779,51.7068793],[-0.3892907,51.7061616],[-0.3899352,51.7063555],[-0.3950218,51.7045172]]]}},
{"type":"Feature","properties":{"highway":"footway","name":null,"category":"Footpath (pedestrian only)"},"geometry":{"type":"MultiLineString","coordinates":[[[-0.4004608,51.7127254],[-0.4006385,51.7125877],[-0.4014317,51.7115805],[-0.401538,51.7115305]]]}},
{"type":"Feature","properties":{"highway":"footway","name":null,"category":"Footpath (pedestrian only)"},"geometry":{"type":"MultiLineString","coordinates":[[[-0.3963814,51.7052474],[-0.3965353,51.7051513],[-0.3967499,51.7050316],[-0.3968786,51.7049485],[-0.3969698,51.7048953],[-0.3970074,51.704872],[-0.3970557,51.7048687],[-0.3970986,51.7048853],[-0.3971844,51.7049186],[-0.3972327,51.7049485],[-0.3972863,51.7049485],[-0.3973346,51.7049385],[-0.397399,51.7049019],[-0.3979193,51.7043734],[-0.3979569,51.7043501],[-0.3980213,51.7043434],[-0.3981017,51.7043501],[-0.3981607,51.70437],[-0.3983324,51.7044166],[-0.398386,51.7044199],[-0.3984343,51.7043933],[-0.3996296,51.7032145]]]}},
{"type":"Feature","properties":{"highway":"footway","name":null,"category":"Footpath (pedestrian only)"},"geometry":{"type":"MultiLineString","coordinates":[[[-0.3917853,51.6996262],[-0.3920185,51.6993499],[-0.3920078,51.6992734],[-0.3921338,51.6991304],[-0.3925281,51.6987996],[-0.3925657,51.6987281],[-0.3927025,51.6985935],[-0.3933586,51.6981087],[-0.393301,51.6979687]]]}},
{"type":"Feature","properties":{"highway":"footway","name":null,"category":"Footpath (pedestrian only)"},"geometry":{"type":"MultiLineString","coordinates":[[[-0.3933586,51.6981087],[-0.3938481,51.6985979]]]}},
{"type":"Feature","properties":{"highway":"footway","name":null,"category":"Footpath (pedestrian only)"},"geometry":{"type":"MultiLineString","coordinates":[[[-0.3969913,51.6936707],[-0.3975604,51.6939212],[-0.3978019,51.6940268],[-0.3991619,51.6946653]]]}},
{"type":"Feature","properties":{"highway":"footway","name":null,"category":"Footpath (pedestrian only)"},"geometry":{"type":"MultiLineString","coordinates":[[[-0.3971681,51.696241],[-0.3972982,51.6964287],[-0.3975574,51.6968471]]]}},
{"type":"Feature","properties":{"highway":"footway","name":null,"category":"Footpath (pedestrian only)"},"geometry":{"type":"MultiLineString","coordinates":[[[-0.3972982,51.6964287],[-0.3968782,51.6965455]]]}},
{"type":"Feature","properties":{"highway":"footway","name":null,"category":"Footpath (pedestrian only)"},"geometry":{"type":"MultiLineString","coordinates":[[[-0.3907647,51.702624],[-0.3902246,51.7024896],[-0.3898953,51.7024039],[-0.3894085,51.7022073],[-0.3890559,51.7020241],[-0.3888472,51.7018878],[-0.3884818,51.7016243],[-0.388113,51.7013683],[-0.3878452,51.7012078],[-0.3871259,51.7007698],[-0.3870279,51.7007297],[-0.386733,51.7006036],[-0.3861804,51.7004432],[-0.3857392,51.7003268],[-0.3854014,51.7002367],[-0.385101,51.7001474]]]}},
{"type":"Feature","properties":{"highway":"footway","name":null,"category":"Footpath (pedestrian only)"},"geometry":{"type":"MultiLineString","coordinates":[[[-0.4012195,51.7063799],[-0.4012433,51.7066206],[-0.4013292,51.7067436],[-0.401533,51.7068466],[-0.4018978,51.7069198],[-0.4022036,51.7069164],[-0.4028022,51.7068814],[-0.4031634,51.7067777],[-0.4040811,51.7065142],[-0.4043654,51.7064311],[-0.4058049,51.7060887],[-0.4060034,51.7060455],[-0.4062716,51.7059125],[-0.4062916,51.7058497]]]}},
{"type":"Feature","properties":{"highway":"footway","name":null,"category":"Footpath (pedestrian only)"},"geometry":{"type":"MultiLineString","coordinates":[[[-0.4040811,51.7065142],[-0.4037611,51.7063846],[-0.4036216,51.7062981],[-0.4035146,51.7062116],[-0.4031745,51.7058602]]]}},
{"type":"Feature","properties":{"highway":"footway","name":null,"category":"Footpath (pedestrian only)"},"geometry":{"type":"MultiLineString","coordinates":[[[-0.3996196,51.6948968],[-0.3991619,51.6946653]]]}},
{"type":"Feature","properties":{"highway":"footway","name":null,"category":"Footpath (pedestrian only)"},"geometry":{"type":"MultiLineString","coordinates":[[[-0.4046384,51.7041691],[-0.4045559,51.7041318],[-0.4045216,51.7040879],[-0.4045471,51.7040306],[-0.4047268,51.7038161],[-0.4047845,51.7037554],[-0.4048274,51.7036856],[-0.4052834,51.7034346],[-0.4055489,51.7032485],[-0.4056164,51.7031893],[-0.4057688,51.7030556],[-0.4057978,51.7029803],[-0.4058091,51.7029509],[-0.4058332,51.7028495],[-0.4059593,51.7026716],[-0.4061604,51.7024855],[-0.4063613,51.7023672],[-0.4064342,51.7023242]]]}},
{"type":"Feature","properties":{"highway":"footway","name":null,"category":"Footpath (pedestrian only)"},"geometry":{"type":"MultiLineString","coordinates":[[[-0.4059593,51.7026716],[-0.4058386,51.7025553],[-0.405793,51.7024805],[-0.4057903,51.7024206],[-0.4058332,51.7023974],[-0.405801,51.7023591],[-0.4058922,51.7022079],[-0.4062838,51.7023093],[-0.4063613,51.7023672]]]}},
{"type":"Feature","properties":{"highway":"footway","name":null,"category":"Footpath (pedestrian only)"},"geometry":{"type":"MultiLineString","coordinates":[[[-0.405801,51.7023591],[-0.4057528,51.7023691],[-0.4053931,51.7022796]]]}},
{"type":"Feature","properties":{"highway":"footway","name":null,"category":"Footpath (pedestrian only)"},"geometry":{"type":"MultiLineString","coordinates":[[[-0.4057903,51.7024206],[-0.4057528,51.7023691]]]}},
{"type":"Feature","properties":{"highway":"footway","name":null,"category":"Footpath (pedestrian only)"},"geometry":{"type":"MultiLineString","coordinates":[[[-0.4045096,51.7038368],[-0.4047603,51.7037288],[-0.4048274,51.7036856]]]}},
{"type":"Feature","properties":{"highway":"footway","name":null,"category":"Footpath (pedestrian only)"},"geometry":{"type":"MultiLineString","coordinates":[[[-0.4045216,51.7040879],[-0.4044505,51.7040156],[-0.4043856,51.7039804]]]}},
{"type":"Feature","properties":{"highway":"footway","name":null,"category":"Footpath (pedestrian only)"},"geometry":{"type":"MultiLineString","coordinates":[[[-0.4042566,51.7041164],[-0.4043138,51.7040604],[-0.4043312,51.704043]]]}},
{"type":"Feature","properties":{"highway":"footway","name":null,"category":"Footpath (pedestrian only)"},"geometry":{"type":"MultiLineString","coordinates":[[[-0.4056164,51.7031893],[-0.4055221,51.703054],[-0.4053826,51.7029875],[-0.4051922,51.7029426],[-0.4049991,51.7029143],[-0.4049387,51.7029297],[-0.4048944,51.7029409],[-0.4046021,51.7030639],[-0.4044814,51.7031653],[-0.4044519,51.7032734],[-0.4044546,51.7033764],[-0.4045404,51.703561],[-0.4046101,51.7036125],[-0.4048274,51.7036856]]]}},
{"type":"Feature","properties":{"highway":"footway","name":null,"category":"Footpath (pedestrian only)"},"geometry":{"type":"MultiLineString","coordinates":[[[-0.4049387,51.7029297],[-0.4048408,51.7028611],[-0.4046937,51.7028061]]]}},
{"type":"Feature","properties":{"highway":"footway","name":null,"category":"Footpath (pedestrian only)"},"geometry":{"type":"MultiLineString","coordinates":[[[-0.4055221,51.703054],[-0.4056294,51.703044],[-0.4057978,51.7029803]]]}},
{"type":"Feature","properties":{"highway":"footway","name":null,"category":"Footpath (pedestrian only)"},"geometry":{"type":"MultiLineString","coordinates":[[[-0.3972483,51.6939542],[-0.3990632,51.6948563]]]}},
{"type":"Feature","properties":{"highway":"footway","name":null,"category":"Footpath (pedestrian only)"},"geometry":{"type":"MultiLineString","coordinates":[[[-0.3990698,51.6940659],[-0.3983224,51.6939258],[-0.3980356,51.6939812],[-0.3978019,51.6940268]]]}},
{"type":"Feature","properties":{"highway":"path","name":null,"category":"Shared path"},"geometry":{"type":"MultiLineString","coordinates":[[[-0.4145999,51.7075492],[-0.4145289,51.7075248],[-0.4142619,51.7076407],[-0.4142479,51.7076418],[-0.4142242,51.7076298],[-0.4141763,51.7075839]]]}},
{"type":"Feature","properties":{"highway":"path","name":null,"category":"Shared path"},"geometry":{"type":"MultiLineString","coordinates":[[[-0.4145289,51.7075248],[-0.4144579,51.7074955],[-0.4142849,51.7075696],[-0.4142315,51.7075591],[-0.4141763,51.7075839],[-0.4141532,51.7075922],[-0.4141423,51.7075925],[-0.4141241,51.7075843],[-0.4140974,51.7075703]]]}},
{"type":"Feature","properties":{"highway":"path","name":null,"category":"Shared path"},"geometry":{"type":"MultiLineString","coordinates":[[[-0.4148924,51.7077764],[-0.4149711,51.7078446]]]}},
{"type":"Feature","properties":{"highway":"path","name":null,"category":"Shared path"},"geometry":{"type":"MultiLineString","coordinates":[[[-0.4152802,51.7077056],[-0.4149711,51.7078446],[-0.4149241,51.7078686],[-0.4148986,51.7078629],[-0.414833,51.7078941],[-0.4147852,51.7078955]]]}},
{"type":"Feature","properties":{"highway":"path","name":null,"category":"Shared path"},"geometry":{"type":"MultiLineString","coordinates":[[[-0.4144403,51.7080314],[-0.414335,51.7080597],[-0.4143036,51.7080682],[-0.414231,51.7080877],[-0.4141933,51.7080346],[-0.4141547,51.70798],[-0.4142606,51.7079522],[-0.4143673,51.7079242],[-0.4144038,51.7079778],[-0.4144403,51.7080314]]]}},
{"type":"Feature","properties":{"highway":"path","name":null,"category":"Shared path"},"geometry":{"type":"MultiLineString","coordinates":[[[-0.4144038,51.7079778],[-0.4142974,51.7080065],[-0.4141933,51.7080346]]]}},
{"type":"Feature","properties":{"highway":"path","name":null,"category":"Shared path"},"geometry":{"type":"MultiLineString","coordinates":[[[-0.4142606,51.7079522],[-0.4142974,51.7080065],[-0.414335,51.7080597],[-0.4143541,51.7080845]]]}},
{"type":"Feature","properties":{"highway":"path","name":null,"category":"Shared path"},"geometry":{"type":"MultiLineString","coordinates":[[[-0.4143613,51.7080963],[-0.4144074,51.7081624]]]}},
{"type":"Feature","properties":{"highway":"path","name":null,"category":"Shared path"},"geometry":{"type":"MultiLineString","coordinates":[[[-0.4144899,51.7082913],[-0.4145462,51.7083747],[-0.4145764,51.7084013]]]}},
{"type":"Feature","properties":{"highway":"path","name":null,"category":"Shared path"},"geometry":{"type":"MultiLineString","coordinates":[[[-0.4142509,51.7082015],[-0.4144074,51.7081624],[-0.4146377,51.7081048],[-0.4146731,51.708096],[-0.4146907,51.708082]]]}},
{"type":"Feature","properties":{"highway":"path","name":null,"category":"Shared path"},"geometry":{"type":"MultiLineString","coordinates":[[[-0.4146377,51.7081048],[-0.4147114,51.7081222],[-0.4148062,51.7082451]]]}},
{"type":"Feature","properties":{"highway":"path","name":null,"category":"Shared path"},"geometry":{"type":"MultiLineString","coordinates":[[[-0.4137828,51.7078385],[-0.4137988,51.7078037],[-0.4137868,51.7077781],[-0.4139717,51.7076503],[-0.4140925,51.7077611],[-0.4141912,51.7078687]]]}},
{"type":"Feature","properties":{"highway":"footway","name":null,"category":"Footpath (pedestrian only)"},"geometry":{"type":"MultiLineString","coordinates":[[[-0.4035799,51.6955688],[-0.4030418,51.6956312],[-0.4027766,51.695662],[-0.4027061,51.6956393]]]}},
{"type":"Feature","properties":{"highway":"footway","name":null,"category":"Footpath (pedestrian only)"},"geometry":{"type":"MultiLineString","coordinates":[[[-0.4028577,51.6954646],[-0.4027061,51.6956393],[-0.4026823,51.6956668]]]}},
{"type":"Feature","properties":{"highway":"footway","name":null,"category":"Footpath (pedestrian only)"},"geometry":{"type":"MultiLineString","coordinates":[[[-0.409489,51.6980446],[-0.409592,51.6980758],[-0.4096654,51.698264],[-0.4097758,51.6985503],[-0.4097872,51.6985662],[-0.4099216,51.6987542],[-0.4099766,51.6987973]]]}},
{"type":"Feature","properties":{"highway":"footway","name":null,"category":"Footpath (pedestrian only)"},"geometry":{"type":"MultiLineString","coordinates":[[[-0.4099766,51.6987973],[-0.4099394,51.6989512],[-0.4099456,51.6990223],[-0.4100309,51.6993983],[-0.4100635,51.6995531],[-0.4101411,51.6996339],[-0.4102202,51.6996964],[-0.410546,51.6996782],[-0.4108579,51.6996387],[-0.4112939,51.6995695],[-0.4115871,51.6995262],[-0.4117516,51.6994974],[-0.4120636,51.6994974],[-0.4123599,51.6994579],[-0.4126144,51.6994358],[-0.413055,51.6993983],[-0.4137051,51.6993339],[-0.413921,51.6993012],[-0.4142235,51.6992848],[-0.4144749,51.6992541],[-0.4147774,51.6992021],[-0.4149512,51.6991646],[-0.4151979,51.6991589],[-0.4154756,51.69918],[-0.4158698,51.699156],[-0.416132,51.6991271],[-0.4163073,51.6990685],[-0.4163632,51.6990396],[-0.4164454,51.6989752],[-0.4165168,51.6989214],[-0.4166611,51.6988406],[-0.4167899,51.6987656],[-0.4168209,51.6987011],[-0.41681,51.6986223],[-0.4166735,51.6983469],[-0.4166471,51.6982873],[-0.4166518,51.698193],[-0.4166301,51.6981276],[-0.4165556,51.6980709],[-0.416478,51.6980257],[-0.416388,51.6979815],[-0.4163554,51.6978353],[-0.4163896,51.6977651],[-0.4164563,51.6977006],[-0.4165463,51.6976295],[-0.416599,51.697592],[-0.4166285,51.6975093],[-0.4166409,51.6974247],[-0.4166254,51.6973131],[-0.4166052,51.6972333],[-0.4165665,51.6971123],[-0.4165463,51.6970123],[-0.4165292,51.6969709],[-0.4165168,51.6969017],[-0.4165036,51.6968454],[-0.416492,51.6967959],[-0.4164485,51.6966814],[-0.4163973,51.6965853],[-0.4163554,51.6965122],[-0.4163089,51.6964381],[-0.4162174,51.6963525],[-0.4161382,51.6963006],[-0.4160374,51.696266],[-0.4159505,51.6962419],[-0.4158434,51.6962564],[-0.4157441,51.6962785],[-0.4156464,51.696316],[-0.4155595,51.6963295],[-0.4154292,51.6963275],[-0.414973,51.6964391],[-0.4148008,51.6964853],[-0.414641,51.6965208],[-0.4145917,51.6965322],[-0.4144657,51.6965612],[-0.4143012,51.6966074],[-0.4141507,51.6966391],[-0.4140654,51.6967084],[-0.4139847,51.6967334],[-0.413783,51.6967497],[-0.4136589,51.6967497],[-0.4135301,51.6967959],[-0.4134494,51.696818],[-0.4133392,51.6968478],[-0.4132617,51.6968488],[-0.4131034,51.6968882],[-0.412894,51.6969344],[-0.4126736,51.6969882],[-0.412444,51.697044],[-0.4121678,51.6970998],[-0.4119025,51.697168],[-0.4116186,51.6972402],[-0.4113765,51.6973046],[-0.4111935,51.6973565],[-0.4111066,51.6973912],[-0.4110983,51.6974203],[-0.4110864,51.6974623],[-0.4110802,51.6976018],[-0.4110921,51.6976247],[-0.4112167,51.6978662],[-0.4113238,51.6980239],[-0.4113952,51.6981538],[-0.4115224,51.698324],[-0.4114479,51.6984076],[-0.4112555,51.6984836],[-0.4108987,51.6985798],[-0.4105356,51.6986577],[-0.4104172,51.6986742],[-0.410257,51.6986653],[-0.4100574,51.6986404],[-0.4098838,51.6985921],[-0.4097872,51.6985662]]]}},
{"type":"Feature","properties":{"highway":"footway","name":null,"category":"Footpath (pedestrian only)"},"geometry":{"type":"MultiLineString","coordinates":[[[-0.4100817,51.6988357],[-0.4101212,51.6989743],[-0.4102061,51.69927],[-0.4102362,51.6993389],[-0.4102608,51.6995282],[-0.4102777,51.6995784],[-0.4103211,51.6996147],[-0.4104003,51.6996345],[-0.4105681,51.6996158],[-0.4109357,51.6995481],[-0.4113052,51.6994861],[-0.4116068,51.6994394],[-0.4119613,51.6994172],[-0.4122836,51.6993845],[-0.4125268,51.6993634],[-0.4127267,51.6993249],[-0.4131323,51.699291],[-0.4135641,51.6992443],[-0.4138732,51.6992244],[-0.4142805,51.6991788],[-0.4147744,51.6991403],[-0.4151986,51.6990865],[-0.4156642,51.6990409],[-0.4160243,51.6990152],[-0.4161601,51.698979],[-0.4163467,51.6989054],[-0.4165428,51.698785],[-0.4166483,51.6987208],[-0.4166653,51.6986881],[-0.4166653,51.698632],[-0.4166163,51.6985268],[-0.4164523,51.6982261],[-0.4163505,51.6981022],[-0.4162581,51.6979748],[-0.4162015,51.6979141],[-0.4162242,51.6977844],[-0.416326,51.6976407],[-0.4164165,51.6974911],[-0.4164994,51.6973625],[-0.4164787,51.6972036],[-0.4164711,51.6971323],[-0.4164391,51.6970879],[-0.4164297,51.6970506],[-0.416358,51.6970389],[-0.4163316,51.6969582],[-0.4163316,51.6969302],[-0.4163429,51.696908],[-0.4163485,51.6968838],[-0.4163599,51.6968344],[-0.416341,51.6967643],[-0.4163033,51.6966521],[-0.4163015,51.6966124],[-0.4162506,51.6965621],[-0.4162053,51.6964733],[-0.4161487,51.6963903],[-0.4160997,51.6963518],[-0.41603,51.6963319],[-0.4159772,51.6963296],[-0.4158924,51.6963366],[-0.4155643,51.6963962],[-0.4148913,51.6965411],[-0.4146191,51.6966023],[-0.4144237,51.6966462],[-0.4137733,51.6968005],[-0.412361,51.6971417],[-0.4118558,51.6972574],[-0.4113995,51.6973555],[-0.4111507,51.6974256],[-0.4110983,51.6974203]]]}},
{"type":"Feature","properties":{"highway":"footway","name":null,"category":"Footpath (pedestrian only)"},"geometry":{"type":"MultiLineString","coordinates":[[[-0.4111507,51.6974256],[-0.4111601,51.6974677],[-0.4112431,51.6975133],[-0.4113583,51.6975601]]]}},
{"type":"Feature","properties":{"highway":"footway","name":null,"category":"Footpath (pedestrian only)"},"geometry":{"type":"MultiLineString","coordinates":[[[-0.4142805,51.6991788],[-0.4142007,51.6989272],[-0.4140693,51.6985564],[-0.4139969,51.6983436],[-0.4139218,51.6981757],[-0.4138654,51.6980045],[-0.4138628,51.6978998],[-0.4138037,51.6977867],[-0.4138198,51.6976487],[-0.4138603,51.6974787]]]}},
{"type":"Feature","properties":{"highway":"footway","name":null,"category":"Footpath (pedestrian only)"},"geometry":{"type":"MultiLineString","coordinates":[[[-0.4041746,51.6988265],[-0.4041375,51.698797],[-0.4040214,51.6987616]]]}},
{"type":"Feature","properties":{"highway":"footway","name":null,"category":"Footpath (pedestrian only)"},"geometry":{"type":"MultiLineString","coordinates":[[[-0.4036455,51.6992257],[-0.4036993,51.6991802],[-0.4038978,51.6989308],[-0.4040214,51.6987616],[-0.4043564,51.6983033],[-0.4048765,51.6976256]]]}},
{"type":"Feature","properties":{"highway":"footway","name":null,"category":"Footpath (pedestrian only)"},"geometry":{"type":"MultiLineString","coordinates":[[[-0.4024135,51.6984314],[-0.4023588,51.6983989],[-0.4020668,51.6982264]]]}},
{"type":"Feature","properties":{"highway":"footway","name":null,"category":"Footpath (pedestrian only)"},"geometry":{"type":"MultiLineString","coordinates":[[[-0.4019295,51.6984332],[-0.4018772,51.6985119],[-0.4018321,51.6985698]]]}},
{"type":"Feature","properties":{"highway":"footway","name":null,"category":"Footpath (pedestrian only)"},"geometry":{"type":"MultiLineString","coordinates":[[[-0.4038978,51.6989308],[-0.4033761,51.6986873],[-0.403077,51.6986125],[-0.4030303,51.698595]]]}},
{"type":"Feature","properties":{"highway":"footway","name":null,"category":"Footpath (pedestrian only)"},"geometry":{"type":"MultiLineString","coordinates":[[[-0.4125315,51.7003556],[-0.4123105,51.7003838],[-0.4121375,51.7003933],[-0.4119806,51.7004166]]]}},
{"type":"Feature","properties":{"highway":"footway","name":null,"category":"Footpath (pedestrian only)"},"geometry":{"type":"MultiLineString","coordinates":[[[-0.413075,51.7005775],[-0.4129837,51.7003326],[-0.4129288,51.7002691],[-0.4128232,51.6999498]]]}},
{"type":"Feature","properties":{"highway":"footway","name":null,"category":"Footpath (pedestrian only)"},"geometry":{"type":"MultiLineString","coordinates":[[[-0.415505,51.699787],[-0.4154326,51.6997666],[-0.4153816,51.6997005],[-0.4153173,51.699627],[-0.4152757,51.6995501]]]}},
{"type":"Feature","properties":{"highway":"footway","name":null,"category":"Footpath (pedestrian only)"},"geometry":{"type":"MultiLineString","coordinates":[[[-0.4168075,51.6889487],[-0.4167636,51.6890155],[-0.4166857,51.6891271],[-0.4166472,51.6892197],[-0.4165726,51.6894932],[-0.4164936,51.6897722],[-0.4163476,51.6902186],[-0.4161862,51.6906316],[-0.4160809,51.6908983],[-0.4158383,51.6914209],[-0.4157373,51.6916291],[-0.4156846,51.6917413],[-0.415655,51.6918461],[-0.4157099,51.6918754],[-0.4157812,51.6919183],[-0.4158504,51.6919741],[-0.4158855,51.6920244],[-0.4159013,51.6920823],[-0.4159217,51.6921353],[-0.4159052,51.6922449],[-0.4158745,51.6922918],[-0.4158248,51.6923217],[-0.4157933,51.6923319],[-0.4157307,51.6923707],[-0.4157057,51.6924121],[-0.4156945,51.6924313],[-0.4156794,51.692451],[-0.4156747,51.6924571],[-0.4156188,51.6924871],[-0.4155288,51.6925116],[-0.4154442,51.6925333],[-0.4154314,51.6925418],[-0.4153959,51.6925653],[-0.4153411,51.6926259],[-0.4152291,51.6928062],[-0.4151885,51.6928878],[-0.4150557,51.6930906],[-0.4149272,51.6932689],[-0.4148197,51.6933893],[-0.4147461,51.6934682],[-0.4146468,51.6935816],[-0.4145983,51.6936394],[-0.4144465,51.6937764],[-0.4142796,51.6938982],[-0.4141029,51.6940132],[-0.4139021,51.6941336],[-0.4136265,51.6942792],[-0.4134191,51.6943792],[-0.4132951,51.6944412],[-0.4131074,51.694516],[-0.4129026,51.6945894],[-0.4125065,51.6946788]]]}},
{"type":"Feature","properties":{"highway":"footway","name":null,"category":"Footpath (pedestrian only)"},"geometry":{"type":"MultiLineString","coordinates":[[[-0.4158745,51.6922918],[-0.4159269,51.6923608],[-0.4160243,51.6924453],[-0.4160864,51.6925031]]]}},
{"type":"Feature","properties":{"highway":"footway","name":null,"category":"Footpath (pedestrian only)"},"geometry":{"type":"MultiLineString","coordinates":[[[-0.4160864,51.6925031],[-0.4162533,51.6926649],[-0.4163302,51.6927395],[-0.4164095,51.6927877],[-0.4164927,51.6928078],[-0.416587,51.6928255],[-0.4166773,51.6928162],[-0.4167605,51.6927897],[-0.416798,51.6928078],[-0.4168389,51.6928256],[-0.4168915,51.6928479],[-0.4169333,51.6928511],[-0.4169642,51.6928491],[-0.4171472,51.6929026],[-0.4170783,51.692996],[-0.4170388,51.6929856]]]}},
{"type":"Feature","properties":{"highway":"footway","name":null,"category":"Footpath (pedestrian only)"},"geometry":{"type":"MultiLineString","coordinates":[[[-0.4169642,51.6928491],[-0.4168263,51.6929031],[-0.4167772,51.6929351],[-0.4167495,51.692973],[-0.4166645,51.6930809],[-0.4166147,51.6931482]]]}},
{"type":"Feature","properties":{"highway":"footway","name":null,"category":"Footpath (pedestrian only)"},"geometry":{"type":"MultiLineString","coordinates":[[[-0.4168617,51.6932144],[-0.4166147,51.6931482],[-0.4163738,51.6930809],[-0.4162985,51.6930529],[-0.4162438,51.6930289],[-0.4162074,51.6930009],[-0.4161836,51.6929631],[-0.4161376,51.6928727],[-0.4160552,51.692744],[-0.4159887,51.6926659],[-0.4159308,51.692603],[-0.4158915,51.692573]]]}},
{"type":"Feature","properties":{"highway":"footway","name":null,"category":"Footpath (pedestrian only)"},"geometry":{"type":"MultiLineString","coordinates":[[[-0.4158915,51.692573],[-0.4158064,51.6924998],[-0.4157565,51.6924738],[-0.4156794,51.692451]]]}},
{"type":"Feature","properties":{"highway":"footway","name":null,"category":"Footpath (pedestrian only)"},"geometry":{"type":"MultiLineString","coordinates":[[[-0.4154314,51.6925418],[-0.4153591,51.6925105],[-0.4152913,51.6924875],[-0.4151872,51.6924861],[-0.4150757,51.6924937]]]}},
{"type":"Feature","properties":{"highway":"footway","name":null,"category":"Footpath (pedestrian only)"},"geometry":{"type":"MultiLineString","coordinates":[[[-0.415655,51.6918461],[-0.4155644,51.6918347],[-0.4154419,51.6918308],[-0.4153354,51.6917908],[-0.4152534,51.6917489]]]}},
{"type":"Feature","properties":{"highway":"footway","name":null,"category":"Footpath (pedestrian only)"},"geometry":{"type":"MultiLineString","coordinates":[[[-0.4168617,51.6932144],[-0.417596,51.6934184],[-0.4176671,51.6934262],[-0.4177232,51.6934417],[-0.4178009,51.6934608],[-0.4178617,51.6934766],[-0.4178781,51.6934552],[-0.4179254,51.6934656],[-0.4185605,51.6936353],[-0.4186784,51.6936665],[-0.4187585,51.6936904],[-0.4188644,51.6937188],[-0.4192451,51.6938272],[-0.4194173,51.6938749],[-0.4195139,51.6939021],[-0.4195921,51.6939266],[-0.4202751,51.6941092],[-0.4207886,51.6942594]]]}},
{"type":"Feature","properties":{"highway":"footway","name":null,"category":"Footpath (pedestrian only)"},"geometry":{"type":"MultiLineString","coordinates":[[[-0.4167876,51.6952875],[-0.4167515,51.6953214],[-0.4167277,51.6954225],[-0.4167236,51.6954693]]]}},
{"type":"Feature","properties":{"highway":"path","name":null,"category":"Shared path"},"geometry":{"type":"MultiLineString","coordinates":[[[-0.4038876,51.6921551],[-0.4043266,51.6920643],[-0.4044409,51.6919664]]]}},
{"type":"Feature","properties":{"highway":"footway","name":null,"category":"Footpath (pedestrian only)"},"geometry":{"type":"MultiLineString","coordinates":[[[-0.3938481,51.6985979],[-0.3944127,51.6988202],[-0.3947262,51.6989642],[-0.3948074,51.6990243],[-0.3949349,51.69906],[-0.3951237,51.6991369],[-0.3956078,51.6994131],[-0.395724,51.6994406]]]}},
{"type":"Feature","properties":{"highway":"footway","name":null,"category":"Footpath (pedestrian only)"},"geometry":{"type":"MultiLineString","coordinates":[[[-0.3948074,51.6990243],[-0.3951113,51.6987853]]]}},
{"type":"Feature","properties":{"highway":"footway","name":null,"category":"Footpath (pedestrian only)"},"geometry":{"type":"MultiLineString","coordinates":[[[-0.3948074,51.6990243],[-0.3946608,51.6991363]]]}},
{"type":"Feature","properties":{"highway":"footway","name":null,"category":"Footpath (pedestrian only)"},"geometry":{"type":"MultiLineString","coordinates":[[[-0.3936777,51.6987349],[-0.3945631,51.6990964],[-0.3946608,51.6991363],[-0.3949506,51.6992735],[-0.3947158,51.6994719],[-0.3945821,51.6995837]]]}},
{"type":"Feature","properties":{"highway":"footway","name":null,"category":"Footpath (pedestrian only)"},"geometry":{"type":"MultiLineString","coordinates":[[[-0.3947158,51.6994719],[-0.394311,51.6993068],[-0.394209,51.6992652],[-0.3940069,51.6991828]]]}},
{"type":"Feature","properties":{"highway":"footway","name":null,"category":"Footpath (pedestrian only)"},"geometry":{"type":"MultiLineString","coordinates":[[[-0.3945821,51.6995837],[-0.3949118,51.6997245],[-0.395219,51.6998476]]]}},
{"type":"Feature","properties":{"highway":"footway","name":null,"category":"Footpath (pedestrian only)"},"geometry":{"type":"MultiLineString","coordinates":[[[-0.3945821,51.6995837],[-0.3942028,51.6999371],[-0.3941515,51.699985]]]}},
{"type":"Feature","properties":{"highway":"footway","name":null,"category":"Footpath (pedestrian only)"},"geometry":{"type":"MultiLineString","coordinates":[[[-0.3939324,51.6994782],[-0.3940345,51.6995208],[-0.3938278,51.6997122],[-0.3937185,51.6997711],[-0.3935764,51.6997567],[-0.3935529,51.6997473],[-0.3933658,51.6996728],[-0.3930416,51.6995437]]]}},
{"type":"Feature","properties":{"highway":"footway","name":null,"category":"Footpath (pedestrian only)"},"geometry":{"type":"MultiLineString","coordinates":[[[-0.3938278,51.6997122],[-0.3939398,51.6997531],[-0.3939907,51.6998139],[-0.3941073,51.6998638],[-0.3942028,51.6999371]]]}},
{"type":"Feature","properties":{"highway":"footway","name":null,"category":"Footpath (pedestrian only)"},"geometry":{"type":"MultiLineString","coordinates":[[[-0.3941515,51.699985],[-0.3943421,51.7000676],[-0.3948343,51.7002808],[-0.3949594,51.7001864],[-0.3949997,51.7002033],[-0.395314,51.7003349],[-0.3956913,51.7004929]]]}},
{"type":"Feature","properties":{"highway":"footway","name":null,"category":"Footpath (pedestrian only)"},"geometry":{"type":"MultiLineString","coordinates":[[[-0.3962785,51.7003736],[-0.3960035,51.7006221],[-0.396029,51.7006518],[-0.3955986,51.701006],[-0.3954193,51.7011536]]]}},
{"type":"Feature","properties":{"highway":"footway","name":null,"category":"Footpath (pedestrian only)"},"geometry":{"type":"MultiLineString","coordinates":[[[-0.3955986,51.701006],[-0.3954903,51.7009564]]]}},
{"type":"Feature","properties":{"highway":"footway","name":null,"category":"Footpath (pedestrian only)"},"geometry":{"type":"MultiLineString","coordinates":[[[-0.395724,51.6994406],[-0.3967002,51.6997958],[-0.3967549,51.6998662],[-0.396911,51.699871],[-0.3971213,51.6999461],[-0.3972132,51.6998908],[-0.397281,51.6999105]]]}},
{"type":"Feature","properties":{"highway":"footway","name":null,"category":"Footpath (pedestrian only)"},"geometry":{"type":"MultiLineString","coordinates":[[[-0.3968098,51.7000951],[-0.3965815,51.6999992],[-0.3962461,51.6998582],[-0.3960183,51.6997625],[-0.3959846,51.6997938],[-0.3959771,51.6998007],[-0.3955256,51.6996049]]]}},
{"type":"Feature","properties":{"highway":"footway","name":null,"category":"Footpath (pedestrian only)"},"geometry":{"type":"MultiLineString","coordinates":[[[-0.3959846,51.6997938],[-0.3959285,51.6998473],[-0.3958188,51.6999519],[-0.3953439,51.6997555]]]}},
{"type":"Feature","properties":{"highway":"footway","name":null,"category":"Footpath (pedestrian only)"},"geometry":{"type":"MultiLineString","coordinates":[[[-0.3962461,51.6998582],[-0.3961594,51.6999422],[-0.3960663,51.6999046],[-0.3959285,51.6998473]]]}},
{"type":"Feature","properties":{"highway":"footway","name":null,"category":"Footpath (pedestrian only)"},"geometry":{"type":"MultiLineString","coordinates":[[[-0.3948343,51.7002808],[-0.3945663,51.7005261]]]}},
{"type":"Feature","properties":{"highway":"footway","name":null,"category":"Footpath (pedestrian only)"},"geometry":{"type":"MultiLineString","coordinates":[[[-0.4046937,51.7028061],[-0.4045301,51.7026939]]]}},
{"type":"Feature","properties":{"highway":"footway","name":null,"category":"Footpath (pedestrian only)"},"geometry":{"type":"MultiLineString","coordinates":[[[-0.3967549,51.6998662],[-0.3965815,51.6999992],[-0.3965837,51.7000249],[-0.3963077,51.7002764],[-0.3963672,51.7003017],[-0.3962785,51.7003736]]]}},
{"type":"Feature","properties":{"highway":"footway","name":null,"category":"Footpath (pedestrian only)"},"geometry":{"type":"MultiLineString","coordinates":[[[-0.3945631,51.6990964],[-0.394311,51.6993068]]]}},
{"type":"Feature","properties":{"highway":"footway","name":null,"category":"Footpath (pedestrian only)"},"geometry":{"type":"MultiLineString","coordinates":[[[-0.4005278,51.6959364],[-0.4008198,51.69599],[-0.4011294,51.696075],[-0.4013744,51.6961161],[-0.4015841,51.6961359],[-0.4014154,51.6958411]]]}},
{"type":"Feature","properties":{"highway":"path","name":null,"category":"Shared path"},"geometry":{"type":"MultiLineString","coordinates":[[[-0.410591,51.7054859],[-0.4101783,51.7053054],[-0.4099115,51.7051674]]]}},
{"type":"Feature","properties":{"highway":"footway","name":null,"category":"Footpath (pedestrian only)"},"geometry":{"type":"MultiLineString","coordinates":[[[-0.4147498,51.6957313],[-0.4147544,51.695767],[-0.4147923,51.6957952],[-0.4149052,51.6958112]]]}},
{"type":"Feature","properties":{"highway":"footway","name":null,"category":"Footpath (pedestrian only)"},"geometry":{"type":"MultiLineString","coordinates":[[[-0.3949997,51.7002033],[-0.3951543,51.7000776],[-0.395049,51.7000308]]]}},
{"type":"Feature","properties":{"highway":"footway","name":null,"category":"Footpath (pedestrian only)"},"geometry":{"type":"MultiLineString","coordinates":[[[-0.3935529,51.6997473],[-0.3935251,51.6997769],[-0.3934402,51.6997433],[-0.3933397,51.6997034],[-0.3933658,51.6996728]]]}},
{"type":"Feature","properties":{"highway":"footway","name":null,"category":"Footpath (pedestrian only)"},"geometry":{"type":"MultiLineString","coordinates":[[[-0.3949527,51.7006432],[-0.395314,51.7003349]]]}},
{"type":"Feature","properties":{"highway":"footway","name":null,"category":"Footpath (pedestrian only)"},"geometry":{"type":"MultiLineString","coordinates":[[[-0.392974,51.6975636],[-0.3929418,51.6975807]]]}}
]
}
