{
"type": "FeatureCollection",
"name": "HARLO_16_cycling",
"crs": { "type": "name", "properties": { "name": "urn:ogc:def:crs:OGC:1.3:CRS84" } },
"features": [
{"type":"Feature","properties":{"highway":"cycleway","name":null,"category":"Dedicated cycleway"},"geometry":{"type":"MultiLineString","coordinates":[[[0.0996961,51.7736276],[0.099753,51.7736279],[0.0999661,51.7736751],[0.1004349,51.7738045],[0.1007243,51.7738739],[0.1011214,51.7739899],[0.1015779,51.77414],[0.1016028,51.7741662],[0.1017135,51.7742037],[0.1019587,51.7742875],[0.1020702,51.7743256],[0.1023198,51.7744204],[0.1025758,51.7745216],[0.1035482,51.7749028],[0.1037202,51.7749725],[0.1039497,51.7750656],[0.1040708,51.7751111]]]}},
{"type":"Feature","properties":{"highway":"cycleway","name":"Netteswell Road","category":"Dedicated cycleway"},"geometry":{"type":"MultiLineString","coordinates":[[[0.1210287,51.7824682],[0.1181048,51.7821107],[0.1177114,51.7820632],[0.117239,51.7819404],[0.1168241,51.7818549],[0.1166085,51.7818104],[0.1158936,51.7815577],[0.1157791,51.7815117],[0.1147294,51.7810902],[0.1142579,51.7809206],[0.1140962,51.7808627],[0.1136135,51.7807515],[0.1134456,51.7807128],[0.1128441,51.7805741],[0.1120425,51.7804537],[0.1118116,51.780419],[0.1108621,51.7802882],[0.1106394,51.7802378],[0.1102692,51.7801468],[0.110145,51.7801191],[0.1101208,51.7801137],[0.1100962,51.7801082],[0.1100126,51.780089]]]}},
{"type":"Feature","properties":{"highway":"cycleway","name":null,"category":"Dedicated cycleway"},"geometry":{"type":"MultiLineString","coordinates":[[[0.1046499,51.7790443],[0.1046411,51.7786396],[0.104568,51.77849],[0.1044612,51.7783649],[0.104197,51.778184],[0.1039273,51.7780067],[0.103914,51.7779935],[0.1037867,51.7778676],[0.1036743,51.7776972],[0.1036561,51.7775197],[0.1036369,51.7772014]]]}},
{"type":"Feature","properties":{"highway":"cycleway","name":null,"category":"Dedicated cycleway"},"geometry":{"type":"MultiLineString","coordinates":[[[0.1046499,51.7790443],[0.1040172,51.7788413],[0.1035057,51.7786465],[0.1033034,51.7785457],[0.1031854,51.7784518],[0.1029381,51.7783544],[0.1027956,51.778308],[0.1026177,51.7782501],[0.1024605,51.7782212],[0.1021456,51.7781632],[0.1019802,51.7781348]]]}},
{"type":"Feature","properties":{"highway":"cycleway","name":null,"category":"Dedicated cycleway"},"geometry":{"type":"MultiLineString","coordinates":[[[0.1192499,51.7855435],[0.1191421,51.7855211],[0.1189908,51.7855748],[0.1189148,51.7855721],[0.1187764,51.7855671],[0.1184203,51.785496],[0.1179167,51.7853755],[0.1175788,51.7852947],[0.1173772,51.7852454],[0.1171038,51.7851819],[0.1164348,51.7850102],[0.1163144,51.7849756],[0.1160662,51.7849041],[0.1144642,51.7845438],[0.1138921,51.7844231],[0.1129698,51.7841967],[0.1116821,51.7838966],[0.1113024,51.7838044],[0.1109175,51.7837112],[0.1098505,51.7834401]]]}},
{"type":"Feature","properties":{"highway":"cycleway","name":null,"category":"Dedicated cycleway"},"geometry":{"type":"MultiLineString","coordinates":[[[0.0959165,51.7736189],[0.096035,51.7739385],[0.0960327,51.7739744],[0.0960057,51.7739975],[0.0959527,51.7740128],[0.0958579,51.7740266],[0.0960523,51.7744676],[0.0961121,51.7745754],[0.0961748,51.774673],[0.0961776,51.7747495],[0.0961473,51.7748061],[0.0961039,51.7748689],[0.0961075,51.7749147],[0.0961852,51.7750649],[0.0962512,51.7751926],[0.0963011,51.7754462],[0.0963573,51.7757321],[0.0963632,51.7761454],[0.0963373,51.7762582],[0.0962846,51.7764874],[0.0960111,51.7770791],[0.0956303,51.7776325],[0.095447,51.77783],[0.0953089,51.7779455],[0.0952054,51.7780443],[0.0948093,51.7783362]]]}},
{"type":"Feature","properties":{"highway":"cycleway","name":null,"category":"Dedicated cycleway"},"geometry":{"type":"MultiLineString","coordinates":[[[0.0951552,51.7797546],[0.0946853,51.7797129],[0.0943999,51.7796875],[0.0937014,51.7796011],[0.0934192,51.779547],[0.0933658,51.7795219],[0.0933324,51.7794839],[0.0933283,51.779444],[0.0933331,51.7793435],[0.0933482,51.779295],[0.0933779,51.7792338],[0.0935118,51.7790479],[0.093642,51.7789532],[0.093883,51.7788519],[0.0941845,51.7786599],[0.0947354,51.7783805]]]}},
{"type":"Feature","properties":{"highway":"cycleway","name":"Mill Court","category":"Dedicated cycleway"},"geometry":{"type":"MultiLineString","coordinates":[[[0.0950464,51.7806424],[0.0950624,51.7806141],[0.0950722,51.7805969],[0.0951028,51.7805468],[0.0953013,51.7801918],[0.0952671,51.7800898],[0.0952049,51.7799039]]]}},
{"type":"Feature","properties":{"highway":"cycleway","name":"Netteswell Road","category":"Dedicated cycleway"},"geometry":{"type":"MultiLineString","coordinates":[[[0.1088904,51.7797628],[0.1087062,51.7797226],[0.1086587,51.7797122],[0.1081089,51.7795924],[0.1078798,51.7795494],[0.107537,51.7794756],[0.1069792,51.7793802],[0.1066457,51.7793219],[0.1058663,51.7792307],[0.1054504,51.7791959],[0.1051638,51.7791507],[0.1046499,51.7790443]]]}},
{"type":"Feature","properties":{"highway":"cycleway","name":null,"category":"Dedicated cycleway"},"geometry":{"type":"MultiLineString","coordinates":[[[0.1128441,51.7805741],[0.1127282,51.7806775],[0.1126223,51.7807389],[0.1124479,51.7807688],[0.1123259,51.7807779],[0.1121381,51.7807879],[0.1120375,51.780787],[0.1119289,51.7807845],[0.1118029,51.7807804],[0.1117364,51.7807715],[0.1115401,51.7807151],[0.1112364,51.780638],[0.1110852,51.7805938],[0.1099916,51.7803157]]]}},
{"type":"Feature","properties":{"highway":"cycleway","name":null,"category":"Dedicated cycleway"},"geometry":{"type":"MultiLineString","coordinates":[[[0.0945761,51.7781586],[0.0946889,51.7782208],[0.0947209,51.7782404],[0.0946505,51.7782882],[0.09474,51.7783345],[0.0947735,51.7783577]]]}},
{"type":"Feature","properties":{"highway":"cycleway","name":null,"category":"Dedicated cycleway"},"geometry":{"type":"MultiLineString","coordinates":[[[0.1040708,51.7751111],[0.1041526,51.7751439],[0.1042569,51.7751794],[0.1043849,51.7752229],[0.1047567,51.7753493],[0.1058356,51.775687],[0.1063747,51.775839],[0.1066825,51.7759258],[0.1077198,51.7761575],[0.1083153,51.7762579],[0.1085168,51.7763136],[0.1086938,51.7763402],[0.1088598,51.7763517],[0.1089547,51.7763712],[0.109492,51.7764369],[0.1107722,51.7765525],[0.1112242,51.776599],[0.1114189,51.7766209],[0.1114602,51.7766255],[0.11155,51.7766636],[0.1116014,51.7767169],[0.1116318,51.7767782]]]}},
{"type":"Feature","properties":{"highway":"cycleway","name":null,"category":"Dedicated cycleway"},"geometry":{"type":"MultiLineString","coordinates":[[[0.093255,51.7797152],[0.0934213,51.7797126],[0.0939212,51.7797828],[0.0942139,51.7798147],[0.0949596,51.7798851]]]}},
{"type":"Feature","properties":{"highway":"cycleway","name":null,"category":"Dedicated cycleway"},"geometry":{"type":"MultiLineString","coordinates":[[[0.10717,51.7823078],[0.1066408,51.7820877],[0.1062756,51.7819358],[0.1062012,51.7819049],[0.1057125,51.7817401],[0.1054996,51.7816746],[0.1052985,51.7816359],[0.1051253,51.7815987],[0.1047707,51.7815293],[0.1042608,51.7814504],[0.1036171,51.781354],[0.1021255,51.7810898],[0.1012787,51.7809188],[0.1006848,51.7807856],[0.1005131,51.7807483],[0.0993956,51.7805054],[0.0989759,51.7804215],[0.0987148,51.7803628],[0.0985015,51.780284]]]}},
{"type":"Feature","properties":{"highway":"cycleway","name":null,"category":"Dedicated cycleway"},"geometry":{"type":"MultiLineString","coordinates":[[[0.0985015,51.780284],[0.0983967,51.7802249],[0.0983176,51.7801447],[0.0982679,51.7800725],[0.0982014,51.7800264],[0.0981486,51.7800028],[0.0980427,51.7799903],[0.0979515,51.7799904],[0.0978254,51.7800011],[0.0976756,51.780005],[0.0972997,51.7800111],[0.0970054,51.7799637]]]}},
{"type":"Feature","properties":{"highway":"path","name":null,"category":"Shared path"},"geometry":{"type":"MultiLineString","coordinates":[[[0.1029573,51.7744697],[0.1034515,51.7744774]]]}},
{"type":"Feature","properties":{"highway":"cycleway","name":null,"category":"Dedicated cycleway"},"geometry":{"type":"MultiLineString","coordinates":[[[0.1035982,51.7765999],[0.1035896,51.7764349]]]}},
{"type":"Feature","properties":{"highway":"cycleway","name":null,"category":"Dedicated cycleway"},"geometry":{"type":"MultiLineString","coordinates":[[[0.1035896,51.7764349],[0.103591,51.7760885],[0.1035731,51.7759357],[0.1034912,51.7758066]]]}},
{"type":"Feature","properties":{"highway":"cycleway","name":null,"category":"Dedicated cycleway"},"geometry":{"type":"MultiLineString","coordinates":[[[0.1097246,51.780243],[0.1099916,51.7803157]]]}},
{"type":"Feature","properties":{"highway":"cycleway","name":null,"category":"Dedicated cycleway"},"geometry":{"type":"MultiLineString","coordinates":[[[0.1087062,51.7797226],[0.1090045,51.7799099],[0.1094632,51.7801389],[0.1097246,51.780243]]]}},
{"type":"Feature","properties":{"highway":"cycleway","name":null,"category":"Dedicated cycleway"},"geometry":{"type":"MultiLineString","coordinates":[[[0.1036338,51.77715],[0.1035982,51.7765999]]]}},
{"type":"Feature","properties":{"highway":"cycleway","name":null,"category":"Dedicated cycleway"},"geometry":{"type":"MultiLineString","coordinates":[[[0.1036369,51.7772014],[0.1036338,51.77715]]]}},
{"type":"Feature","properties":{"highway":"cycleway","name":"Dukes Path","category":"Dedicated cycleway"},"geometry":{"type":"MultiLineString","coordinates":[[[0.1095724,51.7833546],[0.1095904,51.7833294],[0.110117,51.7825921],[0.1102458,51.7824228],[0.1105367,51.7819396],[0.111288,51.780906],[0.1117364,51.7807715]]]}},
{"type":"Feature","properties":{"highway":"cycleway","name":null,"category":"Dedicated cycleway"},"geometry":{"type":"MultiLineString","coordinates":[[[0.0905299,51.7761029],[0.0905397,51.7761635],[0.0908096,51.7762224],[0.0909136,51.7762348],[0.0912968,51.7763785],[0.091498,51.7764257],[0.0915286,51.7764348],[0.0918038,51.7764913],[0.0919233,51.7765179],[0.092044,51.7766324],[0.0921314,51.7767148],[0.0923177,51.7767779],[0.0922847,51.7769073],[0.0923141,51.7770504],[0.0923566,51.7771109],[0.0924489,51.7771977],[0.0925734,51.7772606],[0.0927176,51.7773156],[0.0928505,51.7773318],[0.092942,51.777343],[0.0929665,51.7773426],[0.0930529,51.7773414],[0.093221,51.7773239],[0.0933146,51.777336],[0.0933879,51.7773809],[0.0934442,51.7774111],[0.0934843,51.7774345],[0.0939117,51.7776834],[0.0939866,51.7777191],[0.0945444,51.7780102],[0.0945912,51.7780407],[0.0946184,51.7780686],[0.0946217,51.7780802],[0.0946159,51.7780996],[0.0945761,51.7781586]]]}},
{"type":"Feature","properties":{"highway":"cycleway","name":null,"category":"Dedicated cycleway"},"geometry":{"type":"MultiLineString","coordinates":[[[0.0913807,51.7804958],[0.0916363,51.7802948],[0.0916716,51.7802734],[0.0920993,51.7800144],[0.0921543,51.7799831]]]}},
{"type":"Feature","properties":{"highway":"cycleway","name":null,"category":"Dedicated cycleway"},"geometry":{"type":"MultiLineString","coordinates":[[[0.1102692,51.7801468],[0.1102559,51.7801837],[0.11027,51.780264],[0.1103228,51.7802915],[0.1109843,51.7804726],[0.1110852,51.7805938]]]}},
{"type":"Feature","properties":{"highway":"cycleway","name":null,"category":"Dedicated cycleway"},"geometry":{"type":"MultiLineString","coordinates":[[[0.0947584,51.777933],[0.0947384,51.7779474],[0.0947014,51.7779738],[0.0946405,51.7779413],[0.0946125,51.7779614],[0.0945444,51.7780102]]]}},
{"type":"Feature","properties":{"highway":"cycleway","name":null,"category":"Dedicated cycleway"},"geometry":{"type":"MultiLineString","coordinates":[[[0.0911381,51.7807085],[0.0910931,51.7807475],[0.0908923,51.7809683],[0.090737,51.781139],[0.0907135,51.7812092],[0.0907095,51.7813068],[0.0907025,51.781507],[0.0906931,51.7815341]]]}},
{"type":"Feature","properties":{"highway":"cycleway","name":null,"category":"Dedicated cycleway"},"geometry":{"type":"MultiLineString","coordinates":[[[0.0913807,51.7804958],[0.0911381,51.7807085]]]}},
{"type":"Feature","properties":{"highway":"cycleway","name":null,"category":"Dedicated cycleway"},"geometry":{"type":"MultiLineString","coordinates":[[[0.093255,51.7797152],[0.0932283,51.7796647],[0.0932529,51.779581],[0.0933658,51.7795219]]]}},
{"type":"Feature","properties":{"highway":"path","name":null,"category":"Shared path"},"geometry":{"type":"MultiLineString","coordinates":[[[0.09549,51.7796816],[0.0952548,51.7797604]]]}},
{"type":"Feature","properties":{"highway":"path","name":null,"category":"Shared path"},"geometry":{"type":"MultiLineString","coordinates":[[[0.0918878,51.779764],[0.0917508,51.779612],[0.0916963,51.7794811],[0.0915624,51.7794329],[0.0909573,51.7793291],[0.0907445,51.779296]]]}},
{"type":"Feature","properties":{"highway":"path","name":null,"category":"Shared path"},"geometry":{"type":"MultiLineString","coordinates":[[[0.0981798,51.7831812],[0.0982561,51.7830487],[0.0988087,51.7827102],[0.0988677,51.782546],[0.0989353,51.7824621]]]}},
{"type":"Feature","properties":{"highway":"path","name":null,"category":"Shared path"},"geometry":{"type":"MultiLineString","coordinates":[[[0.0954156,51.7817672],[0.0965689,51.7823305],[0.0966227,51.7823691]]]}},
{"type":"Feature","properties":{"highway":"path","name":null,"category":"Shared path"},"geometry":{"type":"MultiLineString","coordinates":[[[0.1019553,51.7815943],[0.1019467,51.7815174],[0.1020084,51.7814295],[0.1020996,51.7813133],[0.1020797,51.7812332],[0.1020992,51.7811725]]]}},
{"type":"Feature","properties":{"highway":"cycleway","name":null,"category":"Dedicated cycleway"},"geometry":{"type":"MultiLineString","coordinates":[[[0.0959536,51.7754396],[0.0960861,51.7754218],[0.0961472,51.7754135],[0.0961651,51.7754645],[0.0962228,51.7754567],[0.0963011,51.7754462]]]}},
{"type":"Feature","properties":{"highway":"cycleway","name":null,"category":"Dedicated cycleway"},"geometry":{"type":"MultiLineString","coordinates":[[[0.092141,51.7792574],[0.0924117,51.7791273],[0.092569,51.7791028],[0.0928061,51.7791004],[0.0929027,51.779115],[0.0930299,51.7791033]]]}},
{"type":"Feature","properties":{"highway":"cycleway","name":null,"category":"Dedicated cycleway"},"geometry":{"type":"MultiLineString","coordinates":[[[0.0930299,51.7791033],[0.093081,51.7791314],[0.093144,51.7791675],[0.0931667,51.7792534],[0.0932509,51.7792727],[0.0933482,51.779295]]]}},
{"type":"Feature","properties":{"highway":"path","name":null,"category":"Shared path"},"geometry":{"type":"MultiLineString","coordinates":[[[0.0980257,51.7754197],[0.0978481,51.7754294],[0.0976537,51.7754808],[0.0974364,51.7755157],[0.0973886,51.7755125],[0.0970201,51.7754877]]]}},
{"type":"Feature","properties":{"highway":"path","name":null,"category":"Shared path"},"geometry":{"type":"MultiLineString","coordinates":[[[0.097659,51.7749644],[0.097561,51.7749861],[0.0974579,51.77508],[0.0974458,51.7753746],[0.0973886,51.7755125],[0.0973156,51.7756884]]]}},
{"type":"Feature","properties":{"highway":"path","name":null,"category":"Shared path"},"geometry":{"type":"MultiLineString","coordinates":[[[0.0943988,51.7781436],[0.0945093,51.7781941]]]}},
{"type":"Feature","properties":{"highway":"path","name":null,"category":"Shared path"},"geometry":{"type":"MultiLineString","coordinates":[[[0.0874988,51.7784148],[0.087465,51.7784951]]]}},
{"type":"Feature","properties":{"highway":"path","name":null,"category":"Shared path"},"geometry":{"type":"MultiLineString","coordinates":[[[0.0910931,51.7807475],[0.0911537,51.7809206],[0.0911269,51.7810334],[0.0911135,51.7811297],[0.0912368,51.7812243],[0.0913823,51.7812624],[0.091674,51.7813388],[0.0921488,51.7813089],[0.092307,51.7812823],[0.0924251,51.7812574],[0.0924922,51.7812533]]]}},
{"type":"Feature","properties":{"highway":"cycleway","name":null,"category":"Dedicated cycleway"},"geometry":{"type":"MultiLineString","coordinates":[[[0.092141,51.7792574],[0.0921597,51.7793054],[0.0921641,51.7793969],[0.0921174,51.779429],[0.0920766,51.779457],[0.0920714,51.7794656],[0.0920969,51.7795155],[0.0920097,51.7795326],[0.0919402,51.7795462]]]}},
{"type":"Feature","properties":{"highway":"cycleway","name":null,"category":"Dedicated cycleway"},"geometry":{"type":"MultiLineString","coordinates":[[[0.0918878,51.779764],[0.0919727,51.7797999],[0.0920641,51.7798374],[0.092012,51.7798695],[0.0920399,51.7799],[0.0921543,51.7799831]]]}},
{"type":"Feature","properties":{"highway":"cycleway","name":null,"category":"Dedicated cycleway"},"geometry":{"type":"MultiLineString","coordinates":[[[0.0921543,51.7799831],[0.092223,51.7799499],[0.0923495,51.7798889],[0.0924317,51.7798583],[0.0924775,51.7798559],[0.0925349,51.7798675],[0.0925777,51.7798761],[0.0926342,51.779878],[0.0926578,51.7798739]]]}},
{"type":"Feature","properties":{"highway":"cycleway","name":null,"category":"Dedicated cycleway"},"geometry":{"type":"MultiLineString","coordinates":[[[0.0926578,51.7798739],[0.0927048,51.7798691],[0.0928222,51.7798572],[0.092913,51.7798479]]]}},
{"type":"Feature","properties":{"highway":"cycleway","name":null,"category":"Dedicated cycleway"},"geometry":{"type":"MultiLineString","coordinates":[[[0.0952049,51.7799039],[0.0952199,51.7798474],[0.0952433,51.7797596]]]}},
{"type":"Feature","properties":{"highway":"cycleway","name":null,"category":"Dedicated cycleway"},"geometry":{"type":"MultiLineString","coordinates":[[[0.0949596,51.7798851],[0.0952049,51.7799039]]]}},
{"type":"Feature","properties":{"highway":"cycleway","name":null,"category":"Dedicated cycleway"},"geometry":{"type":"MultiLineString","coordinates":[[[0.0970054,51.7799637],[0.0963335,51.7798669],[0.0954698,51.7797777],[0.0952548,51.7797604],[0.0952433,51.7797596]]]}},
{"type":"Feature","properties":{"highway":"cycleway","name":null,"category":"Dedicated cycleway"},"geometry":{"type":"MultiLineString","coordinates":[[[0.0952433,51.7797596],[0.0951977,51.779757],[0.0951552,51.7797546]]]}},
{"type":"Feature","properties":{"highway":"cycleway","name":null,"category":"Dedicated cycleway"},"geometry":{"type":"MultiLineString","coordinates":[[[0.0947354,51.7783805],[0.0947735,51.7783577],[0.0948093,51.7783362]]]}},
{"type":"Feature","properties":{"highway":"path","name":null,"category":"Shared path"},"geometry":{"type":"MultiLineString","coordinates":[[[0.1005597,51.7810336],[0.1006654,51.7810706],[0.100761,51.781104],[0.1008496,51.7811106],[0.1009166,51.7811106],[0.1009464,51.7811253],[0.1009848,51.7811163],[0.1010713,51.7810261]]]}},
{"type":"Feature","properties":{"highway":"path","name":null,"category":"Shared path"},"geometry":{"type":"MultiLineString","coordinates":[[[0.1062756,51.7819358],[0.1066303,51.7817942]]]}},
{"type":"Feature","properties":{"highway":"path","name":null,"category":"Shared path"},"geometry":{"type":"MultiLineString","coordinates":[[[0.1057033,51.780865],[0.1053923,51.7807957]]]}},
{"type":"Feature","properties":{"highway":"path","name":null,"category":"Shared path"},"geometry":{"type":"MultiLineString","coordinates":[[[0.1052362,51.7808786],[0.1049851,51.7810949],[0.1048565,51.7811023],[0.1047707,51.7815293]]]}},
{"type":"Feature","properties":{"highway":"path","name":null,"category":"Shared path"},"geometry":{"type":"MultiLineString","coordinates":[[[0.1042608,51.7814504],[0.1045281,51.7811101],[0.1048565,51.7811023]]]}},
{"type":"Feature","properties":{"highway":"cycleway","name":"Dukes Path","category":"Dedicated cycleway"},"geometry":{"type":"MultiLineString","coordinates":[[[0.111288,51.780906],[0.1112364,51.780638]]]}},
{"type":"Feature","properties":{"highway":"path","name":null,"category":"Shared path"},"geometry":{"type":"MultiLineString","coordinates":[[[0.0937099,51.7818187],[0.094061,51.7817806]]]}},
{"type":"Feature","properties":{"highway":"path","name":null,"category":"Shared path"},"geometry":{"type":"MultiLineString","coordinates":[[[0.104095,51.7751916],[0.1042569,51.7751794]]]}},
{"type":"Feature","properties":{"highway":"cycleway","name":null,"category":"Dedicated cycleway"},"geometry":{"type":"MultiLineString","coordinates":[[[0.1077318,51.7823393],[0.1076299,51.7824106],[0.1075843,51.7824413],[0.1075227,51.7824501],[0.1074478,51.7824414],[0.1072457,51.7823442],[0.10717,51.7823078]]]}},
{"type":"Feature","properties":{"highway":"path","name":null,"category":"Shared path"},"geometry":{"type":"MultiLineString","coordinates":[[[0.1068105,51.7819592],[0.1066408,51.7820877]]]}},
{"type":"Feature","properties":{"highway":"cycleway","name":null,"category":"Dedicated cycleway"},"geometry":{"type":"MultiLineString","coordinates":[[[0.1078518,51.7825531],[0.1078391,51.7825102],[0.1078458,51.7824795],[0.107874,51.782453],[0.1079129,51.782414]]]}},
{"type":"Feature","properties":{"highway":"cycleway","name":null,"category":"Dedicated cycleway"},"geometry":{"type":"MultiLineString","coordinates":[[[0.1079129,51.782414],[0.1078077,51.7823709],[0.1077318,51.7823393]]]}},
{"type":"Feature","properties":{"highway":"path","name":null,"category":"Shared path"},"geometry":{"type":"MultiLineString","coordinates":[[[0.0902519,51.7810249],[0.090337,51.7810243],[0.0905743,51.781071]]]}},
{"type":"Feature","properties":{"highway":"path","name":null,"category":"Shared path"},"geometry":{"type":"MultiLineString","coordinates":[[[0.0929546,51.780045],[0.0932005,51.779735]]]}},
{"type":"Feature","properties":{"highway":"cycleway","name":null,"category":"Dedicated cycleway"},"geometry":{"type":"MultiLineString","coordinates":[[[0.0886442,51.7788218],[0.0896582,51.7789975],[0.0903776,51.7791476]]]}},
{"type":"Feature","properties":{"highway":"cycleway","name":null,"category":"Dedicated cycleway"},"geometry":{"type":"MultiLineString","coordinates":[[[0.0907445,51.779296],[0.0908789,51.7793051],[0.0910812,51.7792862],[0.0912195,51.779317],[0.0912611,51.7793234],[0.0914306,51.7793493],[0.0917601,51.7794304],[0.091814,51.779449],[0.0918784,51.7794877],[0.0919402,51.7795462],[0.0919499,51.7795745],[0.0919432,51.779687],[0.0918878,51.779764]]]}},
{"type":"Feature","properties":{"highway":"cycleway","name":null,"category":"Dedicated cycleway"},"geometry":{"type":"MultiLineString","coordinates":[[[0.0868252,51.7785072],[0.0874727,51.778607],[0.0884287,51.7787823]]]}},
{"type":"Feature","properties":{"highway":"cycleway","name":null,"category":"Dedicated cycleway"},"geometry":{"type":"MultiLineString","coordinates":[[[0.0884287,51.7787823],[0.0885513,51.7788048],[0.0886442,51.7788218]]]}},
{"type":"Feature","properties":{"highway":"cycleway","name":null,"category":"Dedicated cycleway"},"geometry":{"type":"MultiLineString","coordinates":[[[0.1095944,51.7833632],[0.1095724,51.7833546],[0.1090228,51.7831674],[0.1086627,51.7830117],[0.108196,51.7827722],[0.1080088,51.7826709],[0.1078668,51.7825901],[0.1078518,51.7825531]]]}},
{"type":"Feature","properties":{"highway":"cycleway","name":null,"category":"Dedicated cycleway"},"geometry":{"type":"MultiLineString","coordinates":[[[0.1098505,51.7834401],[0.1097367,51.7834074],[0.1095944,51.7833632]]]}},
{"type":"Feature","properties":{"highway":"path","name":null,"category":"Shared path"},"geometry":{"type":"MultiLineString","coordinates":[[[0.1019467,51.7815174],[0.1015919,51.7812262],[0.1015705,51.7811847],[0.1015719,51.7811289]]]}},
{"type":"Feature","properties":{"highway":"path","name":null,"category":"Shared path"},"geometry":{"type":"MultiLineString","coordinates":[[[0.110117,51.7825921],[0.1102694,51.7826344]]]}},
{"type":"Feature","properties":{"highway":"path","name":null,"category":"Shared path"},"geometry":{"type":"MultiLineString","coordinates":[[[0.0967923,51.7765536],[0.0966609,51.7763217]]]}},
{"type":"Feature","properties":{"highway":"path","name":null,"category":"Shared path"},"geometry":{"type":"MultiLineString","coordinates":[[[0.1023573,51.7767405],[0.102233,51.7765874],[0.1021123,51.776375],[0.1020586,51.7761675],[0.1020265,51.7759916],[0.1021681,51.7756387]]]}},
{"type":"Feature","properties":{"highway":"cycleway","name":null,"category":"Dedicated cycleway"},"geometry":{"type":"MultiLineString","coordinates":[[[0.0903776,51.7791476],[0.0904912,51.7791874],[0.0905633,51.7792407],[0.0906196,51.7792716],[0.090669,51.7792811],[0.0907445,51.779296]]]}},
{"type":"Feature","properties":{"highway":"path","name":null,"category":"Shared path"},"geometry":{"type":"MultiLineString","coordinates":[[[0.1088122,51.7800028],[0.1087285,51.7799195],[0.1086664,51.7797353],[0.1086587,51.7797122]]]}},
{"type":"Feature","properties":{"highway":"path","name":null,"category":"Shared path"},"geometry":{"type":"MultiLineString","coordinates":[[[0.1082564,51.7798665],[0.1086664,51.7797353],[0.1087062,51.7797226]]]}},
{"type":"Feature","properties":{"highway":"cycleway","name":null,"category":"Dedicated cycleway"},"geometry":{"type":"MultiLineString","coordinates":[[[0.092913,51.7798479],[0.0929747,51.7798379],[0.0931557,51.7797558],[0.0932005,51.779735],[0.093255,51.7797152]]]}},
{"type":"Feature","properties":{"highway":"path","name":null,"category":"Shared path"},"geometry":{"type":"MultiLineString","coordinates":[[[0.0951138,51.7801068],[0.0952671,51.7800898]]]}}
]
}
