{
"type": "FeatureCollection",
"name": "HARLO_3_cycling",
"crs": { "type": "name", "properties": { "name": "urn:ogc:def:crs:OGC:1.3:CRS84" } },
"features": [
{"type":"Feature","properties":{"highway":"track","name":"Marsh Lane","category":"Track"},"geometry":{"type":"MultiLineString","coordinates":[[[0.1452873,51.7939015],[0.1453725,51.7938455],[0.14552,51.7937708],[0.1456715,51.7936896],[0.1458446,51.7935919],[0.1459947,51.7934827],[0.1460913,51.7933769],[0.1462335,51.7931408],[0.1465795,51.7929835],[0.146752,51.7928995],[0.146918,51.7928391],[0.1471156,51.7927672],[0.1473348,51.792621],[0.1474607,51.7924276],[0.1476057,51.7922561],[0.1478078,51.7921042],[0.1482532,51.7919152],[0.1492713,51.7916889]]]}},
{"type":"Feature","properties":{"highway":"cycleway","name":null,"category":"Dedicated cycleway"},"geometry":{"type":"MultiLineString","coordinates":[[[0.140171,51.7808343],[0.1402001,51.780793],[0.1403119,51.7805915],[0.1404622,51.7803273],[0.1405378,51.780135],[0.1405995,51.779974],[0.1406263,51.7797556],[0.1406719,51.7796048],[0.1407149,51.7795214],[0.1407914,51.7793548],[0.1408536,51.7792248],[0.141128,51.7787251],[0.1412232,51.7785417],[0.1412352,51.7783642],[0.1412107,51.7782091],[0.1410902,51.7781829],[0.1409464,51.7781703],[0.1404465,51.778152],[0.1403959,51.7781284],[0.140377,51.7780986],[0.1403637,51.7780514],[0.1403697,51.7779328],[0.14039,51.7778517],[0.1403858,51.777651],[0.1404,51.7775316],[0.1404432,51.7774056],[0.1404339,51.777159],[0.140449,51.7770248],[0.1404695,51.7768997],[0.1404039,51.776788]]]}},
{"type":"Feature","properties":{"highway":"path","name":null,"category":"Shared path"},"geometry":{"type":"MultiLineString","coordinates":[[[0.1383129,51.7931189],[0.1384852,51.7932091],[0.138689,51.7933352],[0.1390939,51.7935568],[0.1398317,51.7939507],[0.140234,51.7941879],[0.1405396,51.7943978],[0.1407971,51.7945289],[0.1414328,51.7946998],[0.1417252,51.7947578],[0.1419023,51.7947785],[0.1420928,51.7947038],[0.1422751,51.794591],[0.1424388,51.7944666],[0.1425353,51.7944517],[0.1428651,51.794513],[0.143246,51.7945379],[0.1436563,51.7945578],[0.1438629,51.7944732],[0.144064,51.7942957],[0.1442607,51.7941916],[0.1443242,51.794158],[0.1445576,51.7940801],[0.1447426,51.7940452],[0.144893,51.7940044]]]}},
{"type":"Feature","properties":{"highway":"path","name":null,"category":"Shared path"},"geometry":{"type":"MultiLineString","coordinates":[[[0.1424534,51.7867503],[0.1424279,51.7868499],[0.1424252,51.7869262],[0.1425359,51.7871554],[0.1426398,51.7872863]]]}},
{"type":"Feature","properties":{"highway":"path","name":null,"category":"Shared path"},"geometry":{"type":"MultiLineString","coordinates":[[[0.1422817,51.7867774],[0.1423716,51.7868466],[0.1424252,51.7869262]]]}},
{"type":"Feature","properties":{"highway":"path","name":null,"category":"Shared path"},"geometry":{"type":"MultiLineString","coordinates":[[[0.1392248,51.7924619],[0.1392361,51.7929784],[0.1391166,51.7931729],[0.1389303,51.7933003],[0.1387947,51.7933272],[0.1387276,51.7933289],[0.138689,51.7933352]]]}},
{"type":"Feature","properties":{"highway":"cycleway","name":null,"category":"Dedicated cycleway"},"geometry":{"type":"MultiLineString","coordinates":[[[0.1311117,51.7880412],[0.1309315,51.7880066],[0.1307811,51.7879981],[0.1300322,51.7880267],[0.1297102,51.7880071],[0.1290947,51.7880256],[0.1286479,51.7880196],[0.1283443,51.7880014],[0.1279171,51.7879548],[0.1274846,51.7878703],[0.1270494,51.7877657],[0.1257953,51.7874643],[0.1251159,51.7873066],[0.1245019,51.7871615],[0.1242083,51.7870922],[0.1240602,51.7870564],[0.1237557,51.7869829]]]}},
{"type":"Feature","properties":{"highway":"path","name":null,"category":"Shared path"},"geometry":{"type":"MultiLineString","coordinates":[[[0.1422441,51.7872066],[0.1421194,51.7871187],[0.1419536,51.7868813],[0.1418109,51.7868316],[0.1411162,51.786602],[0.1404283,51.7863107]]]}},
{"type":"Feature","properties":{"highway":"track","name":null,"category":"Track"},"geometry":{"type":"MultiLineString","coordinates":[[[0.1497348,51.7916011],[0.1497833,51.7917284],[0.1498978,51.7920292]]]}},
{"type":"Feature","properties":{"highway":"cycleway","name":null,"category":"Dedicated cycleway"},"geometry":{"type":"MultiLineString","coordinates":[[[0.1446876,51.7836023],[0.1446554,51.7835905],[0.1445518,51.7835126]]]}},
{"type":"Feature","properties":{"highway":"cycleway","name":null,"category":"Dedicated cycleway"},"geometry":{"type":"MultiLineString","coordinates":[[[0.1440307,51.7834217],[0.144045,51.7834327],[0.1441901,51.7834812],[0.1443301,51.7835343],[0.1444095,51.7835808]]]}},
{"type":"Feature","properties":{"highway":"track","name":null,"category":"Track"},"geometry":{"type":"MultiLineString","coordinates":[[[0.1399907,51.7859903],[0.1399665,51.7860451],[0.1400148,51.7860782],[0.1401115,51.7861055]]]}},
{"type":"Feature","properties":{"highway":"cycleway","name":null,"category":"Dedicated cycleway"},"geometry":{"type":"MultiLineString","coordinates":[[[0.1445518,51.7835126],[0.1444756,51.7835491],[0.1444095,51.7835808]]]}},
{"type":"Feature","properties":{"highway":"cycleway","name":null,"category":"Dedicated cycleway"},"geometry":{"type":"MultiLineString","coordinates":[[[0.1484275,51.7857701],[0.1484501,51.7857777],[0.1485132,51.7857755],[0.1488694,51.7857628],[0.1489855,51.7857583],[0.1490673,51.7857823],[0.1493851,51.7859508],[0.1498277,51.7860312],[0.1499176,51.786047],[0.1503641,51.7861258],[0.1516737,51.7865051],[0.1517964,51.7865406],[0.1519466,51.7866053],[0.1521782,51.7867098],[0.1522444,51.7867397],[0.1523412,51.7867682],[0.1523659,51.7867766]]]}},
{"type":"Feature","properties":{"highway":"path","name":null,"category":"Shared path"},"geometry":{"type":"MultiLineString","coordinates":[[[0.131169,51.7817263],[0.1323218,51.7822292]]]}},
{"type":"Feature","properties":{"highway":"path","name":null,"category":"Shared path"},"geometry":{"type":"MultiLineString","coordinates":[[[0.1298241,51.7857816],[0.1295112,51.785686],[0.1290855,51.7850378]]]}},
{"type":"Feature","properties":{"highway":"path","name":null,"category":"Shared path"},"geometry":{"type":"MultiLineString","coordinates":[[[0.1319254,51.7863591],[0.131944,51.7864169],[0.1319708,51.7864393],[0.132172,51.7865189],[0.1323128,51.7865977],[0.1324456,51.7867081],[0.1325421,51.7869727],[0.1326374,51.7871104],[0.1327057,51.7871502],[0.1329442,51.787161]]]}},
{"type":"Feature","properties":{"highway":"cycleway","name":null,"category":"Dedicated cycleway"},"geometry":{"type":"MultiLineString","coordinates":[[[0.1313585,51.7882734],[0.1314013,51.7882112],[0.1314436,51.7881847],[0.1314879,51.7881681],[0.1315602,51.7881673],[0.131685,51.7881946],[0.1318647,51.7882942],[0.1319934,51.7884006]]]}},
{"type":"Feature","properties":{"highway":"cycleway","name":null,"category":"Dedicated cycleway"},"geometry":{"type":"MultiLineString","coordinates":[[[0.1323066,51.7883518],[0.1322207,51.7882438],[0.1321063,51.7880918],[0.1320955,51.7880421],[0.132105,51.7879931],[0.1321331,51.7879657],[0.1321706,51.7879392],[0.1322001,51.7879275],[0.1322444,51.7879164],[0.1324267,51.7879159]]]}},
{"type":"Feature","properties":{"highway":"cycleway","name":null,"category":"Dedicated cycleway"},"geometry":{"type":"MultiLineString","coordinates":[[[0.1322444,51.7879164],[0.1322047,51.7878572],[0.1322048,51.7878374],[0.132205,51.7878084],[0.1322052,51.7877765],[0.132227,51.7877309]]]}},
{"type":"Feature","properties":{"highway":"cycleway","name":null,"category":"Dedicated cycleway"},"geometry":{"type":"MultiLineString","coordinates":[[[0.132227,51.7877309],[0.1321278,51.7876849],[0.1319921,51.7875726],[0.1318676,51.7875181],[0.1315242,51.7873923]]]}},
{"type":"Feature","properties":{"highway":"cycleway","name":null,"category":"Dedicated cycleway"},"geometry":{"type":"MultiLineString","coordinates":[[[0.1311117,51.7880412],[0.1311563,51.7879727],[0.131203,51.7879032],[0.1309318,51.78786],[0.1309039,51.787807],[0.1308719,51.7877475]]]}},
{"type":"Feature","properties":{"highway":"path","name":null,"category":"Shared path"},"geometry":{"type":"MultiLineString","coordinates":[[[0.138689,51.7933352],[0.1414432,51.7938569],[0.1438062,51.7943082],[0.1439349,51.7943065],[0.1439993,51.79428],[0.1442607,51.7941916]]]}},
{"type":"Feature","properties":{"highway":"cycleway","name":null,"category":"Dedicated cycleway"},"geometry":{"type":"MultiLineString","coordinates":[[[0.1465904,51.7905459],[0.1465838,51.7904992],[0.1466549,51.7904959],[0.1466876,51.7904795],[0.1466947,51.7904423],[0.1466911,51.7903657],[0.1466896,51.7902161],[0.1466985,51.7900347],[0.1467482,51.7897138],[0.1468187,51.7893662],[0.1467837,51.789347],[0.1467546,51.7893296],[0.1467662,51.7892939],[0.1467711,51.7892668],[0.1467741,51.7892501],[0.1468399,51.7892452],[0.1468683,51.7892277],[0.146972,51.7888321],[0.1470033,51.7886421],[0.1470167,51.788561],[0.1470175,51.7885249],[0.1470192,51.7884781],[0.1469923,51.7884723],[0.1469982,51.7884223],[0.1470105,51.7883525],[0.1470295,51.7883369],[0.1470527,51.7882012],[0.1471205,51.7879376],[0.1471422,51.7878636],[0.1471543,51.7878298],[0.1472128,51.7876661],[0.147438,51.7871784],[0.1475139,51.7870435],[0.1475956,51.7868847],[0.1478896,51.7863136],[0.1480131,51.786044],[0.1480584,51.785848],[0.1480399,51.7857201]]]}},
{"type":"Feature","properties":{"highway":"cycleway","name":"Birch Walk","category":"Dedicated cycleway"},"geometry":{"type":"MultiLineString","coordinates":[[[0.1516737,51.7865051],[0.1516063,51.7865989],[0.1514812,51.7867733]]]}},
{"type":"Feature","properties":{"highway":"path","name":null,"category":"Shared path"},"geometry":{"type":"MultiLineString","coordinates":[[[0.1321217,51.7823883],[0.1320959,51.7822587],[0.1320493,51.7822337],[0.1319799,51.7822225],[0.1319345,51.7821781]]]}},
{"type":"Feature","properties":{"highway":"path","name":null,"category":"Shared path"},"geometry":{"type":"MultiLineString","coordinates":[[[0.1392672,51.7820432],[0.1399887,51.7821458]]]}},
{"type":"Feature","properties":{"highway":"path","name":null,"category":"Shared path"},"geometry":{"type":"MultiLineString","coordinates":[[[0.1400784,51.7823024],[0.1399381,51.7822035]]]}},
{"type":"Feature","properties":{"highway":"cycleway","name":null,"category":"Dedicated cycleway"},"geometry":{"type":"MultiLineString","coordinates":[[[0.1444095,51.7835808],[0.1445516,51.7836782],[0.1448694,51.7838939],[0.1450301,51.7840197],[0.1451992,51.7841242],[0.1454056,51.7842013],[0.1457529,51.7843878],[0.1460226,51.7845191],[0.1465068,51.7847815],[0.1468702,51.7849461],[0.147552,51.7852015],[0.1476191,51.7852393],[0.1476678,51.7852674],[0.1477175,51.7853098],[0.1478382,51.785425],[0.1479227,51.7855113],[0.1479777,51.7855951],[0.1479886,51.7856169],[0.1480399,51.7857201]]]}},
{"type":"Feature","properties":{"highway":"cycleway","name":null,"category":"Dedicated cycleway"},"geometry":{"type":"MultiLineString","coordinates":[[[0.1318647,51.7882942],[0.1319364,51.7882574],[0.1319776,51.7882383],[0.1319991,51.7882283],[0.1320713,51.7882867],[0.1320932,51.7882808],[0.1321349,51.7882695],[0.1322207,51.7882438]]]}},
{"type":"Feature","properties":{"highway":"cycleway","name":null,"category":"Dedicated cycleway"},"geometry":{"type":"MultiLineString","coordinates":[[[0.1311975,51.7881101],[0.1312753,51.7881141],[0.1313267,51.7881272],[0.1313561,51.7881363],[0.1313906,51.7881458],[0.1314436,51.7881847]]]}},
{"type":"Feature","properties":{"highway":"path","name":null,"category":"Shared path"},"geometry":{"type":"MultiLineString","coordinates":[[[0.1405378,51.780135],[0.1406311,51.7801198],[0.140792,51.7801564],[0.1409932,51.7801613],[0.1410897,51.7801746],[0.141248,51.7801481],[0.1413821,51.7801746],[0.1417791,51.7803107],[0.1421868,51.7804584],[0.1423289,51.7805687]]]}},
{"type":"Feature","properties":{"highway":"path","name":null,"category":"Shared path"},"geometry":{"type":"MultiLineString","coordinates":[[[0.141248,51.7801481],[0.1412587,51.7800385],[0.1417227,51.7799373],[0.1419212,51.7798129],[0.1421009,51.7797581],[0.1423021,51.7796452],[0.1425086,51.7796353],[0.1426856,51.7796535],[0.1429834,51.7796336],[0.1432248,51.7797631],[0.1434139,51.7798344]]]}},
{"type":"Feature","properties":{"highway":"path","name":null,"category":"Shared path"},"geometry":{"type":"MultiLineString","coordinates":[[[0.1421868,51.7804584],[0.1420812,51.7805198],[0.141935,51.7810217],[0.1419336,51.781123],[0.1419806,51.7811985]]]}},
{"type":"Feature","properties":{"highway":"path","name":null,"category":"Shared path"},"geometry":{"type":"MultiLineString","coordinates":[[[0.1323918,51.7813325],[0.1321295,51.781313]]]}},
{"type":"Feature","properties":{"highway":"path","name":null,"category":"Shared path"},"geometry":{"type":"MultiLineString","coordinates":[[[0.151992,51.7862518],[0.1520698,51.7862452],[0.152169,51.7863016],[0.1522763,51.786343],[0.152519,51.7864268],[0.1527564,51.7864907],[0.1528798,51.7865297],[0.1530702,51.7865529],[0.1532258,51.7866127],[0.1534068,51.7866541],[0.1535503,51.7866873],[0.153663,51.7867172],[0.1537582,51.7867465]]]}},
{"type":"Feature","properties":{"highway":"path","name":null,"category":"Shared path"},"geometry":{"type":"MultiLineString","coordinates":[[[0.1520711,51.7860826],[0.1523648,51.7861771],[0.1527202,51.7862418],[0.152865,51.7862551],[0.1529428,51.7862676],[0.1531748,51.7863372],[0.1534229,51.7863945],[0.1536643,51.7864774],[0.1540366,51.7865849]]]}},
{"type":"Feature","properties":{"highway":"path","name":null,"category":"Shared path"},"geometry":{"type":"MultiLineString","coordinates":[[[0.151992,51.7862518],[0.1520711,51.7860826],[0.1522079,51.7858345],[0.1523796,51.7854131],[0.1515588,51.7851907],[0.1509312,51.7850281],[0.1501634,51.7849289],[0.1493218,51.7848304],[0.1491978,51.7848184]]]}},
{"type":"Feature","properties":{"highway":"track","name":null,"category":"Track"},"geometry":{"type":"MultiLineString","coordinates":[[[0.1360071,51.7808702],[0.1380501,51.7809962]]]}},
{"type":"Feature","properties":{"highway":"track","name":null,"category":"Track"},"geometry":{"type":"MultiLineString","coordinates":[[[0.1520417,51.7911887],[0.1520745,51.7912167],[0.1521598,51.7912896],[0.1522531,51.7913693]]]}},
{"type":"Feature","properties":{"highway":"path","name":null,"category":"Shared path"},"geometry":{"type":"MultiLineString","coordinates":[[[0.1500812,51.7915666],[0.1499148,51.7924934],[0.1498638,51.7926808],[0.1498638,51.7928136],[0.1498879,51.7928683],[0.1503305,51.7931089],[0.1506256,51.7932067],[0.1513793,51.7934274],[0.151559,51.793434],[0.1517574,51.7934008],[0.1520069,51.7934091],[0.1523556,51.7933859],[0.1526131,51.793361],[0.1527257,51.7933162],[0.1528765,51.7932448],[0.1532541,51.7928899],[0.1530905,51.7923208],[0.1517971,51.7913326]]]}},
{"type":"Feature","properties":{"highway":"cycleway","name":null,"category":"Dedicated cycleway"},"geometry":{"type":"MultiLineString","coordinates":[[[0.1322432,51.7883945],[0.1323066,51.7883518]]]}},
{"type":"Feature","properties":{"highway":"cycleway","name":null,"category":"Dedicated cycleway"},"geometry":{"type":"MultiLineString","coordinates":[[[0.1480399,51.7857201],[0.1480824,51.7857133],[0.1481203,51.7857089],[0.148174,51.7857045],[0.1482916,51.7857118],[0.1483301,51.7857253],[0.1483731,51.7857462],[0.1484275,51.7857701]]]}},
{"type":"Feature","properties":{"highway":"cycleway","name":null,"category":"Dedicated cycleway"},"geometry":{"type":"MultiLineString","coordinates":[[[0.1449522,51.7842216],[0.1449842,51.7841533],[0.1449958,51.7841003],[0.1449894,51.7840729],[0.1448808,51.7839821],[0.1448694,51.7838939]]]}},
{"type":"Feature","properties":{"highway":"path","name":null,"category":"Shared path"},"geometry":{"type":"MultiLineString","coordinates":[[[0.1360622,51.7805627],[0.1361605,51.7804682]]]}},
{"type":"Feature","properties":{"highway":"cycleway","name":null,"category":"Dedicated cycleway"},"geometry":{"type":"MultiLineString","coordinates":[[[0.1325405,51.7809008],[0.1326093,51.780383],[0.1326873,51.7803305],[0.1329231,51.780203],[0.1330665,51.7801615],[0.1332705,51.7801423],[0.1336017,51.78014],[0.1338769,51.7801526],[0.1341861,51.780174],[0.1360566,51.7803356],[0.1377752,51.7804792],[0.138659,51.7805838],[0.1388142,51.7806144],[0.1394837,51.7807634],[0.1399705,51.7808957],[0.1400844,51.7809344],[0.140629,51.7811156],[0.1408838,51.7812226],[0.1411172,51.7813272],[0.1412795,51.7814152],[0.1419943,51.781825],[0.1428341,51.7824324],[0.1438893,51.7831964],[0.1439242,51.783243],[0.1439188,51.7833052],[0.1439061,51.7833326]]]}},
{"type":"Feature","properties":{"highway":"cycleway","name":null,"category":"Dedicated cycleway"},"geometry":{"type":"MultiLineString","coordinates":[[[0.1439061,51.7833326],[0.1439603,51.7833529],[0.1440178,51.7834027]]]}},
{"type":"Feature","properties":{"highway":"path","name":null,"category":"Shared path"},"geometry":{"type":"MultiLineString","coordinates":[[[0.1324221,51.7822415],[0.1322313,51.7823417]]]}},
{"type":"Feature","properties":{"highway":"path","name":null,"category":"Shared path"},"geometry":{"type":"MultiLineString","coordinates":[[[0.151992,51.7862518],[0.1520859,51.7863198],[0.1521387,51.7864196]]]}},
{"type":"Feature","properties":{"highway":"path","name":null,"category":"Shared path"},"geometry":{"type":"MultiLineString","coordinates":[[[0.1513683,51.7895918],[0.1514551,51.7895875]]]}},
{"type":"Feature","properties":{"highway":"path","name":null,"category":"Shared path"},"geometry":{"type":"MultiLineString","coordinates":[[[0.1537014,51.7871594],[0.1535975,51.7871966]]]}},
{"type":"Feature","properties":{"highway":"track","name":null,"category":"Track"},"geometry":{"type":"MultiLineString","coordinates":[[[0.1522531,51.7913693],[0.152373,51.7913404],[0.1523074,51.7912592],[0.1522832,51.7912292]]]}},
{"type":"Feature","properties":{"highway":"cycleway","name":null,"category":"Dedicated cycleway"},"geometry":{"type":"MultiLineString","coordinates":[[[0.149875,51.7886893],[0.1498842,51.7886577],[0.1498948,51.7884271],[0.1499425,51.7882809],[0.1499683,51.7882214]]]}},
{"type":"Feature","properties":{"highway":"cycleway","name":null,"category":"Dedicated cycleway"},"geometry":{"type":"MultiLineString","coordinates":[[[0.1319934,51.7884006],[0.132076,51.7883871]]]}},
{"type":"Feature","properties":{"highway":"cycleway","name":null,"category":"Dedicated cycleway"},"geometry":{"type":"MultiLineString","coordinates":[[[0.1311975,51.7881101],[0.13118,51.7882287]]]}},
{"type":"Feature","properties":{"highway":"cycleway","name":null,"category":"Dedicated cycleway"},"geometry":{"type":"MultiLineString","coordinates":[[[0.1313585,51.7882734],[0.1312692,51.7882924],[0.13118,51.7882287]]]}},
{"type":"Feature","properties":{"highway":"cycleway","name":null,"category":"Dedicated cycleway"},"geometry":{"type":"MultiLineString","coordinates":[[[0.1324267,51.7879159],[0.1324284,51.7878747],[0.1325038,51.7878367]]]}},
{"type":"Feature","properties":{"highway":"cycleway","name":null,"category":"Dedicated cycleway"},"geometry":{"type":"MultiLineString","coordinates":[[[0.1323977,51.7877363],[0.1325218,51.7878376]]]}},
{"type":"Feature","properties":{"highway":"cycleway","name":null,"category":"Dedicated cycleway"},"geometry":{"type":"MultiLineString","coordinates":[[[0.1311117,51.7880412],[0.1311975,51.7881101]]]}},
{"type":"Feature","properties":{"highway":"cycleway","name":null,"category":"Dedicated cycleway"},"geometry":{"type":"MultiLineString","coordinates":[[[0.1387003,51.7831955],[0.1386148,51.7830373],[0.1386289,51.782966],[0.1387578,51.7827992],[0.1388,51.7827444],[0.1388221,51.7827198],[0.1389979,51.7825229],[0.1390894,51.7823444]]]}},
{"type":"Feature","properties":{"highway":"cycleway","name":null,"category":"Dedicated cycleway"},"geometry":{"type":"MultiLineString","coordinates":[[[0.1394724,51.781587],[0.139753,51.7812871],[0.1400545,51.7809648]]]}},
{"type":"Feature","properties":{"highway":"path","name":null,"category":"Shared path"},"geometry":{"type":"MultiLineString","coordinates":[[[0.1406373,51.7873698],[0.1405455,51.7873391],[0.1403859,51.7872736],[0.1402894,51.7872089],[0.1402129,51.7871326],[0.1402102,51.7870571],[0.1403524,51.7864714],[0.1404381,51.7863174]]]}},
{"type":"Feature","properties":{"highway":"path","name":null,"category":"Shared path"},"geometry":{"type":"MultiLineString","coordinates":[[[0.1403524,51.7864714],[0.1402628,51.7862082]]]}},
{"type":"Feature","properties":{"highway":"track","name":null,"category":"Track"},"geometry":{"type":"MultiLineString","coordinates":[[[0.1423882,51.7820182],[0.1424464,51.781938],[0.1424971,51.781878],[0.1425367,51.7818805],[0.1426218,51.781868],[0.1426567,51.7818531],[0.1426923,51.7818032],[0.1426808,51.781717],[0.1426433,51.7816307],[0.1425843,51.7815428],[0.1425025,51.781449],[0.1424609,51.78142],[0.1424005,51.7814017],[0.1423281,51.7813968],[0.1422342,51.7814134],[0.1421927,51.7814449],[0.1421524,51.7814797],[0.1421417,51.7815328],[0.1421511,51.7815652],[0.1421887,51.7816407],[0.1423389,51.7817967],[0.1424134,51.781846],[0.1424491,51.7818627],[0.1424971,51.781878]]]}},
{"type":"Feature","properties":{"highway":"cycleway","name":null,"category":"Dedicated cycleway"},"geometry":{"type":"MultiLineString","coordinates":[[[0.1400545,51.7809648],[0.1400844,51.7809344]]]}},
{"type":"Feature","properties":{"highway":"cycleway","name":null,"category":"Dedicated cycleway"},"geometry":{"type":"MultiLineString","coordinates":[[[0.1390894,51.7823444],[0.1392185,51.7821338],[0.1392672,51.7820432],[0.139378,51.7816878],[0.1394724,51.781587]]]}},
{"type":"Feature","properties":{"highway":"path","name":null,"category":"Shared path"},"geometry":{"type":"MultiLineString","coordinates":[[[0.1409587,51.7874992],[0.1403692,51.787454]]]}},
{"type":"Feature","properties":{"highway":"cycleway","name":null,"category":"Dedicated cycleway"},"geometry":{"type":"MultiLineString","coordinates":[[[0.1440178,51.7834027],[0.1440307,51.7834217]]]}},
{"type":"Feature","properties":{"highway":"cycleway","name":"Sheering Road","category":"Dedicated cycleway"},"geometry":{"type":"MultiLineString","coordinates":[[[0.1447916,51.783563],[0.1447859,51.7835766],[0.1446876,51.7836023]]]}},
{"type":"Feature","properties":{"highway":"path","name":null,"category":"Shared path"},"geometry":{"type":"MultiLineString","coordinates":[[[0.1424796,51.7872584],[0.1425359,51.7871554]]]}},
{"type":"Feature","properties":{"highway":"cycleway","name":null,"category":"Dedicated cycleway"},"geometry":{"type":"MultiLineString","coordinates":[[[0.1400844,51.7809344],[0.1401368,51.7808739]]]}},
{"type":"Feature","properties":{"highway":"cycleway","name":null,"category":"Dedicated cycleway"},"geometry":{"type":"MultiLineString","coordinates":[[[0.1401368,51.7808739],[0.140171,51.7808343]]]}},
{"type":"Feature","properties":{"highway":"cycleway","name":null,"category":"Dedicated cycleway"},"geometry":{"type":"MultiLineString","coordinates":[[[0.1525026,51.7868012],[0.1525321,51.7868058],[0.1525555,51.7868094],[0.1528157,51.7868459],[0.1530973,51.7869156],[0.1533012,51.7869836],[0.153515,51.7870779],[0.1537014,51.7871594],[0.1537452,51.7871786],[0.1538538,51.7872101],[0.1540685,51.7872369],[0.154312,51.7872467],[0.1543626,51.7872564],[0.1544203,51.7872662]]]}},
{"type":"Feature","properties":{"highway":"cycleway","name":null,"category":"Dedicated cycleway"},"geometry":{"type":"MultiLineString","coordinates":[[[0.1523659,51.7867766],[0.1524378,51.7867895],[0.1525026,51.7868012]]]}},
{"type":"Feature","properties":{"highway":"path","name":null,"category":"Shared path"},"geometry":{"type":"MultiLineString","coordinates":[[[0.1447821,51.7878298],[0.1447995,51.7877272]]]}},
{"type":"Feature","properties":{"highway":"path","name":null,"category":"Shared path"},"geometry":{"type":"MultiLineString","coordinates":[[[0.152009,51.7867208],[0.1521782,51.7867098]]]}},
{"type":"Feature","properties":{"highway":"path","name":null,"category":"Shared path"},"geometry":{"type":"MultiLineString","coordinates":[[[0.1467672,51.788736],[0.1470033,51.7886421]]]}},
{"type":"Feature","properties":{"highway":"path","name":null,"category":"Shared path"},"geometry":{"type":"MultiLineString","coordinates":[[[0.1337142,51.7840403],[0.1336766,51.7841179]]]}},
{"type":"Feature","properties":{"highway":"cycleway","name":null,"category":"Dedicated cycleway"},"geometry":{"type":"MultiLineString","coordinates":[[[0.1325556,51.7826265],[0.1326024,51.782615],[0.1326128,51.7825459],[0.1325726,51.7825232],[0.1325253,51.7825368],[0.1325108,51.7826071],[0.1325556,51.7826265]]]}},
{"type":"Feature","properties":{"highway":"cycleway","name":null,"category":"Dedicated cycleway"},"geometry":{"type":"MultiLineString","coordinates":[[[0.1323977,51.7877363],[0.132227,51.7877309]]]}},
{"type":"Feature","properties":{"highway":"path","name":null,"category":"Shared path"},"geometry":{"type":"MultiLineString","coordinates":[[[0.1326266,51.793998],[0.1327307,51.7940017],[0.132811,51.7940046]]]}}
]
}
