{
"type": "FeatureCollection",
"name": "HERTS_57_NACH",
"crs": { "type": "name", "properties": { "name": "urn:ogc:def:crs:OGC:1.3:CRS84" } },
"features": [
{"type":"Feature","properties":{"id":26885,"nach":0.57670223990159464},"geometry":{"type":"LineString","coordinates":[[-0.2651104,51.6452946],[-0.2651996,51.6453029]]}},
{"type":"Feature","properties":{"id":27530,"nach":0.55273860414661558},"geometry":{"type":"LineString","coordinates":[[-0.2657774,51.645353899999989],[-0.2651996,51.6453029]]}},
{"type":"Feature","properties":{"id":23563,"nach":0.44776122365182963},"geometry":{"type":"LineString","coordinates":[[-0.2654259,51.644003],[-0.2654318,51.6440483],[-0.2653802,51.6442063],[-0.2652724,51.6447048],[-0.2652144,51.6451786],[-0.2651996,51.6453029]]}},
{"type":"Feature","properties":{"id":26886,"nach":0.61783250643161136},"geometry":{"type":"LineString","coordinates":[[-0.2651104,51.6452946],[-0.2649086,51.6452768],[-0.2646183,51.6452386],[-0.264367,51.64518970000001],[-0.2641685,51.6451434]]}},
{"type":"Feature","properties":{"id":26887,"nach":0.49706787143843151},"geometry":{"type":"LineString","coordinates":[[-0.2651104,51.6452946],[-0.2651132,51.6452709],[-0.2651171,51.6452384],[-0.2652438,51.6443302],[-0.2652844,51.6440788],[-0.2652744,51.6439475]]}},
{"type":"Feature","properties":{"id":26888,"nach":0.57910868246849123},"geometry":{"type":"LineString","coordinates":[[-0.2651104,51.6452946],[-0.2651057,51.645322299999982],[-0.2651039,51.645333]]}},
{"type":"Feature","properties":{"id":27531,"nach":0.52330700611977754},"geometry":{"type":"LineString","coordinates":[[-0.2657774,51.645353899999989],[-0.2661374,51.6453841],[-0.2666964,51.6453916]]}},
{"type":"Feature","properties":{"id":27532,"nach":0.433476972720025},"geometry":{"type":"LineString","coordinates":[[-0.2657774,51.645353899999989],[-0.2657758,51.6452771],[-0.2657556,51.6451996],[-0.2657391,51.6451746],[-0.2657097,51.6451552],[-0.2655426,51.6451165]]}},
{"type":"Feature","properties":{"id":67338,"nach":0.49471261913460329},"geometry":{"type":"LineString","coordinates":[[-0.2683695,51.6452178],[-0.2681448,51.6452871],[-0.2680278,51.645313700000017],[-0.267917,51.645337900000015],[-0.2675955,51.6453826],[-0.2672292,51.64539340000001],[-0.2666964,51.6453916]]}},
{"type":"Feature","properties":{"id":30429,"nach":0.39850412724652917},"geometry":{"type":"LineString","coordinates":[[-0.2673181,51.645313699999988],[-0.2672762,51.6452138],[-0.2671639,51.6451551],[-0.2669521,51.6451603],[-0.2667578,51.6452077],[-0.2666891,51.6452434],[-0.2666878,51.6453206],[-0.2666964,51.6453916]]}},
{"type":"Feature","properties":{"id":67337,"nach":0.47049974403579875},"geometry":{"type":"LineString","coordinates":[[-0.2683695,51.6452178],[-0.2685858,51.6451511]]}},
{"type":"Feature","properties":{"id":67340,"nach":0.37847030333745713},"geometry":{"type":"LineString","coordinates":[[-0.2678672,51.64509970000001],[-0.2680183,51.6450919],[-0.2681361,51.6450861],[-0.2681773,51.6450856],[-0.2682193,51.64509480000001],[-0.2682614,51.6451107],[-0.2683073,51.6451525],[-0.2683695,51.6452178]]}},
{"type":"Feature","properties":{"id":54681,"nach":0.47818281538162316},"geometry":{"type":"LineString","coordinates":[[-0.2778601,51.6445178],[-0.2777017,51.6445058],[-0.2774739,51.6444976],[-0.2755848,51.64448]]}},
{"type":"Feature","properties":{"id":54666,"nach":0.43499587404584156},"geometry":{"type":"LineString","coordinates":[[-0.2742902,51.6444624],[-0.2749923,51.6444704],[-0.2755848,51.64448]]}},
{"type":"Feature","properties":{"id":54675,"nach":0.45460254449571064},"geometry":{"type":"LineString","coordinates":[[-0.2756733,51.6442103],[-0.2756577,51.6442331],[-0.2755797,51.6443782],[-0.2755848,51.64448]]}},
{"type":"Feature","properties":{"id":54680,"nach":0.44213776004419147},"geometry":{"type":"LineString","coordinates":[[-0.2778601,51.6445178],[-0.2780721,51.6445555],[-0.2782103,51.6445902],[-0.2788133,51.64476160000001],[-0.2790319,51.6448123],[-0.27924490000001,51.644837699999989],[-0.2794501,51.6448346],[-0.2796209,51.644823199999983],[-0.2797896,51.6447966]]}},
{"type":"Feature","properties":{"id":54682,"nach":0.47063156327128497},"geometry":{"type":"LineString","coordinates":[[-0.2778338,51.6445596],[-0.2778601,51.6445178]]}},
{"type":"Feature","properties":{"id":54667,"nach":0.4214168199073709},"geometry":{"type":"LineString","coordinates":[[-0.2742902,51.6444624],[-0.273418,51.6444469],[-0.27303350000001,51.6444445],[-0.2728115,51.6444561],[-0.272589,51.644485400000015],[-0.2724381,51.6445241],[-0.2719249,51.644684200000015],[-0.2715723,51.6447522]]}},
{"type":"Feature","properties":{"id":54668,"nach":0.33399061180736689},"geometry":{"type":"LineString","coordinates":[[-0.2742902,51.6444624],[-0.274287,51.644390500000014],[-0.2742224,51.6443494],[-0.2740932,51.6443211],[-0.2737467,51.6443123],[-0.2736806,51.64429470000001],[-0.2736144,51.644236],[-0.2735309,51.6440191],[-0.2734459,51.6439184],[-0.2733199,51.6434463]]}},
{"type":"Feature","properties":{"id":54674,"nach":0.41923258570760547},"geometry":{"type":"LineString","coordinates":[[-0.2756733,51.6442103],[-0.275698,51.6441742]]}},
{"type":"Feature","properties":{"id":54677,"nach":0.34733456309949823},"geometry":{"type":"LineString","coordinates":[[-0.275338,51.64416820000001],[-0.2755813,51.6441891],[-0.2756733,51.6442103]]}},
{"type":"Feature","properties":{"id":11406,"nach":0.48481050613968968},"geometry":{"type":"LineString","coordinates":[[-0.2805224,51.6443759],[-0.2806383,51.6445603]]}},
{"type":"Feature","properties":{"id":184,"nach":0.48260149804133951},"geometry":{"type":"LineString","coordinates":[[-0.2816847,51.6441668],[-0.2812035,51.6443716],[-0.2806383,51.6445603]]}},
{"type":"Feature","properties":{"id":5553,"nach":0.53635301770917454},"geometry":{"type":"LineString","coordinates":[[-0.2797896,51.6447966],[-0.2799374,51.6447651],[-0.2806383,51.6445603]]}},
{"type":"Feature","properties":{"id":57851,"nach":0.48796673288895759},"geometry":{"type":"LineString","coordinates":[[-0.2802671,51.64443270000001],[-0.2805224,51.6443759]]}},
{"type":"Feature","properties":{"id":11792,"nach":0.38882539681005207},"geometry":{"type":"LineString","coordinates":[[-0.2815383,51.6440386],[-0.2814709,51.6440242],[-0.28137680000001,51.644018099999982],[-0.2812688,51.6440095],[-0.2812031,51.6440115],[-0.2811314,51.6440227],[-0.2810652,51.644045],[-0.2810144,51.6440769],[-0.2809781,51.6441258],[-0.280926,51.6441741],[-0.2808533,51.6442198],[-0.2805224,51.6443759]]}},
{"type":"Feature","properties":{"id":11791,"nach":0.4425337177805993},"geometry":{"type":"LineString","coordinates":[[-0.2815383,51.6440386],[-0.2816847,51.6441668]]}},
{"type":"Feature","properties":{"id":57842,"nach":0.48135922700787104},"geometry":{"type":"LineString","coordinates":[[-0.2832324,51.6434858],[-0.2829352,51.643599799999983],[-0.2825048,51.643785],[-0.2816847,51.6441668]]}},
{"type":"Feature","properties":{"id":50544,"nach":0.52190706963237621},"geometry":{"type":"LineString","coordinates":[[-0.2798192,51.6448773],[-0.2798059,51.6448322],[-0.2797896,51.6447966]]}},
{"type":"Feature","properties":{"id":45018,"nach":0.35963547468396767},"geometry":{"type":"LineString","coordinates":[[-0.2815653,51.6436104],[-0.2816147,51.6436694],[-0.2816232,51.6437038],[-0.2816268,51.6437996],[-0.2816207,51.6438871],[-0.2816063,51.6439312],[-0.2815846,51.6439664],[-0.2815709,51.6439929],[-0.2815383,51.6440386]]}},
{"type":"Feature","properties":{"id":57841,"nach":0.47446984521766966},"geometry":{"type":"LineString","coordinates":[[-0.2832324,51.6434858],[-0.2833865,51.6434267]]}},
{"type":"Feature","properties":{"id":57844,"nach":0.3524338164828259},"geometry":{"type":"LineString","coordinates":[[-0.2830728,51.6431633],[-0.283166,51.6433515],[-0.2832324,51.6434858]]}},
{"type":"Feature","properties":{"id":24124,"nach":0.4991471305951119},"geometry":{"type":"LineString","coordinates":[[-0.2900169,51.64176770000001],[-0.2898514,51.641765],[-0.2896534,51.6417745]]}},
{"type":"Feature","properties":{"id":57802,"nach":0.49758766577210312},"geometry":{"type":"LineString","coordinates":[[-0.288292,51.6420052],[-0.2895337,51.6417912],[-0.2896534,51.6417745]]}},
{"type":"Feature","properties":{"id":3045,"nach":0.47797871664504327},"geometry":{"type":"LineString","coordinates":[[-0.2900799,51.6404268],[-0.2899929,51.6406501],[-0.289758,51.6412524],[-0.2896534,51.6417745]]}},
{"type":"Feature","properties":{"id":24123,"nach":0.49575951615072172},"geometry":{"type":"LineString","coordinates":[[-0.2900169,51.64176770000001],[-0.2902522,51.641783],[-0.2904151,51.6418019],[-0.2905702,51.641829799999982],[-0.29088380000001,51.6419146],[-0.2912336,51.6420219]]}},
{"type":"Feature","properties":{"id":57863,"nach":0.40318257019420084},"geometry":{"type":"LineString","coordinates":[[-0.2908719,51.6404342],[-0.2908469,51.6404284],[-0.2905946,51.6403637],[-0.2905376,51.6403555],[-0.29044920000001,51.6403654],[-0.2903505,51.6404352],[-0.2902709,51.6405152],[-0.2902133,51.6405952],[-0.2902078,51.6406735],[-0.2902216,51.6407467],[-0.2903066,51.6408948],[-0.2903395,51.6409629],[-0.290334,51.641070099999986],[-0.2902901,51.6411876],[-0.2901612,51.641415599999988],[-0.2901283,51.6414582],[-0.2900515,51.6415586],[-0.2900169,51.64176770000001]]}},
{"type":"Feature","properties":{"id":57803,"nach":0.4720536908020263},"geometry":{"type":"LineString","coordinates":[[-0.288292,51.6420052],[-0.2878333,51.6420686],[-0.2874578,51.6421179],[-0.287096,51.6421897],[-0.2869544,51.642234],[-0.2867094,51.6423261],[-0.2864195,51.6424725]]}},
{"type":"Feature","properties":{"id":57805,"nach":0.47926795674249206},"geometry":{"type":"LineString","coordinates":[[-0.2874945,51.6422677],[-0.2876007,51.642244],[-0.2877986,51.6422289],[-0.2879455,51.64223],[-0.2881586,51.6422467],[-0.2882355,51.6422403],[-0.2882974,51.6422188],[-0.2883312,51.6421821],[-0.2883391,51.642138],[-0.288292,51.6420052]]}},
{"type":"Feature","properties":{"id":13498,"nach":0.46313953093305815},"geometry":{"type":"LineString","coordinates":[[-0.2894675,51.6399125],[-0.2900799,51.6404268]]}},
{"type":"Feature","properties":{"id":3051,"nach":0.3909331583277682},"geometry":{"type":"LineString","coordinates":[[-0.2911531,51.6396321],[-0.2910416,51.639812],[-0.2908738,51.6399474],[-0.2902315,51.6402061],[-0.2901632,51.6402673],[-0.2901219,51.6403357],[-0.2900799,51.6404268]]}},
{"type":"Feature","properties":{"id":29929,"nach":0.50022017188223122},"geometry":{"type":"LineString","coordinates":[[-0.2959866,51.643603],[-0.29610550000001,51.6433324],[-0.2961843,51.6432215],[-0.2962029,51.6431952]]}},
{"type":"Feature","properties":{"id":57801,"nach":0.59596738651367287},"geometry":{"type":"LineString","coordinates":[[-0.2968803,51.6433307],[-0.2965366,51.6432696],[-0.2962029,51.6431952]]}},
{"type":"Feature","properties":{"id":21443,"nach":0.57706803709920274},"geometry":{"type":"LineString","coordinates":[[-0.2955846,51.643025],[-0.2958882,51.643114],[-0.2962029,51.6431952]]}},
{"type":"Feature","properties":{"id":21441,"nach":0.4698651789381989},"geometry":{"type":"LineString","coordinates":[[-0.2955846,51.643025],[-0.2952459,51.6437659],[-0.2969887,51.6441307],[-0.2982362,51.6443993],[-0.2984104,51.6444371]]}},
{"type":"Feature","properties":{"id":57866,"nach":0.58616590076363717},"geometry":{"type":"LineString","coordinates":[[-0.2952398,51.642912],[-0.2953229,51.6429388],[-0.2955846,51.643025]]}},
{"type":"Feature","properties":{"id":3040,"nach":0.3630303346399249},"geometry":{"type":"LineString","coordinates":[[-0.2879127,51.6382295],[-0.287861,51.6381534],[-0.2874095,51.6374893],[-0.2873333,51.6373772]]}},
{"type":"Feature","properties":{"id":57876,"nach":0.21742456869995566},"geometry":{"type":"LineString","coordinates":[[-0.2819192,51.638253],[-0.2828253,51.6380957],[-0.2835646,51.6379253],[-0.2838541,51.6378497],[-0.284366,51.63763010000001],[-0.2848086,51.6374276],[-0.2849865,51.63736140000001],[-0.2851147,51.637331600000017],[-0.2852775,51.6373149],[-0.2856294,51.6373191],[-0.2859873,51.6373563],[-0.2863977,51.6374178],[-0.2866445,51.6374308],[-0.2869468,51.6374192],[-0.2872466,51.6373866],[-0.2873333,51.6373772]]}},
{"type":"Feature","properties":{"id":3048,"nach":0.40190355062915412},"geometry":{"type":"LineString","coordinates":[[-0.2873333,51.6373772],[-0.286576015095283,51.636346714479487]]}},
{"type":"Feature","properties":{"id":13583,"nach":0.39670068160506827},"geometry":{"type":"LineString","coordinates":[[-0.2890744,51.6396303],[-0.2886129,51.639146599999989],[-0.2879712,51.6383089],[-0.2879127,51.6382295]]}},
{"type":"Feature","properties":{"id":13510,"nach":0.21751806945961447},"geometry":{"type":"LineString","coordinates":[[-0.2843463,51.6412669],[-0.2845203,51.6411839],[-0.2846709,51.6411038],[-0.2846758,51.6410041],[-0.2846548,51.6408944],[-0.2845537,51.640703],[-0.2845191,51.64056630000001],[-0.2845071,51.6403173],[-0.2844832,51.6401233],[-0.2843361,51.6399908],[-0.2841985,51.6399525],[-0.2841463,51.6399201],[-0.2841273,51.63987010000001],[-0.284151,51.6398141],[-0.2841937,51.639772899999983],[-0.2842412,51.6396816],[-0.2853089,51.6392605],[-0.2870811,51.6385384],[-0.2871153,51.6385255],[-0.2877785,51.6382644],[-0.2879127,51.6382295]]}},
{"type":"Feature","properties":{"id":57845,"nach":0.31293103539351758},"geometry":{"type":"LineString","coordinates":[[-0.2875047,51.6382828],[-0.2877581,51.6382191],[-0.2879127,51.6382295]]}},
{"type":"Feature","properties":{"id":13584,"nach":0.35437499734692929},"geometry":{"type":"LineString","coordinates":[[-0.2890744,51.6396303],[-0.2889767,51.6396707],[-0.288768,51.63975520000001],[-0.2880764,51.6400351]]}},
{"type":"Feature","properties":{"id":13582,"nach":0.42985092776288636},"geometry":{"type":"LineString","coordinates":[[-0.2890744,51.6396303],[-0.2892549,51.639764]]}},
{"type":"Feature","properties":{"id":13500,"nach":0.31184383671528459},"geometry":{"type":"LineString","coordinates":[[-0.2894675,51.6399125],[-0.2893287,51.6399665],[-0.2888677,51.6401406],[-0.2885951,51.640249700000012],[-0.2885668,51.6403374],[-0.2885809,51.6403959],[-0.2887081,51.6404806],[-0.2888305,51.640656],[-0.2888588,51.6407203],[-0.2889529,51.6409016],[-0.2889954,51.6410272],[-0.2889805,51.641109899999989],[-0.2889099,51.6411758],[-0.288813,51.6412001],[-0.2886601,51.6411946]]}},
{"type":"Feature","properties":{"id":13508,"nach":0.45254977572414173},"geometry":{"type":"LineString","coordinates":[[-0.2892549,51.639764],[-0.2893785,51.6398494],[-0.2894675,51.6399125]]}},
{"type":"Feature","properties":{"id":45015,"nach":0.31318289294609192},"geometry":{"type":"LineString","coordinates":[[-0.2900819,51.6393724],[-0.2902257,51.6392804],[-0.2903828,51.6391635],[-0.2904962,51.6391],[-0.2905556,51.6390897],[-0.290578,51.6390934],[-0.2907356,51.6391194],[-0.290841,51.6391368],[-0.2909881,51.639217],[-0.2910862,51.6393305],[-0.2911531,51.6396321]]}},
{"type":"Feature","properties":{"id":32793,"nach":0.31318289294609192},"geometry":{"type":"LineString","coordinates":[[-0.2926922,51.6393497],[-0.2923957,51.6392813],[-0.292294,51.639268400000013],[-0.2921699,51.6392802],[-0.2919838,51.6393807],[-0.2918218,51.6394931],[-0.2914253,51.6395968],[-0.2911531,51.6396321]]}},
{"type":"Feature","properties":{"id":45016,"nach":0.0},"geometry":{"type":"LineString","coordinates":[[-0.2900819,51.6393724],[-0.2899937,51.6394616],[-0.2899476,51.6395023],[-0.2899031,51.6395328],[-0.2898664,51.639548299999987],[-0.2898219,51.6395604],[-0.2897915,51.6395648],[-0.2897657,51.6395653],[-0.2897462,51.6395609],[-0.2897329,51.6395488],[-0.2897329,51.6395309],[-0.2897415,51.6395081],[-0.2897673,51.6394873],[-0.2898102,51.6394587],[-0.2898641,51.6394306],[-0.2899226,51.6394083],[-0.2899968,51.6393875],[-0.2900819,51.6393724]]}},
{"type":"Feature","properties":{"id":46065,"nach":0.50101970095982773},"geometry":{"type":"LineString","coordinates":[[-0.2730272,51.6469583],[-0.2730342,51.6471306],[-0.2730664,51.647503500000013],[-0.273002,51.6480344],[-0.2729438,51.64833560000001],[-0.2728743,51.6483811]]}},
{"type":"Feature","properties":{"id":32456,"nach":0.50296178854946449},"geometry":{"type":"LineString","coordinates":[[-0.2730531,51.6463894],[-0.272926900000011,51.6465648],[-0.2728142,51.6466979],[-0.2727338,51.6468411],[-0.2726104,51.6469842],[-0.2724334,51.6470774],[-0.2722885,51.6473171],[-0.272133,51.6474668],[-0.2719881,51.64761],[-0.2718427,51.6476897]]}},
{"type":"Feature","properties":{"id":3576,"nach":0.1886145141594622},"geometry":{"type":"LineString","coordinates":[[-0.2662735,51.6487184],[-0.2663043,51.6486951],[-0.2676086,51.6477101],[-0.2677321,51.6476275],[-0.2678555,51.6475562],[-0.2691545,51.6470178],[-0.2700684,51.6467345],[-0.2701498,51.6466977],[-0.270228,51.6466523],[-0.2703052,51.6465818],[-0.2703772,51.6465033],[-0.2704442,51.6464224],[-0.2704625,51.6464002]]}},
{"type":"Feature","properties":{"id":7501,"nach":0.55453162594219441},"geometry":{"type":"LineString","coordinates":[[-0.2710035,51.6472323],[-0.2712652,51.6469472],[-0.2712966,51.6468886],[-0.2713158,51.6467859],[-0.2712415,51.64666720000001],[-0.2711222,51.646593300000013],[-0.2704625,51.6464002]]}},
{"type":"Feature","properties":{"id":32468,"nach":0.54997607036783558},"geometry":{"type":"LineString","coordinates":[[-0.268977,51.6462269],[-0.26928,51.6462098],[-0.2696115,51.6462179],[-0.269847,51.646247700000011],[-0.2700794,51.6462949],[-0.2704625,51.6464002]]}},
{"type":"Feature","properties":{"id":32467,"nach":0.53388064996008344},"geometry":{"type":"LineString","coordinates":[[-0.268977,51.6462269],[-0.2688489,51.6462455]]}},
{"type":"Feature","properties":{"id":32476,"nach":0.56236431417527155},"geometry":{"type":"LineString","coordinates":[[-0.2690382,51.6461162],[-0.268977,51.6462269]]}},
{"type":"Feature","properties":{"id":50537,"nach":0.30070227895466362},"geometry":{"type":"LineString","coordinates":[[-0.2811243,51.6485739],[-0.2811123,51.648577400000015],[-0.2810681,51.6485903]]}},
{"type":"Feature","properties":{"id":5552,"nach":0.42398238685422512},"geometry":{"type":"LineString","coordinates":[[-0.2802984,51.646457],[-0.2804053,51.6467742],[-0.2806876,51.6476056],[-0.2808849,51.6481984],[-0.2809586,51.6483827],[-0.2810681,51.6485903]]}},
{"type":"Feature","properties":{"id":61319,"nach":0.46729237182411404},"geometry":{"type":"LineString","coordinates":[[-0.2818915,51.6498435],[-0.2816763,51.6495503],[-0.2813197,51.6490182],[-0.2811654,51.6487548],[-0.2810681,51.6485903]]}},
{"type":"Feature","properties":{"id":50536,"nach":0.46628664148836918},"geometry":{"type":"LineString","coordinates":[[-0.2811243,51.6485739],[-0.2846262,51.6475525]]}},
{"type":"Feature","properties":{"id":50543,"nach":0.49652252719694778},"geometry":{"type":"LineString","coordinates":[[-0.2803639,51.6464498],[-0.2803871,51.6465291],[-0.2803921,51.6465452],[-0.2803906,51.646567],[-0.2804205,51.6466443],[-0.2804729,51.646799],[-0.2805287,51.64697670000001],[-0.2805992,51.6471748],[-0.2806545,51.6473406],[-0.2806917,51.647448],[-0.2807267,51.647558600000011],[-0.280783,51.6477272],[-0.2808473,51.647913],[-0.2808902,51.6480393],[-0.2809358,51.648173],[-0.2809731,51.6482821],[-0.2810154,51.6483832],[-0.2810729,51.6484892],[-0.2810886,51.648504199999984],[-0.2811243,51.6485739]]}},
{"type":"Feature","properties":{"id":61314,"nach":0.53883340496581877},"geometry":{"type":"LineString","coordinates":[[-0.2819444,51.6498298],[-0.281899,51.6497686],[-0.2817431,51.6495586],[-0.2816008,51.6493557],[-0.2814836,51.6491697],[-0.2813931,51.6490279],[-0.2813126,51.6489039],[-0.2812249,51.6487599],[-0.2811595,51.6486426],[-0.2811243,51.6485739]]}},
{"type":"Feature","properties":{"id":5560,"nach":0.50054175201110673},"geometry":{"type":"LineString","coordinates":[[-0.28020110000001,51.6461452],[-0.2802984,51.646457]]}},
{"type":"Feature","properties":{"id":50540,"nach":0.48026661298921713},"geometry":{"type":"LineString","coordinates":[[-0.2803639,51.6464498],[-0.2803465,51.6464517],[-0.2802984,51.646457]]}},
{"type":"Feature","properties":{"id":61317,"nach":0.57169893168598418},"geometry":{"type":"LineString","coordinates":[[-0.2818915,51.6498435],[-0.2819018,51.6498576]]}},
{"type":"Feature","properties":{"id":61318,"nach":0.55024972766339497},"geometry":{"type":"LineString","coordinates":[[-0.2818915,51.6498435],[-0.2819444,51.6498298]]}},
{"type":"Feature","properties":{"id":26912,"nach":0.47353496827942809},"geometry":{"type":"LineString","coordinates":[[-0.2800639,51.646159],[-0.2801435,51.646151],[-0.28020110000001,51.6461452]]}},
{"type":"Feature","properties":{"id":50545,"nach":0.41598345652491903},"geometry":{"type":"LineString","coordinates":[[-0.2798192,51.6448773],[-0.2799053,51.6451692],[-0.2800727,51.6457469],[-0.28020110000001,51.6461452]]}},
{"type":"Feature","properties":{"id":50541,"nach":0.54601661897735199},"geometry":{"type":"LineString","coordinates":[[-0.2803639,51.6464498],[-0.2807661,51.64640330000001],[-0.2809285,51.6463771],[-0.2811753,51.6463118],[-0.2813038,51.6462862]]}},
{"type":"Feature","properties":{"id":50547,"nach":0.50437406210360747},"geometry":{"type":"LineString","coordinates":[[-0.2798192,51.6448773],[-0.2798642,51.6448726],[-0.2798799,51.6448709],[-0.27989040000001,51.644918700000012],[-0.2799378,51.6450803],[-0.2799936,51.6452805],[-0.2800472,51.645474300000018],[-0.2801019,51.6456549],[-0.28016,51.6458501],[-0.2802237,51.6460506],[-0.2802851,51.6462381],[-0.2803111,51.6463102],[-0.2803344,51.6463449],[-0.2803384,51.6463628],[-0.2803639,51.6464498]]}},
{"type":"Feature","properties":{"id":50546,"nach":0.48991554903974488},"geometry":{"type":"LineString","coordinates":[[-0.2798192,51.6448773],[-0.2797726,51.6448822],[-0.2797585,51.6448837]]}},
{"type":"Feature","properties":{"id":29935,"nach":0.49441999033855411},"geometry":{"type":"LineString","coordinates":[[-0.2846262,51.6475525],[-0.28460230000001,51.6475205],[-0.2841465,51.6469139],[-0.2840962,51.64682650000001],[-0.284054,51.646725],[-0.2839941,51.6465458]]}},
{"type":"Feature","properties":{"id":26914,"nach":0.4249875368807583},"geometry":{"type":"LineString","coordinates":[[-0.2800639,51.646159],[-0.2800832,51.6462117],[-0.2800898,51.6462299]]}},
{"type":"Feature","properties":{"id":26913,"nach":0.41530051534861351},"geometry":{"type":"LineString","coordinates":[[-0.2800639,51.646159],[-0.2800499,51.6461209],[-0.2800343,51.6460783]]}},
{"type":"Feature","properties":{"id":61397,"nach":0.46215103160185456},"geometry":{"type":"LineString","coordinates":[[-0.2789828,51.64627990000001],[-0.2800639,51.646159]]}},
{"type":"Feature","properties":{"id":61398,"nach":0.49292225735298151},"geometry":{"type":"LineString","coordinates":[[-0.2789828,51.64627990000001],[-0.2789283,51.646286],[-0.2788759,51.6462919]]}},
{"type":"Feature","properties":{"id":5574,"nach":0.47400016173834525},"geometry":{"type":"LineString","coordinates":[[-0.2787483,51.647225400000011],[-0.2787104,51.6471024],[-0.2787077,51.6469924],[-0.27876060000001,51.6468238],[-0.2788913,51.6466125],[-0.2788925,51.6464616],[-0.2788759,51.6462919]]}},
{"type":"Feature","properties":{"id":5572,"nach":0.37202049813747234},"geometry":{"type":"LineString","coordinates":[[-0.2783362,51.6452327],[-0.2787493,51.6453161],[-0.2787895,51.6453396],[-0.2788098,51.6453741],[-0.2788502,51.6457659],[-0.2788195,51.645898],[-0.2788759,51.6462919]]}},
{"type":"Feature","properties":{"id":61400,"nach":0.0},"geometry":{"type":"LineString","coordinates":[[-0.2789828,51.64627990000001],[-0.2789896,51.6463259],[-0.278994,51.6463555],[-0.2790453,51.6463291],[-0.2800184,51.6462162],[-0.2800898,51.6462299]]}},
{"type":"Feature","properties":{"id":61399,"nach":0.44398470419956798},"geometry":{"type":"LineString","coordinates":[[-0.2789828,51.64627990000001],[-0.2789766,51.6462384],[-0.2789732,51.6462153],[-0.2790405,51.64622330000001],[-0.2799506,51.6461164],[-0.2800343,51.6460783]]}},
{"type":"Feature","properties":{"id":5577,"nach":0.47070555784802182},"geometry":{"type":"LineString","coordinates":[[-0.279054,51.647864],[-0.2789659,51.6477815],[-0.2789088,51.6476865],[-0.27884,51.6475094],[-0.2787483,51.647225400000011]]}},
{"type":"Feature","properties":{"id":5646,"nach":0.37905775808107695},"geometry":{"type":"LineString","coordinates":[[-0.27789380000001,51.6473185],[-0.2787103,51.6472295],[-0.2787483,51.647225400000011]]}},
{"type":"Feature","properties":{"id":5580,"nach":0.47593038655542835},"geometry":{"type":"LineString","coordinates":[[-0.2794448,51.6485133],[-0.2793976,51.6483365],[-0.2793467,51.6482087],[-0.2792575,51.648075500000012],[-0.2791496,51.647948300000017],[-0.279054,51.647864]]}},
{"type":"Feature","properties":{"id":5645,"nach":0.37751254119833266},"geometry":{"type":"LineString","coordinates":[[-0.2780694,51.6480992],[-0.278208,51.6480711],[-0.2788378,51.6479435],[-0.2789605,51.647903300000017],[-0.2790174,51.647879400000015],[-0.279054,51.647864]]}},
{"type":"Feature","properties":{"id":5643,"nach":0.49113655546430779},"geometry":{"type":"LineString","coordinates":[[-0.2803618,51.6497322],[-0.2801645,51.649471800000015],[-0.27980780000001,51.6491937],[-0.2795851,51.6489818],[-0.2794602,51.6487444],[-0.2794448,51.6485133]]}},
{"type":"Feature","properties":{"id":5644,"nach":0.38677375788097784},"geometry":{"type":"LineString","coordinates":[[-0.2783466,51.6486761],[-0.2784691,51.6486559],[-0.2792662,51.64852410000001],[-0.2793853,51.6485169],[-0.2794448,51.6485133]]}},
{"type":"Feature","properties":{"id":76007,"nach":0.31661133650368778},"geometry":{"type":"LineString","coordinates":[[-0.2807894,51.6501414],[-0.2807589,51.6500999],[-0.2807435,51.6500789],[-0.2807777,51.6500831],[-0.2808112,51.6500806],[-0.2815036,51.6499052],[-0.2816845,51.6498599],[-0.2817432,51.6498304],[-0.2817686,51.6497871]]}},
{"type":"Feature","properties":{"id":5635,"nach":0.49368910953827511},"geometry":{"type":"LineString","coordinates":[[-0.2839155,51.6462272],[-0.2837722,51.645848]]}},
{"type":"Feature","properties":{"id":5607,"nach":0.50256076695816765},"geometry":{"type":"LineString","coordinates":[[-0.28336,51.6459027],[-0.2837722,51.645848]]}},
{"type":"Feature","properties":{"id":5604,"nach":0.44798140405427478},"geometry":{"type":"LineString","coordinates":[[-0.2845203,51.6457138],[-0.2837722,51.645848]]}},
{"type":"Feature","properties":{"id":5636,"nach":0.49336284031171479},"geometry":{"type":"LineString","coordinates":[[-0.2839155,51.6462272],[-0.2839941,51.6465458]]}},
{"type":"Feature","properties":{"id":76009,"nach":0.35698075043732214},"geometry":{"type":"LineString","coordinates":[[-0.285098,51.6462053],[-0.2848868,51.6462465],[-0.2847923,51.6462719],[-0.2847534,51.646182399999987],[-0.2847339,51.6461574],[-0.2847064,51.6461375],[-0.2846722,51.6461242],[-0.2846246,51.6461142],[-0.2845837,51.6461113],[-0.2845113,51.646118699999988],[-0.2839155,51.6462272]]}},
{"type":"Feature","properties":{"id":5612,"nach":0.51652437917509264},"geometry":{"type":"LineString","coordinates":[[-0.2823279,51.6461632],[-0.2824882,51.6461308],[-0.2828906,51.64600020000001],[-0.2830868,51.6459504],[-0.28336,51.6459027]]}},
{"type":"Feature","properties":{"id":28096,"nach":0.43107698083426388},"geometry":{"type":"LineString","coordinates":[[-0.2831581,51.6453111],[-0.2832225,51.6454796],[-0.2832473,51.6455795],[-0.2832708,51.6456665],[-0.2833486,51.645872600000011],[-0.28336,51.6459027]]}},
{"type":"Feature","properties":{"id":5605,"nach":0.34934991569867607},"geometry":{"type":"LineString","coordinates":[[-0.2845203,51.6457138],[-0.2846649,51.6456899],[-0.2849313,51.6456458]]}},
{"type":"Feature","properties":{"id":5621,"nach":0.40232068351444539},"geometry":{"type":"LineString","coordinates":[[-0.2840316,51.644642],[-0.2841736,51.6450082],[-0.2842327,51.64519760000001],[-0.2843812,51.645410100000014],[-0.2845203,51.6457138]]}},
{"type":"Feature","properties":{"id":29990,"nach":0.32949602809282713},"geometry":{"type":"LineString","coordinates":[[-0.2839385,51.6443835],[-0.2840316,51.644642]]}},
{"type":"Feature","properties":{"id":5622,"nach":0.32200870259551556},"geometry":{"type":"LineString","coordinates":[[-0.2832652,51.6447632],[-0.2833647,51.6447474],[-0.2840316,51.644642]]}},
{"type":"Feature","properties":{"id":5625,"nach":0.43956410103428073},"geometry":{"type":"LineString","coordinates":[[-0.2820292,51.6454188],[-0.2823279,51.6461632]]}},
{"type":"Feature","properties":{"id":5614,"nach":0.53129845965859213},"geometry":{"type":"LineString","coordinates":[[-0.2817587,51.6462005],[-0.2819263,51.6461753],[-0.2820189,51.6461691],[-0.282159,51.646172],[-0.2823279,51.6461632]]}},
{"type":"Feature","properties":{"id":28095,"nach":0.35715975331813576},"geometry":{"type":"LineString","coordinates":[[-0.2831581,51.6453111],[-0.2831259,51.6452241]]}},
{"type":"Feature","properties":{"id":28098,"nach":0.3521774571121315},"geometry":{"type":"LineString","coordinates":[[-0.2828594,51.6453145],[-0.2829782,51.6453199],[-0.2831581,51.6453111]]}},
{"type":"Feature","properties":{"id":5627,"nach":0.36284556850026578},"geometry":{"type":"LineString","coordinates":[[-0.2824464,51.6453455],[-0.2820292,51.6454188]]}},
{"type":"Feature","properties":{"id":29991,"nach":0.3643136240333576},"geometry":{"type":"LineString","coordinates":[[-0.2816428,51.6454781],[-0.2820292,51.6454188]]}},
{"type":"Feature","properties":{"id":5616,"nach":0.53893415577028558},"geometry":{"type":"LineString","coordinates":[[-0.2813038,51.6462862],[-0.2817587,51.6462005]]}},
{"type":"Feature","properties":{"id":5628,"nach":0.36661791786020137},"geometry":{"type":"LineString","coordinates":[[-0.2821456,51.6472318],[-0.2817719,51.6462356],[-0.2817587,51.6462005]]}},
{"type":"Feature","properties":{"id":61388,"nach":0.36488843789601583},"geometry":{"type":"LineString","coordinates":[[-0.2804638,51.6449549],[-0.2805376,51.6450585],[-0.2805852,51.645091],[-0.2806375,51.6451076],[-0.2807113,51.6451189],[-0.2808509,51.6451187],[-0.2809958,51.6455928],[-0.2813038,51.6462862]]}},
{"type":"Feature","properties":{"id":5632,"nach":0.4397412823284394},"geometry":{"type":"LineString","coordinates":[[-0.2831003,51.6466794],[-0.2839941,51.6465458]]}},
{"type":"Feature","properties":{"id":28099,"nach":0.36244385943990626},"geometry":{"type":"LineString","coordinates":[[-0.2830968,51.6469532],[-0.2830817,51.6467891],[-0.2831003,51.6466794]]}},
{"type":"Feature","properties":{"id":29932,"nach":0.36244385943990626},"geometry":{"type":"LineString","coordinates":[[-0.2829542,51.646427900000013],[-0.2830254,51.6466368],[-0.2831003,51.6466794]]}},
{"type":"Feature","properties":{"id":32447,"nach":0.49994116130963301},"geometry":{"type":"LineString","coordinates":[[-0.2751026,51.6475104],[-0.2748226,51.647635]]}},
{"type":"Feature","properties":{"id":23855,"nach":0.44952327714934209},"geometry":{"type":"LineString","coordinates":[[-0.2752472,51.6480776],[-0.275249,51.6480281],[-0.2752209,51.6479799],[-0.2748226,51.647635]]}},
{"type":"Feature","properties":{"id":60455,"nach":0.48796173217139682},"geometry":{"type":"LineString","coordinates":[[-0.2744323,51.6478255],[-0.274396,51.6477935],[-0.2747092,51.6476612],[-0.2748226,51.647635]]}},
{"type":"Feature","properties":{"id":32448,"nach":0.42172622361488249},"geometry":{"type":"LineString","coordinates":[[-0.2751026,51.6475104],[-0.2752989,51.6474248],[-0.2755035,51.6476384]]}},
{"type":"Feature","properties":{"id":46062,"nach":0.44444260792298751},"geometry":{"type":"LineString","coordinates":[[-0.2744778,51.6469653],[-0.2745255,51.6470175],[-0.2748366,51.6472505],[-0.2751026,51.6475104]]}},
{"type":"Feature","properties":{"id":60457,"nach":0.51390984984527788},"geometry":{"type":"LineString","coordinates":[[-0.2749587,51.6482907],[-0.2751646,51.6482011],[-0.2752255,51.6481488],[-0.2752472,51.6480776]]}},
{"type":"Feature","properties":{"id":60463,"nach":0.53022452509085061},"geometry":{"type":"LineString","coordinates":[[-0.2760369,51.6482724],[-0.2759922,51.648223799999975],[-0.2758874,51.6481043],[-0.2758156,51.6480502],[-0.2757421,51.6480215],[-0.2756617,51.648013],[-0.2754228,51.6480626],[-0.2753615,51.6480736],[-0.2753094,51.6480754],[-0.2752472,51.6480776]]}},
{"type":"Feature","properties":{"id":70717,"nach":0.50806505571638882},"geometry":{"type":"LineString","coordinates":[[-0.2740844,51.6480177],[-0.2740514,51.6479882],[-0.2744323,51.6478255]]}},
{"type":"Feature","properties":{"id":60459,"nach":0.30987520169834598},"geometry":{"type":"LineString","coordinates":[[-0.2749587,51.6482907],[-0.274898,51.6482371],[-0.2748537,51.6481979],[-0.274509,51.6478933],[-0.274453,51.6478438],[-0.2744323,51.6478255]]}},
{"type":"Feature","properties":{"id":60461,"nach":0.5359238506461893},"geometry":{"type":"LineString","coordinates":[[-0.2760369,51.6482724],[-0.2765957,51.6488808]]}},
{"type":"Feature","properties":{"id":26909,"nach":0.48625469304548946},"geometry":{"type":"LineString","coordinates":[[-0.2818275,51.6498777],[-0.2817858,51.6498136],[-0.2817686,51.6497871]]}},
{"type":"Feature","properties":{"id":32469,"nach":0.48278248866466589},"geometry":{"type":"LineString","coordinates":[[-0.2689748,51.6459926],[-0.2688489,51.6462455]]}},
{"type":"Feature","properties":{"id":32465,"nach":0.500323627052361},"geometry":{"type":"LineString","coordinates":[[-0.2675745,51.6464225],[-0.2679996,51.6463692],[-0.2687882,51.6462045],[-0.2688489,51.6462455]]}},
{"type":"Feature","properties":{"id":7496,"nach":0.51816777434422945},"geometry":{"type":"LineString","coordinates":[[-0.2674541,51.6466935],[-0.2683669,51.6463674],[-0.2685991,51.646296],[-0.2688489,51.6462455]]}},
{"type":"Feature","properties":{"id":32470,"nach":0.44583228202435837},"geometry":{"type":"LineString","coordinates":[[-0.2689748,51.6459926],[-0.2691013,51.6457513]]}},
{"type":"Feature","properties":{"id":32475,"nach":0.52158632504708902},"geometry":{"type":"LineString","coordinates":[[-0.2685934,51.6457713],[-0.2688499,51.6458724],[-0.2689748,51.6459926]]}},
{"type":"Feature","properties":{"id":32478,"nach":0.5120045956152951},"geometry":{"type":"LineString","coordinates":[[-0.2690382,51.6461162],[-0.2690645,51.6460755],[-0.2689748,51.6459926]]}},
{"type":"Feature","properties":{"id":21427,"nach":0.49717923956690169},"geometry":{"type":"LineString","coordinates":[[-0.2959588,51.642091],[-0.2959867,51.6420743],[-0.296027,51.6420502]]}},
{"type":"Feature","properties":{"id":21426,"nach":0.51649397243297968},"geometry":{"type":"LineString","coordinates":[[-0.2959588,51.642091],[-0.2950554,51.6426831],[-0.2949308,51.6428123]]}},
{"type":"Feature","properties":{"id":21428,"nach":0.33117320155643309},"geometry":{"type":"LineString","coordinates":[[-0.2959588,51.642091],[-0.296005,51.642006],[-0.2963457,51.6417738],[-0.2963618,51.6416074],[-0.2958843,51.6411613],[-0.2953694,51.6407285],[-0.2956912,51.6404355],[-0.2956376,51.6400027],[-0.2959594,51.6397298],[-0.2961579,51.6394534],[-0.2964637,51.63923040000001]]}},
{"type":"Feature","properties":{"id":57865,"nach":0.57700483734112673},"geometry":{"type":"LineString","coordinates":[[-0.2952398,51.642912],[-0.2949308,51.6428123]]}},
{"type":"Feature","properties":{"id":61239,"nach":0.5442741967694964},"geometry":{"type":"LineString","coordinates":[[-0.2948227,51.6427837],[-0.2949308,51.6428123]]}},
{"type":"Feature","properties":{"id":57870,"nach":0.42620946156793887},"geometry":{"type":"LineString","coordinates":[[-0.295346,51.6427887],[-0.2953188,51.6428203],[-0.2952398,51.642912]]}},
{"type":"Feature","properties":{"id":61241,"nach":0.53535926950008239},"geometry":{"type":"LineString","coordinates":[[-0.2948227,51.6427837],[-0.2947573,51.6428766],[-0.2947131,51.642939300000016],[-0.2946762,51.642954699999983],[-0.2946239,51.6429589],[-0.2945615,51.642941],[-0.2945495,51.6429118],[-0.2945669,51.6428756],[-0.2945982,51.642833300000014],[-0.2946657,51.642742099999985]]}},
{"type":"Feature","properties":{"id":21449,"nach":0.21195025165390036},"geometry":{"type":"LineString","coordinates":[[-0.2874454,51.6440141],[-0.2878423,51.644833],[-0.2878531,51.645066],[-0.2881427,51.645552],[-0.289001,51.6470366],[-0.2899559,51.6483548],[-0.2901919,51.648667599999989],[-0.2905245,51.6489073],[-0.2908994,51.6491299]]}},
{"type":"Feature","properties":{"id":57850,"nach":0.36538209371735952},"geometry":{"type":"LineString","coordinates":[[-0.2802671,51.64443270000001],[-0.2799768,51.6444972]]}},
{"type":"Feature","properties":{"id":57857,"nach":0.45912971249445234},"geometry":{"type":"LineString","coordinates":[[-0.2802121,51.644289900000011],[-0.2802671,51.64443270000001]]}},
{"type":"Feature","properties":{"id":21451,"nach":0.50449883081381675},"geometry":{"type":"LineString","coordinates":[[-0.2914651,51.642078799999979],[-0.2913668,51.6420569],[-0.2912336,51.6420219]]}},
{"type":"Feature","properties":{"id":13587,"nach":0.43834162103898544},"geometry":{"type":"LineString","coordinates":[[-0.2903133,51.642528899999981],[-0.2907018,51.6425753],[-0.2909672,51.642484],[-0.2912336,51.6420219]]}},
{"type":"Feature","properties":{"id":21452,"nach":0.24338060953350596},"geometry":{"type":"LineString","coordinates":[[-0.2914651,51.642078799999979],[-0.2913779,51.64218360000001],[-0.2909423,51.6425644],[-0.2905795,51.6429422],[-0.2904494,51.6430321],[-0.2902322,51.6431603],[-0.2899023,51.6432751],[-0.2893001,51.6437511],[-0.2889152,51.6438876],[-0.2886074,51.6439646],[-0.2882111,51.6440133],[-0.2875701,51.6440116],[-0.2874454,51.6440141]]}},
{"type":"Feature","properties":{"id":57847,"nach":0.50911841132028135},"geometry":{"type":"LineString","coordinates":[[-0.2935968,51.64248],[-0.2935039,51.642458499999989],[-0.292892,51.6423439],[-0.2921483,51.642220099999989],[-0.2914651,51.642078799999979]]}},
{"type":"Feature","properties":{"id":13586,"nach":0.36877065282952259},"geometry":{"type":"LineString","coordinates":[[-0.2903133,51.642528899999981],[-0.2902817,51.642661]]}},
{"type":"Feature","properties":{"id":57826,"nach":0.34636810433989834},"geometry":{"type":"LineString","coordinates":[[-0.2903212,51.641922299999983],[-0.2901439,51.6425087],[-0.2903133,51.642528899999981]]}},
{"type":"Feature","properties":{"id":13497,"nach":0.0},"geometry":{"type":"LineString","coordinates":[[-0.2886601,51.6411946],[-0.2885618,51.6411261],[-0.2885042,51.64108],[-0.2884539,51.6410473],[-0.2884107,51.6410369],[-0.288358,51.6410398],[-0.2883028,51.6410502],[-0.28826690000001,51.6410622],[-0.2882333,51.6411008],[-0.2882357,51.6411291],[-0.28825730000001,51.6411604],[-0.288286,51.6411871],[-0.2883364,51.641203500000017],[-0.2886601,51.6411946]]}},
{"type":"Feature","properties":{"id":13509,"nach":0.35942191658018285},"geometry":{"type":"LineString","coordinates":[[-0.2892549,51.639764],[-0.2890752,51.6398393],[-0.2888166,51.6400267],[-0.2884696,51.6401803],[-0.28837,51.6402102],[-0.2882865,51.640208]]}},
{"type":"Feature","properties":{"id":57875,"nach":0.29930431076736091},"geometry":{"type":"LineString","coordinates":[[-0.2868147,51.6389871],[-0.2869819,51.6390884],[-0.2872258,51.639321900000013],[-0.2873642,51.6394195],[-0.287621,51.6396448],[-0.2877379,51.6397343],[-0.2878709,51.6398467],[-0.2879684,51.6399358],[-0.2880764,51.6400351]]}},
{"type":"Feature","properties":{"id":13504,"nach":0.15244457453256222},"geometry":{"type":"LineString","coordinates":[[-0.2882865,51.640208],[-0.2882331,51.6401849],[-0.2880764,51.6400351]]}},
{"type":"Feature","properties":{"id":57877,"nach":0.30812796059709424},"geometry":{"type":"LineString","coordinates":[[-0.2871752,51.640876],[-0.2873408,51.640707],[-0.2875617,51.6405189],[-0.2877005,51.6404278],[-0.2878384,51.6403811],[-0.2879932,51.6403528],[-0.2881374,51.6402961],[-0.2882865,51.640208]]}},
{"type":"Feature","properties":{"id":57828,"nach":0.4702930441135183},"geometry":{"type":"LineString","coordinates":[[-0.285668,51.64281780000001],[-0.2859864,51.6426889],[-0.2862123,51.6425817],[-0.2864195,51.6424725]]}},
{"type":"Feature","properties":{"id":21448,"nach":0.31722650966031762},"geometry":{"type":"LineString","coordinates":[[-0.2874454,51.6440141],[-0.286785200000011,51.6433393],[-0.2865291,51.6427947],[-0.2864908,51.6426213],[-0.2864195,51.6424725]]}},
{"type":"Feature","properties":{"id":57830,"nach":0.35125116836154374},"geometry":{"type":"LineString","coordinates":[[-0.2857717,51.6429234],[-0.285668,51.64281780000001]]}},
{"type":"Feature","properties":{"id":57831,"nach":0.46682086894702413},"geometry":{"type":"LineString","coordinates":[[-0.2853507,51.6429332],[-0.2854879,51.6428907],[-0.285668,51.64281780000001]]}},
{"type":"Feature","properties":{"id":70969,"nach":0.41126625616919427},"geometry":{"type":"LineString","coordinates":[[-0.2714731,51.6447049],[-0.2715723,51.6447522]]}},
{"type":"Feature","properties":{"id":67334,"nach":0.4340500274335547},"geometry":{"type":"LineString","coordinates":[[-0.2685858,51.6451511],[-0.2689523,51.6450381],[-0.2690963,51.645004600000014],[-0.2692718,51.6449685],[-0.2694928,51.6449426],[-0.2696741,51.6449283],[-0.2698514,51.6449154],[-0.2701774,51.6449042],[-0.2704937,51.6448818],[-0.2709252,51.6448396],[-0.27129,51.6447962],[-0.2715723,51.6447522]]}},
{"type":"Feature","properties":{"id":70968,"nach":0.36957366025422056},"geometry":{"type":"LineString","coordinates":[[-0.2714731,51.6447049],[-0.2715187,51.64465160000001],[-0.2715401,51.6446133],[-0.27153750000001,51.64457],[-0.2715187,51.6445268],[-0.2714811,51.644496],[-0.2714007,51.644486],[-0.2713162,51.6444968],[-0.2712666,51.6445226],[-0.2712478,51.6445625],[-0.2712424,51.6446191]]}},
{"type":"Feature","properties":{"id":67336,"nach":0.37720830376002568},"geometry":{"type":"LineString","coordinates":[[-0.268677,51.644948],[-0.2685229,51.6450078],[-0.2685042,51.645032],[-0.2684957,51.6450475],[-0.2685066,51.6450745],[-0.2685858,51.6451511]]}},
{"type":"Feature","properties":{"id":61238,"nach":0.52646646250263995},"geometry":{"type":"LineString","coordinates":[[-0.2946657,51.642742099999985],[-0.2942254,51.6426254],[-0.2935968,51.64248]]}},
{"type":"Feature","properties":{"id":57849,"nach":0.41200679541559421},"geometry":{"type":"LineString","coordinates":[[-0.2932635,51.6425347],[-0.293518,51.642594],[-0.2935968,51.64248]]}},
{"type":"Feature","properties":{"id":60462,"nach":0.44635664426547139},"geometry":{"type":"LineString","coordinates":[[-0.2760369,51.6482724],[-0.27571230000001,51.648376]]}},
{"type":"Feature","properties":{"id":57862,"nach":0.32561037795782954},"geometry":{"type":"LineString","coordinates":[[-0.2908719,51.6404342],[-0.2909815,51.640459300000011],[-0.2911065,51.64044220000001],[-0.2914977,51.640225299999983]]}},
{"type":"Feature","properties":{"id":57864,"nach":0.32811178643029054},"geometry":{"type":"LineString","coordinates":[[-0.2908719,51.6404342],[-0.2908332,51.6405695],[-0.2910928,51.6406948]]}},
{"type":"Feature","properties":{"id":57840,"nach":0.46599766636657558},"geometry":{"type":"LineString","coordinates":[[-0.2838809,51.6432496],[-0.2835256,51.64336680000001],[-0.2833865,51.6434267]]}},
{"type":"Feature","properties":{"id":24246,"nach":0.34777190891008369},"geometry":{"type":"LineString","coordinates":[[-0.283662,51.6439411],[-0.2834598,51.6435223],[-0.2833865,51.6434267]]}},
{"type":"Feature","properties":{"id":57839,"nach":0.46251860656257621},"geometry":{"type":"LineString","coordinates":[[-0.2838809,51.6432496],[-0.2838182,51.643165300000014],[-0.2837974,51.6431025],[-0.2838017,51.643028],[-0.2838965,51.6429733],[-0.2845605,51.6428245],[-0.2848807,51.6427947],[-0.2849888,51.6428185],[-0.2850627,51.6428678],[-0.2851317,51.642990500000018]]}},
{"type":"Feature","properties":{"id":26884,"nach":0.44540166775382994},"geometry":{"type":"LineString","coordinates":[[-0.2651039,51.645333],[-0.2649643,51.6453231],[-0.2646612,51.6452865]]}},
{"type":"Feature","properties":{"id":32444,"nach":0.56347265004875102},"geometry":{"type":"LineString","coordinates":[[-0.2651964,51.6453396],[-0.2651039,51.645333]]}},
{"type":"Feature","properties":{"id":32441,"nach":0.38745446616656265},"geometry":{"type":"LineString","coordinates":[[-0.2691013,51.6457513],[-0.2694988,51.644993]]}},
{"type":"Feature","properties":{"id":32445,"nach":0.39874607376528076},"geometry":{"type":"LineString","coordinates":[[-0.2651964,51.6453396],[-0.2654578,51.6453581],[-0.2662035,51.6454213],[-0.2665227,51.645428],[-0.2668311,51.6454346],[-0.2671852,51.6454246],[-0.2675741,51.645413],[-0.2679067,51.645383],[-0.268132,51.6453447],[-0.2684565,51.6452499],[-0.2689581,51.6451067],[-0.2693175,51.6450169],[-0.2694988,51.644993]]}},
{"type":"Feature","properties":{"id":26915,"nach":0.37777350307716201},"geometry":{"type":"LineString","coordinates":[[-0.2717564,51.644770800000018],[-0.27152,51.6448111],[-0.2712503,51.6448476],[-0.270959,51.644882],[-0.27056740000001,51.6449137],[-0.27019730000001,51.6449403],[-0.2696206,51.6449769],[-0.2694988,51.644993]]}},
{"type":"Feature","properties":{"id":46076,"nach":0.46781409612998803},"geometry":{"type":"LineString","coordinates":[[-0.2693291,51.645705],[-0.2691013,51.6457513]]}},
{"type":"Feature","properties":{"id":32474,"nach":0.47321199251673518},"geometry":{"type":"LineString","coordinates":[[-0.2685934,51.6457713],[-0.2686246,51.6457792],[-0.2691013,51.6457513]]}},
{"type":"Feature","properties":{"id":32473,"nach":0.54547434121914595},"geometry":{"type":"LineString","coordinates":[[-0.2685934,51.6457713],[-0.2682277,51.6456793],[-0.2680345,51.645679300000012],[-0.2677127,51.6456128],[-0.2670475,51.645572799999989],[-0.2664789,51.6456327],[-0.266157,51.6455795],[-0.2655776,51.645473],[-0.2654918,51.6454264],[-0.2651964,51.6453396]]}},
{"type":"Feature","properties":{"id":54683,"nach":0.39821089882977773},"geometry":{"type":"LineString","coordinates":[[-0.2778338,51.6445596],[-0.2777669,51.6445542],[-0.2774686,51.6445394],[-0.2771973,51.6445345],[-0.2767498,51.6445364],[-0.2762865,51.6445276],[-0.2759327,51.6445217],[-0.2754392,51.644517699999987],[-0.2752313,51.644517699999987],[-0.2749997,51.6445099],[-0.2747966,51.6445079],[-0.2744237,51.644503],[-0.2737668,51.6444951],[-0.273386,51.6444902],[-0.2732432,51.64448920000001],[-0.2730115,51.6444892],[-0.272837,51.644501],[-0.2727116,51.6445158],[-0.272626,51.6445335],[-0.2725561,51.6445571],[-0.2722499,51.6446457],[-0.2719707,51.6447255],[-0.2717564,51.644770800000018]]}},
{"type":"Feature","properties":{"id":32436,"nach":0.44585233352649173},"geometry":{"type":"LineString","coordinates":[[-0.2719398,51.6449137],[-0.2718111,51.6449171],[-0.2717564,51.644770800000018]]}},
{"type":"Feature","properties":{"id":26899,"nach":0.4097588547149249},"geometry":{"type":"LineString","coordinates":[[-0.2800898,51.6462299],[-0.280166,51.6462752],[-0.2802215,51.6463826],[-0.2803374,51.6467203],[-0.2804849,51.64717910000001],[-0.2806071,51.6475394],[-0.2807309,51.6479057],[-0.2808245,51.6481922],[-0.2809038,51.648393],[-0.2810133,51.6485948],[-0.2812165,51.6489547],[-0.2814068,51.6492525],[-0.2816259,51.64956440000001],[-0.2817575,51.6497428],[-0.2817686,51.6497871]]}},
{"type":"Feature","properties":{"id":26905,"nach":0.47035178767681363},"geometry":{"type":"LineString","coordinates":[[-0.2797585,51.6448837],[-0.2797614,51.644896799999984],[-0.2798772,51.6452621],[-0.2800327,51.645777],[-0.2800724,51.645944400000012],[-0.2800645,51.6460527],[-0.2800343,51.6460783]]}},
{"type":"Feature","properties":{"id":54684,"nach":0.46181097166651225},"geometry":{"type":"LineString","coordinates":[[-0.2778338,51.6445596],[-0.2778891,51.644564],[-0.2780287,51.6445817],[-0.2781858,51.644617200000013],[-0.2784635,51.6446979],[-0.278573,51.6447245],[-0.2786555,51.644757],[-0.278876,51.6448082],[-0.279066400000011,51.644838700000015],[-0.2792521,51.6448623],[-0.2794393,51.6448722],[-0.2796027,51.6448643],[-0.2797154,51.6448643],[-0.2797419,51.64487],[-0.2797585,51.6448837]]}},
{"type":"Feature","properties":{"id":54685,"nach":0.35114173983817543},"geometry":{"type":"LineString","coordinates":[[-0.2778338,51.6445596],[-0.2778139,51.644597499999989],[-0.2771423,51.6458808]]}},
{"type":"Feature","properties":{"id":32435,"nach":0.43581452750885552},"geometry":{"type":"LineString","coordinates":[[-0.2719398,51.6449137],[-0.2721973,51.6449337],[-0.2726909,51.6451867],[-0.2730127,51.6452799],[-0.273356,51.645453],[-0.2735706,51.645646099999986]]}},
{"type":"Feature","properties":{"id":32439,"nach":0.39986683588856248},"geometry":{"type":"LineString","coordinates":[[-0.2705451,51.6453997],[-0.2710923,51.6453198],[-0.2714034,51.6452133],[-0.2719398,51.6449137]]}},
{"type":"Feature","properties":{"id":46064,"nach":0.51563389662766534},"geometry":{"type":"LineString","coordinates":[[-0.2730272,51.6469583],[-0.2730234,51.6468644],[-0.2729698,51.6466447],[-0.2730531,51.6463894]]}},
{"type":"Feature","properties":{"id":46066,"nach":0.41998114931978414},"geometry":{"type":"LineString","coordinates":[[-0.2730272,51.6469583],[-0.2731889,51.6469815],[-0.2733766,51.6470448],[-0.2735966,51.647061399999984],[-0.273838,51.6470415],[-0.2742027,51.6469649],[-0.2744778,51.6469653]]}},
{"type":"Feature","properties":{"id":46068,"nach":0.44721478570025147},"geometry":{"type":"LineString","coordinates":[[-0.2731473,51.6462108],[-0.2731951,51.64612540000001],[-0.2735492,51.6458058],[-0.2735706,51.645646099999986]]}},
{"type":"Feature","properties":{"id":46061,"nach":0.34774073038139658},"geometry":{"type":"LineString","coordinates":[[-0.2744778,51.6469653],[-0.2743002,51.6467712],[-0.2741071,51.64649150000001],[-0.273989,51.6462852],[-0.2739676,51.6461254],[-0.2737852,51.645919],[-0.2735706,51.645646099999986]]}},
{"type":"Feature","properties":{"id":46069,"nach":0.47875382552354756},"geometry":{"type":"LineString","coordinates":[[-0.2731473,51.6462108],[-0.273061,51.6463651],[-0.2730531,51.6463894]]}},
{"type":"Feature","properties":{"id":46067,"nach":0.31547041869775411},"geometry":{"type":"LineString","coordinates":[[-0.2731473,51.6462108],[-0.2729859,51.6462552]]}},
{"type":"Feature","properties":{"id":46070,"nach":0.4290514608502814},"geometry":{"type":"LineString","coordinates":[[-0.2703244,51.645452],[-0.2705451,51.6453997]]}},
{"type":"Feature","properties":{"id":32460,"nach":0.37478786094908573},"geometry":{"type":"LineString","coordinates":[[-0.2704485,51.64551620000001],[-0.2705451,51.6453997]]}},
{"type":"Feature","properties":{"id":46071,"nach":0.4710222394579896},"geometry":{"type":"LineString","coordinates":[[-0.2703244,51.645452],[-0.2704485,51.64551620000001]]}},
{"type":"Feature","properties":{"id":46072,"nach":0.50219858631998593},"geometry":{"type":"LineString","coordinates":[[-0.2703244,51.645452],[-0.269955,51.6455395],[-0.2698779,51.6455613]]}},
{"type":"Feature","properties":{"id":32462,"nach":0.48314250703703981},"geometry":{"type":"LineString","coordinates":[[-0.2704485,51.64551620000001],[-0.2705826,51.6456194],[-0.2707865,51.6457626],[-0.2710118,51.6458891],[-0.2711459,51.6460222],[-0.2714517,51.6461154],[-0.2717306,51.6460888],[-0.2718862,51.646142],[-0.2721598,51.6461853],[-0.2725621,51.646152],[-0.2727713,51.6461886],[-0.2729859,51.6462552]]}},
{"type":"Feature","properties":{"id":46077,"nach":0.458799936034192},"geometry":{"type":"LineString","coordinates":[[-0.2693291,51.645705],[-0.2694745,51.645675399999988],[-0.2698779,51.6455613]]}},
{"type":"Feature","properties":{"id":46078,"nach":0.39814028044084321},"geometry":{"type":"LineString","coordinates":[[-0.2693291,51.645705],[-0.2691897,51.645908],[-0.2690865,51.6461099]]}},
{"type":"Feature","properties":{"id":32457,"nach":0.49615324707282343},"geometry":{"type":"LineString","coordinates":[[-0.2729859,51.6462552],[-0.2730531,51.6463894]]}},
{"type":"Feature","properties":{"id":46073,"nach":0.5179301677868966},"geometry":{"type":"LineString","coordinates":[[-0.2690865,51.6461099],[-0.2690382,51.6461162]]}},
{"type":"Feature","properties":{"id":46074,"nach":0.47226461778062695},"geometry":{"type":"LineString","coordinates":[[-0.2690865,51.6461099],[-0.2691718,51.646098799999983],[-0.2692898,51.6460621],[-0.2695527,51.645849100000014],[-0.2698779,51.6455613]]}},
{"type":"Feature","properties":{"id":54671,"nach":0.35420096048462246},"geometry":{"type":"LineString","coordinates":[[-0.275698,51.6441742],[-0.2757254,51.644134200000011],[-0.2757627,51.6440859],[-0.2757865,51.6439302],[-0.2758373,51.6434928],[-0.2759093,51.6434287]]}},
{"type":"Feature","properties":{"id":54663,"nach":0.19707035231422765},"geometry":{"type":"LineString","coordinates":[[-0.2733199,51.6434463],[-0.2734994,51.6434111],[-0.2743452,51.6433622],[-0.2756557,51.6433104],[-0.275766,51.643329],[-0.2759093,51.6434287]]}},
{"type":"Feature","properties":{"id":54669,"nach":0.28088527827541165},"geometry":{"type":"LineString","coordinates":[[-0.2776359,51.6417535],[-0.2775854,51.6419307],[-0.277447,51.6421284],[-0.2771027,51.6424605],[-0.2767961,51.6427204],[-0.2766464,51.6428687],[-0.2765619,51.642978800000016],[-0.276469,51.6430283],[-0.2763302,51.6430545],[-0.27625050000001,51.6431151],[-0.2761986,51.6433488],[-0.2761455,51.643426],[-0.2760852,51.6434529],[-0.2760055,51.6434537],[-0.2759093,51.6434287]]}},
{"type":"Feature","properties":{"id":54673,"nach":0.33890258102624299},"geometry":{"type":"LineString","coordinates":[[-0.2759905,51.6440388],[-0.275926,51.6442034],[-0.275698,51.6441742]]}},
{"type":"Feature","properties":{"id":54706,"nach":0.26478068470059712},"geometry":{"type":"LineString","coordinates":[[-0.2721227,51.6434947],[-0.272013,51.6433848],[-0.2719761,51.6433697],[-0.2716414,51.6433853],[-0.2716009,51.6433976],[-0.2715784,51.64341550000001],[-0.2716063,51.6436176],[-0.2716531,51.6436516],[-0.2717125,51.6436617],[-0.272416,51.6436086],[-0.2725986,51.6435734],[-0.2726896,51.6434786],[-0.2732557,51.643436699999988],[-0.2733199,51.6434463]]}},
{"type":"Feature","properties":{"id":57809,"nach":0.47008173222946914},"geometry":{"type":"LineString","coordinates":[[-0.2874787,51.6423295],[-0.2874954,51.64231620000001],[-0.2875042,51.6423003],[-0.2875038,51.6422835],[-0.2874945,51.6422677]]}},
{"type":"Feature","properties":{"id":57811,"nach":0.0},"geometry":{"type":"LineString","coordinates":[[-0.2873591,51.642321],[-0.2873479,51.642306499999982],[-0.2873447,51.6422906],[-0.28734980000001,51.642274899999983],[-0.2873627,51.6422611],[-0.2873819,51.64225039999998],[-0.2874057,51.6422442],[-0.2874314,51.6422429],[-0.2874564,51.642246700000015],[-0.2874782,51.6422553],[-0.2874945,51.6422677]]}},
{"type":"Feature","properties":{"id":57820,"nach":0.46026320688367545},"geometry":{"type":"LineString","coordinates":[[-0.2874189,51.6423415],[-0.2874294,51.6423422],[-0.2874558,51.6423385],[-0.2874787,51.6423295]]}},
{"type":"Feature","properties":{"id":57824,"nach":0.0},"geometry":{"type":"LineString","coordinates":[[-0.2875038,51.643015099999985],[-0.2875267,51.6430157],[-0.2875687,51.6430252],[-0.2878728,51.6431618],[-0.2879684,51.6431906],[-0.288035800000011,51.643195500000012],[-0.2880778,51.6431888],[-0.2881277,51.6431605],[-0.2881625,51.6431452],[-0.2882154,51.6431488],[-0.288279,51.6431564],[-0.2884157,51.6431309],[-0.2885079,51.6430938],[-0.2885367,51.6430674],[-0.2885297,51.643036],[-0.2885202,51.6430081],[-0.288534,51.6429074],[-0.288542,51.6428535],[-0.2885811,51.6427848],[-0.2885811,51.6427439],[-0.288568,51.6427052],[-0.2885195,51.6426571],[-0.2884949,51.6426207],[-0.2884833,51.6425192],[-0.2884942,51.6424702],[-0.2884905,51.6424315],[-0.2884688,51.6423933],[-0.2884333,51.6423677],[-0.2883848,51.642351500000011],[-0.288337,51.6423461],[-0.2882979,51.6423475],[-0.2882465,51.6423691],[-0.28819,51.6424203],[-0.2881169,51.6424414],[-0.288009,51.6424805],[-0.2879735,51.6424832],[-0.287925,51.642479599999987],[-0.2878895,51.6424702],[-0.2878895,51.6424442],[-0.2877911,51.6423807],[-0.287660900000011,51.6424519],[-0.2874787,51.6423295]]}},
{"type":"Feature","properties":{"id":57819,"nach":0.38417196274106591},"geometry":{"type":"LineString","coordinates":[[-0.2874189,51.6423415],[-0.2874024,51.6423403],[-0.2873781,51.642332900000014],[-0.2873591,51.642321]]}},
{"type":"Feature","properties":{"id":57814,"nach":0.33410009473434926},"geometry":{"type":"LineString","coordinates":[[-0.28714240000001,51.642487],[-0.2870792,51.6424515],[-0.2870108,51.6424337],[-0.28699,51.6424103],[-0.2869867,51.6423771],[-0.2870017,51.642348799999986],[-0.2870402,51.6423343],[-0.2870981,51.6423302],[-0.2871789,51.6423428],[-0.2872492,51.64234960000001],[-0.2873059,51.6423395],[-0.2873591,51.642321]]}},
{"type":"Feature","properties":{"id":57818,"nach":0.42001895293848679},"geometry":{"type":"LineString","coordinates":[[-0.2874189,51.6423415],[-0.2874173,51.6423785]]}},
{"type":"Feature","properties":{"id":57823,"nach":0.36201527077304935},"geometry":{"type":"LineString","coordinates":[[-0.2875038,51.643015099999985],[-0.287481,51.6430144],[-0.2872203,51.6430427],[-0.2871602,51.6430526],[-0.2871023,51.6430787],[-0.286838,51.6431299],[-0.286801,51.6431259],[-0.2867851,51.6431119],[-0.286759,51.64304],[-0.2867576,51.6429767],[-0.28675760000001,51.6429052],[-0.286725,51.6428045],[-0.2867018,51.6427524],[-0.2867004,51.6427164],[-0.2867178,51.6426953],[-0.2867648,51.6426814],[-0.2869531,51.6426445],[-0.2874173,51.6423785]]}},
{"type":"Feature","properties":{"id":57825,"nach":0.31432148290095169},"geometry":{"type":"LineString","coordinates":[[-0.287486,51.6429155],[-0.2875038,51.643015099999985]]}},
{"type":"Feature","properties":{"id":57821,"nach":0.33662594724743},"geometry":{"type":"LineString","coordinates":[[-0.2874115,51.6425226],[-0.2874173,51.6423785]]}},
{"type":"Feature","properties":{"id":57835,"nach":0.46425462812874768},"geometry":{"type":"LineString","coordinates":[[-0.2851317,51.642990500000018],[-0.2852112,51.6429764],[-0.2853507,51.6429332]]}},
{"type":"Feature","properties":{"id":57834,"nach":0.34166932429842722},"geometry":{"type":"LineString","coordinates":[[-0.2856326,51.6425398],[-0.2852854,51.6426154],[-0.2852416,51.6426625],[-0.285248,51.6427275],[-0.2853507,51.6429332]]}},
{"type":"Feature","properties":{"id":57856,"nach":0.36421066478693342},"geometry":{"type":"LineString","coordinates":[[-0.2802121,51.644289900000011],[-0.280177,51.644199]]}},
{"type":"Feature","properties":{"id":57859,"nach":0.36421066478693342},"geometry":{"type":"LineString","coordinates":[[-0.2802121,51.644289900000011],[-0.2803132,51.6442761]]}},
{"type":"Feature","properties":{"id":57858,"nach":0.36421066478693342},"geometry":{"type":"LineString","coordinates":[[-0.2802121,51.644289900000011],[-0.2801168,51.6443029]]}},
{"type":"Feature","properties":{"id":57869,"nach":0.0},"geometry":{"type":"LineString","coordinates":[[-0.295346,51.6427887],[-0.2954398,51.64277220000001],[-0.2955742,51.6426936],[-0.2955815,51.6426586],[-0.2955436,51.6426251],[-0.2954992,51.6426101],[-0.2954524,51.6426066],[-0.2954089,51.6426191],[-0.2953468,51.6427377],[-0.295346,51.6427887]]}},
{"type":"Feature","properties":{"id":70966,"nach":0.31184327781078502},"geometry":{"type":"LineString","coordinates":[[-0.2712424,51.6446191],[-0.2711633,51.6446166],[-0.2709943,51.6446283],[-0.2706604,51.6446483]]}}
]
}
