{
"type": "FeatureCollection",
"name": "1e339ebfc42b_visibility",
"crs": { "type": "name", "properties": { "name": "urn:ogc:def:crs:OGC:1.3:CRS84" } },
"features": [
{ "type": "Feature", "properties": { "visible_points": 0, "total_points": 40, "visibility_pct": 0.0 }, "geometry": { "type": "Point", "coordinates": [ 1.139313532071339, 51.8088975977765 ] } },
{ "type": "Feature", "properties": { "visible_points": 1, "total_points": 46, "visibility_pct": 2.1739130434782608 }, "geometry": { "type": "Point", "coordinates": [ 1.13951420984986, 51.808892234824206 ] } },
{ "type": "Feature", "properties": { "visible_points": 0, "total_points": 52, "visibility_pct": 0.0 }, "geometry": { "type": "Point", "coordinates": [ 1.139714887566013, 51.808886871529445 ] } },
{ "type": "Feature", "properties": { "visible_points": 15, "total_points": 58, "visibility_pct": 25.862068965517242 }, "geometry": { "type": "Point", "coordinates": [ 1.139915565219777, 51.80888150789221 ] } },
{ "type": "Feature", "properties": { "visible_points": 12, "total_points": 63, "visibility_pct": 19.047619047619047 }, "geometry": { "type": "Point", "coordinates": [ 1.140116242788451, 51.80887614391991 ] } },
{ "type": "Feature", "properties": { "visible_points": 5, "total_points": 66, "visibility_pct": 7.5757575757575761 }, "geometry": { "type": "Point", "coordinates": [ 1.140316920263976, 51.808870779603794 ] } },
{ "type": "Feature", "properties": { "visible_points": 0, "total_points": 66, "visibility_pct": 0.0 }, "geometry": { "type": "Point", "coordinates": [ 1.14051759766762, 51.808865414943142 ] } },
{ "type": "Feature", "properties": { "visible_points": 0, "total_points": 65, "visibility_pct": 0.0 }, "geometry": { "type": "Point", "coordinates": [ 1.140718275008149, 51.808860049939796 ] } },
{ "type": "Feature", "properties": { "visible_points": 14, "total_points": 43, "visibility_pct": 32.558139534883722 }, "geometry": { "type": "Point", "coordinates": [ 1.139421361068891, 51.80900264678565 ] } },
{ "type": "Feature", "properties": { "visible_points": 18, "total_points": 49, "visibility_pct": 36.734693877551024 }, "geometry": { "type": "Point", "coordinates": [ 1.139622039299243, 51.808997283638952 ] } },
{ "type": "Feature", "properties": { "visible_points": 20, "total_points": 56, "visibility_pct": 35.714285714285715 }, "geometry": { "type": "Point", "coordinates": [ 1.139822717467326, 51.808991920150106 ] } },
{ "type": "Feature", "properties": { "visible_points": 19, "total_points": 62, "visibility_pct": 30.64516129032258 }, "geometry": { "type": "Point", "coordinates": [ 1.140023395573135, 51.808986556319084 ] } },
{ "type": "Feature", "properties": { "visible_points": 17, "total_points": 68, "visibility_pct": 25.0 }, "geometry": { "type": "Point", "coordinates": [ 1.140224073616663, 51.8089811921459 ] } },
{ "type": "Feature", "properties": { "visible_points": 15, "total_points": 70, "visibility_pct": 21.428571428571427 }, "geometry": { "type": "Point", "coordinates": [ 1.140424751597916, 51.808975827630576 ] } },
{ "type": "Feature", "properties": { "visible_points": 10, "total_points": 69, "visibility_pct": 14.492753623188406 }, "geometry": { "type": "Point", "coordinates": [ 1.140625429516883, 51.808970462773075 ] } },
{ "type": "Feature", "properties": { "visible_points": 0, "total_points": 69, "visibility_pct": 0.0 }, "geometry": { "type": "Point", "coordinates": [ 1.140826107373552, 51.808965097573406 ] } },
{ "type": "Feature", "properties": { "visible_points": 0, "total_points": 70, "visibility_pct": 0.0 }, "geometry": { "type": "Point", "coordinates": [ 1.141026785167938, 51.808959732031582 ] } },
{ "type": "Feature", "properties": { "visible_points": 0, "total_points": 71, "visibility_pct": 0.0 }, "geometry": { "type": "Point", "coordinates": [ 1.141227462900021, 51.808954366147603 ] } },
{ "type": "Feature", "properties": { "visible_points": 17, "total_points": 45, "visibility_pct": 37.777777777777779 }, "geometry": { "type": "Point", "coordinates": [ 1.139529190551788, 51.809107695698415 ] } },
{ "type": "Feature", "properties": { "visible_points": 19, "total_points": 52, "visibility_pct": 36.538461538461533 }, "geometry": { "type": "Point", "coordinates": [ 1.139729869226435, 51.809102332360794 ] } },
{ "type": "Feature", "properties": { "visible_points": 18, "total_points": 59, "visibility_pct": 30.508474576271187 }, "geometry": { "type": "Point", "coordinates": [ 1.139930547838802, 51.809096968680997 ] } },
{ "type": "Feature", "properties": { "visible_points": 18, "total_points": 66, "visibility_pct": 27.27272727272727 }, "geometry": { "type": "Point", "coordinates": [ 1.140131226388895, 51.809091604659031 ] } },
{ "type": "Feature", "properties": { "visible_points": 15, "total_points": 70, "visibility_pct": 21.428571428571427 }, "geometry": { "type": "Point", "coordinates": [ 1.140331904876709, 51.809086240294924 ] } },
{ "type": "Feature", "properties": { "visible_points": 13, "total_points": 72, "visibility_pct": 18.055555555555554 }, "geometry": { "type": "Point", "coordinates": [ 1.140532583302237, 51.809080875588627 ] } },
{ "type": "Feature", "properties": { "visible_points": 12, "total_points": 72, "visibility_pct": 16.666666666666664 }, "geometry": { "type": "Point", "coordinates": [ 1.140733261665482, 51.809075510540197 ] } },
{ "type": "Feature", "properties": { "visible_points": 24, "total_points": 73, "visibility_pct": 32.87671232876712 }, "geometry": { "type": "Point", "coordinates": [ 1.140933939966426, 51.80907014514959 ] } },
{ "type": "Feature", "properties": { "visible_points": 0, "total_points": 75, "visibility_pct": 0.0 }, "geometry": { "type": "Point", "coordinates": [ 1.141134618205081, 51.809064779416829 ] } },
{ "type": "Feature", "properties": { "visible_points": 0, "total_points": 77, "visibility_pct": 0.0 }, "geometry": { "type": "Point", "coordinates": [ 1.141335296381438, 51.809059413341892 ] } },
{ "type": "Feature", "properties": { "visible_points": 0, "total_points": 78, "visibility_pct": 0.0 }, "geometry": { "type": "Point", "coordinates": [ 1.141535974495484, 51.809054046924814 ] } },
{ "type": "Feature", "properties": { "visible_points": 8, "total_points": 76, "visibility_pct": 10.526315789473683 }, "geometry": { "type": "Point", "coordinates": [ 1.141041773065887, 51.809175192617687 ] } },
{ "type": "Feature", "properties": { "visible_points": 10, "total_points": 79, "visibility_pct": 12.658227848101266 }, "geometry": { "type": "Point", "coordinates": [ 1.141242451748812, 51.809169826693967 ] } },
{ "type": "Feature", "properties": { "visible_points": 2, "total_points": 82, "visibility_pct": 2.4390243902439024 }, "geometry": { "type": "Point", "coordinates": [ 1.141443130369438, 51.809164460428079 ] } },
{ "type": "Feature", "properties": { "visible_points": 18, "total_points": 83, "visibility_pct": 21.686746987951807 }, "geometry": { "type": "Point", "coordinates": [ 1.141643808927755, 51.809159093820043 ] } },
{ "type": "Feature", "properties": { "visible_points": 0, "total_points": 85, "visibility_pct": 0.0 }, "geometry": { "type": "Point", "coordinates": [ 1.141844487423765, 51.80915372686983 ] } },
{ "type": "Feature", "properties": { "visible_points": 0, "total_points": 84, "visibility_pct": 0.0 }, "geometry": { "type": "Point", "coordinates": [ 1.142045165857458, 51.809148359577463 ] } },
{ "type": "Feature", "properties": { "visible_points": 14, "total_points": 79, "visibility_pct": 17.721518987341771 }, "geometry": { "type": "Point", "coordinates": [ 1.142245844228835, 51.809142991942934 ] } },
{ "type": "Feature", "properties": { "visible_points": 1, "total_points": 74, "visibility_pct": 1.3513513513513513 }, "geometry": { "type": "Point", "coordinates": [ 1.142446522537889, 51.809137623966258 ] } },
{ "type": "Feature", "properties": { "visible_points": 12, "total_points": 80, "visibility_pct": 15.0 }, "geometry": { "type": "Point", "coordinates": [ 1.14135028579913, 51.809274873862989 ] } },
{ "type": "Feature", "properties": { "visible_points": 25, "total_points": 84, "visibility_pct": 29.761904761904763 }, "geometry": { "type": "Point", "coordinates": [ 1.141550964864033, 51.809269507406157 ] } },
{ "type": "Feature", "properties": { "visible_points": 28, "total_points": 87, "visibility_pct": 32.183908045977013 }, "geometry": { "type": "Point", "coordinates": [ 1.141751643866616, 51.809264140607162 ] } },
{ "type": "Feature", "properties": { "visible_points": 29, "total_points": 88, "visibility_pct": 32.954545454545453 }, "geometry": { "type": "Point", "coordinates": [ 1.141952322806891, 51.809258773466006 ] } },
{ "type": "Feature", "properties": { "visible_points": 34, "total_points": 90, "visibility_pct": 37.777777777777779 }, "geometry": { "type": "Point", "coordinates": [ 1.142153001684857, 51.809253405982702 ] } },
{ "type": "Feature", "properties": { "visible_points": 0, "total_points": 86, "visibility_pct": 0.0 }, "geometry": { "type": "Point", "coordinates": [ 1.14235368050049, 51.809248038157207 ] } },
{ "type": "Feature", "properties": { "visible_points": 0, "total_points": 81, "visibility_pct": 0.0 }, "geometry": { "type": "Point", "coordinates": [ 1.142554359253804, 51.809242669989544 ] } },
{ "type": "Feature", "properties": { "visible_points": 19, "total_points": 80, "visibility_pct": 23.75 }, "geometry": { "type": "Point", "coordinates": [ 1.141458120356043, 51.809379920923917 ] } },
{ "type": "Feature", "properties": { "visible_points": 28, "total_points": 85, "visibility_pct": 32.941176470588232 }, "geometry": { "type": "Point", "coordinates": [ 1.141658799865217, 51.809374554276133 ] } },
{ "type": "Feature", "properties": { "visible_points": 32, "total_points": 89, "visibility_pct": 35.955056179775283 }, "geometry": { "type": "Point", "coordinates": [ 1.141859479312077, 51.809369187286194 ] } },
{ "type": "Feature", "properties": { "visible_points": 32, "total_points": 92, "visibility_pct": 34.782608695652172 }, "geometry": { "type": "Point", "coordinates": [ 1.142060158696618, 51.809363819954072 ] } },
{ "type": "Feature", "properties": { "visible_points": 38, "total_points": 93, "visibility_pct": 40.86021505376344 }, "geometry": { "type": "Point", "coordinates": [ 1.142260838018846, 51.80935845227981 ] } },
{ "type": "Feature", "properties": { "visible_points": 39, "total_points": 90, "visibility_pct": 43.333333333333336 }, "geometry": { "type": "Point", "coordinates": [ 1.142461517278747, 51.809353084263364 ] } },
{ "type": "Feature", "properties": { "visible_points": 0, "total_points": 86, "visibility_pct": 0.0 }, "geometry": { "type": "Point", "coordinates": [ 1.142662196476323, 51.809347715904742 ] } },
{ "type": "Feature", "properties": { "visible_points": 0, "total_points": 82, "visibility_pct": 0.0 }, "geometry": { "type": "Point", "coordinates": [ 1.142862875611567, 51.80934234720398 ] } },
{ "type": "Feature", "properties": { "visible_points": 28, "total_points": 79, "visibility_pct": 35.443037974683541 }, "geometry": { "type": "Point", "coordinates": [ 1.141565955419555, 51.809484967876735 ] } },
{ "type": "Feature", "properties": { "visible_points": 32, "total_points": 86, "visibility_pct": 37.209302325581397 }, "geometry": { "type": "Point", "coordinates": [ 1.141766635372999, 51.809479601038014 ] } },
{ "type": "Feature", "properties": { "visible_points": 34, "total_points": 90, "visibility_pct": 37.777777777777779 }, "geometry": { "type": "Point", "coordinates": [ 1.141967315264135, 51.809474233857117 ] } },
{ "type": "Feature", "properties": { "visible_points": 37, "total_points": 93, "visibility_pct": 39.784946236559136 }, "geometry": { "type": "Point", "coordinates": [ 1.142167995092948, 51.809468866334036 ] } },
{ "type": "Feature", "properties": { "visible_points": 40, "total_points": 95, "visibility_pct": 42.105263157894733 }, "geometry": { "type": "Point", "coordinates": [ 1.142368674859443, 51.809463498468801 ] } },
{ "type": "Feature", "properties": { "visible_points": 41, "total_points": 93, "visibility_pct": 44.086021505376344 }, "geometry": { "type": "Point", "coordinates": [ 1.142569354563608, 51.809458130261397 ] } },
{ "type": "Feature", "properties": { "visible_points": 45, "total_points": 90, "visibility_pct": 50.0 }, "geometry": { "type": "Point", "coordinates": [ 1.14277003420545, 51.809452761711846 ] } },
{ "type": "Feature", "properties": { "visible_points": 0, "total_points": 86, "visibility_pct": 0.0 }, "geometry": { "type": "Point", "coordinates": [ 1.142970713784951, 51.809447392820118 ] } },
{ "type": "Feature", "properties": { "visible_points": 0, "total_points": 80, "visibility_pct": 0.0 }, "geometry": { "type": "Point", "coordinates": [ 1.143171393302119, 51.809442023586215 ] } },
{ "type": "Feature", "properties": { "visible_points": 32, "total_points": 68, "visibility_pct": 47.058823529411761 }, "geometry": { "type": "Point", "coordinates": [ 1.141473110529628, 51.809595381408982 ] } },
{ "type": "Feature", "properties": { "visible_points": 29, "total_points": 76, "visibility_pct": 38.15789473684211 }, "geometry": { "type": "Point", "coordinates": [ 1.141673790989669, 51.809590014721458 ] } },
{ "type": "Feature", "properties": { "visible_points": 34, "total_points": 83, "visibility_pct": 40.963855421686745 }, "geometry": { "type": "Point", "coordinates": [ 1.141874471387387, 51.809584647691764 ] } },
{ "type": "Feature", "properties": { "visible_points": 36, "total_points": 90, "visibility_pct": 40.0 }, "geometry": { "type": "Point", "coordinates": [ 1.142075151722796, 51.809579280319916 ] } },
{ "type": "Feature", "properties": { "visible_points": 42, "total_points": 94, "visibility_pct": 44.680851063829785 }, "geometry": { "type": "Point", "coordinates": [ 1.142275831995881, 51.809573912605885 ] } },
{ "type": "Feature", "properties": { "visible_points": 43, "total_points": 96, "visibility_pct": 44.791666666666671 }, "geometry": { "type": "Point", "coordinates": [ 1.142476512206645, 51.809568544549684 ] } },
{ "type": "Feature", "properties": { "visible_points": 47, "total_points": 94, "visibility_pct": 50.0 }, "geometry": { "type": "Point", "coordinates": [ 1.142677192355076, 51.809563176151329 ] } },
{ "type": "Feature", "properties": { "visible_points": 43, "total_points": 92, "visibility_pct": 46.739130434782609 }, "geometry": { "type": "Point", "coordinates": [ 1.142877872441182, 51.809557807410819 ] } },
{ "type": "Feature", "properties": { "visible_points": 42, "total_points": 88, "visibility_pct": 47.727272727272727 }, "geometry": { "type": "Point", "coordinates": [ 1.143078552464948, 51.809552438328126 ] } },
{ "type": "Feature", "properties": { "visible_points": 38, "total_points": 83, "visibility_pct": 45.783132530120483 }, "geometry": { "type": "Point", "coordinates": [ 1.143279232426375, 51.809547068903264 ] } },
{ "type": "Feature", "properties": { "visible_points": 18, "total_points": 75, "visibility_pct": 24.0 }, "geometry": { "type": "Point", "coordinates": [ 1.143479912325457, 51.80954169913624 ] } },
{ "type": "Feature", "properties": { "visible_points": 41, "total_points": 86, "visibility_pct": 47.674418604651166 }, "geometry": { "type": "Point", "coordinates": [ 1.142182988688068, 51.809684326674592 ] } },
{ "type": "Feature", "properties": { "visible_points": 51, "total_points": 91, "visibility_pct": 56.043956043956044 }, "geometry": { "type": "Point", "coordinates": [ 1.142383669405423, 51.809678958769616 ] } },
{ "type": "Feature", "properties": { "visible_points": 51, "total_points": 94, "visibility_pct": 54.255319148936167 }, "geometry": { "type": "Point", "coordinates": [ 1.14258435006046, 51.809673590522479 ] } },
{ "type": "Feature", "properties": { "visible_points": 49, "total_points": 94, "visibility_pct": 52.12765957446809 }, "geometry": { "type": "Point", "coordinates": [ 1.14278503065316, 51.809668221933144 ] } },
{ "type": "Feature", "properties": { "visible_points": 46, "total_points": 93, "visibility_pct": 49.462365591397848 }, "geometry": { "type": "Point", "coordinates": [ 1.142985711183529, 51.809662853001662 ] } },
{ "type": "Feature", "properties": { "visible_points": 47, "total_points": 90, "visibility_pct": 52.222222222222229 }, "geometry": { "type": "Point", "coordinates": [ 1.143186391651559, 51.80965748372801 ] } },
{ "type": "Feature", "properties": { "visible_points": 44, "total_points": 86, "visibility_pct": 51.162790697674424 }, "geometry": { "type": "Point", "coordinates": [ 1.143387072057243, 51.809652114112183 ] } },
{ "type": "Feature", "properties": { "visible_points": 0, "total_points": 78, "visibility_pct": 0.0 }, "geometry": { "type": "Point", "coordinates": [ 1.143587752400592, 51.809646744154193 ] } },
{ "type": "Feature", "properties": { "visible_points": 53, "total_points": 88, "visibility_pct": 60.227272727272727 }, "geometry": { "type": "Point", "coordinates": [ 1.142491507321583, 51.809784004825254 ] } },
{ "type": "Feature", "properties": { "visible_points": 51, "total_points": 92, "visibility_pct": 55.434782608695656 }, "geometry": { "type": "Point", "coordinates": [ 1.142692188420886, 51.809778636387129 ] } },
{ "type": "Feature", "properties": { "visible_points": 51, "total_points": 94, "visibility_pct": 54.255319148936167 }, "geometry": { "type": "Point", "coordinates": [ 1.14289286945786, 51.809773267606857 ] } },
{ "type": "Feature", "properties": { "visible_points": 49, "total_points": 94, "visibility_pct": 52.12765957446809 }, "geometry": { "type": "Point", "coordinates": [ 1.143093550432494, 51.809767898484402 ] } },
{ "type": "Feature", "properties": { "visible_points": 47, "total_points": 92, "visibility_pct": 51.086956521739133 }, "geometry": { "type": "Point", "coordinates": [ 1.14329423134479, 51.809762529019778 ] } },
{ "type": "Feature", "properties": { "visible_points": 42, "total_points": 87, "visibility_pct": 48.275862068965516 }, "geometry": { "type": "Point", "coordinates": [ 1.143494912194741, 51.809757159212992 ] } },
{ "type": "Feature", "properties": { "visible_points": 26, "total_points": 78, "visibility_pct": 33.333333333333329 }, "geometry": { "type": "Point", "coordinates": [ 1.143695592982338, 51.809751789064045 ] } },
{ "type": "Feature", "properties": { "visible_points": 52, "total_points": 89, "visibility_pct": 58.426966292134829 }, "geometry": { "type": "Point", "coordinates": [ 1.142800027287934, 51.809883682143685 ] } },
{ "type": "Feature", "properties": { "visible_points": 52, "total_points": 92, "visibility_pct": 56.521739130434781 }, "geometry": { "type": "Point", "coordinates": [ 1.143000708769178, 51.80987831317244 ] } },
{ "type": "Feature", "properties": { "visible_points": 49, "total_points": 92, "visibility_pct": 53.260869565217398 }, "geometry": { "type": "Point", "coordinates": [ 1.143201390188081, 51.809872943859034 ] } },
{ "type": "Feature", "properties": { "visible_points": 45, "total_points": 87, "visibility_pct": 51.724137931034484 }, "geometry": { "type": "Point", "coordinates": [ 1.14340207154464, 51.80986757420343 ] } },
{ "type": "Feature", "properties": { "visible_points": 40, "total_points": 80, "visibility_pct": 50.0 }, "geometry": { "type": "Point", "coordinates": [ 1.143602752838856, 51.8098622042057 ] } },
{ "type": "Feature", "properties": { "visible_points": 37, "total_points": 72, "visibility_pct": 51.388888888888886 }, "geometry": { "type": "Point", "coordinates": [ 1.143803434070717, 51.809856833865751 ] } },
{ "type": "Feature", "properties": { "visible_points": 3, "total_points": 61, "visibility_pct": 4.918032786885246 }, "geometry": { "type": "Point", "coordinates": [ 1.144004115240227, 51.809851463183669 ] } },
{ "type": "Feature", "properties": { "visible_points": 46, "total_points": 82, "visibility_pct": 56.09756097560976 }, "geometry": { "type": "Point", "coordinates": [ 1.142907866661602, 51.809988727792117 ] } },
{ "type": "Feature", "properties": { "visible_points": 48, "total_points": 87, "visibility_pct": 55.172413793103445 }, "geometry": { "type": "Point", "coordinates": [ 1.143108548587121, 51.809983358629914 ] } },
{ "type": "Feature", "properties": { "visible_points": 45, "total_points": 85, "visibility_pct": 52.941176470588239 }, "geometry": { "type": "Point", "coordinates": [ 1.143309230450294, 51.809977989125535 ] } },
{ "type": "Feature", "properties": { "visible_points": 44, "total_points": 79, "visibility_pct": 55.696202531645568 }, "geometry": { "type": "Point", "coordinates": [ 1.143509912251123, 51.809972619278973 ] } },
{ "type": "Feature", "properties": { "visible_points": 35, "total_points": 72, "visibility_pct": 48.611111111111107 }, "geometry": { "type": "Point", "coordinates": [ 1.143710593989601, 51.809967249090256 ] } },
{ "type": "Feature", "properties": { "visible_points": 34, "total_points": 65, "visibility_pct": 52.307692307692314 }, "geometry": { "type": "Point", "coordinates": [ 1.143911275665724, 51.809961878559363 ] } },
{ "type": "Feature", "properties": { "visible_points": 0, "total_points": 54, "visibility_pct": 0.0 }, "geometry": { "type": "Point", "coordinates": [ 1.144111957279493, 51.809956507686294 ] } },
{ "type": "Feature", "properties": { "visible_points": 42, "total_points": 80, "visibility_pct": 52.5 }, "geometry": { "type": "Point", "coordinates": [ 1.143216388911692, 51.810088403979265 ] } },
{ "type": "Feature", "properties": { "visible_points": 42, "total_points": 75, "visibility_pct": 56.000000000000007 }, "geometry": { "type": "Point", "coordinates": [ 1.143417071219136, 51.81008303428392 ] } },
{ "type": "Feature", "properties": { "visible_points": 33, "total_points": 70, "visibility_pct": 47.142857142857139 }, "geometry": { "type": "Point", "coordinates": [ 1.143617753464231, 51.810077664246393 ] } },
{ "type": "Feature", "properties": { "visible_points": 33, "total_points": 64, "visibility_pct": 51.5625 }, "geometry": { "type": "Point", "coordinates": [ 1.143818435646981, 51.810072293866696 ] } },
{ "type": "Feature", "properties": { "visible_points": 32, "total_points": 57, "visibility_pct": 56.140350877192979 }, "geometry": { "type": "Point", "coordinates": [ 1.144019117767367, 51.810066923144838 ] } },
{ "type": "Feature", "properties": { "visible_points": 38, "total_points": 69, "visibility_pct": 55.072463768115945 }, "geometry": { "type": "Point", "coordinates": [ 1.143324229742891, 51.810193449220499 ] } },
{ "type": "Feature", "properties": { "visible_points": 34, "total_points": 66, "visibility_pct": 51.515151515151516 }, "geometry": { "type": "Point", "coordinates": [ 1.143524912494613, 51.810188079334175 ] } },
{ "type": "Feature", "properties": { "visible_points": 33, "total_points": 61, "visibility_pct": 54.098360655737707 }, "geometry": { "type": "Point", "coordinates": [ 1.143725595183977, 51.810182709105682 ] } },
{ "type": "Feature", "properties": { "visible_points": 29, "total_points": 56, "visibility_pct": 51.785714285714292 }, "geometry": { "type": "Point", "coordinates": [ 1.143926277810996, 51.810177338535027 ] } },
{ "type": "Feature", "properties": { "visible_points": 34, "total_points": 59, "visibility_pct": 57.627118644067799 }, "geometry": { "type": "Point", "coordinates": [ 1.14343207108073, 51.81029849435361 ] } },
{ "type": "Feature", "properties": { "visible_points": 32, "total_points": 56, "visibility_pct": 57.142857142857139 }, "geometry": { "type": "Point", "coordinates": [ 1.143632754276725, 51.810293124276328 ] } }
]
}
