{
"type": "FeatureCollection",
"name": "c09eb432d951_visibility",
"crs": { "type": "name", "properties": { "name": "urn:ogc:def:crs:OGC:1.3:CRS84" } },
"features": [
{ "type": "Feature", "properties": { "visible_points": 3, "total_points": 49, "visibility_pct": 6.1224489795918364 }, "geometry": { "type": "Point", "coordinates": [ 1.103999184991765, 51.772679654601411 ] } },
{ "type": "Feature", "properties": { "visible_points": 6, "total_points": 50, "visibility_pct": 12.0 }, "geometry": { "type": "Point", "coordinates": [ 1.104199710767665, 51.772674356263252 ] } },
{ "type": "Feature", "properties": { "visible_points": 4, "total_points": 50, "visibility_pct": 8.0 }, "geometry": { "type": "Point", "coordinates": [ 1.104400236481951, 51.772669057583755 ] } },
{ "type": "Feature", "properties": { "visible_points": 8, "total_points": 57, "visibility_pct": 14.035087719298245 }, "geometry": { "type": "Point", "coordinates": [ 1.104106844929719, 51.772784742087424 ] } },
{ "type": "Feature", "properties": { "visible_points": 0, "total_points": 57, "visibility_pct": 0.0 }, "geometry": { "type": "Point", "coordinates": [ 1.104307371150988, 51.772779443554633 ] } },
{ "type": "Feature", "properties": { "visible_points": 5, "total_points": 64, "visibility_pct": 7.8125 }, "geometry": { "type": "Point", "coordinates": [ 1.104013978646423, 51.772895127847249 ] } },
{ "type": "Feature", "properties": { "visible_points": 0, "total_points": 65, "visibility_pct": 0.0 }, "geometry": { "type": "Point", "coordinates": [ 1.104214505374674, 51.772889829461171 ] } },
{ "type": "Feature", "properties": { "visible_points": 4, "total_points": 70, "visibility_pct": 5.7142857142857144 }, "geometry": { "type": "Point", "coordinates": [ 1.103921111917765, 51.773005513542699 ] } },
{ "type": "Feature", "properties": { "visible_points": 14, "total_points": 72, "visibility_pct": 19.444444444444446 }, "geometry": { "type": "Point", "coordinates": [ 1.104121639153003, 51.773000215303327 ] } },
{ "type": "Feature", "properties": { "visible_points": 12, "total_points": 79, "visibility_pct": 15.18987341772152 }, "geometry": { "type": "Point", "coordinates": [ 1.104028772485972, 51.7731106010811 ] } },
{ "type": "Feature", "properties": { "visible_points": 13, "total_points": 73, "visibility_pct": 17.80821917808219 }, "geometry": { "type": "Point", "coordinates": [ 1.104630355342953, 51.773094704755117 ] } },
{ "type": "Feature", "properties": { "visible_points": 5, "total_points": 82, "visibility_pct": 6.0975609756097562 }, "geometry": { "type": "Point", "coordinates": [ 1.103935905373576, 51.773220986794513 ] } },
{ "type": "Feature", "properties": { "visible_points": 13, "total_points": 85, "visibility_pct": 15.294117647058824 }, "geometry": { "type": "Point", "coordinates": [ 1.104136433561185, 51.773215688507221 ] } },
{ "type": "Feature", "properties": { "visible_points": 15, "total_points": 79, "visibility_pct": 18.9873417721519 }, "geometry": { "type": "Point", "coordinates": [ 1.104537489751543, 51.773205090908633 ] } },
{ "type": "Feature", "properties": { "visible_points": 8, "total_points": 70, "visibility_pct": 11.428571428571429 }, "geometry": { "type": "Point", "coordinates": [ 1.104738017754289, 51.773199791597371 ] } },
{ "type": "Feature", "properties": { "visible_points": 5, "total_points": 80, "visibility_pct": 6.25 }, "geometry": { "type": "Point", "coordinates": [ 1.103843037815812, 51.773331372443536 ] } },
{ "type": "Feature", "properties": { "visible_points": 8, "total_points": 86, "visibility_pct": 9.3023255813953494 }, "geometry": { "type": "Point", "coordinates": [ 1.104043566510417, 51.773326074302958 ] } },
{ "type": "Feature", "properties": { "visible_points": 16, "total_points": 87, "visibility_pct": 18.390804597701148 }, "geometry": { "type": "Point", "coordinates": [ 1.104244095143404, 51.773320775821055 ] } },
{ "type": "Feature", "properties": { "visible_points": 22, "total_points": 84, "visibility_pct": 26.190476190476193 }, "geometry": { "type": "Point", "coordinates": [ 1.104444623714773, 51.773315476997794 ] } },
{ "type": "Feature", "properties": { "visible_points": 5, "total_points": 77, "visibility_pct": 6.4935064935064926 }, "geometry": { "type": "Point", "coordinates": [ 1.104645152224518, 51.773310177833203 ] } },
{ "type": "Feature", "properties": { "visible_points": 17, "total_points": 86, "visibility_pct": 19.767441860465116 }, "geometry": { "type": "Point", "coordinates": [ 1.103950699014279, 51.773436460034318 ] } },
{ "type": "Feature", "properties": { "visible_points": 18, "total_points": 90, "visibility_pct": 20.0 }, "geometry": { "type": "Point", "coordinates": [ 1.104151228154264, 51.773431161699122 ] } },
{ "type": "Feature", "properties": { "visible_points": 24, "total_points": 88, "visibility_pct": 27.27272727272727 }, "geometry": { "type": "Point", "coordinates": [ 1.104351757232639, 51.773425863022581 ] } },
{ "type": "Feature", "properties": { "visible_points": 21, "total_points": 82, "visibility_pct": 25.609756097560975 }, "geometry": { "type": "Point", "coordinates": [ 1.104552286249382, 51.773420564004702 ] } },
{ "type": "Feature", "properties": { "visible_points": 17, "total_points": 82, "visibility_pct": 20.73170731707317 }, "geometry": { "type": "Point", "coordinates": [ 1.103857831072767, 51.773546845701325 ] } },
{ "type": "Feature", "properties": { "visible_points": 20, "total_points": 89, "visibility_pct": 22.471910112359549 }, "geometry": { "type": "Point", "coordinates": [ 1.104058360719758, 51.773541547512835 ] } },
{ "type": "Feature", "properties": { "visible_points": 22, "total_points": 90, "visibility_pct": 24.444444444444443 }, "geometry": { "type": "Point", "coordinates": [ 1.104258890305129, 51.773536248983 ] } },
{ "type": "Feature", "properties": { "visible_points": 22, "total_points": 87, "visibility_pct": 25.287356321839084 }, "geometry": { "type": "Point", "coordinates": [ 1.104459419828886, 51.773530950111819 ] } },
{ "type": "Feature", "properties": { "visible_points": 21, "total_points": 79, "visibility_pct": 26.582278481012654 }, "geometry": { "type": "Point", "coordinates": [ 1.104659949291012, 51.773525650899316 ] } },
{ "type": "Feature", "properties": { "visible_points": 18, "total_points": 72, "visibility_pct": 25.0 }, "geometry": { "type": "Point", "coordinates": [ 1.103764962685878, 51.773657231303943 ] } },
{ "type": "Feature", "properties": { "visible_points": 22, "total_points": 81, "visibility_pct": 27.160493827160494 }, "geometry": { "type": "Point", "coordinates": [ 1.10396549283987, 51.773651933262165 ] } },
{ "type": "Feature", "properties": { "visible_points": 22, "total_points": 84, "visibility_pct": 26.190476190476193 }, "geometry": { "type": "Point", "coordinates": [ 1.104166022932253, 51.77364663487905 ] } },
{ "type": "Feature", "properties": { "visible_points": 24, "total_points": 84, "visibility_pct": 28.571428571428569 }, "geometry": { "type": "Point", "coordinates": [ 1.104366552963012, 51.773641336154576 ] } },
{ "type": "Feature", "properties": { "visible_points": 23, "total_points": 80, "visibility_pct": 28.75 }, "geometry": { "type": "Point", "coordinates": [ 1.104567082932153, 51.773636037088764 ] } },
{ "type": "Feature", "properties": { "visible_points": 24, "total_points": 72, "visibility_pct": 33.333333333333329 }, "geometry": { "type": "Point", "coordinates": [ 1.10387262451461, 51.773762318947121 ] } },
{ "type": "Feature", "properties": { "visible_points": 23, "total_points": 76, "visibility_pct": 30.263157894736842 }, "geometry": { "type": "Point", "coordinates": [ 1.104073155113997, 51.773757020710725 ] } },
{ "type": "Feature", "properties": { "visible_points": 24, "total_points": 77, "visibility_pct": 31.168831168831169 }, "geometry": { "type": "Point", "coordinates": [ 1.104273685651768, 51.773751722132957 ] } },
{ "type": "Feature", "properties": { "visible_points": 22, "total_points": 77, "visibility_pct": 28.571428571428569 }, "geometry": { "type": "Point", "coordinates": [ 1.104474216127919, 51.773746423213872 ] } },
{ "type": "Feature", "properties": { "visible_points": 19, "total_points": 62, "visibility_pct": 30.64516129032258 }, "geometry": { "type": "Point", "coordinates": [ 1.10377975574396, 51.773872704567701 ] } },
{ "type": "Feature", "properties": { "visible_points": 22, "total_points": 67, "visibility_pct": 32.835820895522389 }, "geometry": { "type": "Point", "coordinates": [ 1.103980286850359, 51.773867406478011 ] } },
{ "type": "Feature", "properties": { "visible_points": 22, "total_points": 70, "visibility_pct": 31.428571428571427 }, "geometry": { "type": "Point", "coordinates": [ 1.104180817895147, 51.773862108046956 ] } },
{ "type": "Feature", "properties": { "visible_points": 15, "total_points": 70, "visibility_pct": 21.428571428571427 }, "geometry": { "type": "Point", "coordinates": [ 1.104381348878309, 51.773856809274577 ] } },
{ "type": "Feature", "properties": { "visible_points": 16, "total_points": 68, "visibility_pct": 23.52941176470588 }, "geometry": { "type": "Point", "coordinates": [ 1.104581879799853, 51.773851510160853 ] } },
{ "type": "Feature", "properties": { "visible_points": 15, "total_points": 52, "visibility_pct": 28.846153846153843 }, "geometry": { "type": "Point", "coordinates": [ 1.103686886527925, 51.773983090123927 ] } },
{ "type": "Feature", "properties": { "visible_points": 21, "total_points": 58, "visibility_pct": 36.206896551724135 }, "geometry": { "type": "Point", "coordinates": [ 1.10388741814134, 51.773977792180936 ] } },
{ "type": "Feature", "properties": { "visible_points": 21, "total_points": 62, "visibility_pct": 33.87096774193548 }, "geometry": { "type": "Point", "coordinates": [ 1.104087949693139, 51.773972493896586 ] } },
{ "type": "Feature", "properties": { "visible_points": 10, "total_points": 63, "visibility_pct": 15.873015873015872 }, "geometry": { "type": "Point", "coordinates": [ 1.104288481183322, 51.77396719527092 ] } },
{ "type": "Feature", "properties": { "visible_points": 9, "total_points": 62, "visibility_pct": 14.516129032258066 }, "geometry": { "type": "Point", "coordinates": [ 1.10448901261188, 51.773961896303902 ] } },
{ "type": "Feature", "properties": { "visible_points": 2, "total_points": 55, "visibility_pct": 3.6363636363636362 }, "geometry": { "type": "Point", "coordinates": [ 1.10439614497853, 51.774072282382583 ] } }
]
}
