{
"type": "FeatureCollection",
"name": "EASCA_52_cycling",
"crs": { "type": "name", "properties": { "name": "urn:ogc:def:crs:OGC:1.3:CRS84" } },
"features": [
{"type":"Feature","properties":{"highway":"cycleway","name":null,"category":"Dedicated cycleway"},"geometry":{"type":"MultiLineString","coordinates":[[[0.2506895,52.3928686],[0.2507289,52.3928086],[0.2508766,52.3927299]]]}},
{"type":"Feature","properties":{"highway":"cycleway","name":null,"category":"Dedicated cycleway"},"geometry":{"type":"MultiLineString","coordinates":[[[0.2508138,52.3936708],[0.2509193,52.3936589],[0.2511247,52.3935448]]]}},
{"type":"Feature","properties":{"highway":"path","name":null,"category":"Shared path"},"geometry":{"type":"MultiLineString","coordinates":[[[0.2422549,52.4006779],[0.242321,52.4006548],[0.2424393,52.4006224],[0.2427634,52.4004997],[0.2428021,52.4004622]]]}},
{"type":"Feature","properties":{"highway":"cycleway","name":null,"category":"Dedicated cycleway"},"geometry":{"type":"MultiLineString","coordinates":[[[0.2528394,52.3938767],[0.2528306,52.393805],[0.2524815,52.3935378],[0.2515619,52.3928542],[0.2505509,52.392176],[0.2500396,52.3918309],[0.2494073,52.3912846],[0.2488469,52.390667],[0.2485926,52.3902027],[0.2484548,52.3897607],[0.2481593,52.3883906],[0.2480087,52.3875599],[0.2479197,52.387179],[0.247842,52.3867309],[0.2478508,52.3866241],[0.2478814,52.3865399],[0.2479205,52.3864574],[0.247977,52.386385],[0.2480695,52.3863057],[0.2481464,52.3862536],[0.2480992,52.3862198],[0.2480304,52.3861649],[0.248003,52.3861188],[0.247973,52.3860699],[0.2479195,52.3860661],[0.2478666,52.3860545],[0.2478162,52.3860229],[0.2477726,52.3859778],[0.2476983,52.385881],[0.2476391,52.3857716],[0.2474182,52.3847422],[0.2473158,52.3842365],[0.2472132,52.3836456],[0.2471387,52.3832393],[0.247063,52.382887],[0.2469301,52.3823566],[0.2467959,52.3818441],[0.2466824,52.3813524],[0.2462257,52.3799525],[0.2460301,52.3793761],[0.2460642,52.379189],[0.2459822,52.3788403],[0.2458742,52.3786682],[0.2458414,52.3784513],[0.245391,52.3761896],[0.2449735,52.3744571],[0.2444807,52.3725493],[0.2439291,52.3706495],[0.2436928,52.3698083],[0.2436024,52.3694822],[0.2433402,52.3685462],[0.2432413,52.3682036],[0.2430704,52.3677838],[0.2429063,52.3676858]]]}},
{"type":"Feature","properties":{"highway":"path","name":null,"category":"Shared path"},"geometry":{"type":"MultiLineString","coordinates":[[[0.2555951,52.3945308],[0.2548019,52.3936787],[0.2544797,52.3933413],[0.2537537,52.3928072],[0.2530435,52.3922743],[0.2527436,52.392137],[0.2526341,52.3920468]]]}},
{"type":"Feature","properties":{"highway":"track","name":null,"category":"Track"},"geometry":{"type":"MultiLineString","coordinates":[[[0.2319306,52.3881826],[0.2319551,52.3882414],[0.2320044,52.3892637],[0.233831,52.3904094],[0.2357654,52.3915538],[0.237376,52.3924615],[0.2383602,52.3931033],[0.2389066,52.3935354],[0.2390019,52.3936108],[0.2391279,52.3937485],[0.240047,52.3944019],[0.240234,52.3945199],[0.2407448,52.3949292],[0.2416022,52.3951715]]]}},
{"type":"Feature","properties":{"highway":"track","name":null,"category":"Track"},"geometry":{"type":"MultiLineString","coordinates":[[[0.2383269,52.3965605],[0.238797,52.3963773],[0.2390568,52.396273],[0.2391356,52.3962458],[0.2395607,52.3961266],[0.2396718,52.3961016],[0.2397996,52.3960776]]]}},
{"type":"Feature","properties":{"highway":"track","name":null,"category":"Track"},"geometry":{"type":"MultiLineString","coordinates":[[[0.2402964,52.3958659],[0.2401676,52.3959104],[0.239912,52.3959748],[0.2398103,52.3959638]]]}},
{"type":"Feature","properties":{"highway":"track","name":null,"category":"Track"},"geometry":{"type":"MultiLineString","coordinates":[[[0.2390568,52.396273],[0.2390518,52.3963693],[0.2390839,52.3964716]]]}},
{"type":"Feature","properties":{"highway":"track","name":null,"category":"Track"},"geometry":{"type":"MultiLineString","coordinates":[[[0.2383269,52.3965605],[0.2381563,52.3966293],[0.2373031,52.3969922],[0.2367584,52.397228]]]}},
{"type":"Feature","properties":{"highway":"track","name":null,"category":"Track"},"geometry":{"type":"MultiLineString","coordinates":[[[0.2418405,52.4003222],[0.2416241,52.4003932],[0.241329,52.4004984],[0.2407765,52.4007104]]]}},
{"type":"Feature","properties":{"highway":"cycleway","name":null,"category":"Dedicated cycleway"},"geometry":{"type":"MultiLineString","coordinates":[[[0.2417016,52.3912867],[0.2417939,52.3913396],[0.241879,52.3913517],[0.2419476,52.3913764],[0.2420957,52.3914788],[0.2423019,52.3916135],[0.2424461,52.3917171],[0.2425631,52.3918074],[0.2425867,52.3918359],[0.2426065,52.3918753],[0.2426057,52.39192],[0.2425919,52.3919498],[0.2425661,52.3919891],[0.2426619,52.3920204],[0.242789,52.3920757],[0.2428297,52.3921045],[0.2429123,52.3920861],[0.243009,52.3920785],[0.2430791,52.3920815],[0.2431772,52.3920863],[0.2432504,52.3920971],[0.2435965,52.3922007],[0.2437928,52.3922793],[0.2440722,52.3924011],[0.2441352,52.392508],[0.244274,52.3925649],[0.2443652,52.3925902],[0.2444685,52.3925972],[0.2447933,52.3926951],[0.2450693,52.3927674],[0.2453062,52.3928182],[0.2456025,52.3929049],[0.2457693,52.3929535],[0.2461178,52.3930376],[0.2464523,52.393114],[0.2468426,52.3932166],[0.2475626,52.3933603],[0.2489462,52.3936337],[0.2491059,52.3936763],[0.2496284,52.3938158],[0.2497784,52.3938559],[0.2498752,52.3939472],[0.2500754,52.3940286],[0.2508606,52.3942844],[0.2511168,52.3943679],[0.2515995,52.3946037],[0.2518154,52.3947],[0.2519555,52.3947528],[0.2524486,52.3948614]]]}},
{"type":"Feature","properties":{"highway":"path","name":null,"category":"Shared path"},"geometry":{"type":"MultiLineString","coordinates":[[[0.2417089,52.4002139],[0.2415091,52.4000789],[0.2413267,52.3998367],[0.2412355,52.3995945],[0.2412516,52.3993785],[0.241214,52.3992639],[0.2411067,52.3991592],[0.2411014,52.3990086],[0.2411872,52.3986977],[0.2413052,52.3986224],[0.241457,52.3985955]]]}},
{"type":"Feature","properties":{"highway":"path","name":null,"category":"Shared path"},"geometry":{"type":"MultiLineString","coordinates":[[[0.2413052,52.3986224],[0.2411604,52.398606],[0.2411872,52.3986977]]]}},
{"type":"Feature","properties":{"highway":"path","name":null,"category":"Shared path"},"geometry":{"type":"MultiLineString","coordinates":[[[0.2411604,52.398606],[0.241037,52.3985144],[0.2406508,52.3983376],[0.2405649,52.3981838],[0.2404791,52.3979972],[0.2404523,52.3978761],[0.2404553,52.3978207]]]}},
{"type":"Feature","properties":{"highway":"path","name":null,"category":"Shared path"},"geometry":{"type":"MultiLineString","coordinates":[[[0.2579564,52.400803],[0.2579256,52.4006591],[0.2582126,52.4005855],[0.2582702,52.4005796]]]}},
{"type":"Feature","properties":{"highway":"path","name":null,"category":"Shared path"},"geometry":{"type":"MultiLineString","coordinates":[[[0.2579256,52.4006591],[0.2579051,52.4005852],[0.2578759,52.4005183]]]}},
{"type":"Feature","properties":{"highway":"path","name":null,"category":"Shared path"},"geometry":{"type":"MultiLineString","coordinates":[[[0.2582702,52.4005796],[0.2579564,52.400803],[0.257942,52.4008391]]]}}
]
}
