{
"type": "FeatureCollection",
"name": "SOUCA_98_cycling",
"crs": { "type": "name", "properties": { "name": "urn:ogc:def:crs:OGC:1.3:CRS84" } },
"features": [
{"type":"Feature","properties":{"highway":"bridleway","name":"Port Way","category":"Bridleway"},"geometry":{"type":"MultiLineString","coordinates":[[[-0.0152273,52.2060915],[-0.0150671,52.2060841],[-0.0118698,52.2060182],[-0.010808,52.2059967],[-0.0106953,52.2060353],[-0.0104499,52.2060353],[-0.0100583,52.2060328],[-0.0096755,52.2059998],[-0.0088599,52.2059367],[-0.0082293,52.2058701],[-0.0079804,52.205845],[-0.0078828,52.2058278],[-0.0075773,52.2057606],[-0.0073203,52.2056778],[-0.0070628,52.2056245],[-0.0065542,52.2055948],[-0.0058398,52.2055879],[-0.0043806,52.2056081],[-0.0040212,52.2055882],[-0.0032809,52.2055195],[-0.0030288,52.2054973],[-0.0024286,52.2055086],[-0.0020686,52.2055041],[-0.0019516,52.2054964],[-0.0018759,52.2054883],[-0.0003619,52.2051808],[0.000045,52.2050982],[0.0001219,52.2050826],[0.0002709,52.2050523],[0.000386,52.2050312],[0.0005083,52.2050088],[0.0006753,52.204933],[0.0016013,52.2047499],[0.0016347,52.2047424],[0.0018783,52.2046877]]]}},
{"type":"Feature","properties":{"highway":"bridleway","name":"Port Way","category":"Bridleway"},"geometry":{"type":"MultiLineString","coordinates":[[[0.0051342,52.204445],[0.0061611,52.2043149],[0.0071745,52.204183],[0.0077885,52.2041217],[0.0084557,52.2040727],[0.0086287,52.2040587],[0.0087505,52.2040629],[0.0088697,52.2040618],[0.008968,52.2040579],[0.0091276,52.2040447],[0.0099349,52.2039806],[0.011724,52.2038163],[0.0118441,52.203805],[0.0123029,52.2037219],[0.0127833,52.2036377],[0.0130678,52.203602],[0.0135829,52.2035854],[0.0150964,52.2035606],[0.0156427,52.203535],[0.0161468,52.2035058],[0.0164071,52.2034917],[0.0167775,52.2034844],[0.0173514,52.2035049],[0.0185931,52.2035774],[0.019824,52.2036273]]]}},
{"type":"Feature","properties":{"highway":"track","name":null,"category":"Track"},"geometry":{"type":"MultiLineString","coordinates":[[[-0.0060824,52.2113773],[0.0006728,52.2100871]]]}},
{"type":"Feature","properties":{"highway":"track","name":null,"category":"Track"},"geometry":{"type":"MultiLineString","coordinates":[[[0.0178749,52.207642],[0.0178119,52.2076942],[0.0177389,52.2077223],[0.0151133,52.2080252],[0.0139581,52.2081301],[0.0138137,52.2081137],[0.0137656,52.2080449],[0.0135439,52.2076294],[0.0130975,52.2066767],[0.0125331,52.2054243],[0.0118575,52.2038364]]]}},
{"type":"Feature","properties":{"highway":"track","name":null,"category":"Track"},"geometry":{"type":"MultiLineString","coordinates":[[[0.0135439,52.2076294],[0.0128007,52.2077255],[0.0122132,52.2078231],[0.0114334,52.2079644],[0.0113208,52.2079813],[0.0111671,52.2079729],[0.0109886,52.2079072],[0.0108761,52.2079039],[0.0107882,52.2079291],[0.0102693,52.208062],[0.0100002,52.2081697],[0.0097092,52.2082925],[0.0095953,52.2083346]]]}},
{"type":"Feature","properties":{"highway":"bridleway","name":"Port Way","category":"Bridleway"},"geometry":{"type":"MultiLineString","coordinates":[[[0.0023733,52.2045713],[0.0039174,52.2042347],[0.0039777,52.2042216],[0.0043542,52.2041436],[0.0045928,52.2040921]]]}},
{"type":"Feature","properties":{"highway":"track","name":null,"category":"Track"},"geometry":{"type":"MultiLineString","coordinates":[[[0.0088697,52.2040618],[0.0088512,52.2040226],[0.0087239,52.2036099],[0.0085562,52.2031472],[0.0084959,52.202945],[0.0084892,52.2023803],[0.0084905,52.2014852],[0.0084852,52.2007718]]]}},
{"type":"Feature","properties":{"highway":"path","name":null,"category":"Shared path"},"geometry":{"type":"MultiLineString","coordinates":[[[0.0002387,52.2054674],[0.0003219,52.2054205],[0.0004627,52.205266]]]}},
{"type":"Feature","properties":{"highway":"path","name":null,"category":"Shared path"},"geometry":{"type":"MultiLineString","coordinates":[[[0.0006646,52.2069208],[0.0007088,52.2068859],[0.0007651,52.2068526],[0.0008375,52.2068247],[0.0008073,52.2067672],[0.0007906,52.2067026],[0.0008664,52.2066805],[0.0009964,52.2066607],[0.0010166,52.2066172],[0.0009609,52.2065015],[0.0009689,52.2064397],[0.0009676,52.2063961],[0.0009401,52.2063287],[0.0008878,52.2062556],[0.0008918,52.2062186],[0.0008114,52.2061298],[0.0007457,52.2059893],[0.0007416,52.205963],[0.0006142,52.2058791],[0.0003956,52.2055972],[0.0002991,52.2055833],[0.0002454,52.2055759],[0.0002387,52.2054674],[0.0001998,52.2053803],[0.0001261,52.2052882],[0.000118,52.2052093],[0.000058,52.2051249]]]}},
{"type":"Feature","properties":{"highway":"track","name":null,"category":"Track"},"geometry":{"type":"MultiLineString","coordinates":[[[0.0118575,52.2038364],[0.0118441,52.203805]]]}},
{"type":"Feature","properties":{"highway":"path","name":null,"category":"Shared path"},"geometry":{"type":"MultiLineString","coordinates":[[[0.0018927,52.204684],[0.0019087,52.2047482],[0.0019355,52.2047776],[0.0019721,52.2047992],[0.0020227,52.2048138],[0.002127,52.2048518],[0.002193,52.2048819],[0.0022658,52.2049025]]]}},
{"type":"Feature","properties":{"highway":"track","name":null,"category":"Track"},"geometry":{"type":"MultiLineString","coordinates":[[[0.0027873,52.2033081],[0.0026688,52.2033987],[0.0025132,52.2034924],[0.0023013,52.2035171],[0.0013009,52.2035549],[-0.0003245,52.203637],[-0.0007886,52.2036453],[-0.0009415,52.203665],[-0.0010219,52.2037406],[-0.0009683,52.2037916],[-0.0007269,52.2040168],[-0.000279,52.2045378],[0.0001475,52.205003],[0.0001219,52.2050826]]]}},
{"type":"Feature","properties":{"highway":"track","name":null,"category":"Track"},"geometry":{"type":"MultiLineString","coordinates":[[[0.0037211,52.203428],[0.0034788,52.203448],[0.0033288,52.2034558],[0.0032562,52.2034595],[0.0030577,52.2034283],[0.0028512,52.2033592],[0.0027873,52.2033081],[0.0026768,52.2032195],[0.0026178,52.2031505]]]}},
{"type":"Feature","properties":{"highway":"track","name":null,"category":"Track"},"geometry":{"type":"MultiLineString","coordinates":[[[-0.0003619,52.2051808],[-0.0002159,52.2054156],[0.0000778,52.205926],[0.0005069,52.2066648],[0.0006646,52.2069208],[0.0008208,52.2071744],[0.0009991,52.2074957]]]}},
{"type":"Feature","properties":{"highway":"bridleway","name":"Port Way","category":"Bridleway"},"geometry":{"type":"MultiLineString","coordinates":[[[0.0018783,52.2046877],[0.0018927,52.204684],[0.0023733,52.2045713]]]}},
{"type":"Feature","properties":{"highway":"path","name":null,"category":"Shared path"},"geometry":{"type":"MultiLineString","coordinates":[[[0.000058,52.2051249],[0.000045,52.2050982]]]}},
{"type":"Feature","properties":{"highway":"track","name":null,"category":"Track"},"geometry":{"type":"MultiLineString","coordinates":[[[0.000386,52.2050312],[0.0004006,52.2050504],[0.0004466,52.2050565],[0.0004801,52.2050778],[0.0004989,52.205091],[0.0005177,52.2051378],[0.0005539,52.2052077],[0.0006665,52.2052595],[0.0008798,52.20528],[0.0010568,52.2052718],[0.0012566,52.2052504],[0.0014175,52.2052422]]]}}
]
}
