{
"type": "FeatureCollection",
"name": "SOUCA_796_cycling",
"crs": { "type": "name", "properties": { "name": "urn:ogc:def:crs:OGC:1.3:CRS84" } },
"features": [
{"type":"Feature","properties":{"highway":"cycleway","name":null,"category":"Dedicated cycleway"},"geometry":{"type":"MultiLineString","coordinates":[[[0.1484209,52.1421246],[0.1482848,52.1423856],[0.14826,52.1424361],[0.1481394,52.1427365],[0.1480936,52.1429576],[0.1480495,52.1431276],[0.1479242,52.1432618],[0.1477477,52.1433839]]]}},
{"type":"Feature","properties":{"highway":"cycleway","name":null,"category":"Dedicated cycleway"},"geometry":{"type":"MultiLineString","coordinates":[[[0.1485218,52.1419631],[0.1484209,52.1421246]]]}},
{"type":"Feature","properties":{"highway":"cycleway","name":null,"category":"Dedicated cycleway"},"geometry":{"type":"MultiLineString","coordinates":[[[0.167689,52.1264737],[0.1677077,52.1264952],[0.1677175,52.1265197],[0.1677316,52.1265791],[0.1677047,52.1266754],[0.1676281,52.1268838],[0.1675522,52.1270493],[0.1673625,52.1273846],[0.167235,52.1275965],[0.1671021,52.1278068],[0.166988,52.1279771],[0.1669463,52.12804],[0.1669452,52.1280422],[0.1668387,52.1281665],[0.1667269,52.1282851],[0.1665898,52.1284422],[0.1664446,52.1285911],[0.1660905,52.1289248],[0.1657012,52.1292405],[0.1655478,52.1293275],[0.1651771,52.1295475],[0.1651588,52.1295584],[0.1641321,52.1301545],[0.1631887,52.1306694],[0.1630946,52.1307144],[0.1623314,52.1311211],[0.1618936,52.1313761],[0.1610238,52.1318563],[0.1594217,52.1327647],[0.1576091,52.1337873],[0.1569,52.1341822],[0.1565387,52.1343813],[0.1562029,52.1345688],[0.1558553,52.1347618],[0.1555144,52.1349548],[0.1552176,52.1351201],[0.1551221,52.1351724],[0.1550131,52.1352132],[0.154816,52.1352555],[0.1546584,52.1352813],[0.154447,52.1352861],[0.1542061,52.1352573],[0.1539028,52.135194],[0.1538725,52.1352493],[0.1538417,52.1353146],[0.1536989,52.1353584],[0.1536532,52.1354027],[0.1536407,52.1354231],[0.1535488,52.1354047],[0.1535014,52.1354327],[0.1534571,52.1354587],[0.15336,52.1354366],[0.1532362,52.1356605],[0.1530773,52.1359118],[0.1527905,52.1363422],[0.1525303,52.1366901],[0.1522403,52.1370345],[0.1519075,52.1373908],[0.1510832,52.1383494],[0.1509095,52.1383916],[0.1508162,52.1384287],[0.150683,52.1385286],[0.1506058,52.1386192],[0.1505723,52.1386719],[0.1505776,52.1387555],[0.1505479,52.1388291],[0.1502,52.1391299],[0.1500078,52.1393279],[0.1497159,52.1397171],[0.1494625,52.1400291],[0.1492266,52.1406736]]]}},
{"type":"Feature","properties":{"highway":"cycleway","name":null,"category":"Dedicated cycleway"},"geometry":{"type":"MultiLineString","coordinates":[[[0.1492266,52.1406736],[0.1491751,52.1409311],[0.1490393,52.1412694],[0.1487353,52.1417393],[0.1485349,52.1419493],[0.1485218,52.1419631]]]}},
{"type":"Feature","properties":{"highway":"track","name":null,"category":"Track"},"geometry":{"type":"MultiLineString","coordinates":[[[0.1315922,52.1332312],[0.1380763,52.1351531]]]}},
{"type":"Feature","properties":{"highway":"track","name":null,"category":"Track"},"geometry":{"type":"MultiLineString","coordinates":[[[0.142252,52.1345142],[0.1421992,52.1343487]]]}},
{"type":"Feature","properties":{"highway":"track","name":null,"category":"Track"},"geometry":{"type":"MultiLineString","coordinates":[[[0.1422997,52.1346335],[0.142252,52.1345142]]]}},
{"type":"Feature","properties":{"highway":"path","name":null,"category":"Shared path"},"geometry":{"type":"MultiLineString","coordinates":[[[0.1484579,52.1451656],[0.1483811,52.145092],[0.1484033,52.1450809],[0.148228,52.1448979],[0.1479431,52.1449066],[0.147542,52.1449403],[0.1473757,52.1447682],[0.1469901,52.1447688]]]}},
{"type":"Feature","properties":{"highway":"track","name":null,"category":"Track"},"geometry":{"type":"MultiLineString","coordinates":[[[0.1435012,52.135328],[0.1430865,52.1357765]]]}},
{"type":"Feature","properties":{"highway":"track","name":null,"category":"Track"},"geometry":{"type":"MultiLineString","coordinates":[[[0.1457177,52.1323883],[0.1457664,52.1323661],[0.1459058,52.1319216],[0.1459246,52.1317092],[0.1459139,52.1313848],[0.1458522,52.1309156],[0.1458227,52.1307493],[0.1457449,52.1305286],[0.1456752,52.1303064],[0.145651,52.1301763],[0.145643,52.1299705],[0.1456644,52.1297597],[0.1456564,52.1296296],[0.1456564,52.1295753],[0.1456028,52.1294255],[0.1455142,52.1292328],[0.1454338,52.1291307],[0.1453131,52.129022],[0.1451897,52.1289298],[0.1449966,52.1288228],[0.1447793,52.1286713],[0.1446184,52.128533],[0.1445352,52.1284589],[0.1444816,52.1283947],[0.1444253,52.1282844],[0.1444226,52.1281905]]]}},
{"type":"Feature","properties":{"highway":"path","name":null,"category":"Shared path"},"geometry":{"type":"MultiLineString","coordinates":[[[0.1476674,52.1388149],[0.1473003,52.1388406],[0.1465095,52.1388294],[0.1464496,52.1390651],[0.1461169,52.1393022],[0.145664,52.139556],[0.14503,52.1396889],[0.1442069,52.1397711],[0.1431829,52.1397856],[0.1420054,52.1397373],[0.141714,52.1396309],[0.1414501,52.1394037],[0.1413281,52.1391209],[0.1413596,52.1388526],[0.1414423,52.1386859],[0.1417849,52.138258],[0.1420094,52.1380018],[0.1422299,52.1377094],[0.1423914,52.137545],[0.1427773,52.1372259],[0.1431239,52.1367788],[0.1432656,52.1366797],[0.1436476,52.1365878],[0.1442738,52.1365395],[0.1451796,52.1366096],[0.1453571,52.1366472],[0.1457034,52.1367207],[0.1461563,52.1369044],[0.146365,52.137093],[0.1479831,52.1383482]]]}},
{"type":"Feature","properties":{"highway":"path","name":null,"category":"Shared path"},"geometry":{"type":"MultiLineString","coordinates":[[[0.146365,52.137093],[0.1464486,52.1373635],[0.1464448,52.1376206],[0.1464089,52.1382943],[0.1465095,52.1388294]]]}},
{"type":"Feature","properties":{"highway":"path","name":null,"category":"Shared path"},"geometry":{"type":"MultiLineString","coordinates":[[[0.1459345,52.1358792],[0.1457456,52.1361098],[0.1456163,52.1362024],[0.1455492,52.1363833],[0.1453571,52.1366472]]]}},
{"type":"Feature","properties":{"highway":"path","name":null,"category":"Shared path"},"geometry":{"type":"MultiLineString","coordinates":[[[0.1447652,52.1424936],[0.1446567,52.1424048],[0.1445865,52.1424009],[0.1445055,52.1424255],[0.1442663,52.1425504],[0.1439371,52.142646],[0.1435595,52.1427995],[0.143404,52.1428027],[0.143328,52.142791],[0.1432519,52.1427573],[0.143202,52.1426837],[0.1431122,52.1426556],[0.1430695,52.1426443]]]}},
{"type":"Feature","properties":{"highway":"path","name":null,"category":"Shared path"},"geometry":{"type":"MultiLineString","coordinates":[[[0.1429481,52.1426123],[0.1426845,52.1425008]]]}},
{"type":"Feature","properties":{"highway":"path","name":null,"category":"Shared path"},"geometry":{"type":"MultiLineString","coordinates":[[[0.1430695,52.1426443],[0.1429481,52.1426123]]]}},
{"type":"Feature","properties":{"highway":"track","name":null,"category":"Track"},"geometry":{"type":"MultiLineString","coordinates":[[[0.1429831,52.1350915],[0.1429424,52.1350655],[0.1426181,52.1348591],[0.1424108,52.1347094],[0.1422997,52.1346335]]]}},
{"type":"Feature","properties":{"highway":"path","name":null,"category":"Shared path"},"geometry":{"type":"MultiLineString","coordinates":[[[0.1498469,52.145033],[0.1498366,52.1450871],[0.1498393,52.1451121]]]}},
{"type":"Feature","properties":{"highway":"track","name":null,"category":"Track"},"geometry":{"type":"MultiLineString","coordinates":[[[0.1313038,52.1372302],[0.1328848,52.1376772],[0.1328909,52.1377294],[0.1328241,52.1378411],[0.1328696,52.1378802],[0.1342079,52.1382807],[0.1342473,52.1383216],[0.1341017,52.1385042],[0.1337011,52.1390182],[0.1331974,52.1396459],[0.1331882,52.1397427],[0.1334158,52.1398377],[0.1345629,52.1402567]]]}},
{"type":"Feature","properties":{"highway":"track","name":null,"category":"Track"},"geometry":{"type":"MultiLineString","coordinates":[[[0.1339869,52.1316098],[0.1341386,52.1316752],[0.1346259,52.1318272],[0.13569,52.1321577],[0.1366674,52.1324569],[0.1369608,52.1325493],[0.1368947,52.1326419]]]}},
{"type":"Feature","properties":{"highway":"track","name":null,"category":"Track"},"geometry":{"type":"MultiLineString","coordinates":[[[0.1477221,52.1434507],[0.1477968,52.1434988],[0.147883,52.1435769],[0.1480196,52.1436905],[0.1481076,52.1437902],[0.1482047,52.1438637],[0.1483801,52.1439629],[0.148411,52.1439764]]]}},
{"type":"Feature","properties":{"highway":"cycleway","name":null,"category":"Dedicated cycleway"},"geometry":{"type":"MultiLineString","coordinates":[[[0.1476811,52.1434199],[0.1473546,52.1436099],[0.1473292,52.1436108]]]}},
{"type":"Feature","properties":{"highway":"track","name":null,"category":"Track"},"geometry":{"type":"MultiLineString","coordinates":[[[0.1484118,52.1424854],[0.14826,52.1424361],[0.1479674,52.1423605],[0.1476586,52.1422916],[0.1474494,52.1422681],[0.1473473,52.1422556],[0.1473167,52.1422055],[0.1473295,52.1421162],[0.1474213,52.1420786],[0.1475642,52.1420802],[0.1476714,52.1421506],[0.1476765,52.1422086],[0.1476586,52.1422916]]]}},
{"type":"Feature","properties":{"highway":"track","name":null,"category":"Track"},"geometry":{"type":"MultiLineString","coordinates":[[[0.149632,52.1390866],[0.1494961,52.139199],[0.1491533,52.1396021],[0.1488682,52.1399343],[0.1486047,52.1402643],[0.1485542,52.1403574],[0.1485037,52.1409399],[0.1484532,52.1409642],[0.1483197,52.1409974],[0.1471179,52.1412344],[0.1467643,52.1413053],[0.1465838,52.1414404],[0.1464395,52.1414625],[0.1462988,52.1414692],[0.1458008,52.1415755],[0.1453279,52.1416573],[0.1445551,52.1418344],[0.1438692,52.1419915],[0.1436426,52.142055],[0.1430718,52.1422636],[0.1429174,52.1423506],[0.1426845,52.1425008]]]}},
{"type":"Feature","properties":{"highway":"track","name":null,"category":"Track"},"geometry":{"type":"MultiLineString","coordinates":[[[0.1402287,52.1488359],[0.1402566,52.1487142],[0.1402617,52.148615],[0.1402718,52.1485302],[0.1403125,52.1482271]]]}},
{"type":"Feature","properties":{"highway":"path","name":null,"category":"Shared path"},"geometry":{"type":"MultiLineString","coordinates":[[[0.15336,52.1354366],[0.1534864,52.1352062],[0.153533,52.1351216],[0.1536183,52.1349607],[0.153657,52.1348958],[0.1537887,52.1348297]]]}},
{"type":"Feature","properties":{"highway":"path","name":null,"category":"Shared path"},"geometry":{"type":"MultiLineString","coordinates":[[[0.1536172,52.1352096],[0.1535358,52.1351959],[0.1534864,52.1352062]]]}},
{"type":"Feature","properties":{"highway":"cycleway","name":null,"category":"Dedicated cycleway"},"geometry":{"type":"MultiLineString","coordinates":[[[0.1477477,52.1433839],[0.1476811,52.1434199]]]}},
{"type":"Feature","properties":{"highway":"cycleway","name":null,"category":"Dedicated cycleway"},"geometry":{"type":"MultiLineString","coordinates":[[[0.1473292,52.1436108],[0.1472831,52.1437064]]]}},
{"type":"Feature","properties":{"highway":"cycleway","name":null,"category":"Dedicated cycleway"},"geometry":{"type":"MultiLineString","coordinates":[[[0.1481149,52.1431418],[0.1480495,52.1431276]]]}},
{"type":"Feature","properties":{"highway":"path","name":null,"category":"Shared path"},"geometry":{"type":"MultiLineString","coordinates":[[[0.1481514,52.1418996],[0.1482438,52.1419147],[0.1483278,52.1419053],[0.1484179,52.1419147],[0.1484673,52.1419293]]]}},
{"type":"Feature","properties":{"highway":"path","name":null,"category":"Shared path"},"geometry":{"type":"MultiLineString","coordinates":[[[0.1446667,52.1339715],[0.1446266,52.1340026]]]}},
{"type":"Feature","properties":{"highway":"path","name":null,"category":"Shared path"},"geometry":{"type":"MultiLineString","coordinates":[[[0.1450164,52.13404],[0.1449667,52.134057]]]}},
{"type":"Feature","properties":{"highway":"track","name":"Kart track","category":"Track"},"geometry":{"type":"MultiLineString","coordinates":[[[0.1451658,52.1334442],[0.1451948,52.1334456],[0.1452242,52.133447],[0.1453153,52.1333954],[0.1453783,52.1333438],[0.1453947,52.1332951],[0.1454951,52.1332607],[0.1455955,52.133222],[0.1456842,52.1331532],[0.1457519,52.1330858],[0.1457986,52.1330385],[0.1457753,52.133017],[0.1457332,52.1330127],[0.1456562,52.1330256],[0.1455674,52.1330858],[0.145467,52.1331589],[0.145369,52.1332163],[0.145355,52.1332707],[0.1453293,52.1333123],[0.1452569,52.1333367],[0.1452452,52.1333639],[0.1452289,52.133394],[0.1451612,52.1334112],[0.1451658,52.1334442]]]}},
{"type":"Feature","properties":{"highway":"path","name":null,"category":"Shared path"},"geometry":{"type":"MultiLineString","coordinates":[[[0.1351918,52.1461164],[0.1351798,52.1459433],[0.1351744,52.1455343],[0.1351462,52.1452347],[0.13511,52.1448734]]]}},
{"type":"Feature","properties":{"highway":"track","name":null,"category":"Track"},"geometry":{"type":"MultiLineString","coordinates":[[[0.1549954,52.1353818],[0.1549811,52.1355056],[0.1549914,52.1355992]]]}},
{"type":"Feature","properties":{"highway":"track","name":null,"category":"Track"},"geometry":{"type":"MultiLineString","coordinates":[[[0.1424108,52.1347094],[0.1432531,52.1343961],[0.1433819,52.1343319],[0.1435428,52.1341525],[0.144149,52.1335713],[0.1449617,52.132916],[0.145675,52.1324192]]]}},
{"type":"Feature","properties":{"highway":"track","name":null,"category":"Track"},"geometry":{"type":"MultiLineString","coordinates":[[[0.145675,52.1324192],[0.1457177,52.1323883]]]}}
]
}
