{
"type": "FeatureCollection",
"name": "SOUCA_282_cycling",
"crs": { "type": "name", "properties": { "name": "urn:ogc:def:crs:OGC:1.3:CRS84" } },
"features": [
{"type":"Feature","properties":{"highway":"track","name":null,"category":"Track"},"geometry":{"type":"MultiLineString","coordinates":[[[0.2160284,52.3124453],[0.2158873,52.3125821],[0.2158229,52.3127034],[0.21578,52.3128313],[0.2157999,52.3129883],[0.2158214,52.3132014],[0.2157198,52.313357],[0.215361,52.3135634],[0.2151286,52.3137255],[0.214971,52.3138693],[0.2146037,52.3143919],[0.2144106,52.3145099],[0.2141316,52.3146411],[0.2140029,52.314746],[0.2140029,52.3148379],[0.2150184,52.3177722]]]}},
{"type":"Feature","properties":{"highway":"track","name":null,"category":"Track"},"geometry":{"type":"MultiLineString","coordinates":[[[0.2160284,52.3124453],[0.2166361,52.3123659],[0.2169471,52.3120266],[0.2171667,52.3119147],[0.2175976,52.3117519],[0.2177643,52.3116413],[0.2180286,52.3113729],[0.2182928,52.3111989],[0.2185977,52.3109355],[0.2188071,52.310805],[0.2190063,52.3107304],[0.2190922,52.3106842],[0.2191425,52.3106931],[0.2198031,52.3104607],[0.2211328,52.3100097],[0.2219547,52.3097339],[0.2229705,52.309393],[0.224229,52.3088799],[0.2243801,52.3088577],[0.2245248,52.3088856],[0.2246125,52.308962],[0.2248806,52.3094377],[0.2252151,52.3100421],[0.2254323,52.3104479]]]}},
{"type":"Feature","properties":{"highway":"track","name":null,"category":"Track"},"geometry":{"type":"MultiLineString","coordinates":[[[0.2160284,52.3124453],[0.2161662,52.3124804],[0.2162878,52.3125357],[0.2165077,52.3125291],[0.2167295,52.3124903],[0.216987,52.3124706],[0.2215468,52.3128937],[0.2217005,52.3129391],[0.2217916,52.3130112],[0.2218096,52.3131331],[0.2214013,52.314644],[0.2213034,52.3150907]]]}},
{"type":"Feature","properties":{"highway":"track","name":null,"category":"Track"},"geometry":{"type":"MultiLineString","coordinates":[[[0.2075439,52.3048755],[0.2071121,52.3043982],[0.206691,52.304331],[0.2064979,52.3041424],[0.2055618,52.3028992],[0.2054464,52.3025744],[0.2039103,52.3018431],[0.2022043,52.3009328],[0.2017691,52.30058],[0.2006211,52.3000108],[0.1986122,52.2987642],[0.1979986,52.2986971]]]}},
{"type":"Feature","properties":{"highway":"track","name":null,"category":"Track"},"geometry":{"type":"MultiLineString","coordinates":[[[0.2002194,52.3064832],[0.2004576,52.3064023],[0.2042755,52.3051207],[0.2046349,52.3050583],[0.2050761,52.3051069],[0.2066318,52.3054511],[0.2075439,52.3048755],[0.2087829,52.3040572],[0.2091517,52.3037135],[0.209314,52.3036243],[0.2095916,52.3035954],[0.2110132,52.3037364],[0.2118674,52.3039392],[0.2120056,52.3040317],[0.2120606,52.3041655],[0.2118125,52.3056586],[0.212212,52.3064616],[0.212259,52.3068451],[0.2122483,52.3077143],[0.2119425,52.3103251],[0.2107123,52.3111793]]]}},
{"type":"Feature","properties":{"highway":"track","name":null,"category":"Track"},"geometry":{"type":"MultiLineString","coordinates":[[[0.2054469,52.3111729],[0.2053929,52.3111943],[0.2052827,52.311225],[0.2051971,52.311232],[0.205103,52.3111758]]]}},
{"type":"Feature","properties":{"highway":"track","name":null,"category":"Track"},"geometry":{"type":"MultiLineString","coordinates":[[[0.2149489,52.3122076],[0.214806,52.3123192],[0.2143903,52.3125086]]]}},
{"type":"Feature","properties":{"highway":"track","name":null,"category":"Track"},"geometry":{"type":"MultiLineString","coordinates":[[[0.212212,52.3064616],[0.2126761,52.3064711],[0.2175186,52.3060191]]]}}
]
}
