{
"type": "FeatureCollection",
"name": "SOUTH_51_walking",
"crs": { "type": "name", "properties": { "name": "urn:ogc:def:crs:OGC:1.3:CRS84" } },
"features": [
{"type":"Feature","properties":{"highway":"footway","name":null,"category":"Footpath (pedestrian only)"},"geometry":{"type":"MultiLineString","coordinates":[[[0.7053907,51.5526482],[0.7059695,51.5534012],[0.7055628,51.5535254]]]}},
{"type":"Feature","properties":{"highway":"footway","name":null,"category":"Footpath (pedestrian only)"},"geometry":{"type":"MultiLineString","coordinates":[[[0.7065018,51.5529889],[0.7063203,51.5531368],[0.7061754,51.5530767],[0.7062613,51.5530067]]]}},
{"type":"Feature","properties":{"highway":"footway","name":null,"category":"Footpath (pedestrian only)"},"geometry":{"type":"MultiLineString","coordinates":[[[0.7048911,51.5538979],[0.7051617,51.5539003]]]}},
{"type":"Feature","properties":{"highway":"footway","name":null,"category":"Footpath (pedestrian only)"},"geometry":{"type":"MultiLineString","coordinates":[[[0.7039575,51.5537332],[0.7035463,51.553747]]]}},
{"type":"Feature","properties":{"highway":"footway","name":null,"category":"Footpath (pedestrian only)"},"geometry":{"type":"MultiLineString","coordinates":[[[0.7055036,51.5548894],[0.7049017,51.5548739],[0.7047944,51.554467],[0.7049124,51.5543869],[0.7054769,51.5543877]]]}},
{"type":"Feature","properties":{"highway":"footway","name":null,"category":"Footpath (pedestrian only)"},"geometry":{"type":"MultiLineString","coordinates":[[[0.7076204,51.5533015],[0.7071448,51.5535914]]]}},
{"type":"Feature","properties":{"highway":"footway","name":null,"category":"Footpath (pedestrian only)"},"geometry":{"type":"MultiLineString","coordinates":[[[0.7061024,51.5486828],[0.7061928,51.5486344],[0.7067421,51.5483877],[0.7069037,51.5481078]]]}},
{"type":"Feature","properties":{"highway":"footway","name":null,"category":"Footpath (pedestrian only)"},"geometry":{"type":"MultiLineString","coordinates":[[[0.7071448,51.5535914],[0.7070589,51.553605]]]}},
{"type":"Feature","properties":{"highway":"footway","name":null,"category":"Footpath (pedestrian only)"},"geometry":{"type":"MultiLineString","coordinates":[[[0.7070589,51.553605],[0.7063808,51.5536077]]]}},
{"type":"Feature","properties":{"highway":"footway","name":null,"category":"Footpath (pedestrian only)"},"geometry":{"type":"MultiLineString","coordinates":[[[0.705524,51.5525591],[0.7053907,51.5526482]]]}},
{"type":"Feature","properties":{"highway":"footway","name":null,"category":"Footpath (pedestrian only)"},"geometry":{"type":"MultiLineString","coordinates":[[[0.705524,51.5525591],[0.7051163,51.5520721]]]}},
{"type":"Feature","properties":{"highway":"footway","name":null,"category":"Footpath (pedestrian only)"},"geometry":{"type":"MultiLineString","coordinates":[[[0.7063808,51.5536077],[0.7062385,51.5536547]]]}},
{"type":"Feature","properties":{"highway":"footway","name":null,"category":"Footpath (pedestrian only)"},"geometry":{"type":"MultiLineString","coordinates":[[[0.7061208,51.5536572],[0.7057931,51.5536983],[0.7055628,51.5535254],[0.7050457,51.5534321]]]}},
{"type":"Feature","properties":{"highway":"footway","name":null,"category":"Footpath (pedestrian only)"},"geometry":{"type":"MultiLineString","coordinates":[[[0.7059695,51.5534012],[0.7061208,51.5536572]]]}},
{"type":"Feature","properties":{"highway":"footway","name":null,"category":"Footpath (pedestrian only)"},"geometry":{"type":"MultiLineString","coordinates":[[[0.7074465,51.5460426],[0.7075538,51.5460826],[0.7078694,51.5457014]]]}},
{"type":"Feature","properties":{"highway":"footway","name":null,"category":"Footpath (pedestrian only)"},"geometry":{"type":"MultiLineString","coordinates":[[[0.7066997,51.5480357],[0.7066743,51.5480867],[0.7066632,51.5481089],[0.7066032,51.5482291],[0.7065441,51.5482274],[0.706351,51.5482691],[0.7061043,51.5483809],[0.7059889,51.5484376],[0.7059299,51.5484676],[0.7058354,51.5484806],[0.7057336,51.5485302]]]}},
{"type":"Feature","properties":{"highway":"footway","name":null,"category":"Footpath (pedestrian only)"},"geometry":{"type":"MultiLineString","coordinates":[[[0.7061043,51.5483809],[0.7060855,51.5484276],[0.7060506,51.5484776],[0.7059836,51.5485427],[0.705949,51.54858]]]}},
{"type":"Feature","properties":{"highway":"footway","name":null,"category":"Footpath (pedestrian only)"},"geometry":{"type":"MultiLineString","coordinates":[[[0.7066032,51.5482291],[0.7066353,51.5482758],[0.70663,51.5483042],[0.7066192,51.5483542],[0.706571,51.5483892],[0.7063001,51.548521],[0.7062223,51.5485694],[0.7061408,51.5486245]]]}},
{"type":"Feature","properties":{"highway":"footway","name":null,"category":"Footpath (pedestrian only)"},"geometry":{"type":"MultiLineString","coordinates":[[[0.7061043,51.5483809],[0.7059675,51.5482808]]]}},
{"type":"Feature","properties":{"highway":"footway","name":null,"category":"Footpath (pedestrian only)"},"geometry":{"type":"MultiLineString","coordinates":[[[0.7057448,51.548104],[0.7059675,51.5482808]]]}},
{"type":"Feature","properties":{"highway":"footway","name":null,"category":"Footpath (pedestrian only)"},"geometry":{"type":"MultiLineString","coordinates":[[[0.7075734,51.5467757],[0.707464,51.5469543]]]}},
{"type":"Feature","properties":{"highway":"footway","name":null,"category":"Footpath (pedestrian only)"},"geometry":{"type":"MultiLineString","coordinates":[[[0.707464,51.5469543],[0.7072138,51.5472828],[0.7071929,51.5473132]]]}},
{"type":"Feature","properties":{"highway":"footway","name":null,"category":"Footpath (pedestrian only)"},"geometry":{"type":"MultiLineString","coordinates":[[[0.7072138,51.5472828],[0.7071476,51.547265]]]}},
{"type":"Feature","properties":{"highway":"footway","name":null,"category":"Footpath (pedestrian only)"},"geometry":{"type":"MultiLineString","coordinates":[[[0.7071929,51.5473132],[0.7070402,51.547529],[0.7070166,51.547599],[0.7070038,51.5476783],[0.7069597,51.5477514],[0.7068953,51.5478107],[0.7066997,51.5480357]]]}},
{"type":"Feature","properties":{"highway":"footway","name":null,"category":"Footpath (pedestrian only)"},"geometry":{"type":"MultiLineString","coordinates":[[[0.7075538,51.5460826],[0.707668,51.5461958],[0.7075221,51.5464745]]]}},
{"type":"Feature","properties":{"highway":"footway","name":null,"category":"Footpath (pedestrian only)"},"geometry":{"type":"MultiLineString","coordinates":[[[0.7075221,51.5464745],[0.7074769,51.5465782],[0.7072952,51.5466291]]]}},
{"type":"Feature","properties":{"highway":"footway","name":null,"category":"Footpath (pedestrian only)"},"geometry":{"type":"MultiLineString","coordinates":[[[0.7074769,51.5465782],[0.7074943,51.5466441]]]}},
{"type":"Feature","properties":{"highway":"footway","name":null,"category":"Footpath (pedestrian only)"},"geometry":{"type":"MultiLineString","coordinates":[[[0.7074943,51.5466441],[0.7075392,51.5467021],[0.7075734,51.5467757]]]}},
{"type":"Feature","properties":{"highway":"footway","name":null,"category":"Footpath (pedestrian only)"},"geometry":{"type":"MultiLineString","coordinates":[[[0.7073205,51.5460027],[0.7074465,51.5460426]]]}},
{"type":"Feature","properties":{"highway":"footway","name":null,"category":"Footpath (pedestrian only)"},"geometry":{"type":"MultiLineString","coordinates":[[[0.7056736,51.548066],[0.7057448,51.548104]]]}},
{"type":"Feature","properties":{"highway":"footway","name":null,"category":"Footpath (pedestrian only)"},"geometry":{"type":"MultiLineString","coordinates":[[[0.7064356,51.5478903],[0.7066928,51.5475139],[0.7067528,51.5474867]]]}},
{"type":"Feature","properties":{"highway":"footway","name":null,"category":"Footpath (pedestrian only)"},"geometry":{"type":"MultiLineString","coordinates":[[[0.7067528,51.5474867],[0.7067903,51.5474949]]]}},
{"type":"Feature","properties":{"highway":"footway","name":null,"category":"Footpath (pedestrian only)"},"geometry":{"type":"MultiLineString","coordinates":[[[0.7070402,51.547529],[0.7069927,51.547503]]]}},
{"type":"Feature","properties":{"highway":"footway","name":null,"category":"Footpath (pedestrian only)"},"geometry":{"type":"MultiLineString","coordinates":[[[0.7066164,51.5480595],[0.7066743,51.5480867]]]}},
{"type":"Feature","properties":{"highway":"footway","name":null,"category":"Footpath (pedestrian only)"},"geometry":{"type":"MultiLineString","coordinates":[[[0.7065861,51.5479688],[0.7063491,51.5479004]]]}},
{"type":"Feature","properties":{"highway":"footway","name":null,"category":"Footpath (pedestrian only)"},"geometry":{"type":"MultiLineString","coordinates":[[[0.7053797,51.5492283],[0.7054806,51.5492086],[0.705546,51.5491973],[0.7056208,51.5492024],[0.7057594,51.5492279],[0.7057789,51.5492297],[0.7058133,51.5492266],[0.7058441,51.5492176],[0.7059108,51.549127],[0.7059195,51.549102],[0.7059213,51.5490772],[0.7059135,51.5490559],[0.7058975,51.5490372],[0.7058588,51.5490306],[0.7057941,51.5490114],[0.7056225,51.5487629]]]}},
{"type":"Feature","properties":{"highway":"footway","name":null,"category":"Footpath (pedestrian only)"},"geometry":{"type":"MultiLineString","coordinates":[[[0.7051457,51.5490339],[0.7050669,51.5490148],[0.7050354,51.5489909],[0.7050082,51.5489592],[0.7047949,51.5489026],[0.7046512,51.5488651]]]}},
{"type":"Feature","properties":{"highway":"footway","name":null,"category":"Footpath (pedestrian only)"},"geometry":{"type":"MultiLineString","coordinates":[[[0.7052172,51.548931],[0.7051224,51.5489387],[0.7050082,51.5489592]]]}},
{"type":"Feature","properties":{"highway":"footway","name":null,"category":"Footpath (pedestrian only)"},"geometry":{"type":"MultiLineString","coordinates":[[[0.7052877,51.5492985],[0.7052996,51.5492888],[0.7053797,51.5492283],[0.7052292,51.5491495],[0.7051457,51.5490339],[0.7051588,51.5489937],[0.7052172,51.548931],[0.705503,51.5489171],[0.7056225,51.5487629],[0.7057094,51.5486066]]]}},
{"type":"Feature","properties":{"highway":"footway","name":null,"category":"Footpath (pedestrian only)"},"geometry":{"type":"MultiLineString","coordinates":[[[0.7012672,51.5536335],[0.7011845,51.5536266],[0.7008658,51.5535919],[0.7006789,51.5535853],[0.7003843,51.5535514],[0.700366,51.5535473],[0.7003569,51.5535391],[0.700354,51.5535252],[0.7003436,51.5534877],[0.7003016,51.5533867],[0.7002967,51.5533722],[0.7003011,51.5533155],[0.7002366,51.5532942]]]}},
{"type":"Feature","properties":{"highway":"footway","name":null,"category":"Footpath (pedestrian only)"},"geometry":{"type":"MultiLineString","coordinates":[[[0.7013579,51.5531181],[0.7016473,51.5525824],[0.7014593,51.5525605],[0.7013992,51.5524094],[0.7013467,51.5523445],[0.7011415,51.5522728],[0.7009647,51.5520931]]]}},
{"type":"Feature","properties":{"highway":"footway","name":null,"category":"Footpath (pedestrian only)"},"geometry":{"type":"MultiLineString","coordinates":[[[0.701456,51.5531459],[0.7013535,51.5531317],[0.7007983,51.5530619],[0.7007832,51.5531069]]]}},
{"type":"Feature","properties":{"highway":"footway","name":null,"category":"Footpath (pedestrian only)"},"geometry":{"type":"MultiLineString","coordinates":[[[0.7016473,51.5525824],[0.7017457,51.5524362],[0.7018573,51.5523632]]]}},
{"type":"Feature","properties":{"highway":"footway","name":null,"category":"Footpath (pedestrian only)"},"geometry":{"type":"MultiLineString","coordinates":[[[0.7077836,51.5509996],[0.7072657,51.5508837]]]}},
{"type":"Feature","properties":{"highway":"footway","name":null,"category":"Footpath (pedestrian only)"},"geometry":{"type":"MultiLineString","coordinates":[[[0.7109202,51.5500868],[0.7110257,51.5500278],[0.711074,51.5497223],[0.7111065,51.5495616],[0.7115704,51.549578],[0.7117722,51.549539],[0.7118689,51.549564]]]}},
{"type":"Feature","properties":{"highway":"footway","name":null,"category":"Footpath (pedestrian only)"},"geometry":{"type":"MultiLineString","coordinates":[[[0.7046987,51.5495659],[0.7048483,51.549595]]]}},
{"type":"Feature","properties":{"highway":"footway","name":null,"category":"Footpath (pedestrian only)"},"geometry":{"type":"MultiLineString","coordinates":[[[0.7051153,51.5497881],[0.704645,51.549651],[0.7046987,51.5495659],[0.7043778,51.5494842]]]}},
{"type":"Feature","properties":{"highway":"footway","name":null,"category":"Footpath (pedestrian only)"},"geometry":{"type":"MultiLineString","coordinates":[[[0.7082544,51.5536567],[0.7086318,51.5535305]]]}},
{"type":"Feature","properties":{"highway":"footway","name":null,"category":"Footpath (pedestrian only)"},"geometry":{"type":"MultiLineString","coordinates":[[[0.7109202,51.5500868],[0.7109662,51.550134],[0.7109547,51.5501705]]]}},
{"type":"Feature","properties":{"highway":"footway","name":null,"category":"Footpath (pedestrian only)"},"geometry":{"type":"MultiLineString","coordinates":[[[0.710453,51.5508071],[0.7106285,51.5508257]]]}},
{"type":"Feature","properties":{"highway":"footway","name":null,"category":"Footpath (pedestrian only)"},"geometry":{"type":"MultiLineString","coordinates":[[[0.7085245,51.5456973],[0.70854,51.5456667],[0.7085753,51.5456203],[0.7089457,51.5451935],[0.7089894,51.5451965],[0.7090935,51.5452255],[0.7092015,51.5452204],[0.7093892,51.545127],[0.7095226,51.5450704],[0.7096387,51.5450553],[0.7097587,51.5450603],[0.7098204,51.5450403],[0.7099256,51.5450387],[0.7099766,51.5450287],[0.7102742,51.5450353]]]}},
{"type":"Feature","properties":{"highway":"footway","name":null,"category":"Footpath (pedestrian only)"},"geometry":{"type":"MultiLineString","coordinates":[[[0.7071449,51.5470421],[0.7072039,51.5470367]]]}},
{"type":"Feature","properties":{"highway":"footway","name":null,"category":"Footpath (pedestrian only)"},"geometry":{"type":"MultiLineString","coordinates":[[[0.7070252,51.5471855],[0.707053,51.5472093]]]}},
{"type":"Feature","properties":{"highway":"footway","name":null,"category":"Footpath (pedestrian only)"},"geometry":{"type":"MultiLineString","coordinates":[[[0.7039503,51.5516305],[0.7039997,51.5515954]]]}},
{"type":"Feature","properties":{"highway":"footway","name":null,"category":"Footpath (pedestrian only)"},"geometry":{"type":"MultiLineString","coordinates":[[[0.7039997,51.5515954],[0.704092,51.5515412]]]}},
{"type":"Feature","properties":{"highway":"footway","name":null,"category":"Footpath (pedestrian only)"},"geometry":{"type":"MultiLineString","coordinates":[[[0.7062385,51.5536547],[0.7061515,51.5536565],[0.7061208,51.5536572]]]}},
{"type":"Feature","properties":{"highway":"footway","name":null,"category":"Footpath (pedestrian only)"},"geometry":{"type":"MultiLineString","coordinates":[[[0.706817,51.5554153],[0.7070079,51.5553824]]]}},
{"type":"Feature","properties":{"highway":"footway","name":null,"category":"Footpath (pedestrian only)"},"geometry":{"type":"MultiLineString","coordinates":[[[0.7071593,51.5551953],[0.7071694,51.5552509]]]}},
{"type":"Feature","properties":{"highway":"footway","name":null,"category":"Footpath (pedestrian only)"},"geometry":{"type":"MultiLineString","coordinates":[[[0.7059108,51.549127],[0.7060034,51.5490517],[0.7058975,51.5490372]]]}},
{"type":"Feature","properties":{"highway":"footway","name":null,"category":"Footpath (pedestrian only)"},"geometry":{"type":"MultiLineString","coordinates":[[[0.7060034,51.5490517],[0.7063038,51.5490153]]]}},
{"type":"Feature","properties":{"highway":"footway","name":null,"category":"Footpath (pedestrian only)"},"geometry":{"type":"MultiLineString","coordinates":[[[0.7053077,51.5542152],[0.7049661,51.5541535],[0.7048911,51.5538979],[0.7048518,51.5537653],[0.7048205,51.5535739],[0.7047915,51.5534708],[0.7047724,51.5534028]]]}},
{"type":"Feature","properties":{"highway":"footway","name":null,"category":"Footpath (pedestrian only)"},"geometry":{"type":"MultiLineString","coordinates":[[[0.6874229,51.553026],[0.6874121,51.5528705]]]}},
{"type":"Feature","properties":{"highway":"footway","name":null,"category":"Footpath (pedestrian only)"},"geometry":{"type":"MultiLineString","coordinates":[[[0.6865838,51.5512734],[0.6865806,51.5512362],[0.6865754,51.5511924]]]}},
{"type":"Feature","properties":{"highway":"footway","name":null,"category":"Footpath (pedestrian only)"},"geometry":{"type":"MultiLineString","coordinates":[[[0.6870566,51.5528978],[0.6870451,51.5527907],[0.6869432,51.552543],[0.6868143,51.5523],[0.6867273,51.5520443],[0.6866683,51.5517633],[0.6865945,51.5513288],[0.6865838,51.5512734]]]}},
{"type":"Feature","properties":{"highway":"footway","name":null,"category":"Footpath (pedestrian only)"},"geometry":{"type":"MultiLineString","coordinates":[[[0.6865754,51.5511924],[0.6864751,51.5507081]]]}},
{"type":"Feature","properties":{"highway":"footway","name":"Prittle Brook Greenway","category":"Footpath (pedestrian only)"},"geometry":{"type":"MultiLineString","coordinates":[[[0.6724823,51.5503751],[0.6726909,51.5505143],[0.6732592,51.5505919],[0.6733862,51.5505782],[0.6737088,51.55062],[0.6743793,51.5506975],[0.6746449,51.5507058],[0.6749198,51.5507142],[0.675526,51.550876],[0.6756869,51.5508926],[0.6758371,51.5508626],[0.6766016,51.5509093],[0.6767813,51.5509494],[0.6773418,51.5512446],[0.6777442,51.551368],[0.6779695,51.5513675],[0.6789075,51.5513419],[0.6795129,51.5514007],[0.6800287,51.5514485],[0.68003,51.5514193],[0.680102,51.5514159],[0.6801843,51.5514121],[0.6802014,51.551468],[0.6802351,51.5514695],[0.6807907,51.5514721],[0.6817801,51.551514],[0.6822386,51.5514806],[0.6833276,51.5513089],[0.6838587,51.5512846],[0.6840451,51.5512771],[0.6854586,51.5512771],[0.6864081,51.5513163],[0.6865945,51.5513288],[0.6877009,51.5511038],[0.6880255,51.551092],[0.6898722,51.5511587],[0.6911502,51.5510928],[0.6915296,51.5510191]]]}},
{"type":"Feature","properties":{"highway":"footway","name":null,"category":"Footpath (pedestrian only)"},"geometry":{"type":"MultiLineString","coordinates":[[[0.7075448,51.5456904],[0.7075896,51.5456434],[0.7076354,51.5455872],[0.7076865,51.5455244]]]}},
{"type":"Feature","properties":{"highway":"footway","name":null,"category":"Footpath (pedestrian only)"},"geometry":{"type":"MultiLineString","coordinates":[[[0.7036247,51.5540227],[0.7036368,51.5540553],[0.7038461,51.5541862],[0.7039584,51.5542313]]]}},
{"type":"Feature","properties":{"highway":"footway","name":null,"category":"Footpath (pedestrian only)"},"geometry":{"type":"MultiLineString","coordinates":[[[0.7014625,51.5567841],[0.7015099,51.5567825],[0.7015199,51.5568377],[0.7015682,51.5568366]]]}},
{"type":"Feature","properties":{"highway":"footway","name":null,"category":"Footpath (pedestrian only)"},"geometry":{"type":"MultiLineString","coordinates":[[[0.7076894,51.5454733],[0.7076365,51.5454559],[0.7075807,51.5454385]]]}},
{"type":"Feature","properties":{"highway":"footway","name":null,"category":"Footpath (pedestrian only)"},"geometry":{"type":"MultiLineString","coordinates":[[[0.7046368,51.5521854],[0.7053907,51.5526482]]]}},
{"type":"Feature","properties":{"highway":"footway","name":null,"category":"Footpath (pedestrian only)"},"geometry":{"type":"MultiLineString","coordinates":[[[0.7055678,51.554506],[0.7056048,51.5545032],[0.7057292,51.5544941],[0.7057167,51.5544284],[0.7056816,51.5542443],[0.7058824,51.5542295],[0.7061135,51.5542125],[0.7061447,51.5543762],[0.7061709,51.5545142],[0.7062049,51.5546923],[0.7059975,51.5547097],[0.7057792,51.5547575],[0.7057379,51.5545396],[0.7057292,51.5544941]]]}},
{"type":"Feature","properties":{"highway":"path","name":null,"category":"Shared path"},"geometry":{"type":"MultiLineString","coordinates":[[[0.705524,51.5525591],[0.7055678,51.5524918],[0.7056648,51.5523337],[0.7057572,51.5522677],[0.7058127,51.5521757],[0.7058774,51.5520579],[0.705979,51.5520005],[0.7061592,51.5520091],[0.7064087,51.5520723],[0.7065797,51.5521527],[0.7067322,51.5522562],[0.706843,51.5523424],[0.70688,51.5524142],[0.7068985,51.5525061],[0.7068477,51.5526124],[0.7067506,51.5527159],[0.706612,51.5527762],[0.7065057,51.5528854],[0.7065018,51.5529889]]]}},
{"type":"Feature","properties":{"highway":"footway","name":null,"category":"Footpath (pedestrian only)"},"geometry":{"type":"MultiLineString","coordinates":[[[0.7059913,51.5543857],[0.7061447,51.5543762]]]}},
{"type":"Feature","properties":{"highway":"footway","name":null,"category":"Footpath (pedestrian only)"},"geometry":{"type":"MultiLineString","coordinates":[[[0.7057167,51.5544284],[0.7058346,51.5544248]]]}},
{"type":"Feature","properties":{"highway":"footway","name":null,"category":"Footpath (pedestrian only)"},"geometry":{"type":"MultiLineString","coordinates":[[[0.7060382,51.5545241],[0.7061709,51.5545142]]]}},
{"type":"Feature","properties":{"highway":"footway","name":null,"category":"Footpath (pedestrian only)"},"geometry":{"type":"MultiLineString","coordinates":[[[0.7076204,51.5533015],[0.7080264,51.5532582],[0.7081276,51.5532474]]]}},
{"type":"Feature","properties":{"highway":"footway","name":null,"category":"Footpath (pedestrian only)"},"geometry":{"type":"MultiLineString","coordinates":[[[0.7059975,51.5547097],[0.7059548,51.5545449]]]}},
{"type":"Feature","properties":{"highway":"footway","name":null,"category":"Footpath (pedestrian only)"},"geometry":{"type":"MultiLineString","coordinates":[[[0.7058694,51.5545276],[0.7057379,51.5545396]]]}},
{"type":"Feature","properties":{"highway":"footway","name":null,"category":"Footpath (pedestrian only)"},"geometry":{"type":"MultiLineString","coordinates":[[[0.7059015,51.5543875],[0.7058824,51.5542295],[0.7058774,51.5541926]]]}},
{"type":"Feature","properties":{"highway":"footway","name":null,"category":"Footpath (pedestrian only)"},"geometry":{"type":"MultiLineString","coordinates":[[[0.7022328,51.5559683],[0.7019186,51.55607],[0.7017682,51.5560912],[0.7015484,51.5562106]]]}},
{"type":"Feature","properties":{"highway":"path","name":null,"category":"Shared path"},"geometry":{"type":"MultiLineString","coordinates":[[[0.7058774,51.5541926],[0.7058681,51.554161],[0.7055632,51.5541868],[0.7055216,51.5539771],[0.7058034,51.5539484],[0.7057931,51.5536983]]]}},
{"type":"Feature","properties":{"highway":"footway","name":null,"category":"Footpath (pedestrian only)"},"geometry":{"type":"MultiLineString","coordinates":[[[0.7076204,51.5533015],[0.7071434,51.5531641],[0.7068114,51.552966],[0.7065018,51.5529889],[0.7062613,51.5530067],[0.7059317,51.5528726],[0.705524,51.5525591]]]}},
{"type":"Feature","properties":{"highway":"footway","name":null,"category":"Footpath (pedestrian only)"},"geometry":{"type":"MultiLineString","coordinates":[[[0.7059548,51.5545449],[0.7058694,51.5545276],[0.7058219,51.5544801],[0.7058346,51.5544248],[0.7059015,51.5543875],[0.7059913,51.5543857],[0.706062,51.5544201],[0.7060805,51.5544748],[0.7060382,51.5545241],[0.7059548,51.5545449]]]}},
{"type":"Feature","properties":{"highway":"footway","name":null,"category":"Footpath (pedestrian only)"},"geometry":{"type":"MultiLineString","coordinates":[[[0.7012734,51.5540436],[0.7011582,51.5540332]]]}},
{"type":"Feature","properties":{"highway":"footway","name":null,"category":"Footpath (pedestrian only)"},"geometry":{"type":"MultiLineString","coordinates":[[[0.6968941,51.5525951],[0.6968336,51.5525268]]]}},
{"type":"Feature","properties":{"highway":"footway","name":null,"category":"Footpath (pedestrian only)"},"geometry":{"type":"MultiLineString","coordinates":[[[0.6942536,51.5549195],[0.6948947,51.5547974],[0.6957219,51.5547276]]]}},
{"type":"Feature","properties":{"highway":"footway","name":null,"category":"Footpath (pedestrian only)"},"geometry":{"type":"MultiLineString","coordinates":[[[0.6860336,51.5527759],[0.6860424,51.5528146],[0.6860631,51.5529158],[0.686076,51.5529776]]]}},
{"type":"Feature","properties":{"highway":"footway","name":null,"category":"Footpath (pedestrian only)"},"geometry":{"type":"MultiLineString","coordinates":[[[0.6981271,51.5470216],[0.6980949,51.547018],[0.6980382,51.5470151]]]}},
{"type":"Feature","properties":{"highway":"footway","name":null,"category":"Footpath (pedestrian only)"},"geometry":{"type":"MultiLineString","coordinates":[[[0.6904748,51.556158],[0.6904901,51.5562301],[0.6905578,51.556548],[0.6909746,51.5565137],[0.691427,51.5564765],[0.6913583,51.5561535],[0.6913424,51.5560789]]]}},
{"type":"Feature","properties":{"highway":"footway","name":null,"category":"Footpath (pedestrian only)"},"geometry":{"type":"MultiLineString","coordinates":[[[0.6886005,51.5533352],[0.6885937,51.5532913],[0.6885828,51.5532205]]]}},
{"type":"Feature","properties":{"highway":"footway","name":null,"category":"Footpath (pedestrian only)"},"geometry":{"type":"MultiLineString","coordinates":[[[0.6971757,51.5523933],[0.6971329,51.5523416]]]}},
{"type":"Feature","properties":{"highway":"footway","name":null,"category":"Footpath (pedestrian only)"},"geometry":{"type":"MultiLineString","coordinates":[[[0.6968336,51.5525268],[0.697102,51.5524237],[0.6971757,51.5523933]]]}},
{"type":"Feature","properties":{"highway":"footway","name":null,"category":"Footpath (pedestrian only)"},"geometry":{"type":"MultiLineString","coordinates":[[[0.7049661,51.5541535],[0.7047879,51.5542789],[0.7047944,51.554467]]]}},
{"type":"Feature","properties":{"highway":"footway","name":null,"category":"Footpath (pedestrian only)"},"geometry":{"type":"MultiLineString","coordinates":[[[0.6936918,51.5567209],[0.6937382,51.5566826],[0.6943228,51.5564913],[0.694939,51.5563711]]]}},
{"type":"Feature","properties":{"highway":"path","name":null,"category":"Shared path"},"geometry":{"type":"MultiLineString","coordinates":[[[0.7058681,51.554161],[0.7062946,51.5541278],[0.7062437,51.5539123],[0.7062734,51.5539097],[0.7063091,51.5539066]]]}},
{"type":"Feature","properties":{"highway":"path","name":null,"category":"Shared path"},"geometry":{"type":"MultiLineString","coordinates":[[[0.7061515,51.5536565],[0.7063091,51.5539066]]]}},
{"type":"Feature","properties":{"highway":"path","name":null,"category":"Shared path"},"geometry":{"type":"MultiLineString","coordinates":[[[0.702846,51.5543283],[0.7022291,51.5542975]]]}},
{"type":"Feature","properties":{"highway":"path","name":null,"category":"Shared path"},"geometry":{"type":"MultiLineString","coordinates":[[[0.7029346,51.5539489],[0.7023244,51.553888]]]}},
{"type":"Feature","properties":{"highway":"path","name":null,"category":"Shared path"},"geometry":{"type":"MultiLineString","coordinates":[[[0.7030687,51.5535803],[0.7024759,51.5534769]]]}},
{"type":"Feature","properties":{"highway":"path","name":null,"category":"Shared path"},"geometry":{"type":"MultiLineString","coordinates":[[[0.7028353,51.5546985],[0.702846,51.5543283],[0.7029346,51.5539489],[0.7030687,51.5535803],[0.7032779,51.5532276],[0.7026735,51.5530963]]]}},
{"type":"Feature","properties":{"highway":"path","name":null,"category":"Shared path"},"geometry":{"type":"MultiLineString","coordinates":[[[0.7028001,51.5528554],[0.7026735,51.5530963],[0.7026637,51.553115],[0.7024759,51.5534769],[0.7023244,51.553888],[0.7022291,51.5542975],[0.702205,51.554701]]]}},
{"type":"Feature","properties":{"highway":"footway","name":null,"category":"Footpath (pedestrian only)"},"geometry":{"type":"MultiLineString","coordinates":[[[0.7054441,51.5560398],[0.7053848,51.5559764],[0.7052274,51.5559626],[0.7048626,51.5560009],[0.7048358,51.5561861],[0.7049994,51.5564379],[0.7050343,51.5568098],[0.7052784,51.5568381],[0.7055198,51.5567647],[0.7057102,51.5567581],[0.7059972,51.5568464],[0.7062091,51.5568531],[0.7064103,51.556815]]]}},
{"type":"Feature","properties":{"highway":"footway","name":null,"category":"Footpath (pedestrian only)"},"geometry":{"type":"MultiLineString","coordinates":[[[0.7007724,51.5565437],[0.7008264,51.5565803]]]}},
{"type":"Feature","properties":{"highway":"footway","name":null,"category":"Footpath (pedestrian only)"},"geometry":{"type":"MultiLineString","coordinates":[[[0.7008264,51.5565803],[0.7008369,51.5565869],[0.7009898,51.5565281],[0.7010469,51.5565107],[0.7010563,51.5565216]]]}},
{"type":"Feature","properties":{"highway":"footway","name":null,"category":"Footpath (pedestrian only)"},"geometry":{"type":"MultiLineString","coordinates":[[[0.7010563,51.5565216],[0.7010894,51.5565603]]]}},
{"type":"Feature","properties":{"highway":"footway","name":null,"category":"Footpath (pedestrian only)"},"geometry":{"type":"MultiLineString","coordinates":[[[0.7074985,51.5454602],[0.707457,51.5454483],[0.7073689,51.5454214]]]}},
{"type":"Feature","properties":{"highway":"footway","name":null,"category":"Footpath (pedestrian only)"},"geometry":{"type":"MultiLineString","coordinates":[[[0.7051939,51.548464],[0.7051712,51.5484497],[0.7052206,51.5483879]]]}},
{"type":"Feature","properties":{"highway":"footway","name":null,"category":"Footpath (pedestrian only)"},"geometry":{"type":"MultiLineString","coordinates":[[[0.7053004,51.5483645],[0.7053449,51.5483584],[0.7054108,51.5483496]]]}},
{"type":"Feature","properties":{"highway":"footway","name":null,"category":"Footpath (pedestrian only)"},"geometry":{"type":"MultiLineString","coordinates":[[[0.7011845,51.5536266],[0.7013535,51.5531317],[0.7013579,51.5531181]]]}},
{"type":"Feature","properties":{"highway":"footway","name":null,"category":"Footpath (pedestrian only)"},"geometry":{"type":"MultiLineString","coordinates":[[[0.7017894,51.5561976],[0.7018106,51.5562584],[0.7019723,51.5562383],[0.7020207,51.5562657]]]}},
{"type":"Feature","properties":{"highway":"footway","name":null,"category":"Footpath (pedestrian only)"},"geometry":{"type":"MultiLineString","coordinates":[[[0.7014541,51.556024],[0.7013749,51.5560322],[0.7013574,51.5560971],[0.7012371,51.5560836]]]}},
{"type":"Feature","properties":{"highway":"footway","name":null,"category":"Footpath (pedestrian only)"},"geometry":{"type":"MultiLineString","coordinates":[[[0.6894387,51.5536338],[0.6894386,51.5536153]]]}},
{"type":"Feature","properties":{"highway":"footway","name":null,"category":"Footpath (pedestrian only)"},"geometry":{"type":"MultiLineString","coordinates":[[[0.6896519,51.5536061],[0.6894386,51.5536153],[0.6892903,51.553626],[0.6892425,51.5533707],[0.689239,51.5533521],[0.6891962,51.5533556],[0.6891775,51.5532523],[0.689169,51.5532057],[0.6891406,51.5530313]]]}},
{"type":"Feature","properties":{"highway":"footway","name":null,"category":"Footpath (pedestrian only)"},"geometry":{"type":"MultiLineString","coordinates":[[[0.6891775,51.5532523],[0.689091,51.5532588],[0.6885937,51.5532913]]]}},
{"type":"Feature","properties":{"highway":"footway","name":null,"category":"Footpath (pedestrian only)"},"geometry":{"type":"MultiLineString","coordinates":[[[0.6876934,51.5537745],[0.6877637,51.5537696],[0.6877732,51.553817]]]}},
{"type":"Feature","properties":{"highway":"footway","name":null,"category":"Footpath (pedestrian only)"},"geometry":{"type":"MultiLineString","coordinates":[[[0.686028,51.5531397],[0.6860494,51.5533206],[0.6860545,51.553415],[0.6859776,51.5535932],[0.6859662,51.5539167],[0.6859381,51.5539543],[0.6859433,51.5539829]]]}},
{"type":"Feature","properties":{"highway":"footway","name":null,"category":"Footpath (pedestrian only)"},"geometry":{"type":"MultiLineString","coordinates":[[[0.6888548,51.5543673],[0.6888116,51.5540846],[0.6886847,51.5540904]]]}},
{"type":"Feature","properties":{"highway":"footway","name":null,"category":"Footpath (pedestrian only)"},"geometry":{"type":"MultiLineString","coordinates":[[[0.7025248,51.5491284],[0.7025963,51.549021],[0.7024721,51.548992],[0.7026946,51.5486493],[0.7018615,51.5484386]]]}},
{"type":"Feature","properties":{"highway":"footway","name":null,"category":"Footpath (pedestrian only)"},"geometry":{"type":"MultiLineString","coordinates":[[[0.7024952,51.5494233],[0.7026393,51.5494578]]]}},
{"type":"Feature","properties":{"highway":"footway","name":"Roots Hall West Stand","category":"Footpath (pedestrian only)"},"geometry":{"type":"MultiLineString","coordinates":[[[0.700672,51.5485356],[0.70077,51.5485574],[0.7008279,51.5485703]]]}},
{"type":"Feature","properties":{"highway":"footway","name":"Roots Hall West Stand","category":"Footpath (pedestrian only)"},"geometry":{"type":"MultiLineString","coordinates":[[[0.7004728,51.5491765],[0.7008279,51.5485703],[0.7008761,51.5484913]]]}},
{"type":"Feature","properties":{"highway":"footway","name":"Roots Hall North Stand","category":"Footpath (pedestrian only)"},"geometry":{"type":"MultiLineString","coordinates":[[[0.7009984,51.5495422],[0.7004535,51.5494024]]]}},
{"type":"Feature","properties":{"highway":"footway","name":null,"category":"Footpath (pedestrian only)"},"geometry":{"type":"MultiLineString","coordinates":[[[0.7050372,51.548283],[0.7050976,51.5483057],[0.7051353,51.5482731],[0.705195,51.5483059],[0.7052559,51.5483705]]]}},
{"type":"Feature","properties":{"highway":"footway","name":null,"category":"Footpath (pedestrian only)"},"geometry":{"type":"MultiLineString","coordinates":[[[0.6962129,51.5526996],[0.6961392,51.5527649],[0.696104,51.5527999],[0.6960261,51.552802]]]}},
{"type":"Feature","properties":{"highway":"footway","name":null,"category":"Footpath (pedestrian only)"},"geometry":{"type":"MultiLineString","coordinates":[[[0.7062049,51.5546923],[0.7062394,51.554788],[0.7062045,51.5548516],[0.7062311,51.5549243],[0.7062519,51.5549812],[0.7062831,51.555051],[0.7062257,51.5550883]]]}},
{"type":"Feature","properties":{"highway":"footway","name":null,"category":"Footpath (pedestrian only)"},"geometry":{"type":"MultiLineString","coordinates":[[[0.7057792,51.5547575],[0.7057316,51.5547873],[0.7057253,51.5548082],[0.7057877,51.5548501],[0.7058776,51.5548873],[0.7059225,51.5549308],[0.705934,51.5549712],[0.7059462,51.5550138],[0.7059836,51.5550681],[0.7060048,51.5551131],[0.706056,51.5551178],[0.7061072,51.5551085]]]}},
{"type":"Feature","properties":{"highway":"footway","name":null,"category":"Footpath (pedestrian only)"},"geometry":{"type":"MultiLineString","coordinates":[[[0.7061409,51.5551279],[0.7061858,51.5551271],[0.7062207,51.5551069],[0.7062257,51.5550883],[0.7062076,51.5550728],[0.7061683,51.5550604],[0.7061315,51.5550638],[0.7061047,51.5550875],[0.7061072,51.5551085],[0.7061409,51.5551279]]]}},
{"type":"Feature","properties":{"highway":"footway","name":null,"category":"Footpath (pedestrian only)"},"geometry":{"type":"MultiLineString","coordinates":[[[0.7057877,51.5548501],[0.7060301,51.5548168],[0.7062394,51.554788]]]}},
{"type":"Feature","properties":{"highway":"footway","name":null,"category":"Footpath (pedestrian only)"},"geometry":{"type":"MultiLineString","coordinates":[[[0.7061315,51.5550638],[0.7060842,51.5549487],[0.7060301,51.5548168]]]}},
{"type":"Feature","properties":{"highway":"footway","name":null,"category":"Footpath (pedestrian only)"},"geometry":{"type":"MultiLineString","coordinates":[[[0.7062311,51.5549243],[0.7060842,51.5549487],[0.705934,51.5549712]]]}},
{"type":"Feature","properties":{"highway":"footway","name":null,"category":"Footpath (pedestrian only)"},"geometry":{"type":"MultiLineString","coordinates":[[[0.7055216,51.5539771],[0.7052109,51.5540064]]]}}
]
}
