{
"type": "FeatureCollection",
"name": "SOUTH_6_walking",
"crs": { "type": "name", "properties": { "name": "urn:ogc:def:crs:OGC:1.3:CRS84" } },
"features": [
{"type":"Feature","properties":{"highway":"footway","name":null,"category":"Footpath (pedestrian only)"},"geometry":{"type":"MultiLineString","coordinates":[[[0.7784645,51.5408257],[0.7786242,51.5408102],[0.7787817,51.5407876],[0.7788977,51.5407553],[0.7790076,51.5407157],[0.7791015,51.540686],[0.7792208,51.5406565]]]}},
{"type":"Feature","properties":{"highway":"footway","name":null,"category":"Footpath (pedestrian only)"},"geometry":{"type":"MultiLineString","coordinates":[[[0.7776497,51.5407565],[0.777692,51.5407611],[0.7778662,51.5408394],[0.7780831,51.5409021],[0.7782622,51.5408602],[0.7783651,51.5408408],[0.7784645,51.5408257]]]}},
{"type":"Feature","properties":{"highway":"footway","name":null,"category":"Footpath (pedestrian only)"},"geometry":{"type":"MultiLineString","coordinates":[[[0.7794084,51.5391377],[0.7794204,51.5390961],[0.7796306,51.5391187],[0.7797957,51.5391317]]]}},
{"type":"Feature","properties":{"highway":"footway","name":null,"category":"Footpath (pedestrian only)"},"geometry":{"type":"MultiLineString","coordinates":[[[0.7799041,51.5345744],[0.7798615,51.5346107],[0.7796428,51.5347945],[0.7795291,51.5348186],[0.7793231,51.5348623],[0.7790041,51.5349241],[0.7788042,51.5348896]]]}},
{"type":"Feature","properties":{"highway":"footway","name":null,"category":"Footpath (pedestrian only)"},"geometry":{"type":"MultiLineString","coordinates":[[[0.7800631,51.5386619],[0.7800855,51.538591],[0.7802928,51.5384759],[0.7803019,51.5384245]]]}},
{"type":"Feature","properties":{"highway":"footway","name":null,"category":"Footpath (pedestrian only)"},"geometry":{"type":"MultiLineString","coordinates":[[[0.7803234,51.5382802],[0.7803289,51.5382421],[0.7803299,51.5382169],[0.7803111,51.5381882],[0.7802415,51.5381188],[0.7802278,51.5380983],[0.7802218,51.5380469],[0.7802614,51.5378471],[0.7802949,51.5376342],[0.7802976,51.5375679],[0.7803094,51.5375444],[0.78033,51.5375163],[0.7803667,51.5374969]]]}},
{"type":"Feature","properties":{"highway":"footway","name":null,"category":"Footpath (pedestrian only)"},"geometry":{"type":"MultiLineString","coordinates":[[[0.7790901,51.5359784],[0.779137,51.5360016],[0.7792282,51.535995],[0.7793321,51.5360196],[0.7795946,51.5359856],[0.7796374,51.5359303],[0.7798277,51.5359033],[0.7800276,51.5359482]]]}},
{"type":"Feature","properties":{"highway":"footway","name":null,"category":"Footpath (pedestrian only)"},"geometry":{"type":"MultiLineString","coordinates":[[[0.7716936,51.5359303],[0.7715917,51.5358237],[0.7715227,51.5357477],[0.7713456,51.5355709],[0.7712303,51.5354799],[0.771123,51.5353957],[0.7710734,51.5353356],[0.7710212,51.5352618],[0.771005,51.5352388]]]}},
{"type":"Feature","properties":{"highway":"footway","name":null,"category":"Footpath (pedestrian only)"},"geometry":{"type":"MultiLineString","coordinates":[[[0.7701439,51.5353676],[0.7702127,51.5353586],[0.7705812,51.5352947],[0.771005,51.5352388],[0.7714313,51.535182],[0.7716997,51.5351462],[0.771915,51.5351183],[0.7721682,51.5350855]]]}},
{"type":"Feature","properties":{"highway":"footway","name":null,"category":"Footpath (pedestrian only)"},"geometry":{"type":"MultiLineString","coordinates":[[[0.777239,51.5368362],[0.7772583,51.5368436],[0.7772699,51.536851],[0.7772855,51.5368695],[0.7772984,51.5368932],[0.7773033,51.5369195],[0.7773005,51.5369561],[0.7772973,51.5369843],[0.7772914,51.5370024],[0.7772808,51.5370206],[0.7772564,51.5370472]]]}},
{"type":"Feature","properties":{"highway":"footway","name":null,"category":"Footpath (pedestrian only)"},"geometry":{"type":"MultiLineString","coordinates":[[[0.7768253,51.537971],[0.7771994,51.5380193],[0.7772191,51.5380206],[0.7772396,51.5380183],[0.7772568,51.5380129],[0.7773161,51.5379865]]]}},
{"type":"Feature","properties":{"highway":"footway","name":null,"category":"Footpath (pedestrian only)"},"geometry":{"type":"MultiLineString","coordinates":[[[0.7777467,51.5368358],[0.7776875,51.5369353],[0.7776701,51.5369527],[0.7776415,51.5369716],[0.7776108,51.536985],[0.7775731,51.536997],[0.7775392,51.5370043],[0.7774805,51.5370087],[0.7773871,51.5370126],[0.7773398,51.5370164],[0.7773022,51.537023],[0.7772886,51.5370269],[0.7772776,51.5370324],[0.7772564,51.5370472],[0.7772303,51.5370755],[0.7772061,51.537105],[0.7771893,51.537134],[0.7771682,51.537186],[0.7771427,51.5372553],[0.7771184,51.5373177],[0.7770759,51.5373617],[0.7770191,51.5374256],[0.777008,51.5374455],[0.7769969,51.5374721],[0.7769777,51.5375236],[0.7769746,51.5375319],[0.7768891,51.5377932],[0.7768253,51.537971],[0.7767439,51.5382348],[0.7765171,51.5384151]]]}},
{"type":"Feature","properties":{"highway":"footway","name":null,"category":"Footpath (pedestrian only)"},"geometry":{"type":"MultiLineString","coordinates":[[[0.7754689,51.5400525],[0.7753156,51.5400187],[0.775224,51.5400162],[0.7750956,51.5400141],[0.7743434,51.5400133]]]}},
{"type":"Feature","properties":{"highway":"footway","name":null,"category":"Footpath (pedestrian only)"},"geometry":{"type":"MultiLineString","coordinates":[[[0.7665294,51.5379693],[0.7666248,51.53844],[0.7666423,51.5386811]]]}},
{"type":"Feature","properties":{"highway":"footway","name":null,"category":"Footpath (pedestrian only)"},"geometry":{"type":"MultiLineString","coordinates":[[[0.7715438,51.5358321],[0.7715917,51.5358237]]]}},
{"type":"Feature","properties":{"highway":"footway","name":null,"category":"Footpath (pedestrian only)"},"geometry":{"type":"MultiLineString","coordinates":[[[0.7710372,51.5353398],[0.7710734,51.5353356]]]}},
{"type":"Feature","properties":{"highway":"footway","name":null,"category":"Footpath (pedestrian only)"},"geometry":{"type":"MultiLineString","coordinates":[[[0.7716453,51.5350085],[0.771439,51.5343981],[0.7709757,51.5344602]]]}},
{"type":"Feature","properties":{"highway":"footway","name":null,"category":"Footpath (pedestrian only)"},"geometry":{"type":"MultiLineString","coordinates":[[[0.7711725,51.5350742],[0.7709757,51.5344602],[0.770957,51.5344019]]]}},
{"type":"Feature","properties":{"highway":"footway","name":null,"category":"Footpath (pedestrian only)"},"geometry":{"type":"MultiLineString","coordinates":[[[0.7662411,51.5400054],[0.7660647,51.5399656],[0.7659143,51.539971]]]}},
{"type":"Feature","properties":{"highway":"footway","name":null,"category":"Footpath (pedestrian only)"},"geometry":{"type":"MultiLineString","coordinates":[[[0.7650697,51.5407907],[0.7650721,51.5407466],[0.7652188,51.5406371]]]}},
{"type":"Feature","properties":{"highway":"footway","name":null,"category":"Footpath (pedestrian only)"},"geometry":{"type":"MultiLineString","coordinates":[[[0.761561,51.538365],[0.7615908,51.538435],[0.7615245,51.538597],[0.7614322,51.5388224]]]}},
{"type":"Feature","properties":{"highway":"footway","name":null,"category":"Footpath (pedestrian only)"},"geometry":{"type":"MultiLineString","coordinates":[[[0.7624177,51.5385064],[0.7615245,51.538597],[0.7612061,51.538616]]]}},
{"type":"Feature","properties":{"highway":"footway","name":null,"category":"Footpath (pedestrian only)"},"geometry":{"type":"MultiLineString","coordinates":[[[0.7624113,51.5387528],[0.7624625,51.5386819],[0.7624177,51.5385064],[0.7623632,51.5382932],[0.7623577,51.5382714]]]}},
{"type":"Feature","properties":{"highway":"path","name":null,"category":"Shared path"},"geometry":{"type":"MultiLineString","coordinates":[[[0.7813095,51.5369028],[0.7811459,51.5368945],[0.7808777,51.5368945],[0.7806819,51.5369262],[0.7804646,51.5369779],[0.7803198,51.5369712],[0.780297,51.5369721]]]}},
{"type":"Feature","properties":{"highway":"footway","name":null,"category":"Footpath (pedestrian only)"},"geometry":{"type":"MultiLineString","coordinates":[[[0.7774743,51.5373652],[0.7775116,51.5373498],[0.7775552,51.5373386],[0.7776129,51.537331],[0.7776619,51.537335],[0.7780051,51.5373762],[0.7781175,51.5373897],[0.7781123,51.5374102]]]}},
{"type":"Feature","properties":{"highway":"footway","name":null,"category":"Footpath (pedestrian only)"},"geometry":{"type":"MultiLineString","coordinates":[[[0.7611598,51.5377812],[0.7611353,51.5377018]]]}},
{"type":"Feature","properties":{"highway":"footway","name":null,"category":"Footpath (pedestrian only)"},"geometry":{"type":"MultiLineString","coordinates":[[[0.7611807,51.5378486],[0.7611598,51.5377812]]]}},
{"type":"Feature","properties":{"highway":"footway","name":null,"category":"Footpath (pedestrian only)"},"geometry":{"type":"MultiLineString","coordinates":[[[0.7614004,51.5379156],[0.7613809,51.5378239]]]}},
{"type":"Feature","properties":{"highway":"footway","name":null,"category":"Footpath (pedestrian only)"},"geometry":{"type":"MultiLineString","coordinates":[[[0.7611353,51.5377018],[0.7611315,51.5376895]]]}},
{"type":"Feature","properties":{"highway":"footway","name":null,"category":"Footpath (pedestrian only)"},"geometry":{"type":"MultiLineString","coordinates":[[[0.7613634,51.5376598],[0.7613491,51.5375996],[0.7614435,51.5375917]]]}},
{"type":"Feature","properties":{"highway":"path","name":null,"category":"Shared path"},"geometry":{"type":"MultiLineString","coordinates":[[[0.7722965,51.5308719],[0.7723072,51.5312704],[0.7754298,51.5317567]]]}},
{"type":"Feature","properties":{"highway":"footway","name":null,"category":"Footpath (pedestrian only)"},"geometry":{"type":"MultiLineString","coordinates":[[[0.7772369,51.5352117],[0.777329,51.5350266],[0.777402,51.5350138],[0.7774674,51.5349696],[0.777722,51.534927]]]}},
{"type":"Feature","properties":{"highway":"footway","name":null,"category":"Footpath (pedestrian only)"},"geometry":{"type":"MultiLineString","coordinates":[[[0.7774674,51.5349696],[0.777488,51.5349045],[0.7775026,51.5348313]]]}},
{"type":"Feature","properties":{"highway":"footway","name":null,"category":"Footpath (pedestrian only)"},"geometry":{"type":"MultiLineString","coordinates":[[[0.7766974,51.5363516],[0.7766729,51.5364289],[0.7766216,51.5365951],[0.7766206,51.5366297],[0.7766338,51.5366594],[0.7766897,51.5367217],[0.7767146,51.5367442],[0.7767314,51.5367556],[0.7767839,51.5367732],[0.7768395,51.5367834],[0.777239,51.5368362],[0.7775343,51.5368738],[0.7775805,51.536879],[0.7776287,51.5368804],[0.7776729,51.5368753],[0.7777032,51.536864],[0.7777265,51.5368523],[0.7777467,51.5368358]]]}},
{"type":"Feature","properties":{"highway":"footway","name":null,"category":"Footpath (pedestrian only)"},"geometry":{"type":"MultiLineString","coordinates":[[[0.7771184,51.5373177],[0.7774743,51.5373652]]]}},
{"type":"Feature","properties":{"highway":"footway","name":null,"category":"Footpath (pedestrian only)"},"geometry":{"type":"MultiLineString","coordinates":[[[0.7771427,51.5372553],[0.7765727,51.5371842],[0.775989,51.5371078]]]}},
{"type":"Feature","properties":{"highway":"footway","name":null,"category":"Footpath (pedestrian only)"},"geometry":{"type":"MultiLineString","coordinates":[[[0.7767146,51.5367442],[0.7767199,51.5367642],[0.7767173,51.5367906],[0.7767081,51.5368281],[0.7767034,51.5368484],[0.7767018,51.5368693],[0.7767073,51.5368942],[0.776712,51.5369233],[0.7767107,51.5369585],[0.7767017,51.536989],[0.776689,51.5370152],[0.7766705,51.5370393],[0.7766473,51.537064],[0.7766209,51.537087],[0.7766037,51.5371079],[0.7765926,51.5371309],[0.7765727,51.5371842]]]}},
{"type":"Feature","properties":{"highway":"track","name":null,"category":"Track"},"geometry":{"type":"MultiLineString","coordinates":[[[0.7643077,51.5437989],[0.7642872,51.5436622]]]}},
{"type":"Feature","properties":{"highway":"footway","name":null,"category":"Footpath (pedestrian only)"},"geometry":{"type":"MultiLineString","coordinates":[[[0.7642909,51.5435359],[0.7642855,51.5436045],[0.764286,51.5436227]]]}},
{"type":"Feature","properties":{"highway":"footway","name":null,"category":"Footpath (pedestrian only)"},"geometry":{"type":"MultiLineString","coordinates":[[[0.7642953,51.5435082],[0.7642909,51.5435359]]]}},
{"type":"Feature","properties":{"highway":"footway","name":null,"category":"Footpath (pedestrian only)"},"geometry":{"type":"MultiLineString","coordinates":[[[0.764286,51.5436227],[0.7642872,51.5436622]]]}},
{"type":"Feature","properties":{"highway":"footway","name":null,"category":"Footpath (pedestrian only)"},"geometry":{"type":"MultiLineString","coordinates":[[[0.7799092,51.5386452],[0.7798641,51.538576],[0.7796262,51.5382632],[0.7795748,51.5381724],[0.7795304,51.5380815],[0.7794976,51.5379593],[0.7794997,51.5378529],[0.7795182,51.5378],[0.7795579,51.5377328],[0.779643,51.5376271],[0.7798179,51.5374287]]]}},
{"type":"Feature","properties":{"highway":"footway","name":null,"category":"Footpath (pedestrian only)"},"geometry":{"type":"MultiLineString","coordinates":[[[0.7800839,51.5371898],[0.7800276,51.5371722]]]}},
{"type":"Feature","properties":{"highway":"footway","name":null,"category":"Footpath (pedestrian only)"},"geometry":{"type":"MultiLineString","coordinates":[[[0.7803019,51.5384245],[0.7803111,51.538373],[0.7803179,51.5383182],[0.7803234,51.5382802]]]}},
{"type":"Feature","properties":{"highway":"footway","name":null,"category":"Footpath (pedestrian only)"},"geometry":{"type":"MultiLineString","coordinates":[[[0.7799092,51.5386452],[0.7799895,51.5386542],[0.7800631,51.5386619]]]}},
{"type":"Feature","properties":{"highway":"footway","name":null,"category":"Footpath (pedestrian only)"},"geometry":{"type":"MultiLineString","coordinates":[[[0.7800682,51.5371217],[0.7801904,51.5371231],[0.7802876,51.5371216]]]}},
{"type":"Feature","properties":{"highway":"footway","name":null,"category":"Footpath (pedestrian only)"},"geometry":{"type":"MultiLineString","coordinates":[[[0.7803667,51.5374969],[0.780366,51.5374298],[0.7803686,51.5373642]]]}},
{"type":"Feature","properties":{"highway":"footway","name":null,"category":"Footpath (pedestrian only)"},"geometry":{"type":"MultiLineString","coordinates":[[[0.7803686,51.5373642],[0.7803324,51.537347],[0.7803085,51.5373201],[0.7803001,51.5372948],[0.7802876,51.5371216],[0.7802831,51.5370322],[0.780297,51.5369721]]]}},
{"type":"Feature","properties":{"highway":"footway","name":null,"category":"Footpath (pedestrian only)"},"geometry":{"type":"MultiLineString","coordinates":[[[0.7807574,51.5387763],[0.7807944,51.5388237],[0.7808329,51.5388683],[0.7808783,51.538909],[0.780943,51.5389574],[0.7809207,51.5390657],[0.7811009,51.5390978],[0.7813035,51.5391208],[0.781416,51.5391338],[0.7814326,51.5391417],[0.7814384,51.5391512],[0.7814368,51.5391763]]]}},
{"type":"Feature","properties":{"highway":"footway","name":null,"category":"Footpath (pedestrian only)"},"geometry":{"type":"MultiLineString","coordinates":[[[0.7803019,51.5384245],[0.7803396,51.538421],[0.7803677,51.5384184],[0.780406,51.5384168],[0.7804362,51.5384155],[0.7805071,51.5384222],[0.7805595,51.5384357],[0.7806018,51.5384548],[0.7806334,51.5384879],[0.7806519,51.5385224]]]}},
{"type":"Feature","properties":{"highway":"footway","name":null,"category":"Footpath (pedestrian only)"},"geometry":{"type":"MultiLineString","coordinates":[[[0.7806519,51.5385224],[0.7807078,51.5386615],[0.7807574,51.5387763]]]}},
{"type":"Feature","properties":{"highway":"footway","name":null,"category":"Footpath (pedestrian only)"},"geometry":{"type":"MultiLineString","coordinates":[[[0.7806519,51.5385224],[0.7806509,51.5385554],[0.7806341,51.5385856],[0.7806129,51.5386104],[0.7805784,51.5386335]]]}},
{"type":"Feature","properties":{"highway":"footway","name":null,"category":"Footpath (pedestrian only)"},"geometry":{"type":"MultiLineString","coordinates":[[[0.7807574,51.5387763],[0.7807217,51.538754],[0.7806863,51.5387419],[0.7806394,51.5387386],[0.780604,51.538743],[0.7805766,51.5387535],[0.7805642,51.5387661]]]}},
{"type":"Feature","properties":{"highway":"footway","name":null,"category":"Footpath (pedestrian only)"},"geometry":{"type":"MultiLineString","coordinates":[[[0.779373,51.5405432],[0.7793385,51.5405811],[0.7793067,51.5406109],[0.7792633,51.54064],[0.7792208,51.5406565],[0.779296,51.5408181]]]}},
{"type":"Feature","properties":{"highway":"footway","name":null,"category":"Footpath (pedestrian only)"},"geometry":{"type":"MultiLineString","coordinates":[[[0.7804834,51.5400458],[0.7804339,51.5400606],[0.7799871,51.54029],[0.779934,51.5403109],[0.7798588,51.540328],[0.7797615,51.5403352],[0.7796845,51.5403308],[0.7796042,51.5403233]]]}},
{"type":"Feature","properties":{"highway":"footway","name":null,"category":"Footpath (pedestrian only)"},"geometry":{"type":"MultiLineString","coordinates":[[[0.7796042,51.5403233],[0.7795239,51.5403157],[0.7794412,51.5403065]]]}},
{"type":"Feature","properties":{"highway":"footway","name":null,"category":"Footpath (pedestrian only)"},"geometry":{"type":"MultiLineString","coordinates":[[[0.7796042,51.5403233],[0.7797235,51.539919],[0.779852,51.5394201],[0.7799325,51.5391434],[0.7800014,51.5389067],[0.7800631,51.5386619]]]}},
{"type":"Feature","properties":{"highway":"footway","name":null,"category":"Footpath (pedestrian only)"},"geometry":{"type":"MultiLineString","coordinates":[[[0.7797957,51.5391317],[0.7798691,51.5391375],[0.7799325,51.5391434]]]}},
{"type":"Feature","properties":{"highway":"footway","name":null,"category":"Footpath (pedestrian only)"},"geometry":{"type":"MultiLineString","coordinates":[[[0.7796306,51.5391187],[0.7799092,51.5386452]]]}},
{"type":"Feature","properties":{"highway":"footway","name":null,"category":"Footpath (pedestrian only)"},"geometry":{"type":"MultiLineString","coordinates":[[[0.7796042,51.5403233],[0.7794878,51.5407394]]]}},
{"type":"Feature","properties":{"highway":"footway","name":null,"category":"Footpath (pedestrian only)"},"geometry":{"type":"MultiLineString","coordinates":[[[0.7794555,51.5408321],[0.7794878,51.5407394]]]}},
{"type":"Feature","properties":{"highway":"footway","name":null,"category":"Footpath (pedestrian only)"},"geometry":{"type":"MultiLineString","coordinates":[[[0.779296,51.5408181],[0.779382,51.5408256],[0.7794555,51.5408321]]]}},
{"type":"Feature","properties":{"highway":"footway","name":null,"category":"Footpath (pedestrian only)"},"geometry":{"type":"MultiLineString","coordinates":[[[0.779296,51.5408181],[0.779373,51.5405432]]]}},
{"type":"Feature","properties":{"highway":"footway","name":null,"category":"Footpath (pedestrian only)"},"geometry":{"type":"MultiLineString","coordinates":[[[0.7794412,51.5403065],[0.779373,51.5405432]]]}},
{"type":"Feature","properties":{"highway":"footway","name":null,"category":"Footpath (pedestrian only)"},"geometry":{"type":"MultiLineString","coordinates":[[[0.7798179,51.5374287],[0.7798655,51.5373748],[0.7798704,51.5373692],[0.7800276,51.5371722],[0.7800682,51.5371217]]]}},
{"type":"Feature","properties":{"highway":"footway","name":null,"category":"Footpath (pedestrian only)"},"geometry":{"type":"MultiLineString","coordinates":[[[0.7800276,51.5359482],[0.7800492,51.5363126],[0.7800694,51.5365529],[0.7801069,51.5369391],[0.7801042,51.5370467],[0.7800922,51.5370859],[0.7800682,51.5371217]]]}},
{"type":"Feature","properties":{"highway":"footway","name":null,"category":"Footpath (pedestrian only)"},"geometry":{"type":"MultiLineString","coordinates":[[[0.7801786,51.5363085],[0.7801197,51.5363104],[0.7800492,51.5363126]]]}},
{"type":"Feature","properties":{"highway":"footway","name":null,"category":"Footpath (pedestrian only)"},"geometry":{"type":"MultiLineString","coordinates":[[[0.780005,51.5355044],[0.7800117,51.5356511],[0.7800276,51.5359482]]]}},
{"type":"Feature","properties":{"highway":"footway","name":null,"category":"Footpath (pedestrian only)"},"geometry":{"type":"MultiLineString","coordinates":[[[0.7801786,51.5363085],[0.7802215,51.5366934],[0.7802902,51.536776],[0.780303,51.5369409],[0.780297,51.5369721]]]}},
{"type":"Feature","properties":{"highway":"footway","name":null,"category":"Footpath (pedestrian only)"},"geometry":{"type":"MultiLineString","coordinates":[[[0.7794691,51.5374954],[0.7795286,51.5375005],[0.7795555,51.537377],[0.7793301,51.5373589],[0.7793208,51.5373821],[0.7792986,51.537401],[0.7792612,51.5374097],[0.7792192,51.537409],[0.7790534,51.5373945],[0.7790215,51.5373882],[0.7789927,51.537377],[0.7789635,51.5373553],[0.7789495,51.5373317],[0.7789472,51.5373044],[0.7790324,51.5368919],[0.7790359,51.5368397],[0.7790429,51.5368201],[0.7790593,51.5368055],[0.7790814,51.5367939],[0.7791293,51.5367837],[0.7792173,51.5367735]]]}},
{"type":"Feature","properties":{"highway":"footway","name":null,"category":"Footpath (pedestrian only)"},"geometry":{"type":"MultiLineString","coordinates":[[[0.7795182,51.5378],[0.7793967,51.5377902],[0.7794691,51.5374954]]]}},
{"type":"Feature","properties":{"highway":"footway","name":null,"category":"Footpath (pedestrian only)"},"geometry":{"type":"MultiLineString","coordinates":[[[0.7792173,51.5367735],[0.7792101,51.5367466]]]}},
{"type":"Feature","properties":{"highway":"footway","name":null,"category":"Footpath (pedestrian only)"},"geometry":{"type":"MultiLineString","coordinates":[[[0.7794691,51.5374954],[0.7790484,51.5374602],[0.7790243,51.5374598],[0.7789968,51.537464],[0.7789713,51.5374711],[0.7789452,51.5374828],[0.7789237,51.5374986],[0.7789049,51.5375203],[0.7788969,51.5375432],[0.7788694,51.5376546],[0.7788553,51.5376846],[0.7788359,51.5377192],[0.7788211,51.5377422],[0.7787909,51.5377726],[0.7787527,51.5377993],[0.7786964,51.5378289],[0.7786112,51.5378711],[0.7785857,51.5378873],[0.7785723,51.5379119],[0.7785717,51.5379324],[0.7785763,51.5379511],[0.7785904,51.5379712],[0.7786206,51.5379937],[0.7786629,51.5380154],[0.7787051,51.5380262],[0.7789143,51.5380675],[0.7789411,51.5380679],[0.7789673,51.5380625],[0.7789914,51.53805],[0.7790062,51.5380366],[0.7790109,51.5380275],[0.7791175,51.5380479],[0.7791094,51.538065],[0.7791088,51.5380817],[0.7791155,51.5380946],[0.7791302,51.5381084],[0.7791631,51.5381192],[0.7791302,51.5381801],[0.7781847,51.5379924],[0.7781271,51.5380083],[0.7780654,51.5380312],[0.7780198,51.5380525],[0.7779205,51.5381038],[0.7778689,51.5381359],[0.7778454,51.5381634],[0.7778307,51.5381889],[0.7777811,51.538289],[0.7777657,51.5383332],[0.7777603,51.5383703],[0.777763,51.53843],[0.777773,51.5385184],[0.7777978,51.5386502],[0.7778119,51.5387815]]]}},
{"type":"Feature","properties":{"highway":"footway","name":null,"category":"Footpath (pedestrian only)"},"geometry":{"type":"MultiLineString","coordinates":[[[0.7777467,51.5368358],[0.7777856,51.5367182],[0.7778195,51.5367222],[0.7778702,51.536728],[0.7779222,51.5365694],[0.7779344,51.5365458],[0.7779502,51.5365291],[0.7779741,51.5365189],[0.7780051,51.536512],[0.7780354,51.5365102],[0.77836,51.5365461],[0.7785701,51.5365708],[0.7786332,51.5365824],[0.7786956,51.5366002],[0.7787447,51.5366184],[0.7787966,51.5366478],[0.7788287,51.5366714],[0.7788568,51.5366954],[0.7788819,51.5367251],[0.778904,51.5367622],[0.7789181,51.5368028],[0.7789233,51.5368399],[0.7789175,51.5368776],[0.7787946,51.5374753]]]}},
{"type":"Feature","properties":{"highway":"footway","name":null,"category":"Footpath (pedestrian only)"},"geometry":{"type":"MultiLineString","coordinates":[[[0.7766974,51.5363516],[0.7766367,51.5363461],[0.776584,51.5363428],[0.7765334,51.5363461],[0.7764784,51.5363527],[0.7764234,51.536363],[0.7763706,51.536378],[0.7763103,51.5364052],[0.7762696,51.5364305],[0.7762311,51.5364605],[0.7762032,51.5364877],[0.7761791,51.5365182],[0.7761595,51.5365576],[0.775989,51.5371078],[0.7759195,51.5373157],[0.7759183,51.5373403],[0.775925,51.5373592],[0.7759392,51.5373737],[0.7759579,51.5373857],[0.775996,51.5373978],[0.7765741,51.5374719]]]}},
{"type":"Feature","properties":{"highway":"footway","name":null,"category":"Footpath (pedestrian only)"},"geometry":{"type":"MultiLineString","coordinates":[[[0.7765741,51.5374719],[0.7769777,51.5375236]]]}},
{"type":"Feature","properties":{"highway":"footway","name":null,"category":"Footpath (pedestrian only)"},"geometry":{"type":"MultiLineString","coordinates":[[[0.7765741,51.5374719],[0.7765246,51.5376131],[0.7764867,51.5376084],[0.7763014,51.5375869],[0.7763157,51.53754],[0.7763089,51.537525],[0.7762924,51.5375156],[0.7762584,51.5375057],[0.7759991,51.537472],[0.7759584,51.5374725],[0.7759229,51.5374795],[0.7758973,51.5374898],[0.7758694,51.537509],[0.7758574,51.5375287],[0.7756787,51.5380807],[0.7756787,51.5381121],[0.7756945,51.5381369],[0.7757118,51.5381481],[0.7757277,51.5381583],[0.7757768,51.5381727],[0.7759245,51.5381993],[0.7760473,51.5382307],[0.7761714,51.5382673],[0.7763174,51.5383203],[0.7764348,51.5383714],[0.7765171,51.5384151]]]}},
{"type":"Feature","properties":{"highway":"footway","name":null,"category":"Footpath (pedestrian only)"},"geometry":{"type":"MultiLineString","coordinates":[[[0.7766974,51.5363516],[0.7777115,51.5364699],[0.77776,51.5364789],[0.7777882,51.5364924],[0.777806,51.5365132],[0.7778158,51.5365373],[0.7778145,51.5365605],[0.7777649,51.5367156],[0.7777856,51.5367182]]]}},
{"type":"Feature","properties":{"highway":"footway","name":null,"category":"Footpath (pedestrian only)"},"geometry":{"type":"MultiLineString","coordinates":[[[0.7773161,51.5379865],[0.7773445,51.5380118],[0.7773862,51.5380388],[0.7774467,51.5380591],[0.777661,51.5381358],[0.777685,51.5381483],[0.7777033,51.5381632],[0.7777073,51.5381795],[0.7777033,51.5381973],[0.7776604,51.5382876],[0.7776502,51.5383206],[0.7776456,51.5383555],[0.7776456,51.5383992],[0.7776507,51.5384741],[0.7776764,51.5386316],[0.7776873,51.5387268],[0.777685,51.5387744],[0.7776809,51.5387821],[0.7776724,51.5387982],[0.777645,51.5388174],[0.777609,51.5388317],[0.7775502,51.538843],[0.7774622,51.5388508],[0.7773633,51.538864],[0.7772673,51.5388811],[0.7771822,51.5388978],[0.7771308,51.5389081],[0.7771057,51.5389082],[0.7770815,51.5389039],[0.7770707,51.5389],[0.7770571,51.5388949],[0.777037,51.5388814],[0.7770221,51.5388639],[0.7769908,51.5388181],[0.7769523,51.5387632],[0.7769079,51.5387065],[0.7768498,51.5386507],[0.7767985,51.5386024],[0.7767405,51.5385559],[0.7766643,51.5385058],[0.7765965,51.5384626],[0.7765171,51.5384151]]]}},
{"type":"Feature","properties":{"highway":"footway","name":null,"category":"Footpath (pedestrian only)"},"geometry":{"type":"MultiLineString","coordinates":[[[0.7794204,51.5390961],[0.7791883,51.5390668],[0.779208,51.5390178],[0.7789297,51.5389819],[0.7788142,51.5389623],[0.7786448,51.5389289],[0.7784873,51.5388848],[0.7782379,51.5388284],[0.778104,51.5388023],[0.7779938,51.5387892],[0.7778966,51.5387852],[0.7778119,51.5387815]]]}},
{"type":"Feature","properties":{"highway":"footway","name":null,"category":"Footpath (pedestrian only)"},"geometry":{"type":"MultiLineString","coordinates":[[[0.7794084,51.5391377],[0.7793971,51.5391693],[0.7789777,51.5391146],[0.7788843,51.5390995],[0.7787959,51.5390852],[0.7786226,51.5390517],[0.7784481,51.5390105],[0.7782984,51.538975],[0.7782105,51.5389566],[0.7781258,51.5389427],[0.7780667,51.5389354],[0.7780201,51.5389297],[0.7779355,51.5389199],[0.7778324,51.5389154],[0.7777169,51.5389117],[0.7775955,51.5389154],[0.7774944,51.5389231],[0.7773678,51.5389423],[0.7772313,51.5389693],[0.7771623,51.5389893],[0.777142,51.5390031],[0.7771269,51.5390191],[0.7771216,51.5390399],[0.7771262,51.5390623],[0.7771525,51.5391383],[0.7771643,51.539204],[0.7771709,51.5392909],[0.7771663,51.539366],[0.7771588,51.5394449],[0.7771415,51.5395776],[0.7771249,51.5396774],[0.7771053,51.5397717],[0.777085,51.5398383],[0.7770578,51.5399077],[0.7770254,51.53997],[0.7769802,51.5400282],[0.7769553,51.5400544],[0.7771656,51.5401337],[0.7772425,51.5401412],[0.7773157,51.5401389],[0.7773579,51.5401318],[0.777422,51.5401079],[0.7775531,51.5400465],[0.7777077,51.539971],[0.7777718,51.5399457],[0.7778411,51.5399232],[0.7779007,51.5399072],[0.7779603,51.539903],[0.7780326,51.5399091],[0.7782626,51.5399353],[0.7784073,51.5399532],[0.7784865,51.5399668],[0.7785619,51.5399869],[0.778638,51.5400179],[0.7786765,51.5400437],[0.7787074,51.540084],[0.7787202,51.5401187],[0.7787225,51.5401451],[0.7787155,51.5401825],[0.7786592,51.5404522],[0.7785837,51.5404934],[0.7785327,51.5405191]]]}},
{"type":"Feature","properties":{"highway":"footway","name":null,"category":"Footpath (pedestrian only)"},"geometry":{"type":"MultiLineString","coordinates":[[[0.7769047,51.5401057],[0.7771172,51.5401899],[0.7772121,51.540315],[0.7771909,51.5404067],[0.7771938,51.5404479],[0.7772138,51.5404888],[0.7772389,51.5405215],[0.7772761,51.5405634],[0.7773281,51.5406022],[0.7773898,51.5406373],[0.7774452,51.5406597],[0.7774983,51.5406722],[0.7775555,51.540686],[0.77758,51.5406949],[0.777588,51.5407102],[0.7775771,51.5407477],[0.7776497,51.5407565]]]}},
{"type":"Feature","properties":{"highway":"footway","name":null,"category":"Footpath (pedestrian only)"},"geometry":{"type":"MultiLineString","coordinates":[[[0.7785327,51.5405191],[0.7784962,51.5405583],[0.7784625,51.5406019],[0.7784452,51.5406394],[0.7784313,51.5406974],[0.7784253,51.5407554],[0.7784357,51.5407922],[0.7784645,51.5408257]]]}},
{"type":"Feature","properties":{"highway":"footway","name":null,"category":"Footpath (pedestrian only)"},"geometry":{"type":"MultiLineString","coordinates":[[[0.7768758,51.5411907],[0.7769533,51.5412054],[0.7772624,51.5412655],[0.7773687,51.5411998],[0.7774539,51.5411534],[0.777567,51.5410948],[0.7776876,51.541039],[0.7777992,51.5409958],[0.7779326,51.540948],[0.7780831,51.5409021]]]}},
{"type":"Feature","properties":{"highway":"footway","name":null,"category":"Footpath (pedestrian only)"},"geometry":{"type":"MultiLineString","coordinates":[[[0.7768758,51.5411907],[0.7768638,51.5412025],[0.7768302,51.5412129],[0.7767941,51.5412145],[0.7767331,51.5412072],[0.7766471,51.5411884],[0.7765756,51.5411778],[0.776525,51.541177],[0.776441,51.5411847],[0.7763787,51.5411974],[0.7763308,51.5412088],[0.7763188,51.5412487],[0.7762924,51.5413012],[0.7762449,51.5413655],[0.7761809,51.541426],[0.77611,51.5414996],[0.7760874,51.5415333],[0.7760806,51.5415685],[0.7760919,51.5416046],[0.7761057,51.5416274]]]}},
{"type":"Feature","properties":{"highway":"footway","name":null,"category":"Footpath (pedestrian only)"},"geometry":{"type":"MultiLineString","coordinates":[[[0.7762851,51.5411325],[0.776255,51.5411236],[0.7762248,51.5411048],[0.7760325,51.5409744],[0.7757792,51.5407995]]]}},
{"type":"Feature","properties":{"highway":"footway","name":null,"category":"Footpath (pedestrian only)"},"geometry":{"type":"MultiLineString","coordinates":[[[0.7763308,51.5412088],[0.7762992,51.541156],[0.7762851,51.5411325]]]}},
{"type":"Feature","properties":{"highway":"footway","name":null,"category":"Footpath (pedestrian only)"},"geometry":{"type":"MultiLineString","coordinates":[[[0.7757792,51.5407995],[0.7758804,51.5407333],[0.7759774,51.5406541],[0.7760389,51.5405781],[0.7760752,51.5405189],[0.7761082,51.5404704],[0.7761549,51.54043],[0.7762147,51.5403939],[0.7762969,51.5403568],[0.7763749,51.5403325],[0.7765871,51.5402927],[0.7766217,51.5402822],[0.7766537,51.5402668],[0.7767334,51.5402253],[0.7768131,51.5401753],[0.7769047,51.5401057]]]}},
{"type":"Feature","properties":{"highway":"footway","name":null,"category":"Footpath (pedestrian only)"},"geometry":{"type":"MultiLineString","coordinates":[[[0.7769553,51.5400544],[0.7769321,51.540078],[0.7769047,51.5401057]]]}},
{"type":"Feature","properties":{"highway":"footway","name":null,"category":"Footpath (pedestrian only)"},"geometry":{"type":"MultiLineString","coordinates":[[[0.7772624,51.5412655],[0.7772214,51.5413131],[0.7771873,51.5413718],[0.7771584,51.5414355],[0.7771335,51.5415131],[0.7771098,51.5416159],[0.7771085,51.5417033],[0.7771177,51.5417555],[0.7771391,51.5417942]]]}},
{"type":"Feature","properties":{"highway":"footway","name":null,"category":"Footpath (pedestrian only)"},"geometry":{"type":"MultiLineString","coordinates":[[[0.7771391,51.5417942],[0.777161,51.5418331],[0.7771696,51.5418813],[0.7771617,51.5419209],[0.7771354,51.5419825],[0.7771171,51.5420009],[0.7770921,51.5420131],[0.777058,51.5420205],[0.7770416,51.5420233],[0.7770462,51.5420474],[0.7770363,51.5420735],[0.7769655,51.5421984],[0.7769372,51.5422592],[0.7769038,51.5423564],[0.7768696,51.5424515],[0.7768232,51.5424623],[0.7767607,51.5424825],[0.7766905,51.5425059],[0.7766114,51.5425364],[0.7765217,51.542572],[0.7763603,51.5424524],[0.7763045,51.542414],[0.7762427,51.542376],[0.7761854,51.5423484],[0.7761266,51.5423221],[0.7760452,51.5422958],[0.7759668,51.5422771],[0.7758643,51.5422574],[0.7756818,51.5422227],[0.7755861,51.5422044],[0.7754164,51.5421711],[0.775286,51.5421458],[0.7751872,51.5421195],[0.7751066,51.5420914],[0.7750304,51.5420614],[0.7749573,51.5420248],[0.7748879,51.5419812],[0.7748269,51.5419348],[0.7747666,51.5418767],[0.7747115,51.5418119],[0.774658,51.5417318],[0.7746286,51.5416675],[0.7746165,51.5416024],[0.774612,51.5415212],[0.7746233,51.5414579],[0.7746429,51.5413928],[0.7746851,51.5413121],[0.7747417,51.5412352],[0.7748065,51.5411747],[0.7748781,51.5411185],[0.7749611,51.5410678],[0.7750651,51.5410153],[0.7751639,51.5409787],[0.7752581,51.5409487],[0.775421,51.5409103],[0.7755785,51.540876],[0.7756456,51.5408568],[0.7756614,51.5408515],[0.7757037,51.5408371]]]}},
{"type":"Feature","properties":{"highway":"footway","name":null,"category":"Footpath (pedestrian only)"},"geometry":{"type":"MultiLineString","coordinates":[[[0.7757037,51.5408371],[0.7757436,51.5408172],[0.7757792,51.5407995]]]}},
{"type":"Feature","properties":{"highway":"footway","name":null,"category":"Footpath (pedestrian only)"},"geometry":{"type":"MultiLineString","coordinates":[[[0.7759803,51.5415773],[0.7759992,51.5416172],[0.7760301,51.5416584],[0.7760716,51.5416992],[0.7761176,51.5417264],[0.7761756,51.541747],[0.7762427,51.5417653],[0.7766589,51.5418497],[0.7767425,51.5418718],[0.7768081,51.5418915],[0.7768386,51.5419022],[0.7769024,51.5419247],[0.7769725,51.5419571],[0.7770087,51.5419834],[0.7770275,51.5420026],[0.7770416,51.5420233]]]}},
{"type":"Feature","properties":{"highway":"footway","name":null,"category":"Footpath (pedestrian only)"},"geometry":{"type":"MultiLineString","coordinates":[[[0.7756614,51.5408515],[0.7757217,51.540889],[0.7757655,51.5409227],[0.7757858,51.5409462],[0.7758077,51.5409766],[0.7758205,51.5409893],[0.7758446,51.5410029],[0.7760633,51.5411056],[0.7761281,51.5411384],[0.776159,51.5411619],[0.7761786,51.5411867],[0.7761899,51.5412233],[0.7761862,51.5412481],[0.7761764,51.5412796],[0.7761417,51.5413269],[0.7760437,51.5414188],[0.7760022,51.5414596],[0.7759826,51.5414854],[0.7759736,51.5415187]]]}},
{"type":"Feature","properties":{"highway":"footway","name":null,"category":"Footpath (pedestrian only)"},"geometry":{"type":"MultiLineString","coordinates":[[[0.7759736,51.5415187],[0.7759747,51.5415534],[0.7759803,51.5415773]]]}},
{"type":"Feature","properties":{"highway":"footway","name":null,"category":"Footpath (pedestrian only)"},"geometry":{"type":"MultiLineString","coordinates":[[[0.7781953,51.5418545],[0.7782387,51.5419018],[0.7783178,51.5419631],[0.7783496,51.5420009],[0.7783437,51.5420213],[0.7783228,51.5420405],[0.778283,51.5420565],[0.7782392,51.5420776],[0.7782263,51.5420974],[0.7782084,51.5421753],[0.7781835,51.5422601],[0.7781497,51.5423393],[0.7781029,51.5424476],[0.7781003,51.5424629],[0.778095,51.5424933],[0.778084,51.5426375],[0.7780735,51.5426846],[0.7780626,51.5427409],[0.7780134,51.5427804],[0.7779544,51.5427748],[0.7779219,51.5427718],[0.7779376,51.5427103],[0.7779361,51.5426911],[0.7779218,51.5426766],[0.7779014,51.542662],[0.7778682,51.5426559],[0.7777341,51.5426489],[0.7776323,51.5426391],[0.7775411,51.5426269],[0.7774498,51.5426095],[0.7773677,51.5425884],[0.7772093,51.5425392],[0.7771535,51.5425246],[0.777094,51.5425115],[0.7770299,51.542505],[0.7769605,51.5425054],[0.7768927,51.5425129],[0.7768286,51.5425279],[0.7767623,51.54255],[0.77657,51.5426245]]]}},
{"type":"Feature","properties":{"highway":"footway","name":null,"category":"Footpath (pedestrian only)"},"geometry":{"type":"MultiLineString","coordinates":[[[0.77657,51.5426245],[0.7765478,51.5426003],[0.7765217,51.542572]]]}},
{"type":"Feature","properties":{"highway":"footway","name":null,"category":"Footpath (pedestrian only)"},"geometry":{"type":"MultiLineString","coordinates":[[[0.7785655,51.5409499],[0.778513,51.541025],[0.778425,51.5411793],[0.7784185,51.5412479],[0.7784067,51.5412887],[0.7783791,51.5413287],[0.7783305,51.5413957],[0.778198,51.5415761],[0.778177,51.5416316],[0.7781638,51.5417075],[0.7781651,51.5417778],[0.7781953,51.5418545]]]}},
{"type":"Feature","properties":{"highway":"footway","name":null,"category":"Footpath (pedestrian only)"},"geometry":{"type":"MultiLineString","coordinates":[[[0.7787817,51.5407876],[0.7786863,51.5408348],[0.7786246,51.540883],[0.7785655,51.5409499]]]}},
{"type":"Feature","properties":{"highway":"footway","name":null,"category":"Footpath (pedestrian only)"},"geometry":{"type":"MultiLineString","coordinates":[[[0.7768696,51.5424515],[0.7769339,51.5424464],[0.7769965,51.5424422],[0.7770726,51.542445],[0.7771443,51.5424525],[0.7772212,51.5424712],[0.7773026,51.542497],[0.7774217,51.5425383],[0.7774843,51.5425552],[0.7775506,51.5425688],[0.777632,51.5425772],[0.7778492,51.542596],[0.7778982,51.5425974],[0.7779291,51.5425899],[0.777951,51.5425763],[0.7779638,51.5425444],[0.7779717,51.542501],[0.7779773,51.5424516]]]}},
{"type":"Feature","properties":{"highway":"footway","name":null,"category":"Footpath (pedestrian only)"},"geometry":{"type":"MultiLineString","coordinates":[[[0.77657,51.5426245],[0.7766334,51.5427048],[0.7766712,51.5427636],[0.776707,51.5428304],[0.7767418,51.5429046],[0.7767647,51.542977],[0.7768144,51.5433377],[0.7768519,51.5434763],[0.7768768,51.5435405],[0.7769093,51.5435965],[0.7769756,51.543678],[0.7770751,51.5437671]]]}},
{"type":"Feature","properties":{"highway":"footway","name":null,"category":"Footpath (pedestrian only)"},"geometry":{"type":"MultiLineString","coordinates":[[[0.779117,51.5423736],[0.7791274,51.5422896],[0.7791568,51.5420849],[0.7793188,51.5414472],[0.7793837,51.5411811],[0.7794555,51.5408321]]]}},
{"type":"Feature","properties":{"highway":"footway","name":null,"category":"Footpath (pedestrian only)"},"geometry":{"type":"MultiLineString","coordinates":[[[0.7770707,51.5389],[0.777095,51.5389514],[0.7771269,51.5390191]]]}},
{"type":"Feature","properties":{"highway":"footway","name":null,"category":"Footpath (pedestrian only)"},"geometry":{"type":"MultiLineString","coordinates":[[[0.7778119,51.5387815],[0.7777453,51.5387818],[0.7776809,51.5387821]]]}},
{"type":"Feature","properties":{"highway":"footway","name":null,"category":"Footpath (pedestrian only)"},"geometry":{"type":"MultiLineString","coordinates":[[[0.7781123,51.5374102],[0.7787946,51.5374753]]]}},
{"type":"Feature","properties":{"highway":"footway","name":null,"category":"Footpath (pedestrian only)"},"geometry":{"type":"MultiLineString","coordinates":[[[0.7774743,51.5373652],[0.7774412,51.5373974],[0.7774221,51.5374329],[0.7773416,51.5376931],[0.7772948,51.5378423],[0.7772853,51.5379016],[0.7772896,51.5379436],[0.7773009,51.5379695],[0.7773161,51.5379865]]]}},
{"type":"Feature","properties":{"highway":"footway","name":null,"category":"Footpath (pedestrian only)"},"geometry":{"type":"MultiLineString","coordinates":[[[0.7780051,51.5373762],[0.7779615,51.5375089],[0.7775432,51.5374572],[0.7773882,51.5378989],[0.7773925,51.5379269],[0.7774099,51.5379533],[0.7774358,51.5379727],[0.7774679,51.5379889],[0.7777173,51.5380734],[0.7777476,51.5380778],[0.7777675,51.5380788],[0.7777926,51.5380734],[0.7778204,51.5380567],[0.777894,51.5380201],[0.7779875,51.5379749],[0.7780776,51.5379409],[0.778178,51.5379129],[0.7785469,51.5378063],[0.7786119,51.5377815],[0.7786613,51.5377546],[0.7787089,51.5377217],[0.7787427,51.5376813],[0.7787591,51.5376409],[0.7787946,51.5374753]]]}},
{"type":"Feature","properties":{"highway":"footway","name":null,"category":"Footpath (pedestrian only)"},"geometry":{"type":"MultiLineString","coordinates":[[[0.7757118,51.5381481],[0.7755955,51.5381322]]]}},
{"type":"Feature","properties":{"highway":"footway","name":null,"category":"Footpath (pedestrian only)"},"geometry":{"type":"MultiLineString","coordinates":[[[0.7632761,51.5425837],[0.7631189,51.5418164],[0.7629829,51.5412273]]]}},
{"type":"Feature","properties":{"highway":"path","name":null,"category":"Shared path"},"geometry":{"type":"MultiLineString","coordinates":[[[0.7805784,51.5386335],[0.7804383,51.5384795]]]}},
{"type":"Feature","properties":{"highway":"path","name":null,"category":"Shared path"},"geometry":{"type":"MultiLineString","coordinates":[[[0.7804383,51.5384795],[0.780406,51.5384168]]]}},
{"type":"Feature","properties":{"highway":"path","name":null,"category":"Shared path"},"geometry":{"type":"MultiLineString","coordinates":[[[0.7804383,51.5384795],[0.7803396,51.538421]]]}},
{"type":"Feature","properties":{"highway":"path","name":null,"category":"Shared path"},"geometry":{"type":"MultiLineString","coordinates":[[[0.7804383,51.5384795],[0.7802928,51.5384759]]]}},
{"type":"Feature","properties":{"highway":"path","name":null,"category":"Shared path"},"geometry":{"type":"MultiLineString","coordinates":[[[0.7795182,51.5378],[0.7798315,51.5378581],[0.7800831,51.5379049]]]}},
{"type":"Feature","properties":{"highway":"path","name":null,"category":"Shared path"},"geometry":{"type":"MultiLineString","coordinates":[[[0.7801064,51.5375603],[0.7800528,51.5375537],[0.7800192,51.537547],[0.779987,51.5375395],[0.7799575,51.5375328],[0.7799334,51.5375245],[0.7799039,51.5375103],[0.7798851,51.5374886],[0.779869,51.5374711],[0.779861,51.5374502],[0.7798583,51.5374327],[0.7798596,51.537416],[0.7798677,51.5373977],[0.7798655,51.5373748]]]}},
{"type":"Feature","properties":{"highway":"path","name":null,"category":"Shared path"},"geometry":{"type":"MultiLineString","coordinates":[[[0.7691894,51.5311941],[0.7691339,51.5312413],[0.7688184,51.5313767],[0.7687235,51.5313694]]]}},
{"type":"Feature","properties":{"highway":"path","name":null,"category":"Shared path"},"geometry":{"type":"MultiLineString","coordinates":[[[0.7687401,51.5312746],[0.7686728,51.5312702],[0.7685319,51.5311362],[0.7685427,51.5310841]]]}},
{"type":"Feature","properties":{"highway":"path","name":null,"category":"Shared path"},"geometry":{"type":"MultiLineString","coordinates":[[[0.7688882,51.5334226],[0.7692406,51.5333492],[0.769421,51.5333117],[0.7693677,51.5331778],[0.7691683,51.5331642],[0.7688228,51.5331406]]]}},
{"type":"Feature","properties":{"highway":"path","name":null,"category":"Shared path"},"geometry":{"type":"MultiLineString","coordinates":[[[0.7692406,51.5333492],[0.7691718,51.5333354],[0.7691021,51.5333197],[0.7690778,51.5333039],[0.7690425,51.533274],[0.7690414,51.5332492],[0.7690728,51.5332203],[0.7691213,51.5331933],[0.7691683,51.5331642]]]}},
{"type":"Feature","properties":{"highway":"path","name":null,"category":"Shared path"},"geometry":{"type":"MultiLineString","coordinates":[[[0.7692442,51.5338953],[0.7698064,51.533811]]]}},
{"type":"Feature","properties":{"highway":"path","name":null,"category":"Shared path"},"geometry":{"type":"MultiLineString","coordinates":[[[0.7694768,51.5347455],[0.7695389,51.5347151],[0.7697517,51.5345802],[0.7696445,51.5343771],[0.7693393,51.5343325],[0.7692782,51.5343413]]]}},
{"type":"Feature","properties":{"highway":"path","name":null,"category":"Shared path"},"geometry":{"type":"MultiLineString","coordinates":[[[0.7701322,51.5353151],[0.7700858,51.5352664],[0.7697798,51.535117],[0.7696895,51.5351349],[0.769625,51.535169],[0.7696018,51.5353793],[0.7696301,51.5354342]]]}},
{"type":"Feature","properties":{"highway":"path","name":null,"category":"Shared path"},"geometry":{"type":"MultiLineString","coordinates":[[[0.7714313,51.535182],[0.7714171,51.5351164]]]}},
{"type":"Feature","properties":{"highway":"path","name":null,"category":"Shared path"},"geometry":{"type":"MultiLineString","coordinates":[[[0.771915,51.5351183],[0.7721732,51.5352436],[0.7722219,51.5352383],[0.772323,51.5352244],[0.7724404,51.5350485]]]}},
{"type":"Feature","properties":{"highway":"footway","name":null,"category":"Footpath (pedestrian only)"},"geometry":{"type":"MultiLineString","coordinates":[[[0.7721682,51.5350855],[0.7724404,51.5350485],[0.7726216,51.535024],[0.7732649,51.5349367],[0.7734849,51.5349111]]]}},
{"type":"Feature","properties":{"highway":"path","name":null,"category":"Shared path"},"geometry":{"type":"MultiLineString","coordinates":[[[0.7726216,51.535024],[0.7726088,51.5349633]]]}},
{"type":"Feature","properties":{"highway":"path","name":null,"category":"Shared path"},"geometry":{"type":"MultiLineString","coordinates":[[[0.7725195,51.5358444],[0.7726178,51.5358178],[0.7728572,51.5357784],[0.7730364,51.5357707],[0.773081,51.5357305]]]}},
{"type":"Feature","properties":{"highway":"path","name":null,"category":"Shared path"},"geometry":{"type":"MultiLineString","coordinates":[[[0.7712619,51.5362786],[0.7711659,51.536001]]]}},
{"type":"Feature","properties":{"highway":"path","name":null,"category":"Shared path"},"geometry":{"type":"MultiLineString","coordinates":[[[0.7698181,51.5355299],[0.76983,51.5355767],[0.7699906,51.5358316],[0.7702677,51.5357592],[0.7700943,51.5354985],[0.7700562,51.535467]]]}},
{"type":"Feature","properties":{"highway":"pedestrian","name":null,"category":"Pedestrian area/street"},"geometry":{"type":"MultiLineString","coordinates":[[[0.7765098,51.5355253],[0.7764347,51.5353242]]]}},
{"type":"Feature","properties":{"highway":"pedestrian","name":null,"category":"Pedestrian area/street"},"geometry":{"type":"MultiLineString","coordinates":[[[0.7754691,51.5356855],[0.7753841,51.5354635]]]}},
{"type":"Feature","properties":{"highway":"pedestrian","name":"Woolpack","category":"Pedestrian area/street"},"geometry":{"type":"MultiLineString","coordinates":[[[0.7745473,51.5347095],[0.7747882,51.5353932]]]}},
{"type":"Feature","properties":{"highway":"pedestrian","name":null,"category":"Pedestrian area/street"},"geometry":{"type":"MultiLineString","coordinates":[[[0.7743564,51.5358232],[0.7742829,51.5355971]]]}}
]
}
