{
"type": "FeatureCollection",
"name": "SOUTH_52_walking",
"crs": { "type": "name", "properties": { "name": "urn:ogc:def:crs:OGC:1.3:CRS84" } },
"features": [
{"type":"Feature","properties":{"highway":"footway","name":null,"category":"Footpath (pedestrian only)"},"geometry":{"type":"MultiLineString","coordinates":[[[0.786945,51.5388536],[0.7870146,51.5388671],[0.7870837,51.5387183],[0.7869863,51.5387017],[0.7870115,51.5386478],[0.7870754,51.5385334],[0.7871236,51.5385411]]]}},
{"type":"Feature","properties":{"highway":"footway","name":null,"category":"Footpath (pedestrian only)"},"geometry":{"type":"MultiLineString","coordinates":[[[0.7868224,51.5391452],[0.7868616,51.5391552],[0.7868155,51.5392445],[0.7869358,51.5392758],[0.7869128,51.5393337]]]}},
{"type":"Feature","properties":{"highway":"footway","name":null,"category":"Footpath (pedestrian only)"},"geometry":{"type":"MultiLineString","coordinates":[[[0.788768,51.5388889],[0.788755,51.5389608],[0.7887379,51.5390548],[0.7886514,51.5392855]]]}},
{"type":"Feature","properties":{"highway":"footway","name":null,"category":"Footpath (pedestrian only)"},"geometry":{"type":"MultiLineString","coordinates":[[[0.7881224,51.5387372],[0.7880703,51.5387883],[0.7880406,51.5388398],[0.7880341,51.538851],[0.7880183,51.538887],[0.7878983,51.53916]]]}},
{"type":"Feature","properties":{"highway":"footway","name":null,"category":"Footpath (pedestrian only)"},"geometry":{"type":"MultiLineString","coordinates":[[[0.7905263,51.5412425],[0.7901904,51.5412438],[0.7900555,51.5412319],[0.7899296,51.5412207],[0.7898718,51.5412151],[0.7897697,51.5412051],[0.7895951,51.5411861],[0.7894217,51.54117]]]}},
{"type":"Feature","properties":{"highway":"footway","name":null,"category":"Footpath (pedestrian only)"},"geometry":{"type":"MultiLineString","coordinates":[[[0.7869685,51.543713],[0.7869865,51.5437425],[0.7870724,51.5437434],[0.7871734,51.5437678],[0.7873965,51.5438192],[0.7876112,51.5438011],[0.7876583,51.5437753]]]}},
{"type":"Feature","properties":{"highway":"footway","name":null,"category":"Footpath (pedestrian only)"},"geometry":{"type":"MultiLineString","coordinates":[[[0.7948987,51.5348277],[0.7947011,51.5356097]]]}},
{"type":"Feature","properties":{"highway":"footway","name":null,"category":"Footpath (pedestrian only)"},"geometry":{"type":"MultiLineString","coordinates":[[[0.7926903,51.5339196],[0.7928738,51.5332593],[0.7928497,51.5332424]]]}},
{"type":"Feature","properties":{"highway":"footway","name":null,"category":"Footpath (pedestrian only)"},"geometry":{"type":"MultiLineString","coordinates":[[[0.7907123,51.535134],[0.7908054,51.5351486]]]}},
{"type":"Feature","properties":{"highway":"footway","name":null,"category":"Footpath (pedestrian only)"},"geometry":{"type":"MultiLineString","coordinates":[[[0.7867445,51.5348996],[0.786564,51.535201],[0.7862851,51.5356896],[0.7859418,51.5362742],[0.7858774,51.5363709],[0.7850842,51.537387],[0.7850785,51.5374149],[0.7850683,51.5374733],[0.784939,51.5377148]]]}},
{"type":"Feature","properties":{"highway":"footway","name":null,"category":"Footpath (pedestrian only)"},"geometry":{"type":"MultiLineString","coordinates":[[[0.7873484,51.5355487],[0.7872964,51.5355173],[0.7874677,51.5350963]]]}},
{"type":"Feature","properties":{"highway":"footway","name":null,"category":"Footpath (pedestrian only)"},"geometry":{"type":"MultiLineString","coordinates":[[[0.7908699,51.5345779],[0.7909126,51.534648],[0.7908363,51.5348184],[0.7907465,51.5350505],[0.7907123,51.535134]]]}},
{"type":"Feature","properties":{"highway":"footway","name":null,"category":"Footpath (pedestrian only)"},"geometry":{"type":"MultiLineString","coordinates":[[[0.785037,51.5377155],[0.7852588,51.5377704],[0.7856184,51.5378521],[0.7856614,51.5378561],[0.7857066,51.5378521],[0.7857368,51.53784],[0.7857605,51.5378173],[0.7858444,51.5376793],[0.7859727,51.5375316],[0.7861406,51.5373946],[0.7865002,51.5372251],[0.7868241,51.5371343],[0.7868564,51.5371262],[0.7868951,51.5370941],[0.7869059,51.5370512],[0.7868435,51.5368959],[0.7868241,51.5368637],[0.786781,51.5368396],[0.7860007,51.5366091],[0.7861468,51.5364178],[0.7859418,51.5362742]]]}},
{"type":"Feature","properties":{"highway":"footway","name":null,"category":"Footpath (pedestrian only)"},"geometry":{"type":"MultiLineString","coordinates":[[[0.7871325,51.5360382],[0.7862851,51.5356896]]]}},
{"type":"Feature","properties":{"highway":"footway","name":null,"category":"Footpath (pedestrian only)"},"geometry":{"type":"MultiLineString","coordinates":[[[0.7891517,51.5361227],[0.7894333,51.5355771],[0.7896854,51.5357023],[0.7897004,51.5357242],[0.7898464,51.5359375]]]}},
{"type":"Feature","properties":{"highway":"footway","name":null,"category":"Footpath (pedestrian only)"},"geometry":{"type":"MultiLineString","coordinates":[[[0.7910734,51.5356423],[0.7910836,51.5354941],[0.7910346,51.535407],[0.7909531,51.5353619],[0.7908547,51.5352187],[0.7908054,51.5351486],[0.7907465,51.5350505]]]}},
{"type":"Feature","properties":{"highway":"footway","name":null,"category":"Footpath (pedestrian only)"},"geometry":{"type":"MultiLineString","coordinates":[[[0.7899054,51.5359542],[0.7898464,51.5359375],[0.7896103,51.5358891],[0.7897004,51.5357242]]]}},
{"type":"Feature","properties":{"highway":"footway","name":null,"category":"Footpath (pedestrian only)"},"geometry":{"type":"MultiLineString","coordinates":[[[0.788754,51.5358609],[0.7888083,51.5357741],[0.788969,51.5354408]]]}},
{"type":"Feature","properties":{"highway":"footway","name":null,"category":"Footpath (pedestrian only)"},"geometry":{"type":"MultiLineString","coordinates":[[[0.7880482,51.5356274],[0.7882277,51.5352766]]]}},
{"type":"Feature","properties":{"highway":"footway","name":null,"category":"Footpath (pedestrian only)"},"geometry":{"type":"MultiLineString","coordinates":[[[0.7865403,51.5385332],[0.7866422,51.5383479],[0.7868252,51.5379455],[0.7863704,51.5378414]]]}},
{"type":"Feature","properties":{"highway":"footway","name":null,"category":"Footpath (pedestrian only)"},"geometry":{"type":"MultiLineString","coordinates":[[[0.787318,51.5382174],[0.787187,51.5380998],[0.7871655,51.5380075],[0.7868252,51.5379455]]]}},
{"type":"Feature","properties":{"highway":"footway","name":null,"category":"Footpath (pedestrian only)"},"geometry":{"type":"MultiLineString","coordinates":[[[0.7886405,51.5372386],[0.7888443,51.5368365]]]}},
{"type":"Feature","properties":{"highway":"footway","name":null,"category":"Footpath (pedestrian only)"},"geometry":{"type":"MultiLineString","coordinates":[[[0.7883669,51.5366747],[0.7883341,51.5367413],[0.7882105,51.536992],[0.7881309,51.5371535],[0.7879567,51.5371812]]]}},
{"type":"Feature","properties":{"highway":"footway","name":null,"category":"Footpath (pedestrian only)"},"geometry":{"type":"MultiLineString","coordinates":[[[0.7888443,51.5368365],[0.78873,51.5368144],[0.7883341,51.5367413]]]}},
{"type":"Feature","properties":{"highway":"footway","name":null,"category":"Footpath (pedestrian only)"},"geometry":{"type":"MultiLineString","coordinates":[[[0.7882105,51.536992],[0.7880343,51.5369583],[0.7884061,51.5362292]]]}},
{"type":"Feature","properties":{"highway":"footway","name":null,"category":"Footpath (pedestrian only)"},"geometry":{"type":"MultiLineString","coordinates":[[[0.78873,51.5368144],[0.7888202,51.536633],[0.7887826,51.5365712],[0.7889016,51.5363326]]]}},
{"type":"Feature","properties":{"highway":"footway","name":null,"category":"Footpath (pedestrian only)"},"geometry":{"type":"MultiLineString","coordinates":[[[0.8001937,51.5368205],[0.7994527,51.5369939],[0.7989399,51.5370907],[0.7983266,51.5372174],[0.7978696,51.5372721],[0.7974873,51.537348],[0.7973304,51.5372246],[0.7972401,51.5372418],[0.7971318,51.5372623],[0.7967381,51.537337],[0.7965459,51.5373731],[0.7950117,51.5373072],[0.7937738,51.5372646],[0.7931541,51.5372249],[0.7930711,51.5372196],[0.7925374,51.5372132]]]}},
{"type":"Feature","properties":{"highway":"footway","name":null,"category":"Footpath (pedestrian only)"},"geometry":{"type":"MultiLineString","coordinates":[[[0.7973539,51.5370598],[0.7973304,51.5372246]]]}},
{"type":"Feature","properties":{"highway":"footway","name":null,"category":"Footpath (pedestrian only)"},"geometry":{"type":"MultiLineString","coordinates":[[[0.7985116,51.5375867],[0.7983266,51.5372174],[0.7980774,51.536845],[0.7980319,51.5368018]]]}},
{"type":"Feature","properties":{"highway":"footway","name":null,"category":"Footpath (pedestrian only)"},"geometry":{"type":"MultiLineString","coordinates":[[[0.7893214,51.5404318],[0.7894367,51.5405829],[0.7894775,51.5406495],[0.7894621,51.5408139],[0.7895414,51.5408831]]]}},
{"type":"Feature","properties":{"highway":"footway","name":null,"category":"Footpath (pedestrian only)"},"geometry":{"type":"MultiLineString","coordinates":[[[0.7976923,51.5387633],[0.7976023,51.5387892],[0.7975911,51.5386112],[0.7974138,51.5382799],[0.7973787,51.5382142]]]}},
{"type":"Feature","properties":{"highway":"footway","name":null,"category":"Footpath (pedestrian only)"},"geometry":{"type":"MultiLineString","coordinates":[[[0.7862151,51.5374218],[0.7861406,51.5373946],[0.7860783,51.5373718],[0.7858715,51.5373148]]]}},
{"type":"Feature","properties":{"highway":"footway","name":null,"category":"Footpath (pedestrian only)"},"geometry":{"type":"MultiLineString","coordinates":[[[0.7920284,51.5423191],[0.7920789,51.5422885],[0.7921325,51.542216],[0.7921996,51.542191],[0.7922634,51.5421736],[0.7926913,51.5422086],[0.7925381,51.5418063],[0.7925355,51.5417531],[0.792656,51.541525],[0.7928857,51.5413142],[0.7934128,51.5406326],[0.7934525,51.540627],[0.7935824,51.5406397],[0.7938535,51.5407638],[0.7940503,51.5408285],[0.7942142,51.5408472],[0.7943769,51.5408332],[0.7947328,51.5407166],[0.7952803,51.5406513],[0.7952241,51.5404805]]]}},
{"type":"Feature","properties":{"highway":"footway","name":null,"category":"Footpath (pedestrian only)"},"geometry":{"type":"MultiLineString","coordinates":[[[0.7925381,51.5418063],[0.7927342,51.5418675],[0.7928135,51.5420075],[0.7928388,51.5419661],[0.7929529,51.5419346],[0.7932223,51.5419799],[0.7933015,51.5420548],[0.793292,51.5420922],[0.793105,51.5421198],[0.792899,51.5420824],[0.7928135,51.5420075]]]}},
{"type":"Feature","properties":{"highway":"footway","name":null,"category":"Footpath (pedestrian only)"},"geometry":{"type":"MultiLineString","coordinates":[[[0.793105,51.5421198],[0.7931335,51.5420469],[0.7932223,51.5419799]]]}},
{"type":"Feature","properties":{"highway":"footway","name":null,"category":"Footpath (pedestrian only)"},"geometry":{"type":"MultiLineString","coordinates":[[[0.7926913,51.5422086],[0.7930085,51.5422587],[0.7942189,51.5422406],[0.7949204,51.5421332],[0.7953853,51.5420875],[0.7962428,51.5419214],[0.7971434,51.5417407],[0.7989796,51.5415847],[0.8002108,51.5414605],[0.7996345,51.5406332],[0.7993737,51.5406241],[0.7986021,51.5408061],[0.7978092,51.541138],[0.797245,51.5411949],[0.7968782,51.5410969],[0.7962234,51.5407634],[0.7959413,51.540754],[0.7957889,51.5406781],[0.7952803,51.5406513],[0.7950951,51.5411286],[0.7947444,51.5415601],[0.7947095,51.5416744],[0.7949311,51.542054],[0.7949204,51.5421332]]]}},
{"type":"Feature","properties":{"highway":"footway","name":null,"category":"Footpath (pedestrian only)"},"geometry":{"type":"MultiLineString","coordinates":[[[0.7920284,51.5423191],[0.7919544,51.5423229],[0.7915035,51.5423322],[0.7906727,51.5423494],[0.7901159,51.5423609],[0.7899261,51.542384],[0.7896878,51.5423891],[0.7893098,51.5424047],[0.7888473,51.5424001],[0.7876897,51.5421005],[0.7873708,51.542018],[0.7871303,51.5419176],[0.7868283,51.5417214],[0.7862987,51.5414052],[0.7862755,51.5413959],[0.7861015,51.5413266],[0.7859087,51.5412082],[0.7851828,51.5410367],[0.785262,51.5408758],[0.7850234,51.5408476],[0.7848253,51.5407956],[0.7847203,51.5409708],[0.7846559,51.5409886],[0.7846201,51.5410361],[0.7843815,51.5411904],[0.7839782,51.5411058],[0.7838422,51.5411043],[0.7836775,51.5410553],[0.7835057,51.5410093],[0.7834174,51.5410316],[0.7829237,51.5409255],[0.7826865,51.5409532],[0.782622,51.540959]]]}},
{"type":"Feature","properties":{"highway":"footway","name":null,"category":"Footpath (pedestrian only)"},"geometry":{"type":"MultiLineString","coordinates":[[[0.7881708,51.5402986],[0.78806,51.5404017],[0.7879616,51.5406213],[0.7879518,51.5406821],[0.7878668,51.5409062],[0.7877078,51.5411024],[0.7876813,51.5411426],[0.7876652,51.541241],[0.7875987,51.5414123],[0.7875861,51.5416114],[0.7875619,51.5417231],[0.7874848,51.541943],[0.7873708,51.542018],[0.7872977,51.5421827],[0.7872885,51.5422035]]]}},
{"type":"Feature","properties":{"highway":"footway","name":null,"category":"Footpath (pedestrian only)"},"geometry":{"type":"MultiLineString","coordinates":[[[0.7868283,51.5417214],[0.7864107,51.5417541],[0.786339,51.5418271],[0.7864042,51.5419162],[0.7865508,51.5419689],[0.7866029,51.5419993],[0.7865699,51.5420447],[0.786541,51.5420844],[0.7864791,51.5421006],[0.7861772,51.5421151],[0.7861056,51.5421074]]]}},
{"type":"Feature","properties":{"highway":"footway","name":null,"category":"Footpath (pedestrian only)"},"geometry":{"type":"MultiLineString","coordinates":[[[0.786339,51.5418271],[0.7862188,51.5417643]]]}},
{"type":"Feature","properties":{"highway":"footway","name":null,"category":"Footpath (pedestrian only)"},"geometry":{"type":"MultiLineString","coordinates":[[[0.7864107,51.5417541],[0.7862188,51.5417643],[0.786128,51.5417689],[0.7860603,51.5417595],[0.7859845,51.5417147],[0.7859899,51.541688],[0.7862755,51.5413959]]]}},
{"type":"Feature","properties":{"highway":"footway","name":null,"category":"Footpath (pedestrian only)"},"geometry":{"type":"MultiLineString","coordinates":[[[0.7996345,51.5406332],[0.7996633,51.5405707],[0.799666,51.540504],[0.799725,51.5404823]]]}},
{"type":"Feature","properties":{"highway":"footway","name":null,"category":"Footpath (pedestrian only)"},"geometry":{"type":"MultiLineString","coordinates":[[[0.7934128,51.5406326],[0.7933069,51.5405995],[0.7932522,51.5405824]]]}},
{"type":"Feature","properties":{"highway":"footway","name":null,"category":"Footpath (pedestrian only)"},"geometry":{"type":"MultiLineString","coordinates":[[[0.7921325,51.542216],[0.7920306,51.5421885]]]}},
{"type":"Feature","properties":{"highway":"footway","name":null,"category":"Footpath (pedestrian only)"},"geometry":{"type":"MultiLineString","coordinates":[[[0.7860603,51.5417595],[0.7860005,51.5417892]]]}},
{"type":"Feature","properties":{"highway":"footway","name":null,"category":"Footpath (pedestrian only)"},"geometry":{"type":"MultiLineString","coordinates":[[[0.7877078,51.5411024],[0.7879721,51.5411618]]]}},
{"type":"Feature","properties":{"highway":"footway","name":null,"category":"Footpath (pedestrian only)"},"geometry":{"type":"MultiLineString","coordinates":[[[0.7883086,51.5403957],[0.7882668,51.5403856],[0.7882703,51.5403678],[0.7882716,51.5403496],[0.7882602,51.5403276],[0.7882453,51.5403157],[0.7882275,51.5403096],[0.7881708,51.5402986],[0.7879945,51.5402643]]]}},
{"type":"Feature","properties":{"highway":"path","name":null,"category":"Shared path"},"geometry":{"type":"MultiLineString","coordinates":[[[0.7826671,51.5377581],[0.7832898,51.5374666],[0.7835116,51.5373816],[0.7836725,51.537355],[0.7838764,51.5373383],[0.7839756,51.5373483],[0.7840668,51.5373283],[0.7841361,51.5372024]]]}},
{"type":"Feature","properties":{"highway":"path","name":null,"category":"Shared path"},"geometry":{"type":"MultiLineString","coordinates":[[[0.784069,51.5378515],[0.7839274,51.5378354],[0.7839005,51.5377987],[0.7835679,51.5377003],[0.7832898,51.5374666],[0.7829966,51.5372282],[0.7829215,51.5371764],[0.7828169,51.5371347],[0.7826238,51.5370914],[0.7822832,51.5370496],[0.7818379,51.5370213],[0.781677,51.537093],[0.7814865,51.5372065],[0.7813793,51.5373049],[0.7813283,51.5373716],[0.7812854,51.5374478],[0.7812532,51.5375321],[0.7812322,51.5375904]]]}},
{"type":"Feature","properties":{"highway":"path","name":null,"category":"Shared path"},"geometry":{"type":"MultiLineString","coordinates":[[[0.7835679,51.5377003],[0.7835787,51.5379923],[0.7835545,51.5381724],[0.7836725,51.5381958],[0.7837476,51.5382325],[0.7837879,51.5383059],[0.7839324,51.5383413],[0.7839492,51.5383112]]]}},
{"type":"Feature","properties":{"highway":"path","name":null,"category":"Shared path"},"geometry":{"type":"MultiLineString","coordinates":[[[0.7835545,51.5381724],[0.7834821,51.5382208],[0.78334,51.5382709],[0.7832085,51.5382892],[0.7830047,51.5382942],[0.782884,51.5383176],[0.7827713,51.5383626]]]}},
{"type":"Feature","properties":{"highway":"footway","name":null,"category":"Footpath (pedestrian only)"},"geometry":{"type":"MultiLineString","coordinates":[[[0.7891854,51.5404146],[0.7892093,51.5403338],[0.7892989,51.539986],[0.789384,51.5395921],[0.7894139,51.5394538],[0.7895192,51.5388666],[0.789541,51.5387723],[0.7895942,51.5385414],[0.789659,51.5381194],[0.7896689,51.5376857],[0.7896812,51.5375156]]]}},
{"type":"Feature","properties":{"highway":"footway","name":null,"category":"Footpath (pedestrian only)"},"geometry":{"type":"MultiLineString","coordinates":[[[0.789659,51.5381194],[0.7901873,51.5381933],[0.7902341,51.5381963],[0.7909346,51.5382414],[0.7909515,51.5381404],[0.7909939,51.5378863],[0.7910081,51.5378011]]]}},
{"type":"Feature","properties":{"highway":"footway","name":null,"category":"Footpath (pedestrian only)"},"geometry":{"type":"MultiLineString","coordinates":[[[0.7901873,51.5381933],[0.7900581,51.5382254],[0.7897747,51.5383763],[0.7896415,51.5384604],[0.7895942,51.5385414]]]}},
{"type":"Feature","properties":{"highway":"footway","name":null,"category":"Footpath (pedestrian only)"},"geometry":{"type":"MultiLineString","coordinates":[[[0.7902637,51.5386661],[0.7901258,51.5386536],[0.7901427,51.5385895],[0.7901682,51.5384797],[0.7902341,51.5381963]]]}},
{"type":"Feature","properties":{"highway":"footway","name":null,"category":"Footpath (pedestrian only)"},"geometry":{"type":"MultiLineString","coordinates":[[[0.7909346,51.5382414],[0.7909877,51.5382471],[0.7912647,51.5382771],[0.7914336,51.5383047],[0.7915027,51.5383338],[0.7919403,51.53836],[0.7920383,51.538377],[0.7920286,51.5384252],[0.7919832,51.5386496],[0.7917085,51.5386238],[0.791685,51.5387427],[0.7916683,51.5388299]]]}},
{"type":"Feature","properties":{"highway":"footway","name":null,"category":"Footpath (pedestrian only)"},"geometry":{"type":"MultiLineString","coordinates":[[[0.791685,51.5387427],[0.7910444,51.5386843],[0.7910101,51.5388772],[0.7909086,51.538869],[0.7908677,51.5390331],[0.7909613,51.5390413],[0.790927,51.5391947],[0.7908307,51.5391873],[0.7907793,51.5394311],[0.790865,51.5394384],[0.7908303,51.5396148],[0.7908167,51.5396838],[0.7907845,51.5398471],[0.7906764,51.5398413],[0.7906101,51.5401509],[0.7906091,51.5401556],[0.7905648,51.540321],[0.7905352,51.5404313],[0.7903136,51.5404264],[0.7903085,51.5405029]]]}},
{"type":"Feature","properties":{"highway":"footway","name":null,"category":"Footpath (pedestrian only)"},"geometry":{"type":"MultiLineString","coordinates":[[[0.7906101,51.5401509],[0.7908215,51.5401687],[0.7908927,51.5398545],[0.7907845,51.5398471]]]}},
{"type":"Feature","properties":{"highway":"footway","name":null,"category":"Footpath (pedestrian only)"},"geometry":{"type":"MultiLineString","coordinates":[[[0.790865,51.5394384],[0.7909811,51.5394499],[0.7909363,51.5396953],[0.7908167,51.5396838]]]}},
{"type":"Feature","properties":{"highway":"footway","name":null,"category":"Footpath (pedestrian only)"},"geometry":{"type":"MultiLineString","coordinates":[[[0.7909811,51.5394499],[0.7910352,51.5392062]]]}},
{"type":"Feature","properties":{"highway":"footway","name":null,"category":"Footpath (pedestrian only)"},"geometry":{"type":"MultiLineString","coordinates":[[[0.790927,51.5391947],[0.7910352,51.5392062],[0.7917231,51.5392717]]]}},
{"type":"Feature","properties":{"highway":"footway","name":null,"category":"Footpath (pedestrian only)"},"geometry":{"type":"MultiLineString","coordinates":[[[0.7908307,51.5391873],[0.7904258,51.5391517],[0.7902252,51.539134],[0.7903351,51.5387104],[0.7903426,51.5386769],[0.7904125,51.5386843],[0.7904253,51.5386258],[0.7904508,51.5385095],[0.7905233,51.5385169],[0.7905444,51.5384406],[0.7906473,51.5383947],[0.7909132,51.5384149],[0.7909389,51.5384168],[0.7909877,51.5382471]]]}},
{"type":"Feature","properties":{"highway":"footway","name":null,"category":"Footpath (pedestrian only)"},"geometry":{"type":"MultiLineString","coordinates":[[[0.7904508,51.5385095],[0.7903101,51.5384947],[0.7901682,51.5384797]]]}},
{"type":"Feature","properties":{"highway":"footway","name":null,"category":"Footpath (pedestrian only)"},"geometry":{"type":"MultiLineString","coordinates":[[[0.7904253,51.5386258],[0.790863,51.5386672],[0.7910444,51.5386843],[0.7910656,51.5386384],[0.791245,51.5385391],[0.791274,51.5385128],[0.7913922,51.5384018],[0.7915027,51.5383338]]]}},
{"type":"Feature","properties":{"highway":"footway","name":null,"category":"Footpath (pedestrian only)"},"geometry":{"type":"MultiLineString","coordinates":[[[0.7917085,51.5386238],[0.7915748,51.538611]]]}},
{"type":"Feature","properties":{"highway":"footway","name":null,"category":"Footpath (pedestrian only)"},"geometry":{"type":"MultiLineString","coordinates":[[[0.7919832,51.5386496],[0.7919232,51.5389293]]]}},
{"type":"Feature","properties":{"highway":"footway","name":null,"category":"Footpath (pedestrian only)"},"geometry":{"type":"MultiLineString","coordinates":[[[0.7909613,51.5390413],[0.7910692,51.5390504],[0.79111,51.5388836]]]}},
{"type":"Feature","properties":{"highway":"footway","name":null,"category":"Footpath (pedestrian only)"},"geometry":{"type":"MultiLineString","coordinates":[[[0.7910101,51.5388772],[0.79111,51.5388836],[0.7918032,51.5389414]]]}},
{"type":"Feature","properties":{"highway":"footway","name":null,"category":"Footpath (pedestrian only)"},"geometry":{"type":"MultiLineString","coordinates":[[[0.790863,51.5386672],[0.7909132,51.5384149]]]}},
{"type":"Feature","properties":{"highway":"footway","name":null,"category":"Footpath (pedestrian only)"},"geometry":{"type":"MultiLineString","coordinates":[[[0.7901427,51.5385895],[0.7895942,51.5385414]]]}},
{"type":"Feature","properties":{"highway":"footway","name":null,"category":"Footpath (pedestrian only)"},"geometry":{"type":"MultiLineString","coordinates":[[[0.7919403,51.53836],[0.7919558,51.5382643],[0.7921989,51.5382824],[0.7922585,51.5380178],[0.7919842,51.5379965],[0.7920129,51.5378336],[0.7918761,51.5378248]]]}},
{"type":"Feature","properties":{"highway":"footway","name":null,"category":"Footpath (pedestrian only)"},"geometry":{"type":"MultiLineString","coordinates":[[[0.7918761,51.5378248],[0.7917344,51.5378149],[0.7917347,51.5378132],[0.7917413,51.5377707],[0.7911694,51.5377274]]]}},
{"type":"Feature","properties":{"highway":"footway","name":null,"category":"Footpath (pedestrian only)"},"geometry":{"type":"MultiLineString","coordinates":[[[0.7909515,51.5381404],[0.7910689,51.5381491],[0.7916612,51.538194]]]}},
{"type":"Feature","properties":{"highway":"footway","name":null,"category":"Footpath (pedestrian only)"},"geometry":{"type":"MultiLineString","coordinates":[[[0.7910689,51.5381491],[0.7911238,51.5378965],[0.7909939,51.5378863]]]}},
{"type":"Feature","properties":{"highway":"footway","name":null,"category":"Footpath (pedestrian only)"},"geometry":{"type":"MultiLineString","coordinates":[[[0.7910081,51.5378011],[0.7910203,51.5377131],[0.7911694,51.5377274]]]}},
{"type":"Feature","properties":{"highway":"footway","name":null,"category":"Footpath (pedestrian only)"},"geometry":{"type":"MultiLineString","coordinates":[[[0.7910203,51.5377131],[0.7904549,51.5376682],[0.7904404,51.5377256],[0.7903049,51.5377141]]]}},
{"type":"Feature","properties":{"highway":"footway","name":null,"category":"Footpath (pedestrian only)"},"geometry":{"type":"MultiLineString","coordinates":[[[0.7902341,51.5381963],[0.7902773,51.5379782],[0.7902961,51.5378834],[0.7904135,51.5378909]]]}},
{"type":"Feature","properties":{"highway":"footway","name":null,"category":"Footpath (pedestrian only)"},"geometry":{"type":"MultiLineString","coordinates":[[[0.7902773,51.5379782],[0.7904108,51.5379863]]]}},
{"type":"Feature","properties":{"highway":"footway","name":null,"category":"Footpath (pedestrian only)"},"geometry":{"type":"MultiLineString","coordinates":[[[0.7915605,51.5399123],[0.7908927,51.5398545]]]}},
{"type":"Feature","properties":{"highway":"footway","name":null,"category":"Footpath (pedestrian only)"},"geometry":{"type":"MultiLineString","coordinates":[[[0.7920427,51.5399327],[0.7915659,51.5398911]]]}},
{"type":"Feature","properties":{"highway":"footway","name":null,"category":"Footpath (pedestrian only)"},"geometry":{"type":"MultiLineString","coordinates":[[[0.7916559,51.5395392],[0.7922207,51.5395873],[0.7922618,51.5394029],[0.7917018,51.5393595]]]}},
{"type":"Feature","properties":{"highway":"footway","name":null,"category":"Footpath (pedestrian only)"},"geometry":{"type":"MultiLineString","coordinates":[[[0.7916612,51.538194],[0.7917347,51.5378132]]]}},
{"type":"Feature","properties":{"highway":"footway","name":null,"category":"Footpath (pedestrian only)"},"geometry":{"type":"MultiLineString","coordinates":[[[0.7919558,51.5382643],[0.7916551,51.5382357],[0.7916612,51.538194]]]}},
{"type":"Feature","properties":{"highway":"footway","name":null,"category":"Footpath (pedestrian only)"},"geometry":{"type":"MultiLineString","coordinates":[[[0.7880341,51.538851],[0.788659,51.538962],[0.788755,51.5389608]]]}},
{"type":"Feature","properties":{"highway":"footway","name":null,"category":"Footpath (pedestrian only)"},"geometry":{"type":"MultiLineString","coordinates":[[[0.7881908,51.5383787],[0.7881691,51.538356],[0.7878539,51.5382961],[0.7877996,51.5382858],[0.7877139,51.5382695],[0.7874983,51.538229],[0.7874356,51.5382262],[0.7873786,51.5382326],[0.7873158,51.5382581]]]}},
{"type":"Feature","properties":{"highway":"footway","name":null,"category":"Footpath (pedestrian only)"},"geometry":{"type":"MultiLineString","coordinates":[[[0.7878539,51.5382961],[0.7876457,51.5387702],[0.7876238,51.5388201],[0.7880183,51.538887]]]}},
{"type":"Feature","properties":{"highway":"footway","name":null,"category":"Footpath (pedestrian only)"},"geometry":{"type":"MultiLineString","coordinates":[[[0.7876238,51.5388201],[0.7870837,51.5387183]]]}},
{"type":"Feature","properties":{"highway":"footway","name":null,"category":"Footpath (pedestrian only)"},"geometry":{"type":"MultiLineString","coordinates":[[[0.7869863,51.5387017],[0.7865036,51.5386178],[0.7865403,51.5385332]]]}},
{"type":"Feature","properties":{"highway":"footway","name":null,"category":"Footpath (pedestrian only)"},"geometry":{"type":"MultiLineString","coordinates":[[[0.7870115,51.5386478],[0.7875052,51.5387441],[0.7875428,51.5386611],[0.7877139,51.5382695]]]}},
{"type":"Feature","properties":{"highway":"footway","name":null,"category":"Footpath (pedestrian only)"},"geometry":{"type":"MultiLineString","coordinates":[[[0.7880406,51.5388398],[0.7876457,51.5387702],[0.7875052,51.5387441]]]}},
{"type":"Feature","properties":{"highway":"footway","name":null,"category":"Footpath (pedestrian only)"},"geometry":{"type":"MultiLineString","coordinates":[[[0.7869358,51.5392758],[0.7877971,51.5394193]]]}},
{"type":"Feature","properties":{"highway":"footway","name":null,"category":"Footpath (pedestrian only)"},"geometry":{"type":"MultiLineString","coordinates":[[[0.7868155,51.5392445],[0.786449,51.5391784],[0.786357,51.5391256],[0.7863216,51.5390743]]]}},
{"type":"Feature","properties":{"highway":"footway","name":null,"category":"Footpath (pedestrian only)"},"geometry":{"type":"MultiLineString","coordinates":[[[0.7899756,51.5397031],[0.7898177,51.5403376],[0.7897658,51.5403772],[0.7896974,51.5403904],[0.7892093,51.5403338],[0.7878951,51.5400984],[0.7876804,51.5400603],[0.7876285,51.5400309],[0.7876215,51.5399884],[0.787638,51.539937],[0.7876686,51.5398725],[0.7877048,51.5397902],[0.7879305,51.5392738],[0.7879635,51.5392327]]]}},
{"type":"Feature","properties":{"highway":"footway","name":null,"category":"Footpath (pedestrian only)"},"geometry":{"type":"MultiLineString","coordinates":[[[0.7977832,51.5344248],[0.798151,51.5343398],[0.7979747,51.5340515],[0.7978997,51.534044]]]}},
{"type":"Feature","properties":{"highway":"footway","name":null,"category":"Footpath (pedestrian only)"},"geometry":{"type":"MultiLineString","coordinates":[[[0.7807574,51.5387763],[0.7807944,51.5388237],[0.7808329,51.5388683],[0.7808783,51.538909],[0.780943,51.5389574],[0.7809207,51.5390657],[0.7811009,51.5390978],[0.7813035,51.5391208],[0.781416,51.5391338],[0.7814326,51.5391417],[0.7814384,51.5391512],[0.7814368,51.5391763]]]}},
{"type":"Feature","properties":{"highway":"footway","name":null,"category":"Footpath (pedestrian only)"},"geometry":{"type":"MultiLineString","coordinates":[[[0.7816224,51.5391715],[0.7819929,51.538977],[0.7820328,51.5389505]]]}},
{"type":"Feature","properties":{"highway":"footway","name":null,"category":"Footpath (pedestrian only)"},"geometry":{"type":"MultiLineString","coordinates":[[[0.7814368,51.5391763],[0.7815499,51.5391739],[0.7816224,51.5391715]]]}},
{"type":"Feature","properties":{"highway":"footway","name":null,"category":"Footpath (pedestrian only)"},"geometry":{"type":"MultiLineString","coordinates":[[[0.7818759,51.539638],[0.7827351,51.5391878]]]}},
{"type":"Feature","properties":{"highway":"footway","name":null,"category":"Footpath (pedestrian only)"},"geometry":{"type":"MultiLineString","coordinates":[[[0.7820896,51.539939],[0.7830157,51.539452]]]}},
{"type":"Feature","properties":{"highway":"footway","name":null,"category":"Footpath (pedestrian only)"},"geometry":{"type":"MultiLineString","coordinates":[[[0.7827431,51.5404299],[0.7827216,51.5404098],[0.78269,51.5403935],[0.7826446,51.5403848],[0.7822509,51.5403317],[0.7820137,51.5402977],[0.7817498,51.540122],[0.781443,51.5398994],[0.7814029,51.5398674],[0.7816016,51.5397644],[0.7816817,51.539763]]]}},
{"type":"Feature","properties":{"highway":"footway","name":null,"category":"Footpath (pedestrian only)"},"geometry":{"type":"MultiLineString","coordinates":[[[0.7816817,51.539763],[0.7817098,51.5397498],[0.7817525,51.5397277]]]}},
{"type":"Feature","properties":{"highway":"footway","name":null,"category":"Footpath (pedestrian only)"},"geometry":{"type":"MultiLineString","coordinates":[[[0.7817525,51.5397277],[0.781758,51.5396913]]]}},
{"type":"Feature","properties":{"highway":"footway","name":null,"category":"Footpath (pedestrian only)"},"geometry":{"type":"MultiLineString","coordinates":[[[0.781758,51.5396913],[0.7818257,51.5396601],[0.7818759,51.539638]]]}},
{"type":"Feature","properties":{"highway":"footway","name":null,"category":"Footpath (pedestrian only)"},"geometry":{"type":"MultiLineString","coordinates":[[[0.7817498,51.540122],[0.7818382,51.5400742]]]}},
{"type":"Feature","properties":{"highway":"footway","name":null,"category":"Footpath (pedestrian only)"},"geometry":{"type":"MultiLineString","coordinates":[[[0.7819914,51.5399913],[0.7820375,51.5399664],[0.7820896,51.539939]]]}},
{"type":"Feature","properties":{"highway":"footway","name":null,"category":"Footpath (pedestrian only)"},"geometry":{"type":"MultiLineString","coordinates":[[[0.7819214,51.5400292],[0.7819914,51.5399913]]]}},
{"type":"Feature","properties":{"highway":"footway","name":null,"category":"Footpath (pedestrian only)"},"geometry":{"type":"MultiLineString","coordinates":[[[0.7818382,51.5400742],[0.7818798,51.5400517],[0.7819214,51.5400292]]]}},
{"type":"Feature","properties":{"highway":"footway","name":null,"category":"Footpath (pedestrian only)"},"geometry":{"type":"MultiLineString","coordinates":[[[0.7830157,51.539452],[0.7830592,51.5394292],[0.7831001,51.5394072]]]}},
{"type":"Feature","properties":{"highway":"footway","name":null,"category":"Footpath (pedestrian only)"},"geometry":{"type":"MultiLineString","coordinates":[[[0.7833041,51.5394921],[0.7833852,51.5394515],[0.7834603,51.539422]]]}},
{"type":"Feature","properties":{"highway":"footway","name":null,"category":"Footpath (pedestrian only)"},"geometry":{"type":"MultiLineString","coordinates":[[[0.7831001,51.5394072],[0.7831984,51.5393543],[0.7834603,51.539422],[0.7836713,51.5394765],[0.7837067,51.5395091],[0.7837376,51.5396025]]]}},
{"type":"Feature","properties":{"highway":"footway","name":null,"category":"Footpath (pedestrian only)"},"geometry":{"type":"MultiLineString","coordinates":[[[0.7837376,51.5396025],[0.7836466,51.5396188],[0.7835773,51.5396351]]]}},
{"type":"Feature","properties":{"highway":"footway","name":null,"category":"Footpath (pedestrian only)"},"geometry":{"type":"MultiLineString","coordinates":[[[0.7835773,51.5396351],[0.7835589,51.5396454],[0.7835357,51.5396536],[0.7834518,51.5396768],[0.7833509,51.5397113],[0.7832538,51.5397539],[0.7831568,51.53981],[0.783062,51.5398794],[0.7829996,51.5399422],[0.7829334,51.5400193],[0.7828903,51.5400873],[0.7828602,51.5401453],[0.7828348,51.5402162],[0.7828156,51.5402828],[0.7828086,51.5402957],[0.782794,51.5403082]]]}},
{"type":"Feature","properties":{"highway":"footway","name":null,"category":"Footpath (pedestrian only)"},"geometry":{"type":"MultiLineString","coordinates":[[[0.782794,51.5403082],[0.7827703,51.5403673],[0.7827431,51.5404299]]]}},
{"type":"Feature","properties":{"highway":"footway","name":null,"category":"Footpath (pedestrian only)"},"geometry":{"type":"MultiLineString","coordinates":[[[0.7816016,51.5397644],[0.7815656,51.5397391],[0.7814198,51.5396367],[0.7814437,51.5395203],[0.7813705,51.5395107],[0.7813805,51.5394556],[0.7813397,51.5394508],[0.7813913,51.539265],[0.7814368,51.5391763]]]}},
{"type":"Feature","properties":{"highway":"footway","name":null,"category":"Footpath (pedestrian only)"},"geometry":{"type":"MultiLineString","coordinates":[[[0.781758,51.5396913],[0.7815723,51.5395476]]]}},
{"type":"Feature","properties":{"highway":"footway","name":null,"category":"Footpath (pedestrian only)"},"geometry":{"type":"MultiLineString","coordinates":[[[0.7814198,51.5396367],[0.781375,51.5398192],[0.7813821,51.5398462],[0.7814029,51.5398674]]]}},
{"type":"Feature","properties":{"highway":"footway","name":null,"category":"Footpath (pedestrian only)"},"geometry":{"type":"MultiLineString","coordinates":[[[0.7804834,51.5400458],[0.7808097,51.5400774],[0.7813493,51.540142]]]}},
{"type":"Feature","properties":{"highway":"footway","name":null,"category":"Footpath (pedestrian only)"},"geometry":{"type":"MultiLineString","coordinates":[[[0.7813493,51.540142],[0.781341,51.5402006]]]}},
{"type":"Feature","properties":{"highway":"footway","name":null,"category":"Footpath (pedestrian only)"},"geometry":{"type":"MultiLineString","coordinates":[[[0.7813493,51.540142],[0.7813712,51.5400435],[0.7814031,51.540034],[0.781443,51.5398994]]]}},
{"type":"Feature","properties":{"highway":"footway","name":null,"category":"Footpath (pedestrian only)"},"geometry":{"type":"MultiLineString","coordinates":[[[0.787341,51.5464942],[0.7873021,51.5463928],[0.7873558,51.546176],[0.7874604,51.5458407],[0.787506,51.5455738],[0.787506,51.5454337],[0.787565,51.5453453],[0.7879512,51.5444662],[0.7879271,51.5443194],[0.7877661,51.544241],[0.7876964,51.5441476],[0.787793,51.5439474],[0.7877378,51.5439033]]]}},
{"type":"Feature","properties":{"highway":"footway","name":null,"category":"Footpath (pedestrian only)"},"geometry":{"type":"MultiLineString","coordinates":[[[0.7879271,51.5443194],[0.7870715,51.5441526],[0.7870098,51.5440142],[0.7871036,51.5437806],[0.7872699,51.5435104],[0.7874496,51.5431567],[0.7875646,51.5429523],[0.7877071,51.5427164],[0.7877527,51.5425429],[0.7875757,51.5422026],[0.7876897,51.5421005]]]}},
{"type":"Feature","properties":{"highway":"footway","name":null,"category":"Footpath (pedestrian only)"},"geometry":{"type":"MultiLineString","coordinates":[[[0.7875757,51.5422026],[0.7874126,51.5422026],[0.7872977,51.5421827]]]}},
{"type":"Feature","properties":{"highway":"footway","name":null,"category":"Footpath (pedestrian only)"},"geometry":{"type":"MultiLineString","coordinates":[[[0.7952241,51.5404805],[0.7951555,51.5402104],[0.7950391,51.5398643],[0.7949616,51.5398286]]]}},
{"type":"Feature","properties":{"highway":"footway","name":null,"category":"Footpath (pedestrian only)"},"geometry":{"type":"MultiLineString","coordinates":[[[0.8012346,51.5400671],[0.80203,51.5397811],[0.8020927,51.5398377],[0.8025067,51.5396647]]]}},
{"type":"Feature","properties":{"highway":"footway","name":null,"category":"Footpath (pedestrian only)"},"geometry":{"type":"MultiLineString","coordinates":[[[0.7932904,51.5389164],[0.7932934,51.5389275],[0.7933004,51.5389533],[0.7932155,51.5390148],[0.792871,51.5390476],[0.7927171,51.5391176],[0.7927057,51.5391276],[0.7925862,51.5392319],[0.7925265,51.5392329]]]}},
{"type":"Feature","properties":{"highway":"footway","name":null,"category":"Footpath (pedestrian only)"},"geometry":{"type":"MultiLineString","coordinates":[[[0.7920286,51.5384252],[0.7922946,51.5385034],[0.7924944,51.5384263],[0.792545,51.5384267]]]}},
{"type":"Feature","properties":{"highway":"footway","name":null,"category":"Footpath (pedestrian only)"},"geometry":{"type":"MultiLineString","coordinates":[[[0.792545,51.5384267],[0.7926246,51.5384274],[0.7926533,51.5384277]]]}},
{"type":"Feature","properties":{"highway":"footway","name":null,"category":"Footpath (pedestrian only)"},"geometry":{"type":"MultiLineString","coordinates":[[[0.7926533,51.5384277],[0.7927337,51.5384285]]]}},
{"type":"Feature","properties":{"highway":"footway","name":null,"category":"Footpath (pedestrian only)"},"geometry":{"type":"MultiLineString","coordinates":[[[0.7932155,51.5390148],[0.7934313,51.5389948],[0.7935048,51.5389405],[0.7937322,51.5389033],[0.7937458,51.5388344]]]}},
{"type":"Feature","properties":{"highway":"footway","name":null,"category":"Footpath (pedestrian only)"},"geometry":{"type":"MultiLineString","coordinates":[[[0.7927057,51.5391276],[0.7928756,51.5391162],[0.7931282,51.5391262],[0.79339,51.5391219],[0.7935599,51.539079],[0.7937322,51.5390033],[0.7937322,51.5389924],[0.7937322,51.5389033]]]}},
{"type":"Feature","properties":{"highway":"footway","name":null,"category":"Footpath (pedestrian only)"},"geometry":{"type":"MultiLineString","coordinates":[[[0.7937458,51.5388344],[0.7937368,51.5387705],[0.7936219,51.5387648],[0.7931466,51.5387205]]]}},
{"type":"Feature","properties":{"highway":"footway","name":null,"category":"Footpath (pedestrian only)"},"geometry":{"type":"MultiLineString","coordinates":[[[0.7928021,51.5384291],[0.7928251,51.5384048],[0.7927056,51.5382077],[0.7926942,51.5381063],[0.7927111,51.5380145]]]}},
{"type":"Feature","properties":{"highway":"footway","name":null,"category":"Footpath (pedestrian only)"},"geometry":{"type":"MultiLineString","coordinates":[[[0.7927111,51.5380145],[0.792742,51.5381135],[0.7930345,51.5384887],[0.7933952,51.5387079],[0.7936735,51.5387576],[0.7937368,51.5387705]]]}},
{"type":"Feature","properties":{"highway":"footway","name":null,"category":"Footpath (pedestrian only)"},"geometry":{"type":"MultiLineString","coordinates":[[[0.7927111,51.5380145],[0.7926376,51.5377791],[0.7925712,51.5375663],[0.7925248,51.5372325],[0.7925374,51.5372132],[0.7925571,51.5371833],[0.7925262,51.536845],[0.7924964,51.5365179],[0.7924189,51.5361426],[0.792415,51.5360045],[0.7924105,51.5358461],[0.7924024,51.5357158],[0.7924937,51.5356721],[0.7926966,51.5355751]]]}},
{"type":"Feature","properties":{"highway":"footway","name":null,"category":"Footpath (pedestrian only)"},"geometry":{"type":"MultiLineString","coordinates":[[[0.7896235,51.5368482],[0.7895886,51.536839]]]}},
{"type":"Feature","properties":{"highway":"footway","name":null,"category":"Footpath (pedestrian only)"},"geometry":{"type":"MultiLineString","coordinates":[[[0.7895886,51.536839],[0.7896195,51.5367873]]]}},
{"type":"Feature","properties":{"highway":"footway","name":null,"category":"Footpath (pedestrian only)"},"geometry":{"type":"MultiLineString","coordinates":[[[0.7896195,51.5367873],[0.7896838,51.5368006]]]}},
{"type":"Feature","properties":{"highway":"footway","name":null,"category":"Footpath (pedestrian only)"},"geometry":{"type":"MultiLineString","coordinates":[[[0.7927337,51.5384285],[0.7928021,51.5384291],[0.7929514,51.5385277],[0.7931466,51.5387205],[0.7932522,51.5387762],[0.7932617,51.538811]]]}},
{"type":"Feature","properties":{"highway":"footway","name":null,"category":"Footpath (pedestrian only)"},"geometry":{"type":"MultiLineString","coordinates":[[[0.7932617,51.538811],[0.7932811,51.5388823]]]}},
{"type":"Feature","properties":{"highway":"footway","name":null,"category":"Footpath (pedestrian only)"},"geometry":{"type":"MultiLineString","coordinates":[[[0.7932811,51.5388823],[0.7932904,51.5389164]]]}},
{"type":"Feature","properties":{"highway":"footway","name":null,"category":"Footpath (pedestrian only)"},"geometry":{"type":"MultiLineString","coordinates":[[[0.7937322,51.5390033],[0.7939092,51.5392504],[0.7941832,51.539633]]]}},
{"type":"Feature","properties":{"highway":"footway","name":null,"category":"Footpath (pedestrian only)"},"geometry":{"type":"MultiLineString","coordinates":[[[0.7865984,51.536706],[0.7868465,51.5365258]]]}},
{"type":"Feature","properties":{"highway":"footway","name":null,"category":"Footpath (pedestrian only)"},"geometry":{"type":"MultiLineString","coordinates":[[[0.7971341,51.5455714],[0.7970763,51.5453419],[0.7967744,51.5440006],[0.7962713,51.5420335]]]}},
{"type":"Feature","properties":{"highway":"footway","name":null,"category":"Footpath (pedestrian only)"},"geometry":{"type":"MultiLineString","coordinates":[[[0.7962713,51.5420335],[0.7962428,51.5419214]]]}},
{"type":"Feature","properties":{"highway":"path","name":null,"category":"Shared path"},"geometry":{"type":"MultiLineString","coordinates":[[[0.7888473,51.5424001],[0.7888985,51.5421865],[0.7892135,51.5421623],[0.7892309,51.5421617],[0.7893055,51.542159],[0.789552,51.5421686],[0.7895887,51.54217]]]}},
{"type":"Feature","properties":{"highway":"path","name":null,"category":"Shared path"},"geometry":{"type":"MultiLineString","coordinates":[[[0.7892309,51.5421617],[0.7892583,51.5420285],[0.7893234,51.5417113],[0.7894374,51.5417285],[0.78959,51.5417525],[0.7897009,51.5417496],[0.7897378,51.5417421],[0.7899412,51.5417007],[0.790022,51.5416889],[0.790066,51.5416825],[0.7903821,51.5416952]]]}},
{"type":"Feature","properties":{"highway":"path","name":null,"category":"Shared path"},"geometry":{"type":"MultiLineString","coordinates":[[[0.7897006,51.5419981],[0.7897142,51.5419398],[0.7897378,51.5417421]]]}},
{"type":"Feature","properties":{"highway":"path","name":null,"category":"Shared path"},"geometry":{"type":"MultiLineString","coordinates":[[[0.7893234,51.5417113],[0.7893169,51.5416743],[0.7893414,51.5414935],[0.7891658,51.5414849],[0.788983,51.541476]]]}},
{"type":"Feature","properties":{"highway":"footway","name":null,"category":"Footpath (pedestrian only)"},"geometry":{"type":"MultiLineString","coordinates":[[[0.787341,51.5464942],[0.787439,51.5463957],[0.787604,51.5458502],[0.7877689,51.545344],[0.7879902,51.544766],[0.7881364,51.5444849],[0.7881364,51.5443798],[0.7881082,51.5442973],[0.7881148,51.5442734],[0.7881216,51.5442489],[0.7881753,51.5440988],[0.7883322,51.5437626],[0.7884851,51.5434374],[0.78865,51.5430804],[0.7889585,51.5424732],[0.7888473,51.5424001]]]}},
{"type":"Feature","properties":{"highway":"path","name":null,"category":"Shared path"},"geometry":{"type":"MultiLineString","coordinates":[[[0.7881148,51.5442734],[0.7879419,51.5442956],[0.7879271,51.5443194]]]}},
{"type":"Feature","properties":{"highway":"footway","name":null,"category":"Footpath (pedestrian only)"},"geometry":{"type":"MultiLineString","coordinates":[[[0.7907516,51.5344504],[0.7910769,51.5344986]]]}},
{"type":"Feature","properties":{"highway":"footway","name":null,"category":"Footpath (pedestrian only)"},"geometry":{"type":"MultiLineString","coordinates":[[[0.7907123,51.535134],[0.7906073,51.5351184],[0.7904898,51.5351008],[0.7903902,51.5350977],[0.7904875,51.5348699],[0.7905571,51.5346971]]]}},
{"type":"Feature","properties":{"highway":"path","name":null,"category":"Shared path"},"geometry":{"type":"MultiLineString","coordinates":[[[0.7910734,51.5356423],[0.7919588,51.5356404],[0.7921855,51.5356498],[0.7922299,51.535666],[0.7924024,51.5357158]]]}},
{"type":"Feature","properties":{"highway":"path","name":null,"category":"Shared path"},"geometry":{"type":"MultiLineString","coordinates":[[[0.7921855,51.5356498],[0.7924937,51.5356721]]]}},
{"type":"Feature","properties":{"highway":"path","name":null,"category":"Shared path"},"geometry":{"type":"MultiLineString","coordinates":[[[0.792415,51.5360045],[0.7920873,51.5360074],[0.7920896,51.5359784],[0.7910406,51.5359849],[0.791039,51.5360081]]]}},
{"type":"Feature","properties":{"highway":"path","name":null,"category":"Shared path"},"geometry":{"type":"MultiLineString","coordinates":[[[0.7967381,51.537337],[0.7950116,51.5365286],[0.7934457,51.5357152],[0.793296,51.5369927],[0.7932202,51.537147],[0.7931541,51.5372249]]]}},
{"type":"Feature","properties":{"highway":"path","name":null,"category":"Shared path"},"geometry":{"type":"MultiLineString","coordinates":[[[0.7931541,51.5372249],[0.7934866,51.5370819],[0.7945894,51.536688],[0.7950116,51.5365286],[0.7960262,51.5361436],[0.7961275,51.5361004],[0.7962311,51.5360985]]]}},
{"type":"Feature","properties":{"highway":"path","name":null,"category":"Shared path"},"geometry":{"type":"MultiLineString","coordinates":[[[0.7962311,51.5360985],[0.7962905,51.5363927],[0.7963873,51.5367211],[0.7964787,51.5369438],[0.7965922,51.5371712],[0.7966409,51.5372812],[0.7966442,51.5372918]]]}},
{"type":"Feature","properties":{"highway":"path","name":null,"category":"Shared path"},"geometry":{"type":"MultiLineString","coordinates":[[[0.7962311,51.5360985],[0.7962649,51.5360975],[0.7966542,51.5360862],[0.7967143,51.5362042],[0.7968465,51.536277]]]}},
{"type":"Feature","properties":{"highway":"path","name":null,"category":"Shared path"},"geometry":{"type":"MultiLineString","coordinates":[[[0.7962649,51.5360975],[0.7960656,51.5355635]]]}},
{"type":"Feature","properties":{"highway":"path","name":null,"category":"Shared path"},"geometry":{"type":"MultiLineString","coordinates":[[[0.7961275,51.5361004],[0.7957895,51.5361003],[0.7956659,51.5360677],[0.7955439,51.5359764],[0.7954605,51.5358678],[0.7952241,51.5358015],[0.7945429,51.5357486],[0.79403,51.5357256],[0.7935897,51.5357217],[0.7934457,51.5357152]]]}},
{"type":"Feature","properties":{"highway":"path","name":null,"category":"Shared path"},"geometry":{"type":"MultiLineString","coordinates":[[[0.7985086,51.5361703],[0.7985805,51.5362274],[0.7986707,51.536425],[0.7987711,51.5366889],[0.7987066,51.5367405]]]}},
{"type":"Feature","properties":{"highway":"path","name":null,"category":"Shared path"},"geometry":{"type":"MultiLineString","coordinates":[[[0.7971318,51.5372623],[0.7970138,51.5369954],[0.7970298,51.5369803]]]}},
{"type":"Feature","properties":{"highway":"path","name":null,"category":"Shared path"},"geometry":{"type":"MultiLineString","coordinates":[[[0.7972401,51.5372418],[0.7974456,51.5376711],[0.797164,51.5377219],[0.7972202,51.5377306]]]}},
{"type":"Feature","properties":{"highway":"path","name":null,"category":"Shared path"},"geometry":{"type":"MultiLineString","coordinates":[[[0.798327,51.5382177],[0.7988392,51.5382954],[0.7993215,51.538364],[0.7995866,51.5383828],[0.7998411,51.5383773],[0.8000653,51.5383463],[0.8008429,51.5381814],[0.8008901,51.5381707],[0.800955,51.5382359]]]}},
{"type":"Feature","properties":{"highway":"path","name":null,"category":"Shared path"},"geometry":{"type":"MultiLineString","coordinates":[[[0.7998411,51.5383773],[0.7997246,51.5381331],[0.7996075,51.5380767]]]}},
{"type":"Feature","properties":{"highway":"path","name":null,"category":"Shared path"},"geometry":{"type":"MultiLineString","coordinates":[[[0.7994044,51.5375205],[0.7992636,51.5374756],[0.7992484,51.5374524],[0.7990846,51.5373384],[0.7990231,51.5372978]]]}},
{"type":"Feature","properties":{"highway":"path","name":null,"category":"Shared path"},"geometry":{"type":"MultiLineString","coordinates":[[[0.7972953,51.5378822],[0.7972727,51.5379104],[0.7973657,51.538133]]]}},
{"type":"Feature","properties":{"highway":"footway","name":null,"category":"Footpath (pedestrian only)"},"geometry":{"type":"MultiLineString","coordinates":[[[0.7973657,51.538133],[0.7976568,51.5381399],[0.7978798,51.5381602],[0.7978913,51.5381613],[0.798327,51.5382177]]]}},
{"type":"Feature","properties":{"highway":"path","name":null,"category":"Shared path"},"geometry":{"type":"MultiLineString","coordinates":[[[0.7978798,51.5381602],[0.7983097,51.5380953],[0.7983708,51.5380983]]]}},
{"type":"Feature","properties":{"highway":"footway","name":null,"category":"Footpath (pedestrian only)"},"geometry":{"type":"MultiLineString","coordinates":[[[0.7973657,51.538133],[0.797109,51.5381468],[0.7967513,51.5381999],[0.79652,51.5382519],[0.7960377,51.5383825],[0.7959449,51.538405]]]}},
{"type":"Feature","properties":{"highway":"path","name":null,"category":"Shared path"},"geometry":{"type":"MultiLineString","coordinates":[[[0.79652,51.5382519],[0.7964973,51.5382185],[0.7964754,51.5382095],[0.796422,51.5381874],[0.796358,51.53808],[0.7963224,51.5379892],[0.796317,51.5378553],[0.7963509,51.5378],[0.7963277,51.5377413],[0.796251,51.5376833]]]}},
{"type":"Feature","properties":{"highway":"path","name":null,"category":"Shared path"},"geometry":{"type":"MultiLineString","coordinates":[[[0.7963509,51.5378],[0.7964487,51.5378609],[0.7965306,51.5380213],[0.7965697,51.5381409],[0.7965573,51.5381896],[0.7964973,51.5382185]]]}},
{"type":"Feature","properties":{"highway":"footway","name":null,"category":"Footpath (pedestrian only)"},"geometry":{"type":"MultiLineString","coordinates":[[[0.7996189,51.5385314],[0.7995035,51.538534],[0.7992235,51.5385057],[0.7988435,51.5384547],[0.7987704,51.5384463]]]}},
{"type":"Feature","properties":{"highway":"path","name":null,"category":"Shared path"},"geometry":{"type":"MultiLineString","coordinates":[[[0.7988341,51.5389222],[0.7986559,51.5389567],[0.7979384,51.5390957],[0.797908,51.5390209],[0.7978311,51.5390271]]]}},
{"type":"Feature","properties":{"highway":"path","name":null,"category":"Shared path"},"geometry":{"type":"MultiLineString","coordinates":[[[0.7986559,51.5389567],[0.7986033,51.5388532],[0.7985072,51.5386644]]]}},
{"type":"Feature","properties":{"highway":"path","name":null,"category":"Shared path"},"geometry":{"type":"MultiLineString","coordinates":[[[0.7986295,51.5388471],[0.7986033,51.5388532]]]}},
{"type":"Feature","properties":{"highway":"path","name":null,"category":"Shared path"},"geometry":{"type":"MultiLineString","coordinates":[[[0.7975911,51.5386112],[0.7979047,51.5385557],[0.7979597,51.5386649]]]}},
{"type":"Feature","properties":{"highway":"footway","name":null,"category":"Footpath (pedestrian only)"},"geometry":{"type":"MultiLineString","coordinates":[[[0.7974138,51.5382799],[0.7977144,51.5382899],[0.7980435,51.5383361],[0.798629,51.5384254],[0.7987704,51.5384463]]]}},
{"type":"Feature","properties":{"highway":"footway","name":null,"category":"Footpath (pedestrian only)"},"geometry":{"type":"MultiLineString","coordinates":[[[0.7996189,51.5385314],[0.7997871,51.5385291],[0.8002156,51.5384776],[0.8004744,51.5384267],[0.8005942,51.538405]]]}},
{"type":"Feature","properties":{"highway":"footway","name":null,"category":"Footpath (pedestrian only)"},"geometry":{"type":"MultiLineString","coordinates":[[[0.8011168,51.5382728],[0.8010595,51.5382979],[0.8006719,51.5383764],[0.8005942,51.538405]]]}},
{"type":"Feature","properties":{"highway":"footway","name":null,"category":"Footpath (pedestrian only)"},"geometry":{"type":"MultiLineString","coordinates":[[[0.7974138,51.5382799],[0.7971837,51.5382913],[0.7969503,51.5383196],[0.7967076,51.5383705],[0.7963482,51.5384631],[0.7960747,51.5385496],[0.7960411,51.5385257],[0.7959495,51.5385491]]]}},
{"type":"Feature","properties":{"highway":"footway","name":null,"category":"Footpath (pedestrian only)"},"geometry":{"type":"MultiLineString","coordinates":[[[0.7959495,51.5385491],[0.795841,51.5385717],[0.7958115,51.5385942],[0.795385,51.5386818],[0.7948593,51.5387777],[0.7947453,51.5388153],[0.7946333,51.5388304]]]}},
{"type":"Feature","properties":{"highway":"path","name":null,"category":"Shared path"},"geometry":{"type":"MultiLineString","coordinates":[[[0.7948593,51.5387777],[0.7948387,51.538703]]]}},
{"type":"Feature","properties":{"highway":"footway","name":null,"category":"Footpath (pedestrian only)"},"geometry":{"type":"MultiLineString","coordinates":[[[0.7925352,51.539392],[0.7925346,51.5394469],[0.7924907,51.539597],[0.7924214,51.5398481],[0.7923608,51.5399458],[0.7922459,51.5400789],[0.7922025,51.5401173]]]}},
{"type":"Feature","properties":{"highway":"path","name":null,"category":"Shared path"},"geometry":{"type":"MultiLineString","coordinates":[[[0.7924734,51.5405479],[0.7921708,51.5403977],[0.7920233,51.5403244],[0.7920325,51.5402735],[0.7921731,51.5401717],[0.7921685,51.5401572],[0.7922025,51.5401173]]]}},
{"type":"Feature","properties":{"highway":"path","name":null,"category":"Shared path"},"geometry":{"type":"MultiLineString","coordinates":[[[0.7920325,51.5402735],[0.7919286,51.5402944],[0.7917022,51.5404943],[0.7919303,51.5405934],[0.7921873,51.540705],[0.7922641,51.5407384]]]}},
{"type":"Feature","properties":{"highway":"path","name":null,"category":"Shared path"},"geometry":{"type":"MultiLineString","coordinates":[[[0.7919303,51.5405934],[0.7921708,51.5403977]]]}},
{"type":"Feature","properties":{"highway":"path","name":null,"category":"Shared path"},"geometry":{"type":"MultiLineString","coordinates":[[[0.7921873,51.540705],[0.7920452,51.5408226],[0.7920231,51.5408408],[0.7919644,51.541105],[0.7920478,51.5411098],[0.792176,51.5410896],[0.792329,51.5408917],[0.7924235,51.5408866],[0.7924356,51.5408859],[0.7926843,51.5408955],[0.7928573,51.5409119],[0.7929994,51.5409541]]]}},
{"type":"Feature","properties":{"highway":"path","name":null,"category":"Shared path"},"geometry":{"type":"MultiLineString","coordinates":[[[0.7920478,51.5411098],[0.7920671,51.5411391],[0.7920307,51.5412837],[0.7924097,51.5413133],[0.792721,51.5413145]]]}},
{"type":"Feature","properties":{"highway":"path","name":null,"category":"Shared path"},"geometry":{"type":"MultiLineString","coordinates":[[[0.7920307,51.5412837],[0.79194,51.5412751],[0.7914798,51.5412316],[0.7912368,51.5412085]]]}},
{"type":"Feature","properties":{"highway":"path","name":null,"category":"Shared path"},"geometry":{"type":"MultiLineString","coordinates":[[[0.7914758,51.5412498],[0.7914798,51.5412316]]]}},
{"type":"Feature","properties":{"highway":"path","name":null,"category":"Shared path"},"geometry":{"type":"MultiLineString","coordinates":[[[0.79194,51.5412751],[0.7918973,51.5414629],[0.791961,51.5416345],[0.7919448,51.5417024],[0.7918326,51.5417533],[0.791772,51.5420098],[0.7920671,51.5420406],[0.7920306,51.5421885]]]}},
{"type":"Feature","properties":{"highway":"path","name":null,"category":"Shared path"},"geometry":{"type":"MultiLineString","coordinates":[[[0.7918326,51.5417533],[0.7917922,51.5417307],[0.7911488,51.5416702]]]}},
{"type":"Feature","properties":{"highway":"path","name":null,"category":"Shared path"},"geometry":{"type":"MultiLineString","coordinates":[[[0.7911519,51.541654],[0.7906622,51.5416018]]]}},
{"type":"Feature","properties":{"highway":"path","name":null,"category":"Shared path"},"geometry":{"type":"MultiLineString","coordinates":[[[0.7912535,51.5411168],[0.7907963,51.5410757]]]}},
{"type":"Feature","properties":{"highway":"path","name":null,"category":"Shared path"},"geometry":{"type":"MultiLineString","coordinates":[[[0.7920231,51.5408408],[0.792329,51.5408917]]]}},
{"type":"Feature","properties":{"highway":"path","name":null,"category":"Shared path"},"geometry":{"type":"MultiLineString","coordinates":[[[0.7924235,51.5408866],[0.7924743,51.5406497],[0.7926255,51.5406153],[0.7926465,51.5405916]]]}},
{"type":"Feature","properties":{"highway":"path","name":null,"category":"Shared path"},"geometry":{"type":"MultiLineString","coordinates":[[[0.791385,51.5404447],[0.791405,51.5403436],[0.7914067,51.5403355],[0.7914586,51.5400075]]]}},
{"type":"Feature","properties":{"highway":"path","name":null,"category":"Shared path"},"geometry":{"type":"MultiLineString","coordinates":[[[0.791405,51.5403436],[0.7912252,51.5403819],[0.7905648,51.540321]]]}},
{"type":"Feature","properties":{"highway":"footway","name":null,"category":"Footpath (pedestrian only)"},"geometry":{"type":"MultiLineString","coordinates":[[[0.7904495,51.5405713],[0.7906695,51.5405626],[0.7911901,51.5405943],[0.7913592,51.5406106]]]}},
{"type":"Feature","properties":{"highway":"path","name":null,"category":"Shared path"},"geometry":{"type":"MultiLineString","coordinates":[[[0.792721,51.5413145],[0.7929994,51.5409541],[0.7933069,51.5405995]]]}},
{"type":"Feature","properties":{"highway":"path","name":null,"category":"Shared path"},"geometry":{"type":"MultiLineString","coordinates":[[[0.7941832,51.539633],[0.7948999,51.5395487]]]}},
{"type":"Feature","properties":{"highway":"path","name":null,"category":"Shared path"},"geometry":{"type":"MultiLineString","coordinates":[[[0.7920306,51.5421885],[0.7915486,51.542152],[0.7910985,51.542118],[0.7908847,51.5421147],[0.790729,51.5421192],[0.7907116,51.5421197],[0.7903925,51.5420872]]]}},
{"type":"Feature","properties":{"highway":"path","name":null,"category":"Shared path"},"geometry":{"type":"MultiLineString","coordinates":[[[0.7906727,51.5423494],[0.790729,51.5421192]]]}},
{"type":"Feature","properties":{"highway":"path","name":null,"category":"Shared path"},"geometry":{"type":"MultiLineString","coordinates":[[[0.790022,51.5416889],[0.7900347,51.5415988],[0.7900384,51.5415723],[0.7900304,51.5415014],[0.7900555,51.5412319]]]}},
{"type":"Feature","properties":{"highway":"path","name":null,"category":"Shared path"},"geometry":{"type":"MultiLineString","coordinates":[[[0.7900572,51.5415981],[0.7900347,51.5415988]]]}},
{"type":"Feature","properties":{"highway":"path","name":null,"category":"Shared path"},"geometry":{"type":"MultiLineString","coordinates":[[[0.7898718,51.5412151],[0.7899,51.5409659],[0.7899273,51.5408903]]]}},
{"type":"Feature","properties":{"highway":"path","name":null,"category":"Shared path"},"geometry":{"type":"MultiLineString","coordinates":[[[0.7892925,51.542029],[0.7892583,51.5420285]]]}},
{"type":"Feature","properties":{"highway":"path","name":null,"category":"Shared path"},"geometry":{"type":"MultiLineString","coordinates":[[[0.7896878,51.5423891],[0.789708,51.5421478],[0.7896634,51.5421283]]]}},
{"type":"Feature","properties":{"highway":"path","name":null,"category":"Shared path"},"geometry":{"type":"MultiLineString","coordinates":[[[0.7920452,51.5408226],[0.7915978,51.5407826],[0.7913261,51.5407583]]]}},
{"type":"Feature","properties":{"highway":"path","name":null,"category":"Shared path"},"geometry":{"type":"MultiLineString","coordinates":[[[0.7915864,51.5408093],[0.7915978,51.5407826]]]}},
{"type":"Feature","properties":{"highway":"path","name":null,"category":"Shared path"},"geometry":{"type":"MultiLineString","coordinates":[[[0.7902637,51.5386661],[0.7903426,51.5386769]]]}},
{"type":"Feature","properties":{"highway":"path","name":null,"category":"Shared path"},"geometry":{"type":"MultiLineString","coordinates":[[[0.7903101,51.5384947],[0.7903001,51.5385316]]]}},
{"type":"Feature","properties":{"highway":"path","name":null,"category":"Shared path"},"geometry":{"type":"MultiLineString","coordinates":[[[0.789541,51.5387723],[0.7898454,51.5387975],[0.7899372,51.5387273]]]}},
{"type":"Feature","properties":{"highway":"path","name":null,"category":"Shared path"},"geometry":{"type":"MultiLineString","coordinates":[[[0.7904258,51.5391517],[0.790427,51.5391805]]]}},
{"type":"Feature","properties":{"highway":"path","name":null,"category":"Shared path"},"geometry":{"type":"MultiLineString","coordinates":[[[0.7902252,51.539134],[0.7901583,51.5391269]]]}},
{"type":"Feature","properties":{"highway":"path","name":null,"category":"Shared path"},"geometry":{"type":"MultiLineString","coordinates":[[[0.7906764,51.5398413],[0.7907322,51.5396043],[0.7908303,51.5396148]]]}},
{"type":"Feature","properties":{"highway":"path","name":null,"category":"Shared path"},"geometry":{"type":"MultiLineString","coordinates":[[[0.7907322,51.5396043],[0.7900604,51.5395469]]]}},
{"type":"Feature","properties":{"highway":"path","name":null,"category":"Shared path"},"geometry":{"type":"MultiLineString","coordinates":[[[0.789384,51.5395921],[0.7900384,51.5396422]]]}},
{"type":"Feature","properties":{"highway":"path","name":null,"category":"Shared path"},"geometry":{"type":"MultiLineString","coordinates":[[[0.7915486,51.542152],[0.7915035,51.5423322]]]}},
{"type":"Feature","properties":{"highway":"path","name":null,"category":"Shared path"},"geometry":{"type":"MultiLineString","coordinates":[[[0.7944407,51.5401465],[0.7943868,51.5401864],[0.7943099,51.5402812],[0.7942133,51.540308],[0.7936102,51.5402841]]]}},
{"type":"Feature","properties":{"highway":"path","name":null,"category":"Shared path"},"geometry":{"type":"MultiLineString","coordinates":[[[0.793979,51.5395934],[0.7938153,51.5396293],[0.7936242,51.5396796],[0.7935747,51.5396852],[0.7935596,51.5396519],[0.7934274,51.5396315]]]}},
{"type":"Feature","properties":{"highway":"path","name":null,"category":"Shared path"},"geometry":{"type":"MultiLineString","coordinates":[[[0.7934283,51.5390004],[0.7935482,51.5389866],[0.7937322,51.5389924]]]}},
{"type":"Feature","properties":{"highway":"path","name":null,"category":"Shared path"},"geometry":{"type":"MultiLineString","coordinates":[[[0.7940507,51.5392252],[0.7939092,51.5392504]]]}},
{"type":"Feature","properties":{"highway":"pedestrian","name":null,"category":"Pedestrian area/street"},"geometry":{"type":"MultiLineString","coordinates":[[[0.7876149,51.5386732],[0.7877996,51.5382858],[0.7878197,51.5382436]]]}}
]
}
