{
"type": "FeatureCollection",
"name": "SOUTH_27_cycling",
"crs": { "type": "name", "properties": { "name": "urn:ogc:def:crs:OGC:1.3:CRS84" } },
"features": [
{"type":"Feature","properties":{"highway":"cycleway","name":null,"category":"Dedicated cycleway"},"geometry":{"type":"MultiLineString","coordinates":[[[0.6836136,51.5596605],[0.6836219,51.5596779],[0.6836033,51.5597049],[0.6831328,51.5598391],[0.6827898,51.559955],[0.6826086,51.5600183],[0.6825344,51.5600306],[0.6822225,51.560105],[0.6821877,51.5601391],[0.6821367,51.5602234],[0.6820267,51.5603001],[0.6819208,51.5603401]]]}},
{"type":"Feature","properties":{"highway":"cycleway","name":null,"category":"Dedicated cycleway"},"geometry":{"type":"MultiLineString","coordinates":[[[0.6819208,51.5603401],[0.6817692,51.5603184],[0.6816579,51.5603442],[0.6816094,51.5603425]]]}},
{"type":"Feature","properties":{"highway":"cycleway","name":null,"category":"Dedicated cycleway"},"geometry":{"type":"MultiLineString","coordinates":[[[0.6806955,51.5670258],[0.6807172,51.5669639],[0.6807336,51.5669041],[0.6807373,51.5668463],[0.6805326,51.5668419],[0.6802538,51.5668219],[0.6798567,51.5667719],[0.6796287,51.5667269],[0.6788803,51.5665935],[0.6788294,51.5665752],[0.6787866,51.5665402],[0.6787516,51.5664718],[0.6787218,51.566284],[0.6787879,51.5660158],[0.678863,51.5657824],[0.6792466,51.564967],[0.6799828,51.5636692],[0.6801385,51.5635724],[0.6803168,51.5635441],[0.6804362,51.5635446],[0.6804459,51.5635117],[0.6805208,51.5634362],[0.6805837,51.5634074],[0.6805568,51.5633769],[0.6805247,51.5631956],[0.6805381,51.5631489],[0.6806024,51.5631167],[0.6805572,51.5630392],[0.6805328,51.5630105],[0.6806053,51.5629598],[0.6806454,51.5629322],[0.6805648,51.56283],[0.6805648,51.5627153],[0.6812528,51.5617894],[0.6812985,51.5617742],[0.6815492,51.5617516],[0.681802,51.5617642]]]}},
{"type":"Feature","properties":{"highway":"cycleway","name":null,"category":"Dedicated cycleway"},"geometry":{"type":"MultiLineString","coordinates":[[[0.6829021,51.5600656],[0.6829183,51.5600802],[0.682816,51.5601237],[0.6828342,51.5601386]]]}},
{"type":"Feature","properties":{"highway":"track","name":null,"category":"Track"},"geometry":{"type":"MultiLineString","coordinates":[[[0.6769624,51.5631486],[0.6783657,51.5637585],[0.6789182,51.5642688],[0.6792044,51.564357]]]}},
{"type":"Feature","properties":{"highway":"path","name":null,"category":"Shared path"},"geometry":{"type":"MultiLineString","coordinates":[[[0.688607,51.5660098],[0.6885878,51.5659562],[0.6885612,51.5659077],[0.688492,51.5658805],[0.6884318,51.5658166],[0.6883325,51.5654965],[0.6882145,51.5650763],[0.6881906,51.5649299],[0.6882172,51.5648596],[0.6882791,51.5647932],[0.6883596,51.5647565],[0.6884017,51.5647511]]]}},
{"type":"Feature","properties":{"highway":"cycleway","name":null,"category":"Dedicated cycleway"},"geometry":{"type":"MultiLineString","coordinates":[[[0.6758157,51.5622312],[0.6759354,51.5622468],[0.6760239,51.5622243],[0.6760695,51.562246]]]}},
{"type":"Feature","properties":{"highway":"cycleway","name":null,"category":"Dedicated cycleway"},"geometry":{"type":"MultiLineString","coordinates":[[[0.6829906,51.5622124],[0.6830943,51.5621684],[0.6831612,51.5621634],[0.68329,51.5621401],[0.6833839,51.5620984],[0.6834503,51.562061],[0.6835176,51.5619867],[0.6836503,51.5618758],[0.6837722,51.5618127],[0.6839042,51.5617752],[0.6838836,51.5617287]]]}},
{"type":"Feature","properties":{"highway":"cycleway","name":null,"category":"Dedicated cycleway"},"geometry":{"type":"MultiLineString","coordinates":[[[0.6828358,51.5600027],[0.6828571,51.5600247],[0.6829021,51.5600656]]]}},
{"type":"Feature","properties":{"highway":"cycleway","name":null,"category":"Dedicated cycleway"},"geometry":{"type":"MultiLineString","coordinates":[[[0.6827898,51.559955],[0.6828358,51.5600027]]]}},
{"type":"Feature","properties":{"highway":"cycleway","name":null,"category":"Dedicated cycleway"},"geometry":{"type":"MultiLineString","coordinates":[[[0.6828342,51.5601386],[0.6828525,51.5601535],[0.6828968,51.5601929]]]}},
{"type":"Feature","properties":{"highway":"cycleway","name":null,"category":"Dedicated cycleway"},"geometry":{"type":"MultiLineString","coordinates":[[[0.6828968,51.5601929],[0.6829163,51.5602102]]]}},
{"type":"Feature","properties":{"highway":"cycleway","name":null,"category":"Dedicated cycleway"},"geometry":{"type":"MultiLineString","coordinates":[[[0.681802,51.5617642],[0.6819784,51.5617717],[0.6822178,51.5618096],[0.6825623,51.561886],[0.6827688,51.5619409],[0.6828073,51.5619977],[0.6828113,51.5621235]]]}},
{"type":"Feature","properties":{"highway":"cycleway","name":null,"category":"Dedicated cycleway"},"geometry":{"type":"MultiLineString","coordinates":[[[0.6828113,51.5621235],[0.6828691,51.5621356],[0.6829196,51.5621562],[0.6829585,51.5621884],[0.6829906,51.5622124]]]}},
{"type":"Feature","properties":{"highway":"cycleway","name":null,"category":"Dedicated cycleway"},"geometry":{"type":"MultiLineString","coordinates":[[[0.6819391,51.5615255],[0.6819073,51.5614852],[0.6818885,51.5614311],[0.681922,51.5611814],[0.682022,51.5609125],[0.6823458,51.5605277],[0.6829163,51.5602102]]]}},
{"type":"Feature","properties":{"highway":"cycleway","name":null,"category":"Dedicated cycleway"},"geometry":{"type":"MultiLineString","coordinates":[[[0.681802,51.5617642],[0.6818163,51.5616878],[0.6818197,51.5616641],[0.6818242,51.5616332],[0.6817874,51.5616103],[0.6818166,51.5615938],[0.6818591,51.5615698],[0.6819391,51.5615255]]]}},
{"type":"Feature","properties":{"highway":"path","name":null,"category":"Shared path"},"geometry":{"type":"MultiLineString","coordinates":[[[0.6832365,51.5600794],[0.6835308,51.5599936],[0.6838466,51.5599207],[0.6841648,51.5598548],[0.6843814,51.5598216],[0.6847592,51.5597806],[0.6856446,51.5598074],[0.6861523,51.5598697],[0.6863015,51.5598854],[0.6864958,51.5599055],[0.6868038,51.5599331],[0.6871417,51.5599346],[0.6877398,51.5599088],[0.6880354,51.5598797],[0.6887953,51.5597753],[0.6888936,51.5597618]]]}},
{"type":"Feature","properties":{"highway":"path","name":null,"category":"Shared path"},"geometry":{"type":"MultiLineString","coordinates":[[[0.6887338,51.5597563],[0.6887902,51.5597478],[0.6887953,51.5597753]]]}},
{"type":"Feature","properties":{"highway":"path","name":null,"category":"Shared path"},"geometry":{"type":"MultiLineString","coordinates":[[[0.6885949,51.5595411],[0.6885132,51.559549],[0.6884944,51.5595522],[0.6884535,51.5593627]]]}},
{"type":"Feature","properties":{"highway":"path","name":null,"category":"Shared path"},"geometry":{"type":"MultiLineString","coordinates":[[[0.6884944,51.5595522],[0.6878085,51.5596394],[0.6872069,51.5596684],[0.6867004,51.5596508],[0.6861313,51.5596075],[0.6856812,51.5595537]]]}},
{"type":"Feature","properties":{"highway":"path","name":null,"category":"Shared path"},"geometry":{"type":"MultiLineString","coordinates":[[[0.6888936,51.5597618],[0.6907073,51.5595037],[0.6923464,51.559271],[0.6944754,51.5589482],[0.6954937,51.5588275],[0.6956046,51.5588313],[0.6956401,51.5588409],[0.6956644,51.5588134],[0.6957017,51.5587796],[0.695731,51.558748],[0.6956231,51.5587499],[0.6955854,51.5587002]]]}}
]
}
