{
"type": "FeatureCollection",
"name": "2da138c73d5c_visibility",
"crs": { "type": "name", "properties": { "name": "urn:ogc:def:crs:OGC:1.3:CRS84" } },
"features": [
{ "type": "Feature", "properties": { "visible_points": 33, "total_points": 62, "visibility_pct": 53.225806451612897 }, "geometry": { "type": "Point", "coordinates": [ -0.411663221672178, 52.572163128153782 ] } },
{ "type": "Feature", "properties": { "visible_points": 34, "total_points": 66, "visibility_pct": 51.515151515151516 }, "geometry": { "type": "Point", "coordinates": [ -0.411458847830838, 52.572160385444462 ] } },
{ "type": "Feature", "properties": { "visible_points": 30, "total_points": 69, "visibility_pct": 43.478260869565219 }, "geometry": { "type": "Point", "coordinates": [ -0.411761517940675, 52.572272333896912 ] } },
{ "type": "Feature", "properties": { "visible_points": 31, "total_points": 74, "visibility_pct": 41.891891891891895 }, "geometry": { "type": "Point", "coordinates": [ -0.411557143538093, 52.572269591355607 ] } },
{ "type": "Feature", "properties": { "visible_points": 32, "total_points": 78, "visibility_pct": 41.025641025641022 }, "geometry": { "type": "Point", "coordinates": [ -0.411352769170668, 52.572266848461538 ] } },
{ "type": "Feature", "properties": { "visible_points": 37, "total_points": 78, "visibility_pct": 47.435897435897431 }, "geometry": { "type": "Point", "coordinates": [ -0.411148394838412, 52.5722641052147 ] } },
{ "type": "Feature", "properties": { "visible_points": 37, "total_points": 76, "visibility_pct": 48.684210526315788 }, "geometry": { "type": "Point", "coordinates": [ -0.411859814735223, 52.572381539558172 ] } },
{ "type": "Feature", "properties": { "visible_points": 31, "total_points": 82, "visibility_pct": 37.804878048780488 }, "geometry": { "type": "Point", "coordinates": [ -0.411655439771405, 52.572378797184868 ] } },
{ "type": "Feature", "properties": { "visible_points": 36, "total_points": 87, "visibility_pct": 41.379310344827587 }, "geometry": { "type": "Point", "coordinates": [ -0.411451064842741, 52.5723760544588 ] } },
{ "type": "Feature", "properties": { "visible_points": 41, "total_points": 90, "visibility_pct": 45.555555555555557 }, "geometry": { "type": "Point", "coordinates": [ -0.411246689949236, 52.572373311379948 ] } },
{ "type": "Feature", "properties": { "visible_points": 44, "total_points": 89, "visibility_pct": 49.438202247191008 }, "geometry": { "type": "Point", "coordinates": [ -0.411042315090895, 52.572370567948347 ] } },
{ "type": "Feature", "properties": { "visible_points": 43, "total_points": 83, "visibility_pct": 51.807228915662648 }, "geometry": { "type": "Point", "coordinates": [ -0.410837940267724, 52.572367824163983 ] } },
{ "type": "Feature", "properties": { "visible_points": 38, "total_points": 75, "visibility_pct": 50.666666666666671 }, "geometry": { "type": "Point", "coordinates": [ -0.410633565479732, 52.57236508002687 ] } },
{ "type": "Feature", "properties": { "visible_points": 37, "total_points": 81, "visibility_pct": 45.679012345679013 }, "geometry": { "type": "Point", "coordinates": [ -0.411958112055841, 52.572490745137536 ] } },
{ "type": "Feature", "properties": { "visible_points": 32, "total_points": 89, "visibility_pct": 35.955056179775283 }, "geometry": { "type": "Point", "coordinates": [ -0.411753736530782, 52.572488002932218 ] } },
{ "type": "Feature", "properties": { "visible_points": 42, "total_points": 95, "visibility_pct": 44.210526315789473 }, "geometry": { "type": "Point", "coordinates": [ -0.411549361040867, 52.572485260374151 ] } },
{ "type": "Feature", "properties": { "visible_points": 44, "total_points": 100, "visibility_pct": 44.0 }, "geometry": { "type": "Point", "coordinates": [ -0.411344985586116, 52.572482517463321 ] } },
{ "type": "Feature", "properties": { "visible_points": 46, "total_points": 101, "visibility_pct": 45.544554455445549 }, "geometry": { "type": "Point", "coordinates": [ -0.411140610166528, 52.572479774199707 ] } },
{ "type": "Feature", "properties": { "visible_points": 48, "total_points": 96, "visibility_pct": 50.0 }, "geometry": { "type": "Point", "coordinates": [ -0.410936234782106, 52.572477030583343 ] } },
{ "type": "Feature", "properties": { "visible_points": 44, "total_points": 88, "visibility_pct": 50.0 }, "geometry": { "type": "Point", "coordinates": [ -0.410731859432857, 52.572474286614224 ] } },
{ "type": "Feature", "properties": { "visible_points": 37, "total_points": 77, "visibility_pct": 48.051948051948052 }, "geometry": { "type": "Point", "coordinates": [ -0.410527484118784, 52.572471542292327 ] } },
{ "type": "Feature", "properties": { "visible_points": 31, "total_points": 67, "visibility_pct": 46.268656716417908 }, "geometry": { "type": "Point", "coordinates": [ -0.410323108839893, 52.572468797617667 ] } },
{ "type": "Feature", "properties": { "visible_points": 41, "total_points": 83, "visibility_pct": 49.397590361445779 }, "geometry": { "type": "Point", "coordinates": [ -0.412056409902531, 52.572599950634988 ] } },
{ "type": "Feature", "properties": { "visible_points": 42, "total_points": 94, "visibility_pct": 44.680851063829785 }, "geometry": { "type": "Point", "coordinates": [ -0.411852033816218, 52.572597208597685 ] } },
{ "type": "Feature", "properties": { "visible_points": 46, "total_points": 102, "visibility_pct": 45.098039215686278 }, "geometry": { "type": "Point", "coordinates": [ -0.411647657765061, 52.572594466207597 ] } },
{ "type": "Feature", "properties": { "visible_points": 50, "total_points": 108, "visibility_pct": 46.296296296296298 }, "geometry": { "type": "Point", "coordinates": [ -0.411443281749061, 52.572591723464761 ] } },
{ "type": "Feature", "properties": { "visible_points": 55, "total_points": 112, "visibility_pct": 49.107142857142854 }, "geometry": { "type": "Point", "coordinates": [ -0.411238905768217, 52.572588980369183 ] } },
{ "type": "Feature", "properties": { "visible_points": 52, "total_points": 107, "visibility_pct": 48.598130841121495 }, "geometry": { "type": "Point", "coordinates": [ -0.411034529822545, 52.572586236920806 ] } },
{ "type": "Feature", "properties": { "visible_points": 49, "total_points": 100, "visibility_pct": 49.0 }, "geometry": { "type": "Point", "coordinates": [ -0.410830153912033, 52.572583493119673 ] } },
{ "type": "Feature", "properties": { "visible_points": 40, "total_points": 90, "visibility_pct": 44.444444444444443 }, "geometry": { "type": "Point", "coordinates": [ -0.410625778036707, 52.572580748965784 ] } },
{ "type": "Feature", "properties": { "visible_points": 34, "total_points": 79, "visibility_pct": 43.037974683544306 }, "geometry": { "type": "Point", "coordinates": [ -0.410421402196554, 52.572578004459125 ] } },
{ "type": "Feature", "properties": { "visible_points": 31, "total_points": 67, "visibility_pct": 46.268656716417908 }, "geometry": { "type": "Point", "coordinates": [ -0.410217026391586, 52.572575259599688 ] } },
{ "type": "Feature", "properties": { "visible_points": 38, "total_points": 82, "visibility_pct": 46.341463414634148 }, "geometry": { "type": "Point", "coordinates": [ -0.41215470827529, 52.572709156050536 ] } },
{ "type": "Feature", "properties": { "visible_points": 39, "total_points": 93, "visibility_pct": 41.935483870967744 }, "geometry": { "type": "Point", "coordinates": [ -0.411950331627732, 52.572706414181233 ] } },
{ "type": "Feature", "properties": { "visible_points": 43, "total_points": 103, "visibility_pct": 41.747572815533978 }, "geometry": { "type": "Point", "coordinates": [ -0.411745955015326, 52.572703671959168 ] } },
{ "type": "Feature", "properties": { "visible_points": 53, "total_points": 112, "visibility_pct": 47.321428571428569 }, "geometry": { "type": "Point", "coordinates": [ -0.41154157843807, 52.572700929384339 ] } },
{ "type": "Feature", "properties": { "visible_points": 59, "total_points": 117, "visibility_pct": 50.427350427350426 }, "geometry": { "type": "Point", "coordinates": [ -0.411337201895973, 52.572698186456748 ] } },
{ "type": "Feature", "properties": { "visible_points": 60, "total_points": 116, "visibility_pct": 51.724137931034484 }, "geometry": { "type": "Point", "coordinates": [ -0.411132825389041, 52.572695443176379 ] } },
{ "type": "Feature", "properties": { "visible_points": 53, "total_points": 112, "visibility_pct": 47.321428571428569 }, "geometry": { "type": "Point", "coordinates": [ -0.410928448917276, 52.572692699543254 ] } },
{ "type": "Feature", "properties": { "visible_points": 47, "total_points": 102, "visibility_pct": 46.078431372549019 }, "geometry": { "type": "Point", "coordinates": [ -0.410724072480684, 52.572689955557344 ] } },
{ "type": "Feature", "properties": { "visible_points": 39, "total_points": 90, "visibility_pct": 43.333333333333336 }, "geometry": { "type": "Point", "coordinates": [ -0.410519696079269, 52.572687211218685 ] } },
{ "type": "Feature", "properties": { "visible_points": 34, "total_points": 78, "visibility_pct": 43.589743589743591 }, "geometry": { "type": "Point", "coordinates": [ -0.410315319713039, 52.572684466527257 ] } },
{ "type": "Feature", "properties": { "visible_points": 30, "total_points": 66, "visibility_pct": 45.454545454545453 }, "geometry": { "type": "Point", "coordinates": [ -0.410110943381994, 52.572681721483058 ] } },
{ "type": "Feature", "properties": { "visible_points": 0, "total_points": 80, "visibility_pct": 0.0 }, "geometry": { "type": "Point", "coordinates": [ -0.412253007174129, 52.572818361384186 ] } },
{ "type": "Feature", "properties": { "visible_points": 41, "total_points": 92, "visibility_pct": 44.565217391304344 }, "geometry": { "type": "Point", "coordinates": [ -0.412048629965321, 52.572815619682906 ] } },
{ "type": "Feature", "properties": { "visible_points": 47, "total_points": 102, "visibility_pct": 46.078431372549019 }, "geometry": { "type": "Point", "coordinates": [ -0.411844252791658, 52.572812877628841 ] } },
{ "type": "Feature", "properties": { "visible_points": 55, "total_points": 111, "visibility_pct": 49.549549549549546 }, "geometry": { "type": "Point", "coordinates": [ -0.411639875653148, 52.572810135221999 ] } },
{ "type": "Feature", "properties": { "visible_points": 60, "total_points": 118, "visibility_pct": 50.847457627118644 }, "geometry": { "type": "Point", "coordinates": [ -0.411435498549795, 52.572807392462416 ] } },
{ "type": "Feature", "properties": { "visible_points": 66, "total_points": 120, "visibility_pct": 55.000000000000007 }, "geometry": { "type": "Point", "coordinates": [ -0.411231121481603, 52.572804649350047 ] } },
{ "type": "Feature", "properties": { "visible_points": 62, "total_points": 119, "visibility_pct": 52.100840336134461 }, "geometry": { "type": "Point", "coordinates": [ -0.411026744448577, 52.572801905884916 ] } },
{ "type": "Feature", "properties": { "visible_points": 52, "total_points": 113, "visibility_pct": 46.017699115044245 }, "geometry": { "type": "Point", "coordinates": [ -0.410822367450724, 52.572799162067014 ] } },
{ "type": "Feature", "properties": { "visible_points": 44, "total_points": 101, "visibility_pct": 43.564356435643568 }, "geometry": { "type": "Point", "coordinates": [ -0.410617990488043, 52.572796417896363 ] } },
{ "type": "Feature", "properties": { "visible_points": 38, "total_points": 88, "visibility_pct": 43.18181818181818 }, "geometry": { "type": "Point", "coordinates": [ -0.410413613560541, 52.572793673372914 ] } },
{ "type": "Feature", "properties": { "visible_points": 28, "total_points": 75, "visibility_pct": 37.333333333333336 }, "geometry": { "type": "Point", "coordinates": [ -0.41020923666823, 52.572790928496723 ] } },
{ "type": "Feature", "properties": { "visible_points": 1, "total_points": 63, "visibility_pct": 1.5873015873015872 }, "geometry": { "type": "Point", "coordinates": [ -0.410004859811105, 52.572788183267754 ] } },
{ "type": "Feature", "properties": { "visible_points": 2, "total_points": 78, "visibility_pct": 2.5641025641025639 }, "geometry": { "type": "Point", "coordinates": [ -0.41235130659905, 52.572927566635926 ] } },
{ "type": "Feature", "properties": { "visible_points": 35, "total_points": 90, "visibility_pct": 38.888888888888893 }, "geometry": { "type": "Point", "coordinates": [ -0.412146928828988, 52.572924825102646 ] } },
{ "type": "Feature", "properties": { "visible_points": 40, "total_points": 101, "visibility_pct": 39.603960396039604 }, "geometry": { "type": "Point", "coordinates": [ -0.411942551094072, 52.572922083216596 ] } },
{ "type": "Feature", "properties": { "visible_points": 48, "total_points": 110, "visibility_pct": 43.636363636363633 }, "geometry": { "type": "Point", "coordinates": [ -0.4117381733943, 52.572919340977776 ] } },
{ "type": "Feature", "properties": { "visible_points": 61, "total_points": 117, "visibility_pct": 52.136752136752143 }, "geometry": { "type": "Point", "coordinates": [ -0.41153379572969, 52.572916598386186 ] } },
{ "type": "Feature", "properties": { "visible_points": 65, "total_points": 120, "visibility_pct": 54.166666666666664 }, "geometry": { "type": "Point", "coordinates": [ -0.411329418100238, 52.572913855441826 ] } },
{ "type": "Feature", "properties": { "visible_points": 71, "total_points": 120, "visibility_pct": 59.166666666666664 }, "geometry": { "type": "Point", "coordinates": [ -0.411125040505951, 52.572911112144709 ] } },
{ "type": "Feature", "properties": { "visible_points": 61, "total_points": 119, "visibility_pct": 51.260504201680668 }, "geometry": { "type": "Point", "coordinates": [ -0.410920662946825, 52.572908368494794 ] } },
{ "type": "Feature", "properties": { "visible_points": 55, "total_points": 110, "visibility_pct": 50.0 }, "geometry": { "type": "Point", "coordinates": [ -0.410716285422881, 52.572905624492122 ] } },
{ "type": "Feature", "properties": { "visible_points": 40, "total_points": 97, "visibility_pct": 41.237113402061851 }, "geometry": { "type": "Point", "coordinates": [ -0.410511907934111, 52.572902880136688 ] } },
{ "type": "Feature", "properties": { "visible_points": 28, "total_points": 84, "visibility_pct": 33.333333333333329 }, "geometry": { "type": "Point", "coordinates": [ -0.410307530480521, 52.572900135428483 ] } },
{ "type": "Feature", "properties": { "visible_points": 0, "total_points": 71, "visibility_pct": 0.0 }, "geometry": { "type": "Point", "coordinates": [ -0.410103153062126, 52.572897390367508 ] } },
{ "type": "Feature", "properties": { "visible_points": 1, "total_points": 73, "visibility_pct": 1.3698630136986301 }, "geometry": { "type": "Point", "coordinates": [ -0.412449606550057, 52.573036771805782 ] } },
{ "type": "Feature", "properties": { "visible_points": 28, "total_points": 86, "visibility_pct": 32.558139534883722 }, "geometry": { "type": "Point", "coordinates": [ -0.412245228218741, 52.573034030440503 ] } },
{ "type": "Feature", "properties": { "visible_points": 38, "total_points": 99, "visibility_pct": 38.383838383838381 }, "geometry": { "type": "Point", "coordinates": [ -0.412040849922565, 52.573031288722454 ] } },
{ "type": "Feature", "properties": { "visible_points": 42, "total_points": 109, "visibility_pct": 38.532110091743121 }, "geometry": { "type": "Point", "coordinates": [ -0.411836471661538, 52.573028546651649 ] } },
{ "type": "Feature", "properties": { "visible_points": 60, "total_points": 116, "visibility_pct": 51.724137931034484 }, "geometry": { "type": "Point", "coordinates": [ -0.41163209343566, 52.57302580422806 ] } },
{ "type": "Feature", "properties": { "visible_points": 72, "total_points": 120, "visibility_pct": 60.0 }, "geometry": { "type": "Point", "coordinates": [ -0.411427715244946, 52.573023061451714 ] } },
{ "type": "Feature", "properties": { "visible_points": 72, "total_points": 120, "visibility_pct": 60.0 }, "geometry": { "type": "Point", "coordinates": [ -0.411223337089389, 52.573020318322591 ] } },
{ "type": "Feature", "properties": { "visible_points": 67, "total_points": 120, "visibility_pct": 55.833333333333336 }, "geometry": { "type": "Point", "coordinates": [ -0.411018958969001, 52.573017574840691 ] } },
{ "type": "Feature", "properties": { "visible_points": 53, "total_points": 113, "visibility_pct": 46.902654867256636 }, "geometry": { "type": "Point", "coordinates": [ -0.410814580883783, 52.573014831006013 ] } },
{ "type": "Feature", "properties": { "visible_points": 45, "total_points": 103, "visibility_pct": 43.689320388349515 }, "geometry": { "type": "Point", "coordinates": [ -0.410610202833741, 52.573012086818565 ] } },
{ "type": "Feature", "properties": { "visible_points": 31, "total_points": 90, "visibility_pct": 34.444444444444443 }, "geometry": { "type": "Point", "coordinates": [ -0.410405824818879, 52.573009342278375 ] } },
{ "type": "Feature", "properties": { "visible_points": 18, "total_points": 77, "visibility_pct": 23.376623376623375 }, "geometry": { "type": "Point", "coordinates": [ -0.410201446839205, 52.573006597385394 ] } },
{ "type": "Feature", "properties": { "visible_points": 23, "total_points": 79, "visibility_pct": 29.11392405063291 }, "geometry": { "type": "Point", "coordinates": [ -0.412343528134583, 52.57314323569647 ] } },
{ "type": "Feature", "properties": { "visible_points": 33, "total_points": 92, "visibility_pct": 35.869565217391305 }, "geometry": { "type": "Point", "coordinates": [ -0.412139149277144, 52.573140494146429 ] } },
{ "type": "Feature", "properties": { "visible_points": 39, "total_points": 105, "visibility_pct": 37.142857142857146 }, "geometry": { "type": "Point", "coordinates": [ -0.411934770454858, 52.573137752243625 ] } },
{ "type": "Feature", "properties": { "visible_points": 45, "total_points": 115, "visibility_pct": 39.130434782608695 }, "geometry": { "type": "Point", "coordinates": [ -0.411730391667716, 52.573135009988043 ] } },
{ "type": "Feature", "properties": { "visible_points": 63, "total_points": 120, "visibility_pct": 52.5 }, "geometry": { "type": "Point", "coordinates": [ -0.41152601291573, 52.573132267379705 ] } },
{ "type": "Feature", "properties": { "visible_points": 72, "total_points": 120, "visibility_pct": 60.0 }, "geometry": { "type": "Point", "coordinates": [ -0.411321634198908, 52.573129524418583 ] } },
{ "type": "Feature", "properties": { "visible_points": 70, "total_points": 120, "visibility_pct": 58.333333333333336 }, "geometry": { "type": "Point", "coordinates": [ -0.411117255517246, 52.573126781104676 ] } },
{ "type": "Feature", "properties": { "visible_points": 57, "total_points": 114, "visibility_pct": 50.0 }, "geometry": { "type": "Point", "coordinates": [ -0.410912876870758, 52.573124037438014 ] } },
{ "type": "Feature", "properties": { "visible_points": 49, "total_points": 105, "visibility_pct": 46.666666666666664 }, "geometry": { "type": "Point", "coordinates": [ -0.410708498259441, 52.573121293418559 ] } },
{ "type": "Feature", "properties": { "visible_points": 40, "total_points": 94, "visibility_pct": 42.553191489361701 }, "geometry": { "type": "Point", "coordinates": [ -0.410504119683305, 52.573118549046363 ] } },
{ "type": "Feature", "properties": { "visible_points": 9, "total_points": 82, "visibility_pct": 10.975609756097562 }, "geometry": { "type": "Point", "coordinates": [ -0.410299741142345, 52.573115804321375 ] } },
{ "type": "Feature", "properties": { "visible_points": 23, "total_points": 70, "visibility_pct": 32.857142857142854 }, "geometry": { "type": "Point", "coordinates": [ -0.412441828576517, 52.573252440870512 ] } },
{ "type": "Feature", "properties": { "visible_points": 32, "total_points": 83, "visibility_pct": 38.554216867469883 }, "geometry": { "type": "Point", "coordinates": [ -0.412237449157818, 52.5732496994885 ] } },
{ "type": "Feature", "properties": { "visible_points": 34, "total_points": 96, "visibility_pct": 35.416666666666671 }, "geometry": { "type": "Point", "coordinates": [ -0.412033069774261, 52.573246957753703 ] } },
{ "type": "Feature", "properties": { "visible_points": 43, "total_points": 109, "visibility_pct": 39.449541284403672 }, "geometry": { "type": "Point", "coordinates": [ -0.411828690425856, 52.573244215666129 ] } },
{ "type": "Feature", "properties": { "visible_points": 57, "total_points": 118, "visibility_pct": 48.305084745762713 }, "geometry": { "type": "Point", "coordinates": [ -0.411624311112603, 52.573241473225785 ] } },
{ "type": "Feature", "properties": { "visible_points": 58, "total_points": 120, "visibility_pct": 48.333333333333336 }, "geometry": { "type": "Point", "coordinates": [ -0.411419931834507, 52.573238730432656 ] } },
{ "type": "Feature", "properties": { "visible_points": 64, "total_points": 120, "visibility_pct": 53.333333333333336 }, "geometry": { "type": "Point", "coordinates": [ -0.41121555259157, 52.573235987286772 ] } },
{ "type": "Feature", "properties": { "visible_points": 55, "total_points": 115, "visibility_pct": 47.826086956521742 }, "geometry": { "type": "Point", "coordinates": [ -0.411011173383809, 52.573233243788088 ] } },
{ "type": "Feature", "properties": { "visible_points": 48, "total_points": 106, "visibility_pct": 45.283018867924532 }, "geometry": { "type": "Point", "coordinates": [ -0.410806794211212, 52.573230499936685 ] } },
{ "type": "Feature", "properties": { "visible_points": 46, "total_points": 96, "visibility_pct": 47.916666666666671 }, "geometry": { "type": "Point", "coordinates": [ -0.410602415073796, 52.573227755732468 ] } },
{ "type": "Feature", "properties": { "visible_points": 39, "total_points": 84, "visibility_pct": 46.428571428571431 }, "geometry": { "type": "Point", "coordinates": [ -0.410398035971558, 52.573225011175474 ] } },
{ "type": "Feature", "properties": { "visible_points": 19, "total_points": 62, "visibility_pct": 30.64516129032258 }, "geometry": { "type": "Point", "coordinates": [ -0.412540129544553, 52.573361645962656 ] } },
{ "type": "Feature", "properties": { "visible_points": 24, "total_points": 74, "visibility_pct": 32.432432432432435 }, "geometry": { "type": "Point", "coordinates": [ -0.412335749564584, 52.573358904748645 ] } },
{ "type": "Feature", "properties": { "visible_points": 34, "total_points": 86, "visibility_pct": 39.534883720930232 }, "geometry": { "type": "Point", "coordinates": [ -0.412131369619761, 52.573356163181877 ] } },
{ "type": "Feature", "properties": { "visible_points": 39, "total_points": 99, "visibility_pct": 39.393939393939391 }, "geometry": { "type": "Point", "coordinates": [ -0.411926989710087, 52.573353421262304 ] } },
{ "type": "Feature", "properties": { "visible_points": 49, "total_points": 111, "visibility_pct": 44.144144144144143 }, "geometry": { "type": "Point", "coordinates": [ -0.41172260983556, 52.573350678989975 ] } },
{ "type": "Feature", "properties": { "visible_points": 55, "total_points": 115, "visibility_pct": 47.826086956521742 }, "geometry": { "type": "Point", "coordinates": [ -0.411518229996192, 52.573347936364861 ] } },
{ "type": "Feature", "properties": { "visible_points": 55, "total_points": 118, "visibility_pct": 46.610169491525419 }, "geometry": { "type": "Point", "coordinates": [ -0.411313850191981, 52.573345193386963 ] } },
{ "type": "Feature", "properties": { "visible_points": 52, "total_points": 115, "visibility_pct": 45.217391304347828 }, "geometry": { "type": "Point", "coordinates": [ -0.41110947042294, 52.573342450056309 ] } },
{ "type": "Feature", "properties": { "visible_points": 44, "total_points": 107, "visibility_pct": 41.121495327102799 }, "geometry": { "type": "Point", "coordinates": [ -0.410905090689065, 52.573339706372877 ] } },
{ "type": "Feature", "properties": { "visible_points": 40, "total_points": 97, "visibility_pct": 41.237113402061851 }, "geometry": { "type": "Point", "coordinates": [ -0.410700710990364, 52.573336962336668 ] } },
{ "type": "Feature", "properties": { "visible_points": 31, "total_points": 86, "visibility_pct": 36.046511627906973 }, "geometry": { "type": "Point", "coordinates": [ -0.410496331326843, 52.573334217947675 ] } },
{ "type": "Feature", "properties": { "visible_points": 16, "total_points": 64, "visibility_pct": 25.0 }, "geometry": { "type": "Point", "coordinates": [ -0.412434050497449, 52.573468109926907 ] } },
{ "type": "Feature", "properties": { "visible_points": 23, "total_points": 76, "visibility_pct": 30.263157894736842 }, "geometry": { "type": "Point", "coordinates": [ -0.41222966999136, 52.573465368528126 ] } },
{ "type": "Feature", "properties": { "visible_points": 34, "total_points": 88, "visibility_pct": 38.636363636363633 }, "geometry": { "type": "Point", "coordinates": [ -0.412025289520409, 52.573462626776589 ] } },
{ "type": "Feature", "properties": { "visible_points": 46, "total_points": 99, "visibility_pct": 46.464646464646464 }, "geometry": { "type": "Point", "coordinates": [ -0.411820909084613, 52.573459884672253 ] } },
{ "type": "Feature", "properties": { "visible_points": 55, "total_points": 105, "visibility_pct": 52.380952380952387 }, "geometry": { "type": "Point", "coordinates": [ -0.411616528683962, 52.573457142215155 ] } },
{ "type": "Feature", "properties": { "visible_points": 53, "total_points": 109, "visibility_pct": 48.623853211009177 }, "geometry": { "type": "Point", "coordinates": [ -0.411412148318482, 52.573454399405271 ] } },
{ "type": "Feature", "properties": { "visible_points": 47, "total_points": 107, "visibility_pct": 43.925233644859816 }, "geometry": { "type": "Point", "coordinates": [ -0.411207767988151, 52.573451656242625 ] } },
{ "type": "Feature", "properties": { "visible_points": 46, "total_points": 102, "visibility_pct": 45.098039215686278 }, "geometry": { "type": "Point", "coordinates": [ -0.411003387692997, 52.573448912727187 ] } },
{ "type": "Feature", "properties": { "visible_points": 36, "total_points": 95, "visibility_pct": 37.894736842105267 }, "geometry": { "type": "Point", "coordinates": [ -0.410799007433016, 52.573446168858972 ] } },
{ "type": "Feature", "properties": { "visible_points": 31, "total_points": 85, "visibility_pct": 36.470588235294116 }, "geometry": { "type": "Point", "coordinates": [ -0.410594627208207, 52.573443424637986 ] } },
{ "type": "Feature", "properties": { "visible_points": 21, "total_points": 76, "visibility_pct": 27.631578947368425 }, "geometry": { "type": "Point", "coordinates": [ -0.412123589856833, 52.573571832208948 ] } },
{ "type": "Feature", "properties": { "visible_points": 34, "total_points": 86, "visibility_pct": 39.534883720930232 }, "geometry": { "type": "Point", "coordinates": [ -0.41191920885976, 52.573569090272635 ] } },
{ "type": "Feature", "properties": { "visible_points": 44, "total_points": 93, "visibility_pct": 47.311827956989248 }, "geometry": { "type": "Point", "coordinates": [ -0.411714827897837, 52.573566347983544 ] } },
{ "type": "Feature", "properties": { "visible_points": 47, "total_points": 97, "visibility_pct": 48.453608247422679 }, "geometry": { "type": "Point", "coordinates": [ -0.411510446971065, 52.573563605341675 ] } },
{ "type": "Feature", "properties": { "visible_points": 43, "total_points": 97, "visibility_pct": 44.329896907216494 }, "geometry": { "type": "Point", "coordinates": [ -0.411306066079459, 52.573560862347023 ] } },
{ "type": "Feature", "properties": { "visible_points": 40, "total_points": 94, "visibility_pct": 42.553191489361701 }, "geometry": { "type": "Point", "coordinates": [ -0.411101685223019, 52.573558118999593 ] } },
{ "type": "Feature", "properties": { "visible_points": 35, "total_points": 89, "visibility_pct": 39.325842696629216 }, "geometry": { "type": "Point", "coordinates": [ -0.410897304401748, 52.573555375299392 ] } },
{ "type": "Feature", "properties": { "visible_points": 33, "total_points": 82, "visibility_pct": 40.243902439024396 }, "geometry": { "type": "Point", "coordinates": [ -0.410692923615651, 52.573552631246415 ] } },
{ "type": "Feature", "properties": { "visible_points": 31, "total_points": 80, "visibility_pct": 38.75 }, "geometry": { "type": "Point", "coordinates": [ -0.411813127637802, 52.573675553670029 ] } },
{ "type": "Feature", "properties": { "visible_points": 41, "total_points": 85, "visibility_pct": 48.235294117647058 }, "geometry": { "type": "Point", "coordinates": [ -0.411608746149753, 52.573672811196168 ] } },
{ "type": "Feature", "properties": { "visible_points": 39, "total_points": 86, "visibility_pct": 45.348837209302324 }, "geometry": { "type": "Point", "coordinates": [ -0.411404364696857, 52.57367006836953 ] } },
{ "type": "Feature", "properties": { "visible_points": 36, "total_points": 84, "visibility_pct": 42.857142857142854 }, "geometry": { "type": "Point", "coordinates": [ -0.411199983279131, 52.573667325190115 ] } },
{ "type": "Feature", "properties": { "visible_points": 36, "total_points": 81, "visibility_pct": 44.444444444444443 }, "geometry": { "type": "Point", "coordinates": [ -0.410995601896568, 52.573664581657908 ] } },
{ "type": "Feature", "properties": { "visible_points": 30, "total_points": 76, "visibility_pct": 39.473684210526315 }, "geometry": { "type": "Point", "coordinates": [ -0.410791220549181, 52.573661837772939 ] } },
{ "type": "Feature", "properties": { "visible_points": 29, "total_points": 69, "visibility_pct": 42.028985507246375 }, "geometry": { "type": "Point", "coordinates": [ -0.410586839236974, 52.57365909353517 ] } },
{ "type": "Feature", "properties": { "visible_points": 14, "total_points": 74, "visibility_pct": 18.918918918918919 }, "geometry": { "type": "Point", "coordinates": [ -0.411502663840354, 52.573779274310155 ] } },
{ "type": "Feature", "properties": { "visible_points": 32, "total_points": 74, "visibility_pct": 43.243243243243242 }, "geometry": { "type": "Point", "coordinates": [ -0.411298281861338, 52.573776531298734 ] } },
{ "type": "Feature", "properties": { "visible_points": 32, "total_points": 72, "visibility_pct": 44.444444444444443 }, "geometry": { "type": "Point", "coordinates": [ -0.411093899917485, 52.573773787934549 ] } },
{ "type": "Feature", "properties": { "visible_points": 30, "total_points": 68, "visibility_pct": 44.117647058823529 }, "geometry": { "type": "Point", "coordinates": [ -0.410889518008804, 52.57377104421758 ] } },
{ "type": "Feature", "properties": { "visible_points": 28, "total_points": 63, "visibility_pct": 44.444444444444443 }, "geometry": { "type": "Point", "coordinates": [ -0.410685136135296, 52.573768300147819 ] } },
{ "type": "Feature", "properties": { "visible_points": 1, "total_points": 62, "visibility_pct": 1.6129032258064515 }, "geometry": { "type": "Point", "coordinates": [ -0.411192198464499, 52.573882994129271 ] } },
{ "type": "Feature", "properties": { "visible_points": 25, "total_points": 60, "visibility_pct": 41.666666666666671 }, "geometry": { "type": "Point", "coordinates": [ -0.410987815994521, 52.573880250580309 ] } },
{ "type": "Feature", "properties": { "visible_points": 27, "total_points": 56, "visibility_pct": 48.214285714285715 }, "geometry": { "type": "Point", "coordinates": [ -0.410783433559715, 52.573877506678556 ] } }
]
}
