{
"type": "FeatureCollection",
"name": "d44d0f96043d_visibility",
"crs": { "type": "name", "properties": { "name": "urn:ogc:def:crs:OGC:1.3:CRS84" } },
"features": [
{ "type": "Feature", "properties": { "visible_points": 19, "total_points": 52, "visibility_pct": 36.538461538461533 }, "geometry": { "type": "Point", "coordinates": [ -0.289294792786611, 52.434902153617784 ] } },
{ "type": "Feature", "properties": { "visible_points": 15, "total_points": 60, "visibility_pct": 25.0 }, "geometry": { "type": "Point", "coordinates": [ -0.289091065862583, 52.434899206554228 ] } },
{ "type": "Feature", "properties": { "visible_points": 9, "total_points": 66, "visibility_pct": 13.636363636363635 }, "geometry": { "type": "Point", "coordinates": [ -0.2888873389738, 52.434896259139812 ] } },
{ "type": "Feature", "properties": { "visible_points": 9, "total_points": 69, "visibility_pct": 13.043478260869565 }, "geometry": { "type": "Point", "coordinates": [ -0.288683612120269, 52.434893311374523 ] } },
{ "type": "Feature", "properties": { "visible_points": 7, "total_points": 68, "visibility_pct": 10.294117647058822 }, "geometry": { "type": "Point", "coordinates": [ -0.288479885301993, 52.434890363258361 ] } },
{ "type": "Feature", "properties": { "visible_points": 20, "total_points": 63, "visibility_pct": 31.746031746031743 }, "geometry": { "type": "Point", "coordinates": [ -0.289188754213233, 52.435008513799595 ] } },
{ "type": "Feature", "properties": { "visible_points": 14, "total_points": 72, "visibility_pct": 19.444444444444446 }, "geometry": { "type": "Point", "coordinates": [ -0.288985026810399, 52.435005566549286 ] } },
{ "type": "Feature", "properties": { "visible_points": 24, "total_points": 77, "visibility_pct": 31.168831168831169 }, "geometry": { "type": "Point", "coordinates": [ -0.288781299442812, 52.43500261894809 ] } },
{ "type": "Feature", "properties": { "visible_points": 11, "total_points": 78, "visibility_pct": 14.102564102564102 }, "geometry": { "type": "Point", "coordinates": [ -0.288577572110474, 52.434999670996021 ] } },
{ "type": "Feature", "properties": { "visible_points": 18, "total_points": 75, "visibility_pct": 24.0 }, "geometry": { "type": "Point", "coordinates": [ -0.288373844813399, 52.4349967226931 ] } },
{ "type": "Feature", "properties": { "visible_points": 10, "total_points": 66, "visibility_pct": 15.151515151515152 }, "geometry": { "type": "Point", "coordinates": [ -0.288170117551576, 52.43499377403932 ] } },
{ "type": "Feature", "properties": { "visible_points": 9, "total_points": 56, "visibility_pct": 16.071428571428573 }, "geometry": { "type": "Point", "coordinates": [ -0.287966390325029, 52.434990825034653 ] } },
{ "type": "Feature", "properties": { "visible_points": 15, "total_points": 65, "visibility_pct": 23.076923076923077 }, "geometry": { "type": "Point", "coordinates": [ -0.289286443042679, 52.435117820966369 ] } },
{ "type": "Feature", "properties": { "visible_points": 27, "total_points": 75, "visibility_pct": 36.0 }, "geometry": { "type": "Point", "coordinates": [ -0.289082715125787, 52.435114873880146 ] } },
{ "type": "Feature", "properties": { "visible_points": 17, "total_points": 84, "visibility_pct": 20.238095238095237 }, "geometry": { "type": "Point", "coordinates": [ -0.288878987244146, 52.435111926443064 ] } },
{ "type": "Feature", "properties": { "visible_points": 15, "total_points": 87, "visibility_pct": 17.241379310344829 }, "geometry": { "type": "Point", "coordinates": [ -0.288675259397747, 52.435108978655116 ] } },
{ "type": "Feature", "properties": { "visible_points": 16, "total_points": 86, "visibility_pct": 18.604651162790699 }, "geometry": { "type": "Point", "coordinates": [ -0.288471531586606, 52.435106030516287 ] } },
{ "type": "Feature", "properties": { "visible_points": 18, "total_points": 78, "visibility_pct": 23.076923076923077 }, "geometry": { "type": "Point", "coordinates": [ -0.28826780381073, 52.435103082026593 ] } },
{ "type": "Feature", "properties": { "visible_points": 13, "total_points": 67, "visibility_pct": 19.402985074626866 }, "geometry": { "type": "Point", "coordinates": [ -0.288064076070109, 52.435100133186026 ] } },
{ "type": "Feature", "properties": { "visible_points": 13, "total_points": 76, "visibility_pct": 17.105263157894736 }, "geometry": { "type": "Point", "coordinates": [ -0.289180403919972, 52.43522418113244 ] } },
{ "type": "Feature", "properties": { "visible_points": 15, "total_points": 87, "visibility_pct": 17.241379310344829 }, "geometry": { "type": "Point", "coordinates": [ -0.288976675524271, 52.435221233859458 ] } },
{ "type": "Feature", "properties": { "visible_points": 11, "total_points": 95, "visibility_pct": 11.578947368421053 }, "geometry": { "type": "Point", "coordinates": [ -0.288772947163814, 52.43521828623561 ] } },
{ "type": "Feature", "properties": { "visible_points": 12, "total_points": 96, "visibility_pct": 12.5 }, "geometry": { "type": "Point", "coordinates": [ -0.28856921883861, 52.435215338260889 ] } },
{ "type": "Feature", "properties": { "visible_points": 16, "total_points": 90, "visibility_pct": 17.777777777777779 }, "geometry": { "type": "Point", "coordinates": [ -0.288365490548665, 52.435212389935295 ] } },
{ "type": "Feature", "properties": { "visible_points": 16, "total_points": 79, "visibility_pct": 20.253164556962027 }, "geometry": { "type": "Point", "coordinates": [ -0.288161762293979, 52.435209441258827 ] } },
{ "type": "Feature", "properties": { "visible_points": 15, "total_points": 67, "visibility_pct": 22.388059701492537 }, "geometry": { "type": "Point", "coordinates": [ -0.287958034074562, 52.435206492231494 ] } },
{ "type": "Feature", "properties": { "visible_points": 22, "total_points": 86, "visibility_pct": 25.581395348837212 }, "geometry": { "type": "Point", "coordinates": [ -0.289074364283191, 52.435330541197274 ] } },
{ "type": "Feature", "properties": { "visible_points": 13, "total_points": 98, "visibility_pct": 13.26530612244898 }, "geometry": { "type": "Point", "coordinates": [ -0.288870635408676, 52.435327593737519 ] } },
{ "type": "Feature", "properties": { "visible_points": 13, "total_points": 104, "visibility_pct": 12.5 }, "geometry": { "type": "Point", "coordinates": [ -0.288666906569408, 52.435324645926897 ] } },
{ "type": "Feature", "properties": { "visible_points": 10, "total_points": 100, "visibility_pct": 10.0 }, "geometry": { "type": "Point", "coordinates": [ -0.288463177765391, 52.435321697765396 ] } },
{ "type": "Feature", "properties": { "visible_points": 17, "total_points": 90, "visibility_pct": 18.888888888888889 }, "geometry": { "type": "Point", "coordinates": [ -0.28825944899664, 52.435318749253042 ] } },
{ "type": "Feature", "properties": { "visible_points": 13, "total_points": 77, "visibility_pct": 16.883116883116884 }, "geometry": { "type": "Point", "coordinates": [ -0.288055720263145, 52.435315800389809 ] } },
{ "type": "Feature", "properties": { "visible_points": 12, "total_points": 76, "visibility_pct": 15.789473684210526 }, "geometry": { "type": "Point", "coordinates": [ -0.289172053520925, 52.435439848456475 ] } },
{ "type": "Feature", "properties": { "visible_points": 16, "total_points": 89, "visibility_pct": 17.977528089887642 }, "geometry": { "type": "Point", "coordinates": [ -0.288968324132333, 52.43543690116082 ] } },
{ "type": "Feature", "properties": { "visible_points": 23, "total_points": 99, "visibility_pct": 23.232323232323232 }, "geometry": { "type": "Point", "coordinates": [ -0.288764594779003, 52.43543395351432 ] } },
{ "type": "Feature", "properties": { "visible_points": 9, "total_points": 103, "visibility_pct": 8.7378640776699026 }, "geometry": { "type": "Point", "coordinates": [ -0.288560865460916, 52.435431005516925 ] } },
{ "type": "Feature", "properties": { "visible_points": 17, "total_points": 99, "visibility_pct": 17.171717171717169 }, "geometry": { "type": "Point", "coordinates": [ -0.288357136178091, 52.435428057168679 ] } },
{ "type": "Feature", "properties": { "visible_points": 13, "total_points": 87, "visibility_pct": 14.942528735632186 }, "geometry": { "type": "Point", "coordinates": [ -0.288153406930527, 52.435425108469531 ] } },
{ "type": "Feature", "properties": { "visible_points": 11, "total_points": 74, "visibility_pct": 14.864864864864865 }, "geometry": { "type": "Point", "coordinates": [ -0.287949677718228, 52.435422159419524 ] } },
{ "type": "Feature", "properties": { "visible_points": 17, "total_points": 78, "visibility_pct": 21.794871794871796 }, "geometry": { "type": "Point", "coordinates": [ -0.289066013334804, 52.435546208505556 ] } },
{ "type": "Feature", "properties": { "visible_points": 18, "total_points": 89, "visibility_pct": 20.224719101123593 }, "geometry": { "type": "Point", "coordinates": [ -0.288862283467395, 52.435543261023156 ] } },
{ "type": "Feature", "properties": { "visible_points": 20, "total_points": 95, "visibility_pct": 21.052631578947366 }, "geometry": { "type": "Point", "coordinates": [ -0.288658553635238, 52.435540313189868 ] } },
{ "type": "Feature", "properties": { "visible_points": 10, "total_points": 94, "visibility_pct": 10.638297872340425 }, "geometry": { "type": "Point", "coordinates": [ -0.288454823838342, 52.435537365005715 ] } },
{ "type": "Feature", "properties": { "visible_points": 13, "total_points": 87, "visibility_pct": 14.942528735632186 }, "geometry": { "type": "Point", "coordinates": [ -0.288251094076698, 52.435534416470681 ] } },
{ "type": "Feature", "properties": { "visible_points": 10, "total_points": 76, "visibility_pct": 13.157894736842104 }, "geometry": { "type": "Point", "coordinates": [ -0.288047364350325, 52.435531467584767 ] } },
{ "type": "Feature", "properties": { "visible_points": 11, "total_points": 66, "visibility_pct": 16.666666666666664 }, "geometry": { "type": "Point", "coordinates": [ -0.289163703016077, 52.435655515771714 ] } },
{ "type": "Feature", "properties": { "visible_points": 19, "total_points": 77, "visibility_pct": 24.675324675324674 }, "geometry": { "type": "Point", "coordinates": [ -0.288959972634599, 52.435652568453399 ] } },
{ "type": "Feature", "properties": { "visible_points": 7, "total_points": 85, "visibility_pct": 8.235294117647058 }, "geometry": { "type": "Point", "coordinates": [ -0.28875624228837, 52.435649620784218 ] } },
{ "type": "Feature", "properties": { "visible_points": 5, "total_points": 86, "visibility_pct": 5.8139534883720927 }, "geometry": { "type": "Point", "coordinates": [ -0.28855251197739, 52.435646672764165 ] } },
{ "type": "Feature", "properties": { "visible_points": 14, "total_points": 83, "visibility_pct": 16.867469879518072 }, "geometry": { "type": "Point", "coordinates": [ -0.288348781701672, 52.435643724393223 ] } },
{ "type": "Feature", "properties": { "visible_points": 19, "total_points": 75, "visibility_pct": 25.333333333333336 }, "geometry": { "type": "Point", "coordinates": [ -0.288145051461216, 52.435640775671416 ] } },
{ "type": "Feature", "properties": { "visible_points": 11, "total_points": 65, "visibility_pct": 16.923076923076923 }, "geometry": { "type": "Point", "coordinates": [ -0.287941321256028, 52.435637826598743 ] } },
{ "type": "Feature", "properties": { "visible_points": 6, "total_points": 65, "visibility_pct": 9.2307692307692317 }, "geometry": { "type": "Point", "coordinates": [ -0.289057662280609, 52.435761875805071 ] } },
{ "type": "Feature", "properties": { "visible_points": 6, "total_points": 74, "visibility_pct": 8.1081081081081088 }, "geometry": { "type": "Point", "coordinates": [ -0.288853931420302, 52.435758928299983 ] } },
{ "type": "Feature", "properties": { "visible_points": 2, "total_points": 77, "visibility_pct": 2.5974025974025974 }, "geometry": { "type": "Point", "coordinates": [ -0.28865020059525, 52.435755980444036 ] } },
{ "type": "Feature", "properties": { "visible_points": 3, "total_points": 76, "visibility_pct": 3.9473684210526314 }, "geometry": { "type": "Point", "coordinates": [ -0.288446469805448, 52.435753032237201 ] } },
{ "type": "Feature", "properties": { "visible_points": 7, "total_points": 71, "visibility_pct": 9.8591549295774641 }, "geometry": { "type": "Point", "coordinates": [ -0.288242739050908, 52.435750083679508 ] } },
{ "type": "Feature", "properties": { "visible_points": 12, "total_points": 63, "visibility_pct": 19.047619047619047 }, "geometry": { "type": "Point", "coordinates": [ -0.288039008331637, 52.435747134770921 ] } },
{ "type": "Feature", "properties": { "visible_points": 3, "total_points": 68, "visibility_pct": 4.4117647058823533 }, "geometry": { "type": "Point", "coordinates": [ -0.288544158388035, 52.435862340002586 ] } },
{ "type": "Feature", "properties": { "visible_points": 1, "total_points": 65, "visibility_pct": 1.5384615384615385 }, "geometry": { "type": "Point", "coordinates": [ -0.288340427119407, 52.435859391608993 ] } },
{ "type": "Feature", "properties": { "visible_points": 9, "total_points": 59, "visibility_pct": 15.254237288135593 }, "geometry": { "type": "Point", "coordinates": [ -0.288136695886052, 52.43585644286452 ] } }
]
}
