{
"type": "FeatureCollection",
"name": "TENDR_92_NACH_800m",
"crs": { "type": "name", "properties": { "name": "urn:ogc:def:crs:OGC:1.3:CRS84" } },
"features": [
{ "type": "Feature", "properties": { "id": 54567, "nach": 0.33305913796061742 }, "geometry": { "type": "LineString", "coordinates": [ [ 0.9848768, 51.9167516 ], [ 0.9849448, 51.9167222 ] ] } },
{ "type": "Feature", "properties": { "id": 599, "nach": 0.39539599539907383 }, "geometry": { "type": "LineString", "coordinates": [ [ 0.9861736, 51.9179689 ], [ 0.9860527, 51.9178871 ], [ 0.9859639, 51.9178204 ], [ 0.9858825, 51.9177526 ], [ 0.9857826, 51.9176551 ], [ 0.9855832, 51.9173849 ], [ 0.985476, 51.91724940000001 ], [ 0.9853645, 51.9171219 ], [ 0.9852207, 51.9169781 ], [ 0.9849448, 51.9167222 ] ] } },
{ "type": "Feature", "properties": { "id": 46694, "nach": 0.38496538017161014 }, "geometry": { "type": "LineString", "coordinates": [ [ 0.9843809, 51.916193100000015 ], [ 0.9847126, 51.916501799999985 ], [ 0.9849448, 51.9167222 ] ] } },
{ "type": "Feature", "properties": { "id": 54569, "nach": 0.28233030873519532 }, "geometry": { "type": "LineString", "coordinates": [ [ 0.9848768, 51.9167516 ], [ 0.9840907, 51.915994 ], [ 0.9836476, 51.9155928 ], [ 0.9834402, 51.915467399999983 ], [ 0.9832085, 51.915404700000011 ], [ 0.9828223, 51.9153345 ], [ 0.9824645, 51.915309400000012 ], [ 0.9821921, 51.9152768 ], [ 0.9821874, 51.9152339 ] ] } },
{ "type": "Feature", "properties": { "id": 54568, "nach": 0.31911332068232873 }, "geometry": { "type": "LineString", "coordinates": [ [ 0.9848768, 51.9167516 ], [ 0.9843748, 51.916968500000017 ], [ 0.9842985, 51.9170055 ], [ 0.9841398, 51.917077 ], [ 0.9840571, 51.917109 ], [ 0.983941099999989, 51.9171485 ], [ 0.9838703, 51.9171717 ], [ 0.9837735, 51.9172046 ], [ 0.9836368, 51.9172442 ], [ 0.9834726, 51.9172871 ], [ 0.983326, 51.917318799999983 ], [ 0.9831612, 51.9173587 ], [ 0.9829989, 51.9173924 ], [ 0.9828528, 51.9174225 ], [ 0.982770099999988, 51.9174376 ] ] } },
{ "type": "Feature", "properties": { "id": 17412, "nach": 0.38475492383171145 }, "geometry": { "type": "LineString", "coordinates": [ [ 0.985825, 51.9192564 ], [ 0.9858766, 51.9189438 ], [ 0.985983, 51.9183904 ], [ 0.986041, 51.9181716 ], [ 0.9860693, 51.9181059 ], [ 0.9861129, 51.918037 ], [ 0.9861736, 51.9179689 ] ] } },
{ "type": "Feature", "properties": { "id": 29353, "nach": 0.32405891860230474 }, "geometry": { "type": "LineString", "coordinates": [ [ 0.987562199999989, 51.917677700000013 ], [ 0.9873913, 51.9176893 ], [ 0.9870465, 51.9177323 ], [ 0.9868107, 51.9177639 ], [ 0.9866384, 51.9177889 ], [ 0.9864762, 51.9178168 ], [ 0.9863901, 51.917842 ], [ 0.9863042, 51.9178786 ], [ 0.9862256, 51.917925 ], [ 0.9861736, 51.9179689 ] ] } },
{ "type": "Feature", "properties": { "id": 46695, "nach": 0.35741933208192667 }, "geometry": { "type": "LineString", "coordinates": [ [ 0.9843809, 51.916193100000015 ], [ 0.9843572, 51.916171 ], [ 0.9840223, 51.9158573 ], [ 0.9837741, 51.9156289 ], [ 0.9837056, 51.9155721 ], [ 0.983624899999989, 51.9155191 ], [ 0.9835228, 51.9154602 ], [ 0.9834544, 51.9154289 ], [ 0.9833923, 51.915405500000013 ], [ 0.9833083, 51.9153772 ], [ 0.983217, 51.9153488 ], [ 0.9831229, 51.9153297 ], [ 0.9830304, 51.915311 ], [ 0.9829598, 51.915300600000016 ], [ 0.9828873, 51.915291 ], [ 0.982672399999988, 51.9152707 ], [ 0.9824701, 51.9152554 ], [ 0.9823249, 51.9152445 ], [ 0.9821874, 51.9152339 ] ] } },
{ "type": "Feature", "properties": { "id": 54155, "nach": 0.36765015320678318 }, "geometry": { "type": "LineString", "coordinates": [ [ 0.9846556, 51.9160834 ], [ 0.9845436, 51.9161281 ], [ 0.9843809, 51.916193100000015 ] ] } },
{ "type": "Feature", "properties": { "id": 29361, "nach": 0.43340286580945542 }, "geometry": { "type": "LineString", "coordinates": [ [ 0.9861238, 51.9205337 ], [ 0.9859886, 51.9202937 ], [ 0.9858759, 51.9199751 ], [ 0.9858506, 51.9194527 ], [ 0.985825, 51.9192564 ] ] } },
{ "type": "Feature", "properties": { "id": 17419, "nach": 0.38508137315460739 }, "geometry": { "type": "LineString", "coordinates": [ [ 0.9846968, 51.9190149 ], [ 0.9848548, 51.9190521 ], [ 0.9852642, 51.9191513 ], [ 0.985825, 51.9192564 ] ] } },
{ "type": "Feature", "properties": { "id": 54162, "nach": 0.30843536175676056 }, "geometry": { "type": "LineString", "coordinates": [ [ 0.9910112, 51.9170014 ], [ 0.9904208, 51.9172466 ], [ 0.9901996, 51.917336 ], [ 0.9899529, 51.9174333 ], [ 0.9897191, 51.917515700000017 ], [ 0.989603, 51.91755160000001 ], [ 0.989512, 51.91757710000001 ], [ 0.9894097, 51.9176025 ], [ 0.9893426, 51.9176173 ], [ 0.9892852, 51.917629 ], [ 0.9891606, 51.9176478 ], [ 0.9890322, 51.91765980000001 ], [ 0.988867, 51.9176689 ], [ 0.9887103, 51.917675400000014 ], [ 0.9884725, 51.9176788 ], [ 0.9882996, 51.9176758 ], [ 0.9877709, 51.9176709 ], [ 0.987562199999989, 51.917677700000013 ] ] } },
{ "type": "Feature", "properties": { "id": 29358, "nach": 0.32262878059412115 }, "geometry": { "type": "LineString", "coordinates": [ [ 0.9874676, 51.919392600000016 ], [ 0.9873516, 51.9192947 ], [ 0.9872783, 51.919159100000016 ], [ 0.9872356, 51.9190499 ], [ 0.9872661, 51.9189219 ], [ 0.9874407, 51.9185262 ], [ 0.9874932, 51.9184064 ], [ 0.9875464, 51.9183257 ], [ 0.9875958, 51.9182084 ], [ 0.9876119, 51.9181433 ], [ 0.9876202, 51.9180577 ], [ 0.9876121, 51.9179773 ], [ 0.987562199999989, 51.917677700000013 ] ] } },
{ "type": "Feature", "properties": { "id": 17239, "nach": 0.18097696834739513 }, "geometry": { "type": "LineString", "coordinates": [ [ 0.9978542, 51.916486600000013 ], [ 0.9916337, 51.9178528 ] ] } },
{ "type": "Feature", "properties": { "id": 17236, "nach": 0.27173078608181872 }, "geometry": { "type": "LineString", "coordinates": [ [ 0.9927214, 51.9163121 ], [ 0.9927228, 51.91643 ], [ 0.9925322, 51.9167128 ], [ 0.9923153, 51.9169971 ], [ 0.9922245, 51.9171139 ], [ 0.9921093, 51.9172574 ], [ 0.9918985, 51.91752420000001 ], [ 0.9916337, 51.9178528 ] ] } },
{ "type": "Feature", "properties": { "id": 27990, "nach": 0.56381323644754078 }, "geometry": { "type": "LineString", "coordinates": [ [ 0.985323, 51.9259441 ], [ 0.9853875, 51.9259562 ] ] } },
{ "type": "Feature", "properties": { "id": 28042, "nach": 0.52221320748293076 }, "geometry": { "type": "LineString", "coordinates": [ [ 0.9853153, 51.926158300000019 ], [ 0.9853435, 51.9261002 ], [ 0.9853875, 51.9259562 ] ] } },
{ "type": "Feature", "properties": { "id": 50279, "nach": 0.50460430494488506 }, "geometry": { "type": "LineString", "coordinates": [ [ 0.9859172, 51.9260762 ], [ 0.9858332, 51.9260542 ], [ 0.9856038, 51.925996199999986 ], [ 0.9853875, 51.9259562 ] ] } },
{ "type": "Feature", "properties": { "id": 27991, "nach": 0.54439299037363686 }, "geometry": { "type": "LineString", "coordinates": [ [ 0.985323, 51.9259441 ], [ 0.9853579, 51.9258614 ], [ 0.9853667, 51.9257196 ] ] } },
{ "type": "Feature", "properties": { "id": 28011, "nach": 0.53109028924377577 }, "geometry": { "type": "LineString", "coordinates": [ [ 0.9836755, 51.9259199 ], [ 0.983812299999988, 51.9259111 ], [ 0.9840481, 51.925894199999988 ], [ 0.984193399999989, 51.9258853 ], [ 0.9843436, 51.9258777 ], [ 0.9845177, 51.925875499999989 ], [ 0.9847169, 51.925878 ], [ 0.984926, 51.925893400000014 ], [ 0.9851319, 51.9259192 ], [ 0.985323, 51.9259441 ] ] } },
{ "type": "Feature", "properties": { "id": 45018, "nach": 0.53398823601660095 }, "geometry": { "type": "LineString", "coordinates": [ [ 0.9853062, 51.9267201 ], [ 0.9853019, 51.926703699999983 ], [ 0.9852829, 51.9266128 ], [ 0.9852717, 51.9265037 ], [ 0.9852842, 51.9262635 ], [ 0.9853153, 51.926158300000019 ] ] } },
{ "type": "Feature", "properties": { "id": 28043, "nach": 0.42574287598352362 }, "geometry": { "type": "LineString", "coordinates": [ [ 0.9853153, 51.926158300000019 ], [ 0.9853806, 51.9261484 ], [ 0.985571, 51.9261186 ], [ 0.9856367, 51.9261111 ], [ 0.9857051, 51.9261054 ], [ 0.986005, 51.9260991 ] ] } },
{ "type": "Feature", "properties": { "id": 50277, "nach": 0.49787447645044752 }, "geometry": { "type": "LineString", "coordinates": [ [ 0.9859172, 51.9260762 ], [ 0.986005, 51.9260991 ] ] } },
{ "type": "Feature", "properties": { "id": 50280, "nach": 0.37210774704542926 }, "geometry": { "type": "LineString", "coordinates": [ [ 0.985988299999989, 51.9259794 ], [ 0.9859172, 51.9260762 ] ] } },
{ "type": "Feature", "properties": { "id": 48363, "nach": 0.51761654105819688 }, "geometry": { "type": "LineString", "coordinates": [ [ 0.9848309, 51.927917599999986 ], [ 0.9848661, 51.9278939 ], [ 0.984952, 51.9278118 ], [ 0.9850114, 51.927745 ], [ 0.9850524, 51.9276988 ], [ 0.9850989, 51.9276085 ], [ 0.9851366, 51.92755 ] ] } },
{ "type": "Feature", "properties": { "id": 45017, "nach": 0.52539716347854493 }, "geometry": { "type": "LineString", "coordinates": [ [ 0.9853062, 51.9267201 ], [ 0.9853455, 51.9268693 ], [ 0.9853518, 51.9270368 ], [ 0.985324, 51.9271271 ], [ 0.9852414, 51.9273328 ], [ 0.9851942, 51.9274361 ], [ 0.9851366, 51.92755 ] ] } },
{ "type": "Feature", "properties": { "id": 41843, "nach": 0.3607599430685452 }, "geometry": { "type": "LineString", "coordinates": [ [ 0.9836439, 51.9274425 ], [ 0.9843546, 51.927397800000016 ], [ 0.9845665, 51.9274061 ], [ 0.9847865, 51.9274127 ], [ 0.9849394, 51.9274177 ], [ 0.9849957, 51.927426 ], [ 0.9850064, 51.9274508 ], [ 0.9850306, 51.9274772 ], [ 0.9850762, 51.927512 ], [ 0.9851366, 51.92755 ] ] } },
{ "type": "Feature", "properties": { "id": 48362, "nach": 0.4981142377328191 }, "geometry": { "type": "LineString", "coordinates": [ [ 0.9848309, 51.927917599999986 ], [ 0.9847316, 51.9279844 ] ] } },
{ "type": "Feature", "properties": { "id": 48364, "nach": 0.44457439673278848 }, "geometry": { "type": "LineString", "coordinates": [ [ 0.9848309, 51.927917599999986 ], [ 0.9847374, 51.9278653 ], [ 0.9846649, 51.9278305 ], [ 0.9845657, 51.92781560000001 ], [ 0.9844289, 51.9278338 ], [ 0.984327, 51.9278487 ], [ 0.9842224, 51.927865300000015 ], [ 0.9841097, 51.927857 ], [ 0.9839998, 51.9278206 ] ] } },
{ "type": "Feature", "properties": { "id": 45020, "nach": 0.37316284688892143 }, "geometry": { "type": "LineString", "coordinates": [ [ 0.9847702, 51.9266151 ], [ 0.9848289, 51.9266989 ], [ 0.9848637, 51.926725800000014 ], [ 0.9849311, 51.9267365 ], [ 0.9850605, 51.9267298 ], [ 0.9853062, 51.9267201 ] ] } },
{ "type": "Feature", "properties": { "id": 17397, "nach": 0.49111004340462527 }, "geometry": { "type": "LineString", "coordinates": [ [ 0.9819817, 51.926545800000014 ], [ 0.9820724, 51.9258789 ] ] } },
{ "type": "Feature", "properties": { "id": 15516, "nach": 0.44545990822851567 }, "geometry": { "type": "LineString", "coordinates": [ [ 0.9799917, 51.9256566 ], [ 0.9806295, 51.925736700000016 ], [ 0.9809868, 51.9257811 ], [ 0.9813674, 51.9258243 ], [ 0.9815889, 51.9258434 ], [ 0.981820199999989, 51.9258613 ], [ 0.9820724, 51.9258789 ] ] } },
{ "type": "Feature", "properties": { "id": 17395, "nach": 0.510325272727565 }, "geometry": { "type": "LineString", "coordinates": [ [ 0.9829459, 51.9259282 ], [ 0.9826548, 51.9259142 ], [ 0.9820724, 51.9258789 ] ] } },
{ "type": "Feature", "properties": { "id": 40693, "nach": 0.4303835779264365 }, "geometry": { "type": "LineString", "coordinates": [ [ 0.983166, 51.926743 ], [ 0.9826231, 51.9267158 ], [ 0.982207399999989, 51.9266334 ], [ 0.9819817, 51.926545800000014 ] ] } },
{ "type": "Feature", "properties": { "id": 17402, "nach": 0.43786741929733347 }, "geometry": { "type": "LineString", "coordinates": [ [ 0.9817026, 51.926632 ], [ 0.9817857, 51.9266209 ], [ 0.9819404, 51.9265669 ], [ 0.9819817, 51.926545800000014 ] ] } },
{ "type": "Feature", "properties": { "id": 15519, "nach": 0.38154438202939095 }, "geometry": { "type": "LineString", "coordinates": [ [ 0.980222699999989, 51.924853400000011 ], [ 0.980186699999989, 51.9249864 ], [ 0.9799917, 51.9256566 ] ] } },
{ "type": "Feature", "properties": { "id": 18817, "nach": 0.45701380102071776 }, "geometry": { "type": "LineString", "coordinates": [ [ 0.9796937, 51.925629 ], [ 0.979885, 51.9256467 ], [ 0.9799917, 51.9256566 ] ] } },
{ "type": "Feature", "properties": { "id": 17394, "nach": 0.50681816798785984 }, "geometry": { "type": "LineString", "coordinates": [ [ 0.9829459, 51.9259282 ], [ 0.9829346, 51.9257036 ], [ 0.9829249, 51.9255456 ], [ 0.9829117, 51.9254096 ], [ 0.9829028, 51.925237300000013 ] ] } },
{ "type": "Feature", "properties": { "id": 28010, "nach": 0.52678678450948568 }, "geometry": { "type": "LineString", "coordinates": [ [ 0.9836755, 51.9259199 ], [ 0.9835865, 51.9259255 ], [ 0.9833494, 51.9259387 ], [ 0.9831459, 51.925934400000017 ], [ 0.9829459, 51.9259282 ] ] } },
{ "type": "Feature", "properties": { "id": 27237, "nach": 0.32936858564243088 }, "geometry": { "type": "LineString", "coordinates": [ [ 0.9762015, 51.924194600000014 ], [ 0.9763396, 51.9253704 ] ] } },
{ "type": "Feature", "properties": { "id": 641, "nach": 0.37661054923003007 }, "geometry": { "type": "LineString", "coordinates": [ [ 0.974629, 51.9239006 ], [ 0.9752792, 51.924442300000017 ], [ 0.9756415, 51.9247554 ], [ 0.975821299999989, 51.9249614 ], [ 0.9759976, 51.9251229 ], [ 0.9761347, 51.9252434 ], [ 0.9762238, 51.9253049 ], [ 0.9763396, 51.9253704 ] ] } },
{ "type": "Feature", "properties": { "id": 23993, "nach": 0.41378745206388751 }, "geometry": { "type": "LineString", "coordinates": [ [ 0.976531, 51.9254503 ], [ 0.9764311, 51.9254111 ], [ 0.9763396, 51.9253704 ] ] } },
{ "type": "Feature", "properties": { "id": 43409, "nach": 0.36468303128079377 }, "geometry": { "type": "LineString", "coordinates": [ [ 0.9739421, 51.9233051 ], [ 0.974629, 51.9239006 ] ] } },
{ "type": "Feature", "properties": { "id": 48634, "nach": 0.30961820774330373 }, "geometry": { "type": "LineString", "coordinates": [ [ 0.9768663, 51.9231761 ], [ 0.9768246, 51.923208900000013 ], [ 0.976532, 51.92341 ], [ 0.9761564, 51.9237152 ], [ 0.9759928, 51.9237722 ], [ 0.975796, 51.9238056 ], [ 0.9754162, 51.9238434 ], [ 0.9750299, 51.923872300000014 ], [ 0.974629, 51.9239006 ] ] } },
{ "type": "Feature", "properties": { "id": 23992, "nach": 0.341865920375576 }, "geometry": { "type": "LineString", "coordinates": [ [ 0.976531, 51.9254503 ], [ 0.9763676, 51.9255172 ], [ 0.9754258, 51.925564700000017 ], [ 0.9746477, 51.925574300000015 ], [ 0.9737213, 51.9255857 ], [ 0.9728482, 51.9255879 ], [ 0.972135, 51.9255751 ] ] } },
{ "type": "Feature", "properties": { "id": 23994, "nach": 0.42651456612193017 }, "geometry": { "type": "LineString", "coordinates": [ [ 0.976531, 51.9254503 ], [ 0.976677, 51.9254863 ], [ 0.976846, 51.9255094 ], [ 0.9771008, 51.9255261 ], [ 0.977302, 51.9255325 ], [ 0.9779688, 51.9255392 ], [ 0.9783112, 51.9255427 ], [ 0.9786296, 51.9255531 ], [ 0.9789377, 51.9255704 ], [ 0.9791938, 51.925588600000012 ], [ 0.9796937, 51.925629 ] ] } },
{ "type": "Feature", "properties": { "id": 43411, "nach": 0.36909690628169772 }, "geometry": { "type": "LineString", "coordinates": [ [ 0.9739421, 51.9233051 ], [ 0.9737123, 51.9231044 ], [ 0.9732898, 51.9227257 ], [ 0.9730421, 51.9225101 ], [ 0.9727919, 51.9222317 ] ] } },
{ "type": "Feature", "properties": { "id": 43412, "nach": 0.28750343019267149 }, "geometry": { "type": "LineString", "coordinates": [ [ 0.9747767, 51.9228629 ], [ 0.9739421, 51.9233051 ] ] } },
{ "type": "Feature", "properties": { "id": 48633, "nach": 0.30091557047886203 }, "geometry": { "type": "LineString", "coordinates": [ [ 0.9768663, 51.9231761 ], [ 0.977146, 51.9229555 ], [ 0.9773732, 51.9227535 ], [ 0.9782157, 51.9220011 ] ] } },
{ "type": "Feature", "properties": { "id": 48632, "nach": 0.21991180165335619 }, "geometry": { "type": "LineString", "coordinates": [ [ 0.9768663, 51.9231761 ], [ 0.9767881, 51.9231313 ], [ 0.976076, 51.9225291 ], [ 0.975997, 51.9224452 ], [ 0.976210199999989, 51.9221168 ], [ 0.9762074, 51.9220354 ], [ 0.9761806, 51.9220064 ], [ 0.9761528, 51.9219922 ], [ 0.9759794, 51.9219353 ], [ 0.9758494, 51.92187770000001 ], [ 0.975788, 51.921826 ], [ 0.9757707, 51.9217988 ], [ 0.9757868, 51.9217447 ], [ 0.975895399999988, 51.9215801 ], [ 0.9758935, 51.9215272 ] ] } },
{ "type": "Feature", "properties": { "id": 41981, "nach": 0.38797138472120246 }, "geometry": { "type": "LineString", "coordinates": [ [ 0.9726414, 51.9231417 ], [ 0.9726523, 51.9230729 ], [ 0.9727314, 51.9225685 ], [ 0.9727919, 51.9222317 ] ] } },
{ "type": "Feature", "properties": { "id": 648, "nach": 0.39793161512296754 }, "geometry": { "type": "LineString", "coordinates": [ [ 0.9722859, 51.9217012 ], [ 0.9725387, 51.921952600000012 ], [ 0.9726579, 51.9220945 ], [ 0.9727919, 51.9222317 ] ] } },
{ "type": "Feature", "properties": { "id": 43947, "nach": 0.38262931256037952 }, "geometry": { "type": "LineString", "coordinates": [ [ 0.9725066, 51.923999799999983 ], [ 0.9726414, 51.9231417 ] ] } },
{ "type": "Feature", "properties": { "id": 41983, "nach": 0.2665754096187985 }, "geometry": { "type": "LineString", "coordinates": [ [ 0.9684559, 51.9235666 ], [ 0.9687864, 51.9235378 ], [ 0.9698237, 51.923424 ], [ 0.9708966, 51.9233107 ], [ 0.9717885, 51.9231958 ], [ 0.9724255, 51.9231453 ], [ 0.9726414, 51.9231417 ] ] } },
{ "type": "Feature", "properties": { "id": 649, "nach": 0.39171239647069545 }, "geometry": { "type": "LineString", "coordinates": [ [ 0.9719881, 51.9213018 ], [ 0.9722859, 51.9217012 ] ] } },
{ "type": "Feature", "properties": { "id": 49448, "nach": 0.37103493325262488 }, "geometry": { "type": "LineString", "coordinates": [ [ 0.9731575, 51.92159010000001 ], [ 0.9730669, 51.9215966 ], [ 0.9724309, 51.9216658 ], [ 0.9722859, 51.9217012 ] ] } },
{ "type": "Feature", "properties": { "id": 27238, "nach": 0.31138478632518313 }, "geometry": { "type": "LineString", "coordinates": [ [ 0.9717984, 51.9213553 ], [ 0.9719881, 51.9213018 ] ] } },
{ "type": "Feature", "properties": { "id": 654, "nach": 0.37673766340138709 }, "geometry": { "type": "LineString", "coordinates": [ [ 0.970379599999989, 51.919897299999988 ], [ 0.9706103, 51.9200556 ], [ 0.9708137, 51.9201762 ], [ 0.9710184, 51.9203144 ], [ 0.971194, 51.9204537 ], [ 0.9713054, 51.9205537 ], [ 0.971474299999989, 51.9207242 ], [ 0.9716622, 51.9209162 ], [ 0.9717928, 51.9210695 ], [ 0.9718862, 51.9211694 ], [ 0.9719881, 51.9213018 ] ] } },
{ "type": "Feature", "properties": { "id": 49449, "nach": 0.31789781292934405 }, "geometry": { "type": "LineString", "coordinates": [ [ 0.9731575, 51.92159010000001 ], [ 0.9735947, 51.9215586 ], [ 0.973813399999989, 51.9215454 ], [ 0.974086, 51.9215373 ], [ 0.9745465, 51.921541 ], [ 0.9751693, 51.9215322 ], [ 0.9757485, 51.921529400000011 ], [ 0.9758935, 51.9215272 ] ] } },
{ "type": "Feature", "properties": { "id": 49451, "nach": 0.30060556101746488 }, "geometry": { "type": "LineString", "coordinates": [ [ 0.9733939, 51.921853 ], [ 0.9733698, 51.9217162 ], [ 0.973289, 51.921685 ], [ 0.9731575, 51.92159010000001 ] ] } },
{ "type": "Feature", "properties": { "id": 27240, "nach": 0.0 }, "geometry": { "type": "LineString", "coordinates": [ [ 0.9717984, 51.9213553 ], [ 0.9718479, 51.9214055 ], [ 0.9714646, 51.9215089 ], [ 0.9713752, 51.921390700000011 ], [ 0.9717473, 51.9212962 ], [ 0.9717984, 51.9213553 ] ] } },
{ "type": "Feature", "properties": { "id": 17884, "nach": 0.44049071271623258 }, "geometry": { "type": "LineString", "coordinates": [ [ 0.9867808, 51.9264874 ], [ 0.9868733, 51.9262972 ] ] } },
{ "type": "Feature", "properties": { "id": 49567, "nach": 0.50390828653682529 }, "geometry": { "type": "LineString", "coordinates": [ [ 0.986005, 51.9260991 ], [ 0.9861784, 51.9261445 ], [ 0.9865209, 51.9262302 ], [ 0.9868733, 51.9262972 ] ] } },
{ "type": "Feature", "properties": { "id": 17882, "nach": 0.46114516439692887 }, "geometry": { "type": "LineString", "coordinates": [ [ 0.9874864, 51.9263687 ], [ 0.9871429, 51.926331500000011 ], [ 0.9868733, 51.9262972 ] ] } },
{ "type": "Feature", "properties": { "id": 17888, "nach": 0.36369813089130681 }, "geometry": { "type": "LineString", "coordinates": [ [ 0.9863859, 51.9269993 ], [ 0.9863788, 51.9266859 ], [ 0.9863882, 51.9266449 ], [ 0.9864079, 51.926609400000011 ], [ 0.9864563, 51.9265669 ], [ 0.9864958, 51.9265478 ], [ 0.9865421, 51.9265324 ], [ 0.9867122, 51.9265027 ], [ 0.9867808, 51.9264874 ] ] } },
{ "type": "Feature", "properties": { "id": 17887, "nach": 0.35806595104200689 }, "geometry": { "type": "LineString", "coordinates": [ [ 0.9882106, 51.9269102 ], [ 0.9881964, 51.926643 ], [ 0.98819, 51.9266156 ], [ 0.9881656, 51.9265892 ], [ 0.9881294, 51.9265568 ], [ 0.9880944, 51.926534400000016 ], [ 0.9880475, 51.92651080000001 ], [ 0.9879829, 51.9264921 ], [ 0.9879136, 51.9264808 ], [ 0.9874947, 51.926486500000017 ], [ 0.9874046, 51.9264857 ], [ 0.987316, 51.926491699999985 ], [ 0.9872461, 51.9265045 ], [ 0.9871692, 51.9265313 ], [ 0.987117, 51.9265508 ], [ 0.9870755, 51.9265678 ], [ 0.9870239, 51.9265727 ], [ 0.9869807, 51.9265695 ], [ 0.9869479, 51.9265616 ], [ 0.9869074, 51.9265452 ], [ 0.9868723, 51.9265216 ], [ 0.9868241, 51.9265053 ], [ 0.9867808, 51.9264874 ] ] } },
{ "type": "Feature", "properties": { "id": 17883, "nach": 0.41994603778582934 }, "geometry": { "type": "LineString", "coordinates": [ [ 0.9874864, 51.9263687 ], [ 0.9876702, 51.9263815 ], [ 0.9878342, 51.9263936 ], [ 0.9880029, 51.9264008 ], [ 0.9881741, 51.9264046 ], [ 0.9882162, 51.9264046 ], [ 0.9882869, 51.9264053 ], [ 0.9883339, 51.9264046 ], [ 0.9884786, 51.9264037 ], [ 0.9887661, 51.9263893 ], [ 0.989042, 51.9263726 ], [ 0.9893737, 51.9263501 ], [ 0.989623, 51.9263318 ], [ 0.989999, 51.9262987 ], [ 0.990142, 51.9262856 ], [ 0.9902887, 51.9262692 ], [ 0.9904276, 51.926254599999986 ], [ 0.9905664, 51.9262363 ], [ 0.9906989, 51.926218100000021 ], [ 0.9908785, 51.926191400000015 ], [ 0.9910891, 51.9261627 ], [ 0.991211, 51.9261473 ], [ 0.9913565, 51.9261354 ] ] } },
{ "type": "Feature", "properties": { "id": 17881, "nach": 0.36521242749953059 }, "geometry": { "type": "LineString", "coordinates": [ [ 0.9874864, 51.9263687 ], [ 0.9876395, 51.9259228 ] ] } },
{ "type": "Feature", "properties": { "id": 54044, "nach": 0.22095250377615136 }, "geometry": { "type": "LineString", "coordinates": [ [ 0.9932631, 51.9220486 ], [ 0.9956321, 51.9246196 ] ] } },
{ "type": "Feature", "properties": { "id": 43513, "nach": 0.32202928333385122 }, "geometry": { "type": "LineString", "coordinates": [ [ 0.9930639, 51.9255003 ], [ 0.9939985, 51.9251609 ], [ 0.994381, 51.925022099999985 ], [ 0.994784, 51.9248715 ], [ 0.9951603, 51.924741 ], [ 0.9953442, 51.9246863 ], [ 0.9956321, 51.9246196 ] ] } },
{ "type": "Feature", "properties": { "id": 54045, "nach": 0.26185802386843754 }, "geometry": { "type": "LineString", "coordinates": [ [ 0.9932631, 51.9220486 ], [ 0.9917868, 51.9206862 ], [ 0.9899672, 51.919902400000012 ] ] } },
{ "type": "Feature", "properties": { "id": 54043, "nach": 0.20757326808709198 }, "geometry": { "type": "LineString", "coordinates": [ [ 0.9932631, 51.9220486 ], [ 0.9971351, 51.9212355 ] ] } },
{ "type": "Feature", "properties": { "id": 54042, "nach": 0.36784725589811795 }, "geometry": { "type": "LineString", "coordinates": [ [ 0.9915866, 51.9260366 ], [ 0.9917199, 51.925987899999988 ], [ 0.9918239, 51.9259424 ], [ 0.9920647, 51.9258491 ], [ 0.9927055, 51.92561280000001 ], [ 0.993007, 51.9255209 ], [ 0.9930639, 51.9255003 ] ] } },
{ "type": "Feature", "properties": { "id": 54552, "nach": 0.29566323695709829 }, "geometry": { "type": "LineString", "coordinates": [ [ 0.9925059, 51.9249336 ], [ 0.9924219, 51.9249754 ], [ 0.9923965, 51.9250217 ], [ 0.9924138, 51.9250512 ], [ 0.992508899999989, 51.925166899999986 ], [ 0.9926284, 51.9252634 ], [ 0.9927725, 51.9253549 ], [ 0.9929126, 51.925426 ], [ 0.9930639, 51.9255003 ] ] } },
{ "type": "Feature", "properties": { "id": 54041, "nach": 0.40230679473094533 }, "geometry": { "type": "LineString", "coordinates": [ [ 0.9915866, 51.9260366 ], [ 0.9914703, 51.9260791 ], [ 0.9913565, 51.9261354 ] ] } },
{ "type": "Feature", "properties": { "id": 17363, "nach": 0.27021906167582083 }, "geometry": { "type": "LineString", "coordinates": [ [ 0.9930003, 51.9296266 ], [ 0.9929576, 51.9293925 ], [ 0.9929269, 51.929158 ], [ 0.992867, 51.9286608 ], [ 0.9928243, 51.9282797 ], [ 0.9927949, 51.9279501 ], [ 0.992769399999989, 51.927709 ], [ 0.9927473, 51.9275394 ], [ 0.9926682, 51.9270574 ], [ 0.9926293, 51.9268414 ], [ 0.992604299999989, 51.9267185 ], [ 0.9925677, 51.9265881 ], [ 0.9925447, 51.9265326 ], [ 0.9925022, 51.9264721 ], [ 0.9924513, 51.926423899999989 ], [ 0.9923943, 51.926381 ], [ 0.9923294, 51.9263352 ], [ 0.9922385, 51.92628710000001 ], [ 0.9921587, 51.9262517 ], [ 0.9920718, 51.9262169 ], [ 0.9919869, 51.926187899999988 ], [ 0.9918692, 51.9261613 ], [ 0.9917535, 51.9261426 ], [ 0.9916411, 51.9261327 ], [ 0.9915261, 51.9261318 ], [ 0.9913565, 51.9261354 ] ] } },
{ "type": "Feature", "properties": { "id": 54040, "nach": 0.0 }, "geometry": { "type": "LineString", "coordinates": [ [ 0.9915866, 51.9260366 ], [ 0.9914841, 51.9259627 ], [ 0.992477, 51.9255452 ], [ 0.991339, 51.924860600000017 ], [ 0.9882731, 51.9232767 ], [ 0.9870855, 51.9240091 ], [ 0.987327, 51.92473050000001 ], [ 0.986399599999989, 51.9248563 ] ] } },
{ "type": "Feature", "properties": { "id": 17362, "nach": 0.30085531363315798 }, "geometry": { "type": "LineString", "coordinates": [ [ 0.9930003, 51.9296266 ], [ 0.9896865, 51.9302287 ], [ 0.9896342, 51.9302382 ] ] } },
{ "type": "Feature", "properties": { "id": 18828, "nach": 0.37392501679493756 }, "geometry": { "type": "LineString", "coordinates": [ [ 0.98226, 51.9295222 ], [ 0.981678, 51.9299394 ], [ 0.9814724, 51.9300767 ], [ 0.9810522, 51.9303606 ] ] } },
{ "type": "Feature", "properties": { "id": 9220, "nach": 0.35072525873224619 }, "geometry": { "type": "LineString", "coordinates": [ [ 0.9790798, 51.9313194 ], [ 0.9791323, 51.9312717 ], [ 0.979195, 51.9312266 ], [ 0.9792763, 51.9311775 ], [ 0.9794459, 51.9311029 ], [ 0.9801149, 51.9308238 ], [ 0.9803306, 51.9307355 ], [ 0.9805198, 51.9306531 ], [ 0.9807216, 51.9305557 ], [ 0.980889, 51.9304595 ], [ 0.9810522, 51.9303606 ] ] } },
{ "type": "Feature", "properties": { "id": 18829, "nach": 0.30140013091234591 }, "geometry": { "type": "LineString", "coordinates": [ [ 0.98226, 51.9295222 ], [ 0.9821902, 51.9294575 ], [ 0.9816136, 51.9278982 ] ] } },
{ "type": "Feature", "properties": { "id": 27234, "nach": 0.40065728248227217 }, "geometry": { "type": "LineString", "coordinates": [ [ 0.9831782, 51.928513 ], [ 0.9831043, 51.9285567 ], [ 0.9830255, 51.9286144 ], [ 0.9829775, 51.9286673 ], [ 0.9829443, 51.9287093 ], [ 0.9829144, 51.9287535 ], [ 0.9826962, 51.9290959 ], [ 0.9826405, 51.9291756 ], [ 0.98259, 51.9292386 ], [ 0.9825426, 51.9292909 ], [ 0.9824817, 51.929351499999989 ], [ 0.9824294, 51.9293948 ], [ 0.982354, 51.9294536 ], [ 0.98226, 51.9295222 ] ] } },
{ "type": "Feature", "properties": { "id": 43953, "nach": 0.38521079866690411 }, "geometry": { "type": "LineString", "coordinates": [ [ 0.9691175, 51.92557140000001 ], [ 0.969319, 51.925545 ], [ 0.969596, 51.925510799999984 ], [ 0.9698136, 51.9254961 ], [ 0.970045, 51.9254864 ], [ 0.9703356, 51.9254819 ], [ 0.9705958, 51.9254851 ], [ 0.9708195, 51.9254909 ], [ 0.9712299, 51.9255127 ], [ 0.972135, 51.9255751 ] ] } },
{ "type": "Feature", "properties": { "id": 49548, "nach": 0.27998674615473246 }, "geometry": { "type": "LineString", "coordinates": [ [ 0.9733126, 51.9300428 ], [ 0.9728953, 51.9291683 ], [ 0.9725583, 51.9286726 ], [ 0.9724519, 51.92850090000001 ], [ 0.9723575, 51.92833610000001 ], [ 0.9722699, 51.928164 ], [ 0.9720502, 51.9274794 ], [ 0.97199, 51.9273183 ], [ 0.9719515, 51.9272014 ], [ 0.9719309, 51.9271352 ], [ 0.9719158, 51.9270752 ], [ 0.971902, 51.9270034 ], [ 0.9718915, 51.9269538 ], [ 0.9718701, 51.9269031 ], [ 0.9718659, 51.9268405 ], [ 0.9718667, 51.9267866 ], [ 0.9718701, 51.926697 ], [ 0.9718795, 51.9266127 ], [ 0.9718855, 51.9265348 ], [ 0.9718945, 51.926457700000014 ], [ 0.9719064, 51.9263746 ], [ 0.9719208, 51.9262883 ], [ 0.9719348, 51.9262109 ], [ 0.9719685, 51.9260666 ], [ 0.9719898, 51.9259696 ], [ 0.9720112, 51.92589490000001 ], [ 0.9720357, 51.9258183 ], [ 0.9720589, 51.9257353 ], [ 0.9720924, 51.925658 ], [ 0.972135, 51.9255751 ] ] } },
{ "type": "Feature", "properties": { "id": 43955, "nach": 0.381579001218465 }, "geometry": { "type": "LineString", "coordinates": [ [ 0.9724336, 51.9244496 ], [ 0.9723214, 51.925143 ], [ 0.9722832, 51.9252634 ], [ 0.9722542, 51.9253385 ], [ 0.9722224, 51.925417 ], [ 0.9721775, 51.925503700000014 ], [ 0.972135, 51.9255751 ] ] } },
{ "type": "Feature", "properties": { "id": 43956, "nach": 0.3822859830635697 }, "geometry": { "type": "LineString", "coordinates": [ [ 0.9724336, 51.9244496 ], [ 0.9724668, 51.9242445 ], [ 0.9724944, 51.9240778 ], [ 0.9725066, 51.923999799999983 ] ] } },
{ "type": "Feature", "properties": { "id": 43958, "nach": 0.29773627820716314 }, "geometry": { "type": "LineString", "coordinates": [ [ 0.9715685, 51.924446300000014 ], [ 0.9720191, 51.924413199999989 ], [ 0.972214899999989, 51.924413199999989 ], [ 0.9724336, 51.9244496 ] ] } },
{ "type": "Feature", "properties": { "id": 18835, "nach": 0.3029071953219849 }, "geometry": { "type": "LineString", "coordinates": [ [ 0.9788916, 51.9313432 ], [ 0.9780431, 51.929735899999983 ] ] } },
{ "type": "Feature", "properties": { "id": 18813, "nach": 0.27704486399153627 }, "geometry": { "type": "LineString", "coordinates": [ [ 0.9733334, 51.9300864 ], [ 0.9750731, 51.9293597 ], [ 0.976496, 51.9287075 ] ] } },
{ "type": "Feature", "properties": { "id": 17358, "nach": 0.20628442855570234 }, "geometry": { "type": "LineString", "coordinates": [ [ 0.9896342, 51.9302382 ], [ 0.9919084, 51.93277590000001 ] ] } },
{ "type": "Feature", "properties": { "id": 17359, "nach": 0.31601313577258866 }, "geometry": { "type": "LineString", "coordinates": [ [ 0.9896342, 51.9302382 ], [ 0.9882928, 51.9294393 ], [ 0.9859757, 51.9281234 ], [ 0.985221, 51.928098399999989 ], [ 0.9848429, 51.928067 ], [ 0.9847316, 51.9279844 ] ] } },
{ "type": "Feature", "properties": { "id": 17361, "nach": 0.19849330394186154 }, "geometry": { "type": "LineString", "coordinates": [ [ 0.9896342, 51.9302382 ], [ 0.9868774, 51.930866 ], [ 0.9849643, 51.9312573 ] ] } },
{ "type": "Feature", "properties": { "id": 15521, "nach": 0.4152412067959626 }, "geometry": { "type": "LineString", "coordinates": [ [ 0.9823096, 51.9248898 ], [ 0.980222699999989, 51.924853400000011 ] ] } },
{ "type": "Feature", "properties": { "id": 15520, "nach": 0.3632160076109387 }, "geometry": { "type": "LineString", "coordinates": [ [ 0.9800378, 51.9245075 ], [ 0.9802048, 51.9248225 ], [ 0.980222699999989, 51.924853400000011 ] ] } },
{ "type": "Feature", "properties": { "id": 18821, "nach": 0.39086541073220149 }, "geometry": { "type": "LineString", "coordinates": [ [ 0.980581, 51.9280479 ], [ 0.9796937, 51.925629 ] ] } },
{ "type": "Feature", "properties": { "id": 15524, "nach": 0.37086361431969067 }, "geometry": { "type": "LineString", "coordinates": [ [ 0.98232, 51.9246967 ], [ 0.9823096, 51.9248898 ] ] } },
{ "type": "Feature", "properties": { "id": 17393, "nach": 0.4560159424699155 }, "geometry": { "type": "LineString", "coordinates": [ [ 0.9828945, 51.925094300000012 ], [ 0.9825199, 51.9250896 ], [ 0.9823493, 51.9249658 ], [ 0.9823143, 51.9249654 ], [ 0.9823096, 51.9248898 ] ] } },
{ "type": "Feature", "properties": { "id": 17391, "nach": 0.51351200168110311 }, "geometry": { "type": "LineString", "coordinates": [ [ 0.9828945, 51.925094300000012 ], [ 0.9829028, 51.925237300000013 ] ] } },
{ "type": "Feature", "properties": { "id": 17423, "nach": 0.48391597881423365 }, "geometry": { "type": "LineString", "coordinates": [ [ 0.9827796, 51.92424110000001 ], [ 0.9828784, 51.9248962 ], [ 0.9828933, 51.924982300000011 ], [ 0.9828945, 51.925094300000012 ] ] } },
{ "type": "Feature", "properties": { "id": 17214, "nach": 0.4881350226981952 }, "geometry": { "type": "LineString", "coordinates": [ [ 0.984463, 51.9281292 ], [ 0.984611499999989, 51.9280442 ], [ 0.9847316, 51.9279844 ] ] } },
{ "type": "Feature", "properties": { "id": 52582, "nach": 0.47074345327586303 }, "geometry": { "type": "LineString", "coordinates": [ [ 0.9844163, 51.928148400000012 ], [ 0.984463, 51.9281292 ] ] } },
{ "type": "Feature", "properties": { "id": 17219, "nach": 0.34228550884218739 }, "geometry": { "type": "LineString", "coordinates": [ [ 0.9849643, 51.9312573 ], [ 0.9847477, 51.9309066 ], [ 0.9845946, 51.930609799999985 ], [ 0.9845457, 51.930443 ], [ 0.9845457, 51.9303275 ], [ 0.9845811, 51.9302177 ], [ 0.9846155, 51.93011880000001 ], [ 0.9846326, 51.9300272 ], [ 0.9846277, 51.9299296 ], [ 0.9846143, 51.9298102 ], [ 0.9845897, 51.9296726 ], [ 0.9845751, 51.9295547 ], [ 0.9845714, 51.9294608 ], [ 0.9845897, 51.9293301 ], [ 0.9846155, 51.929224900000015 ], [ 0.9846449, 51.9291078 ], [ 0.9847025, 51.9289528 ], [ 0.9847307, 51.9288144 ], [ 0.9847539, 51.9286817 ], [ 0.9847583, 51.9286567 ], [ 0.9847462, 51.928392400000014 ], [ 0.9847093, 51.9283077 ], [ 0.9845779, 51.9282138 ], [ 0.984537, 51.9281837 ], [ 0.984463, 51.9281292 ] ] } },
{ "type": "Feature", "properties": { "id": 52584, "nach": 0.43914468708180027 }, "geometry": { "type": "LineString", "coordinates": [ [ 0.9844163, 51.928148400000012 ], [ 0.984349, 51.928176 ], [ 0.9842459, 51.9282158 ], [ 0.9841675, 51.9282407 ], [ 0.9840856, 51.9282649 ], [ 0.9839712, 51.928288700000017 ], [ 0.9838842, 51.9283066 ], [ 0.9838631, 51.9283109 ], [ 0.9838022, 51.928324 ], [ 0.9837051, 51.9283468 ], [ 0.9835519, 51.9283841 ], [ 0.9834072, 51.928423 ], [ 0.9833195, 51.9284533 ], [ 0.9832515, 51.9284824 ], [ 0.9831782, 51.928513 ] ] } },
{ "type": "Feature", "properties": { "id": 52583, "nach": 0.36237330556938135 }, "geometry": { "type": "LineString", "coordinates": [ [ 0.9844163, 51.928148400000012 ], [ 0.9845529, 51.9285096 ] ] } },
{ "type": "Feature", "properties": { "id": 45122, "nach": 0.30029582311392372 }, "geometry": { "type": "LineString", "coordinates": [ [ 0.9842784, 51.9314106 ], [ 0.9849643, 51.9312573 ] ] } },
{ "type": "Feature", "properties": { "id": 17223, "nach": 0.15380587642670032 }, "geometry": { "type": "LineString", "coordinates": [ [ 0.9855836, 51.9356554 ], [ 0.9856186, 51.935502700000015 ], [ 0.9856345, 51.9353358 ], [ 0.985702, 51.9351337 ], [ 0.985912699999989, 51.9345024 ], [ 0.9861323, 51.9337981 ], [ 0.9861126, 51.9336937 ], [ 0.9858105, 51.9329048 ], [ 0.9855203, 51.9322513 ], [ 0.9854053, 51.9320074 ], [ 0.9850704, 51.931403900000014 ], [ 0.9849643, 51.9312573 ] ] } },
{ "type": "Feature", "properties": { "id": 17232, "nach": 0.34783067859616379 }, "geometry": { "type": "LineString", "coordinates": [ [ 0.9861539, 51.9205873 ], [ 0.9869154, 51.9204527 ], [ 0.9869553, 51.9204461 ], [ 0.9869963, 51.9204432 ], [ 0.9870438, 51.9204357 ], [ 0.9874218, 51.9203762 ], [ 0.988014, 51.9202915 ], [ 0.9887006, 51.920191 ], [ 0.989223, 51.9200794 ], [ 0.9899672, 51.919902400000012 ] ] } },
{ "type": "Feature", "properties": { "id": 17235, "nach": 0.28764846256797422 }, "geometry": { "type": "LineString", "coordinates": [ [ 0.9916337, 51.9178528 ], [ 0.9908035, 51.9188764 ], [ 0.9904701, 51.9192871 ], [ 0.990166, 51.919661400000017 ], [ 0.9899672, 51.919902400000012 ] ] } },
{ "type": "Feature", "properties": { "id": 29360, "nach": 0.4644950260773133 }, "geometry": { "type": "LineString", "coordinates": [ [ 0.9861238, 51.9205337 ], [ 0.9861539, 51.9205873 ] ] } },
{ "type": "Feature", "properties": { "id": 29364, "nach": 0.47424115816142093 }, "geometry": { "type": "LineString", "coordinates": [ [ 0.9862726, 51.9208133 ], [ 0.9861539, 51.9205873 ] ] } },
{ "type": "Feature", "properties": { "id": 29362, "nach": 0.38175906828557521 }, "geometry": { "type": "LineString", "coordinates": [ [ 0.9861238, 51.9205337 ], [ 0.9862649, 51.9205033 ], [ 0.9864358, 51.9204431 ], [ 0.9865701, 51.9203941 ], [ 0.9866678, 51.920337600000011 ], [ 0.9867594, 51.920281199999984 ], [ 0.986851, 51.9202096 ], [ 0.9869303, 51.9201343 ], [ 0.9870036, 51.9200628 ], [ 0.9870793, 51.9199822 ], [ 0.9871745, 51.919867 ], [ 0.9872478, 51.919754 ], [ 0.9874676, 51.919392600000016 ] ] } },
{ "type": "Feature", "properties": { "id": 29366, "nach": 0.4833923399674096 }, "geometry": { "type": "LineString", "coordinates": [ [ 0.9862726, 51.9208133 ], [ 0.9862954, 51.9208586 ], [ 0.9863077, 51.9209172 ], [ 0.9863081, 51.9209878 ], [ 0.9863032, 51.9210409 ], [ 0.9862814, 51.9210968 ] ] } },
{ "type": "Feature", "properties": { "id": 29365, "nach": 0.35198189899569737 }, "geometry": { "type": "LineString", "coordinates": [ [ 0.9862726, 51.9208133 ], [ 0.9870177, 51.9206901 ] ] } },
{ "type": "Feature", "properties": { "id": 17372, "nach": 0.52557805325617901 }, "geometry": { "type": "LineString", "coordinates": [ [ 0.9850106, 51.9249921 ], [ 0.9852548, 51.9253119 ], [ 0.9853196, 51.92546870000001 ], [ 0.9853667, 51.9257196 ] ] } },
{ "type": "Feature", "properties": { "id": 17368, "nach": 0.43675674765572758 }, "geometry": { "type": "LineString", "coordinates": [ [ 0.986806, 51.9253825 ], [ 0.9867679, 51.925482700000018 ], [ 0.9867133, 51.925661 ], [ 0.9861594, 51.9256414 ], [ 0.9859931, 51.9256894 ], [ 0.9853667, 51.9257196 ] ] } },
{ "type": "Feature", "properties": { "id": 27978, "nach": 0.53539067228288584 }, "geometry": { "type": "LineString", "coordinates": [ [ 0.9849963, 51.924973400000013 ], [ 0.9850106, 51.9249921 ] ] } },
{ "type": "Feature", "properties": { "id": 27984, "nach": 0.48847468858576359 }, "geometry": { "type": "LineString", "coordinates": [ [ 0.9858038, 51.9249734 ], [ 0.985439, 51.9249145 ], [ 0.9853546, 51.9249038 ], [ 0.98529, 51.9249119 ], [ 0.9850106, 51.9249921 ] ] } },
{ "type": "Feature", "properties": { "id": 17366, "nach": 0.3692508897654927 }, "geometry": { "type": "LineString", "coordinates": [ [ 0.986806, 51.9253825 ], [ 0.9869549, 51.9254076 ] ] } },
{ "type": "Feature", "properties": { "id": 18128, "nach": 0.42086343008561616 }, "geometry": { "type": "LineString", "coordinates": [ [ 0.9864314, 51.924947 ], [ 0.9865775, 51.9252912 ], [ 0.9866001, 51.9253265 ], [ 0.9866396, 51.9253475 ], [ 0.986692, 51.9253633 ], [ 0.986806, 51.9253825 ] ] } },
{ "type": "Feature", "properties": { "id": 41853, "nach": 0.47386979752145963 }, "geometry": { "type": "LineString", "coordinates": [ [ 0.9859092, 51.9215224 ], [ 0.9859686, 51.921466200000012 ], [ 0.9861863, 51.9212333 ], [ 0.9862814, 51.9210968 ] ] } },
{ "type": "Feature", "properties": { "id": 41845, "nach": 0.36680666564614944 }, "geometry": { "type": "LineString", "coordinates": [ [ 0.9864043, 51.92171 ], [ 0.9863718, 51.9216495 ], [ 0.9863712, 51.92156940000001 ], [ 0.9863944, 51.921482 ], [ 0.9864947, 51.9213838 ], [ 0.986559399999989, 51.9213359 ], [ 0.9865931, 51.921292 ], [ 0.9866001, 51.921261800000018 ], [ 0.9865871, 51.921231400000011 ], [ 0.9865426, 51.9211918 ], [ 0.9864622, 51.921158600000012 ], [ 0.9864112, 51.9211372 ], [ 0.9862814, 51.9210968 ] ] } },
{ "type": "Feature", "properties": { "id": 44161, "nach": 0.50981392454831753 }, "geometry": { "type": "LineString", "coordinates": [ [ 0.9857561, 51.92166730000001 ], [ 0.9859092, 51.9215224 ] ] } },
{ "type": "Feature", "properties": { "id": 41854, "nach": 0.44958222147367333 }, "geometry": { "type": "LineString", "coordinates": [ [ 0.985976, 51.9215477 ], [ 0.9859092, 51.9215224 ] ] } },
{ "type": "Feature", "properties": { "id": 41848, "nach": 0.43019543032215046 }, "geometry": { "type": "LineString", "coordinates": [ [ 0.9866449, 51.92186670000001 ], [ 0.9866, 51.9218478 ], [ 0.9865194, 51.9218098 ], [ 0.9864428, 51.9217594 ], [ 0.9864043, 51.92171 ] ] } },
{ "type": "Feature", "properties": { "id": 41855, "nach": 0.42642728839825533 }, "geometry": { "type": "LineString", "coordinates": [ [ 0.985976, 51.9215477 ], [ 0.9860902, 51.9215922 ], [ 0.9862272, 51.9216385 ], [ 0.9864043, 51.92171 ] ] } },
{ "type": "Feature", "properties": { "id": 54037, "nach": 0.41438475992908819 }, "geometry": { "type": "LineString", "coordinates": [ [ 0.986399599999989, 51.9248563 ], [ 0.9864314, 51.924947 ] ] } },
{ "type": "Feature", "properties": { "id": 27988, "nach": 0.42016424978072303 }, "geometry": { "type": "LineString", "coordinates": [ [ 0.9858327, 51.9249781 ], [ 0.9859265, 51.9249932 ], [ 0.9860452, 51.9249998 ], [ 0.9861333, 51.9249928 ], [ 0.9864314, 51.924947 ] ] } },
{ "type": "Feature", "properties": { "id": 54039, "nach": 0.36478058811851005 }, "geometry": { "type": "LineString", "coordinates": [ [ 0.986399599999989, 51.9248563 ], [ 0.9863385, 51.9246969 ], [ 0.9863068, 51.9246536 ], [ 0.9862791, 51.924616 ], [ 0.9862365, 51.9245745 ], [ 0.9861819, 51.9245351 ], [ 0.9861391, 51.92451 ], [ 0.9861072, 51.9244938 ], [ 0.9860756, 51.9244804 ], [ 0.9860322, 51.9244639 ], [ 0.9859905, 51.9244514 ], [ 0.9859547, 51.9244419 ], [ 0.9858976, 51.9244298 ], [ 0.9854095, 51.9243383 ] ] } },
{ "type": "Feature", "properties": { "id": 27979, "nach": 0.44405528333689148 }, "geometry": { "type": "LineString", "coordinates": [ [ 0.9849963, 51.924973400000013 ], [ 0.9847874, 51.9250299 ], [ 0.9847617, 51.9250416 ], [ 0.9847471, 51.9250548 ], [ 0.9847349, 51.9250767 ], [ 0.9847367, 51.9251222 ], [ 0.9847306, 51.925141 ], [ 0.9847128, 51.925152 ], [ 0.9846852, 51.9251602 ], [ 0.9846503, 51.9251664 ], [ 0.9846291, 51.9251825 ], [ 0.9846329, 51.925212200000018 ], [ 0.9846444, 51.9252961 ], [ 0.9846306, 51.925325400000013 ] ] } },
{ "type": "Feature", "properties": { "id": 27980, "nach": 0.52981662758929904 }, "geometry": { "type": "LineString", "coordinates": [ [ 0.9849963, 51.924973400000013 ], [ 0.9849463, 51.9248949 ], [ 0.9848872, 51.9247971 ], [ 0.9848102, 51.9246353 ], [ 0.9847411, 51.924463 ] ] } },
{ "type": "Feature", "properties": { "id": 27986, "nach": 0.46348546391696338 }, "geometry": { "type": "LineString", "coordinates": [ [ 0.9858327, 51.9249781 ], [ 0.9858038, 51.9249734 ] ] } },
{ "type": "Feature", "properties": { "id": 27989, "nach": 0.36668995832432694 }, "geometry": { "type": "LineString", "coordinates": [ [ 0.9857156, 51.9254704 ], [ 0.9856781, 51.9252808 ], [ 0.9856738, 51.9252533 ], [ 0.9856774, 51.925229700000017 ], [ 0.9858038, 51.9249734 ] ] } },
{ "type": "Feature", "properties": { "id": 27981, "nach": 0.36863794475423772 }, "geometry": { "type": "LineString", "coordinates": [ [ 0.984815, 51.9253185 ], [ 0.9846306, 51.925325400000013 ] ] } },
{ "type": "Feature", "properties": { "id": 17376, "nach": 0.36720660317591181 }, "geometry": { "type": "LineString", "coordinates": [ [ 0.9844371, 51.9255371 ], [ 0.9844229, 51.9254128 ], [ 0.9844335, 51.9253904 ], [ 0.9844624, 51.925374400000017 ], [ 0.9845847, 51.9253397 ], [ 0.9846306, 51.925325400000013 ] ] } },
{ "type": "Feature", "properties": { "id": 17381, "nach": 0.49993217312823868 }, "geometry": { "type": "LineString", "coordinates": [ [ 0.9834963, 51.9245606 ], [ 0.9835818, 51.924564 ], [ 0.9837559, 51.9245621 ], [ 0.9839329, 51.9245592 ], [ 0.9840866, 51.9245532 ], [ 0.984233199999989, 51.9245405 ], [ 0.9843947, 51.9245163 ], [ 0.9847411, 51.924463 ] ] } },
{ "type": "Feature", "properties": { "id": 29350, "nach": 0.53408486085826767 }, "geometry": { "type": "LineString", "coordinates": [ [ 0.9849139, 51.9236496 ], [ 0.9848744, 51.9237269 ], [ 0.9848286, 51.9238135 ], [ 0.9847632, 51.9239452 ], [ 0.9847434, 51.923997 ], [ 0.9847163, 51.924074 ], [ 0.9846973, 51.9241472 ], [ 0.984691, 51.9242162 ], [ 0.9846963, 51.9242962 ], [ 0.9847411, 51.924463 ] ] } },
{ "type": "Feature", "properties": { "id": 17383, "nach": 0.36967900318884028 }, "geometry": { "type": "LineString", "coordinates": [ [ 0.9832396, 51.9242257 ], [ 0.9832802, 51.9244038 ], [ 0.9832995, 51.9244464 ], [ 0.983324, 51.9244816 ], [ 0.9833785, 51.9245161 ], [ 0.9834335, 51.9245417 ], [ 0.9834963, 51.9245606 ] ] } },
{ "type": "Feature", "properties": { "id": 17385, "nach": 0.49207517675990065 }, "geometry": { "type": "LineString", "coordinates": [ [ 0.9834642, 51.925144100000011 ], [ 0.9833935, 51.9248682 ], [ 0.9833888, 51.924826499999988 ], [ 0.9834, 51.9247881 ], [ 0.9834719, 51.924616 ], [ 0.9834963, 51.9245606 ] ] } },
{ "type": "Feature", "properties": { "id": 29351, "nach": 0.52738003666429945 }, "geometry": { "type": "LineString", "coordinates": [ [ 0.9849139, 51.9236496 ], [ 0.985073099999989, 51.9233604 ], [ 0.9851605, 51.9231205 ], [ 0.9852181, 51.9229621 ], [ 0.9852318, 51.9229017 ] ] } },
{ "type": "Feature", "properties": { "id": 29352, "nach": 0.36718259264081271 }, "geometry": { "type": "LineString", "coordinates": [ [ 0.9849139, 51.9236496 ], [ 0.9852331, 51.923733 ], [ 0.9853806, 51.9237828 ], [ 0.985412299999989, 51.9237902 ], [ 0.9854425, 51.9237947 ], [ 0.985574, 51.9238007 ], [ 0.9856861, 51.9237983 ], [ 0.9857163, 51.9237968 ], [ 0.9857422, 51.92379360000001 ], [ 0.9857742, 51.9237881 ], [ 0.9858037, 51.923782 ], [ 0.985825399999989, 51.9237742 ], [ 0.9858471, 51.923762 ], [ 0.9858621, 51.9237494 ], [ 0.9858826, 51.9237323 ], [ 0.9859048, 51.9237125 ], [ 0.9859201, 51.9236958 ], [ 0.9859375, 51.9236123 ] ] } },
{ "type": "Feature", "properties": { "id": 17387, "nach": 0.3711696188512002 }, "geometry": { "type": "LineString", "coordinates": [ [ 0.9835984, 51.92513060000001 ], [ 0.9834642, 51.925144100000011 ] ] } },
{ "type": "Feature", "properties": { "id": 17389, "nach": 0.49802748535674307 }, "geometry": { "type": "LineString", "coordinates": [ [ 0.9829028, 51.925237300000013 ], [ 0.9833514, 51.9251869 ], [ 0.9833413, 51.9251565 ], [ 0.9833689, 51.9251537 ], [ 0.9834642, 51.925144100000011 ] ] } },
{ "type": "Feature", "properties": { "id": 17424, "nach": 0.34403058846398449 }, "geometry": { "type": "LineString", "coordinates": [ [ 0.9827796, 51.92424110000001 ], [ 0.9818222, 51.9243443 ], [ 0.9814934, 51.9243746 ], [ 0.9812558, 51.9243483 ], [ 0.9811065, 51.9242863 ], [ 0.9809909, 51.9242647 ], [ 0.9782157, 51.9220011 ] ] } },
{ "type": "Feature", "properties": { "id": 29986, "nach": 0.46701253033537077 }, "geometry": { "type": "LineString", "coordinates": [ [ 0.9831487, 51.9240864 ], [ 0.9831262, 51.924102 ], [ 0.983069799999988, 51.924141899999988 ], [ 0.9829894, 51.9241551 ], [ 0.982866, 51.924175 ], [ 0.9827942, 51.92420640000001 ], [ 0.9827796, 51.92424110000001 ] ] } },
{ "type": "Feature", "properties": { "id": 28013, "nach": 0.36856217302605565 }, "geometry": { "type": "LineString", "coordinates": [ [ 0.9839946, 51.9264088 ], [ 0.9837051, 51.9263403 ], [ 0.9836755, 51.9259199 ] ] } },
{ "type": "Feature", "properties": { "id": 40694, "nach": 0.3551109347214732 }, "geometry": { "type": "LineString", "coordinates": [ [ 0.9833443, 51.9267392 ], [ 0.983166, 51.926743 ] ] } },
{ "type": "Feature", "properties": { "id": 40695, "nach": 0.3551109347214732 }, "geometry": { "type": "LineString", "coordinates": [ [ 0.9831619, 51.9268798 ], [ 0.983166, 51.926743 ] ] } },
{ "type": "Feature", "properties": { "id": 17404, "nach": 0.36241336287500509 }, "geometry": { "type": "LineString", "coordinates": [ [ 0.9816829, 51.9265866 ], [ 0.9817026, 51.926632 ] ] } },
{ "type": "Feature", "properties": { "id": 17403, "nach": 0.36241336287500509 }, "geometry": { "type": "LineString", "coordinates": [ [ 0.9815608, 51.9266509 ], [ 0.9817026, 51.926632 ] ] } },
{ "type": "Feature", "properties": { "id": 35367, "nach": 0.29369017051560498 }, "geometry": { "type": "LineString", "coordinates": [ [ 0.98102, 51.919722 ], [ 0.98307, 51.9192082 ], [ 0.9846968, 51.9190149 ] ] } },
{ "type": "Feature", "properties": { "id": 54152, "nach": 0.3363960044515949 }, "geometry": { "type": "LineString", "coordinates": [ [ 0.982770099999988, 51.9174376 ], [ 0.9833032, 51.9181419 ], [ 0.9833195, 51.9182923 ], [ 0.9841245, 51.9187086 ], [ 0.9846968, 51.9190149 ] ] } },
{ "type": "Feature", "properties": { "id": 17420, "nach": 0.326742889638308 }, "geometry": { "type": "LineString", "coordinates": [ [ 0.9782157, 51.9220011 ], [ 0.9785752, 51.9216401 ] ] } },
{ "type": "Feature", "properties": { "id": 35368, "nach": 0.2865716985109098 }, "geometry": { "type": "LineString", "coordinates": [ [ 0.98102, 51.919722 ], [ 0.9809612, 51.9197608 ], [ 0.980934899999989, 51.91978610000001 ], [ 0.9792343, 51.9211628 ], [ 0.9785752, 51.9216401 ] ] } },
{ "type": "Feature", "properties": { "id": 46090, "nach": 0.28861527816865523 }, "geometry": { "type": "LineString", "coordinates": [ [ 0.9758935, 51.9215272 ], [ 0.9759787, 51.9215241 ], [ 0.9761231, 51.9215095 ], [ 0.9762433, 51.9214874 ], [ 0.9763326, 51.9214639 ], [ 0.9764099, 51.92143930000001 ], [ 0.9765024, 51.9214037 ], [ 0.9766936, 51.921303200000011 ], [ 0.9767054, 51.9212967 ], [ 0.9769455, 51.9211647 ], [ 0.9769757, 51.9211467 ], [ 0.9770222, 51.921131 ], [ 0.977062, 51.9211301 ], [ 0.9771146, 51.9211369 ], [ 0.977635, 51.9212731 ], [ 0.9778398, 51.9213237 ], [ 0.9781742, 51.9214391 ], [ 0.9785752, 51.9216401 ] ] } },
{ "type": "Feature", "properties": { "id": 44313, "nach": 0.2367643348689164 }, "geometry": { "type": "LineString", "coordinates": [ [ 0.9825862, 51.917479100000016 ], [ 0.9824859, 51.9174946 ], [ 0.982330599999988, 51.9175222 ], [ 0.9819753, 51.9176029 ], [ 0.9817479, 51.91766530000001 ], [ 0.9813911, 51.91778450000001 ], [ 0.9807691, 51.9181395 ], [ 0.981218, 51.9184766 ], [ 0.9814693, 51.918900099999988 ], [ 0.9814021, 51.9190288 ], [ 0.9808464, 51.919628 ], [ 0.98102, 51.919722 ] ] } },
{ "type": "Feature", "properties": { "id": 54150, "nach": 0.35200729791003754 }, "geometry": { "type": "LineString", "coordinates": [ [ 0.982770099999988, 51.9174376 ], [ 0.9826873, 51.9174527 ], [ 0.9825862, 51.917479100000016 ] ] } },
{ "type": "Feature", "properties": { "id": 29984, "nach": 0.44922410598415241 }, "geometry": { "type": "LineString", "coordinates": [ [ 0.9831487, 51.9240864 ], [ 0.9832735, 51.92399970000001 ] ] } },
{ "type": "Feature", "properties": { "id": 29985, "nach": 0.0 }, "geometry": { "type": "LineString", "coordinates": [ [ 0.9831487, 51.9240864 ], [ 0.983056299999988, 51.9240592 ], [ 0.9828632, 51.9240476 ], [ 0.982831, 51.92402280000001 ], [ 0.9828229, 51.9239533 ], [ 0.9828605, 51.923692 ], [ 0.98289, 51.9236473 ], [ 0.9830026, 51.923587800000014 ], [ 0.9830751, 51.9235415 ], [ 0.9830885, 51.9234687 ], [ 0.9830616, 51.9233215 ], [ 0.9830402, 51.9232454 ], [ 0.9831448, 51.9230634 ], [ 0.983303, 51.9230386 ], [ 0.983662499999988, 51.9230204 ], [ 0.9839173, 51.9230154 ] ] } },
{ "type": "Feature", "properties": { "id": 27987, "nach": 0.36852307337164175 }, "geometry": { "type": "LineString", "coordinates": [ [ 0.9858327, 51.9249781 ], [ 0.9859501, 51.924721 ] ] } },
{ "type": "Feature", "properties": { "id": 18819, "nach": 0.29744679099421517 }, "geometry": { "type": "LineString", "coordinates": [ [ 0.9781632, 51.92844370000001 ], [ 0.9766037, 51.9286582 ], [ 0.976496, 51.9287075 ] ] } },
{ "type": "Feature", "properties": { "id": 18832, "nach": 0.24388265409855672 }, "geometry": { "type": "LineString", "coordinates": [ [ 0.9780431, 51.929735899999983 ], [ 0.9775148, 51.929819 ], [ 0.9771021, 51.929676500000014 ], [ 0.9767311, 51.929166 ], [ 0.976496, 51.9287075 ] ] } },
{ "type": "Feature", "properties": { "id": 18823, "nach": 0.36817211510446601 }, "geometry": { "type": "LineString", "coordinates": [ [ 0.980581, 51.9280479 ], [ 0.9781632, 51.92844370000001 ] ] } },
{ "type": "Feature", "properties": { "id": 18833, "nach": 0.28204317753695202 }, "geometry": { "type": "LineString", "coordinates": [ [ 0.9780431, 51.929735899999983 ], [ 0.9785003, 51.9296765 ], [ 0.9786962, 51.9294569 ], [ 0.9783785, 51.9286702 ], [ 0.9781632, 51.92844370000001 ] ] } },
{ "type": "Feature", "properties": { "id": 18824, "nach": 0.40610978336893061 }, "geometry": { "type": "LineString", "coordinates": [ [ 0.9816136, 51.9278982 ], [ 0.980581, 51.9280479 ] ] } },
{ "type": "Feature", "properties": { "id": 18837, "nach": 0.39967367300321166 }, "geometry": { "type": "LineString", "coordinates": [ [ 0.9839998, 51.9278206 ], [ 0.983894, 51.9278664 ], [ 0.9837933, 51.9278713 ], [ 0.9834915, 51.9278707 ], [ 0.9834041, 51.927854600000011 ], [ 0.9833166, 51.9278384 ], [ 0.9832509, 51.9278263 ], [ 0.9827935, 51.9277979 ], [ 0.9826394, 51.9278174 ], [ 0.9825269, 51.9278553 ], [ 0.9816136, 51.9278982 ] ] } },
{ "type": "Feature", "properties": { "id": 48365, "nach": 0.36394482301594083 }, "geometry": { "type": "LineString", "coordinates": [ [ 0.9837047, 51.9276734 ], [ 0.9837959, 51.927685 ], [ 0.983871, 51.927713100000013 ], [ 0.9839354, 51.9277859 ], [ 0.9839998, 51.9278206 ] ] } },
{ "type": "Feature", "properties": { "id": 43119, "nach": 0.35804806031678788 }, "geometry": { "type": "LineString", "coordinates": [ [ 0.9831124, 51.9283242 ], [ 0.9831153, 51.9284642 ], [ 0.9831258, 51.9284819 ], [ 0.9831389, 51.9284916 ], [ 0.9831782, 51.928513 ] ] } },
{ "type": "Feature", "properties": { "id": 43290, "nach": 0.52049484647281785 }, "geometry": { "type": "LineString", "coordinates": [ [ 0.9852785, 51.9226259 ], [ 0.9852681, 51.9226866 ], [ 0.9852519, 51.922812899999983 ], [ 0.9852318, 51.9229017 ] ] } },
{ "type": "Feature", "properties": { "id": 29348, "nach": 0.36299450602954297 }, "geometry": { "type": "LineString", "coordinates": [ [ 0.9864197, 51.923525199999986 ], [ 0.986428099999989, 51.923272100000013 ], [ 0.9864113, 51.923226700000015 ], [ 0.9863587, 51.9231592 ], [ 0.986315499999988, 51.9231274 ], [ 0.9862461, 51.9230884 ], [ 0.9861682, 51.9230547 ], [ 0.9860692, 51.923031300000012 ], [ 0.9859998, 51.92301830000001 ], [ 0.9856173, 51.9229649 ], [ 0.9852318, 51.9229017 ] ] } },
{ "type": "Feature", "properties": { "id": 44162, "nach": 0.51264166129139122 }, "geometry": { "type": "LineString", "coordinates": [ [ 0.9857561, 51.92166730000001 ], [ 0.9856237, 51.921792500000016 ], [ 0.9856017, 51.9218182 ], [ 0.9855724, 51.9218483 ], [ 0.985486, 51.9219492 ], [ 0.9854225, 51.9220527 ], [ 0.9853598, 51.9221819 ], [ 0.9853383, 51.9222753 ], [ 0.9852785, 51.9226259 ] ] } },
{ "type": "Feature", "properties": { "id": 52168, "nach": 0.37006203797827009 }, "geometry": { "type": "LineString", "coordinates": [ [ 0.9848544, 51.9224968 ], [ 0.9848374, 51.9225989 ], [ 0.9852785, 51.9226259 ] ] } },
{ "type": "Feature", "properties": { "id": 29359, "nach": 0.32654603580909591 }, "geometry": { "type": "LineString", "coordinates": [ [ 0.9876812, 51.91952060000002 ], [ 0.9874676, 51.919392600000016 ] ] } },
{ "type": "Feature", "properties": { "id": 29978, "nach": 0.42574491433850925 }, "geometry": { "type": "LineString", "coordinates": [ [ 0.9836456, 51.9237131 ], [ 0.983633, 51.9237234 ], [ 0.9834613, 51.9238624 ], [ 0.9833621, 51.9239203 ], [ 0.9832735, 51.92399970000001 ] ] } },
{ "type": "Feature", "properties": { "id": 29982, "nach": 0.39373332431605229 }, "geometry": { "type": "LineString", "coordinates": [ [ 0.9839173, 51.9230154 ], [ 0.9840031, 51.9230336 ], [ 0.9839951, 51.9230932 ], [ 0.9839387, 51.923166 ], [ 0.983893099999989, 51.9232321 ], [ 0.9838314, 51.9233463 ], [ 0.98381, 51.9234621 ], [ 0.9837805, 51.9235597 ], [ 0.9837268, 51.9236473 ], [ 0.9836456, 51.9237131 ] ] } },
{ "type": "Feature", "properties": { "id": 29983, "nach": 0.34501752326339413 }, "geometry": { "type": "LineString", "coordinates": [ [ 0.9839826, 51.9229139 ], [ 0.9839589, 51.9229687 ], [ 0.9839173, 51.9230154 ] ] } },
{ "type": "Feature", "properties": { "id": 44316, "nach": 0.29953877103096882 }, "geometry": { "type": "LineString", "coordinates": [ [ 0.982341699999989, 51.9178906 ], [ 0.9823431, 51.9177627 ], [ 0.9824554, 51.9175732 ], [ 0.9825862, 51.917479100000016 ] ] } },
{ "type": "Feature", "properties": { "id": 41847, "nach": 0.35271241614923582 }, "geometry": { "type": "LineString", "coordinates": [ [ 0.9866449, 51.92186670000001 ], [ 0.9866769, 51.9218847 ], [ 0.9867491, 51.9219208 ], [ 0.9867721, 51.9219801 ], [ 0.9867693, 51.9220274 ], [ 0.9867941, 51.922065300000014 ], [ 0.9868953, 51.9221124 ] ] } },
{ "type": "Feature", "properties": { "id": 41850, "nach": 0.35452195266434999 }, "geometry": { "type": "LineString", "coordinates": [ [ 0.9867753, 51.9217392 ], [ 0.9866913, 51.921794299999988 ], [ 0.9866449, 51.92186670000001 ] ] } },
{ "type": "Feature", "properties": { "id": 44163, "nach": 0.0 }, "geometry": { "type": "LineString", "coordinates": [ [ 0.9857561, 51.92166730000001 ], [ 0.9858365, 51.9217025 ], [ 0.985976, 51.9215477 ] ] } },
{ "type": "Feature", "properties": { "id": 43950, "nach": 0.29182498142058 }, "geometry": { "type": "LineString", "coordinates": [ [ 0.971214499999989, 51.9239732 ], [ 0.9712306, 51.9240923 ], [ 0.9725066, 51.923999799999983 ] ] } },
{ "type": "Feature", "properties": { "id": 54153, "nach": 0.31181178504047297 }, "geometry": { "type": "LineString", "coordinates": [ [ 0.9846556, 51.9160834 ], [ 0.9852195, 51.91585820000001 ] ] } },
{ "type": "Feature", "properties": { "id": 54157, "nach": 0.22737474248858217 }, "geometry": { "type": "LineString", "coordinates": [ [ 0.9887607, 51.9141567 ], [ 0.9876321, 51.9147945 ], [ 0.9858095, 51.9155868 ], [ 0.9847123, 51.9160059 ], [ 0.9846557, 51.9160376 ], [ 0.9846556, 51.9160834 ] ] } }
]
}
