{
"type": "FeatureCollection",
"name": "0a68f9330046_visibility",
"crs": { "type": "name", "properties": { "name": "urn:ogc:def:crs:OGC:1.3:CRS84" } },
"features": [
{ "type": "Feature", "properties": { "visible_points": 3, "total_points": 45, "visibility_pct": 6.666666666666667 }, "geometry": { "type": "Point", "coordinates": [ -0.182037418007273, 51.918555134504167 ] } },
{ "type": "Feature", "properties": { "visible_points": 9, "total_points": 46, "visibility_pct": 19.565217391304348 }, "geometry": { "type": "Point", "coordinates": [ -0.18183604761292, 51.918552027716267 ] } },
{ "type": "Feature", "properties": { "visible_points": 7, "total_points": 46, "visibility_pct": 15.217391304347828 }, "geometry": { "type": "Point", "coordinates": [ -0.181634677256119, 51.918548920583596 ] } },
{ "type": "Feature", "properties": { "visible_points": 4, "total_points": 46, "visibility_pct": 8.695652173913043 }, "geometry": { "type": "Point", "coordinates": [ -0.181433306936857, 51.918545813106157 ] } },
{ "type": "Feature", "properties": { "visible_points": 0, "total_points": 44, "visibility_pct": 0.0 }, "geometry": { "type": "Point", "coordinates": [ -0.18123193665515, 51.918542705283947 ] } },
{ "type": "Feature", "properties": { "visible_points": 8, "total_points": 46, "visibility_pct": 17.391304347826086 }, "geometry": { "type": "Point", "coordinates": [ -0.181932374844889, 51.918661419627938 ] } },
{ "type": "Feature", "properties": { "visible_points": 11, "total_points": 46, "visibility_pct": 23.913043478260871 }, "geometry": { "type": "Point", "coordinates": [ -0.181731003968086, 51.918658312662458 ] } },
{ "type": "Feature", "properties": { "visible_points": 9, "total_points": 46, "visibility_pct": 19.565217391304348 }, "geometry": { "type": "Point", "coordinates": [ -0.181529633128834, 51.918655205352181 ] } },
{ "type": "Feature", "properties": { "visible_points": 1, "total_points": 46, "visibility_pct": 2.1739130434782608 }, "geometry": { "type": "Point", "coordinates": [ -0.182028702559307, 51.918770811456675 ] } },
{ "type": "Feature", "properties": { "visible_points": 11, "total_points": 46, "visibility_pct": 23.913043478260871 }, "geometry": { "type": "Point", "coordinates": [ -0.181827331162506, 51.918767704658372 ] } },
{ "type": "Feature", "properties": { "visible_points": 10, "total_points": 46, "visibility_pct": 21.739130434782609 }, "geometry": { "type": "Point", "coordinates": [ -0.18162595980325, 51.918764597515278 ] } },
{ "type": "Feature", "properties": { "visible_points": 8, "total_points": 46, "visibility_pct": 17.391304347826086 }, "geometry": { "type": "Point", "coordinates": [ -0.18142458848154, 51.918761490027421 ] } },
{ "type": "Feature", "properties": { "visible_points": 7, "total_points": 46, "visibility_pct": 15.217391304347828 }, "geometry": { "type": "Point", "coordinates": [ -0.18192365883937, 51.918877096571357 ] } },
{ "type": "Feature", "properties": { "visible_points": 9, "total_points": 46, "visibility_pct": 19.565217391304348 }, "geometry": { "type": "Point", "coordinates": [ -0.181722286960115, 51.91887398959544 ] } },
{ "type": "Feature", "properties": { "visible_points": 9, "total_points": 46, "visibility_pct": 19.565217391304348 }, "geometry": { "type": "Point", "coordinates": [ -0.1815209151184, 51.918870882274767 ] } },
{ "type": "Feature", "properties": { "visible_points": 0, "total_points": 46, "visibility_pct": 0.0 }, "geometry": { "type": "Point", "coordinates": [ -0.181319543314236, 51.918867774609318 ] } },
{ "type": "Feature", "properties": { "visible_points": 4, "total_points": 43, "visibility_pct": 9.3023255813953494 }, "geometry": { "type": "Point", "coordinates": [ -0.182019986998689, 51.918986488401401 ] } },
{ "type": "Feature", "properties": { "visible_points": 0, "total_points": 45, "visibility_pct": 0.0 }, "geometry": { "type": "Point", "coordinates": [ -0.181818614599425, 51.918983381592682 ] } },
{ "type": "Feature", "properties": { "visible_points": 0, "total_points": 46, "visibility_pct": 0.0 }, "geometry": { "type": "Point", "coordinates": [ -0.181617242237708, 51.918980274439178 ] } },
{ "type": "Feature", "properties": { "visible_points": 7, "total_points": 45, "visibility_pct": 15.555555555555555 }, "geometry": { "type": "Point", "coordinates": [ -0.181415869913538, 51.918977166940898 ] } }
]
}
