{
"type": "FeatureCollection",
"name": "23d845481b51_foliage",
"crs": { "type": "name", "properties": { "name": "urn:ogc:def:crs:OGC:1.3:CRS84" } },
"features": [
{ "type": "Feature", "properties": { "max_height": 10.95775032043457, "mean_height": 3.8966541290283203, "std_height": 3.3602039813995361, "count_pixels": 41, "percent_cover": 0.29740316262875383, "percent_above_0.1m": 82.926829268292678, "low_level_<0.5": 0.0, "mid_level_0.5-2": 14.634146341463413, "tall_2+": 65.853658536585371 }, "geometry": { "type": "Point", "coordinates": [ 1.376740211437031, 52.66272292293251 ] } },
{ "type": "Feature", "properties": { "max_height": 10.159999847412109, "mean_height": 3.068885326385498, "std_height": 3.3199746608734131, "count_pixels": 41, "percent_cover": 0.29740316262875383, "percent_above_0.1m": 78.048780487804876, "low_level_<0.5": 7.3170731707317067, "mid_level_0.5-2": 17.073170731707318, "tall_2+": 51.219512195121951 }, "geometry": { "type": "Point", "coordinates": [ 1.376944729214116, 52.662717090951354 ] } },
{ "type": "Feature", "properties": { "max_height": 2.4090003967285156, "mean_height": 0.7669714093208313, "std_height": 0.7478177547454834, "count_pixels": 42, "percent_cover": 0.30465689830262582, "percent_above_0.1m": 71.428571428571431, "low_level_<0.5": 9.5238095238095237, "mid_level_0.5-2": 47.619047619047613, "tall_2+": 9.5238095238095237 }, "geometry": { "type": "Point", "coordinates": [ 1.376441739824967, 52.662839360850754 ] } },
{ "type": "Feature", "properties": { "max_height": 10.148504257202148, "mean_height": 5.5169181823730469, "std_height": 2.8376405239105225, "count_pixels": 42, "percent_cover": 0.30465689830262582, "percent_above_0.1m": 95.238095238095227, "low_level_<0.5": 4.7619047619047619, "mid_level_0.5-2": 4.7619047619047619, "tall_2+": 85.714285714285708 }, "geometry": { "type": "Point", "coordinates": [ 1.376646258210673, 52.662833529374375 ] } },
{ "type": "Feature", "properties": { "max_height": 11.541751861572266, "mean_height": 8.1257753372192383, "std_height": 2.0541055202484131, "count_pixels": 43, "percent_cover": 0.31191063397649793, "percent_above_0.1m": 100.0, "low_level_<0.5": 0.0, "mid_level_0.5-2": 2.3255813953488373, "tall_2+": 97.674418604651152 }, "geometry": { "type": "Point", "coordinates": [ 1.376850776525814, 52.662827697545595 ] } },
{ "type": "Feature", "properties": { "max_height": 11.137252807617188, "mean_height": 3.1810905933380127, "std_height": 3.0678586959838867, "count_pixels": 42, "percent_cover": 0.30465689830262582, "percent_above_0.1m": 92.857142857142861, "low_level_<0.5": 21.428571428571427, "mid_level_0.5-2": 21.428571428571427, "tall_2+": 47.619047619047613 }, "geometry": { "type": "Point", "coordinates": [ 1.3770552947704, 52.662821865364464 ] } },
{ "type": "Feature", "properties": { "max_height": 9.9130001068115234, "mean_height": 4.6788167953491211, "std_height": 2.2729532718658447, "count_pixels": 42, "percent_cover": 0.30465689830262582, "percent_above_0.1m": 100.0, "low_level_<0.5": 2.3809523809523809, "mid_level_0.5-2": 9.5238095238095237, "tall_2+": 88.095238095238088 }, "geometry": { "type": "Point", "coordinates": [ 1.376347785593049, 52.662949967072919 ] } },
{ "type": "Feature", "properties": { "max_height": 9.3430004119873047, "mean_height": 5.5342187881469727, "std_height": 2.6023142337799072, "count_pixels": 38, "percent_cover": 0.27564195560713767, "percent_above_0.1m": 100.0, "low_level_<0.5": 2.6315789473684208, "mid_level_0.5-2": 10.526315789473683, "tall_2+": 86.842105263157904 }, "geometry": { "type": "Point", "coordinates": [ 1.376552304516821, 52.66294413574893 ] } },
{ "type": "Feature", "properties": { "max_height": 11.23750114440918, "mean_height": 4.342836856842041, "std_height": 3.8199038505554199, "count_pixels": 41, "percent_cover": 0.29740316262875383, "percent_above_0.1m": 65.853658536585371, "low_level_<0.5": 2.4390243902439024, "mid_level_0.5-2": 4.8780487804878048, "tall_2+": 58.536585365853654 }, "geometry": { "type": "Point", "coordinates": [ 1.376756823370036, 52.662938304072568 ] } },
{ "type": "Feature", "properties": { "max_height": 8.6265010833740234, "mean_height": 1.8083243370056152, "std_height": 2.3255298137664795, "count_pixels": 41, "percent_cover": 0.29740316262875383, "percent_above_0.1m": 63.414634146341463, "low_level_<0.5": 12.195121951219512, "mid_level_0.5-2": 14.634146341463413, "tall_2+": 36.585365853658537 }, "geometry": { "type": "Point", "coordinates": [ 1.376961342152689, 52.662932472043842 ] } },
{ "type": "Feature", "properties": { "max_height": 10.726499557495117, "mean_height": 7.2861380577087402, "std_height": 2.0016818046569824, "count_pixels": 42, "percent_cover": 0.30465689830262582, "percent_above_0.1m": 100.0, "low_level_<0.5": 0.0, "mid_level_0.5-2": 0.0, "tall_2+": 100.0 }, "geometry": { "type": "Point", "coordinates": [ 1.377165860864774, 52.662926639662714 ] } },
{ "type": "Feature", "properties": { "max_height": 12.562252044677734, "mean_height": 6.1124835014343262, "std_height": 3.3962161540985107, "count_pixels": 42, "percent_cover": 0.30465689830262582, "percent_above_0.1m": 100.0, "low_level_<0.5": 0.0, "mid_level_0.5-2": 19.047619047619047, "tall_2+": 80.952380952380949 }, "geometry": { "type": "Point", "coordinates": [ 1.377370379506291, 52.662920806929222 ] } },
{ "type": "Feature", "properties": { "max_height": 9.2012500762939453, "mean_height": 4.3121562004089355, "std_height": 2.753868579864502, "count_pixels": 42, "percent_cover": 0.30465689830262582, "percent_above_0.1m": 97.61904761904762, "low_level_<0.5": 4.7619047619047619, "mid_level_0.5-2": 19.047619047619047, "tall_2+": 73.80952380952381 }, "geometry": { "type": "Point", "coordinates": [ 1.376253830893633, 52.663060573227796 ] } },
{ "type": "Feature", "properties": { "max_height": 11.32600212097168, "mean_height": 6.508394718170166, "std_height": 2.7443387508392334, "count_pixels": 42, "percent_cover": 0.30465689830262582, "percent_above_0.1m": 100.0, "low_level_<0.5": 0.0, "mid_level_0.5-2": 9.5238095238095237, "tall_2+": 90.476190476190482 }, "geometry": { "type": "Point", "coordinates": [ 1.376458350355478, 52.663054742056211 ] } },
{ "type": "Feature", "properties": { "max_height": 7.4650001525878906, "mean_height": 0.61291182041168213, "std_height": 1.769680380821228, "count_pixels": 42, "percent_cover": 0.30465689830262582, "percent_above_0.1m": 21.428571428571427, "low_level_<0.5": 2.3809523809523809, "mid_level_0.5-2": 11.904761904761903, "tall_2+": 7.1428571428571423 }, "geometry": { "type": "Point", "coordinates": [ 1.376662869746765, 52.663048910532254 ] } },
{ "type": "Feature", "properties": { "max_height": 0.000751495361328125, "mean_height": 1.8807344531523995e-05, "std_height": 0.00034271221375092864, "count_pixels": 43, "percent_cover": 0.31191063397649793, "percent_above_0.1m": 0.0, "low_level_<0.5": 0.0, "mid_level_0.5-2": 0.0, "tall_2+": 0.0 }, "geometry": { "type": "Point", "coordinates": [ 1.376867389067486, 52.663043078655924 ] } },
{ "type": "Feature", "properties": { "max_height": 4.9037494659423828, "mean_height": 0.55444192886352539, "std_height": 1.2615187168121338, "count_pixels": 42, "percent_cover": 0.30465689830262582, "percent_above_0.1m": 26.190476190476193, "low_level_<0.5": 4.7619047619047619, "mid_level_0.5-2": 9.5238095238095237, "tall_2+": 11.904761904761903 }, "geometry": { "type": "Point", "coordinates": [ 1.377071908317651, 52.663037246427209 ] } },
{ "type": "Feature", "properties": { "max_height": 12.956003189086914, "mean_height": 6.4982748031616211, "std_height": 4.096123218536377, "count_pixels": 42, "percent_cover": 0.30465689830262582, "percent_above_0.1m": 88.095238095238088, "low_level_<0.5": 4.7619047619047619, "mid_level_0.5-2": 9.5238095238095237, "tall_2+": 73.80952380952381 }, "geometry": { "type": "Point", "coordinates": [ 1.377276427497242, 52.663031413846113 ] } },
{ "type": "Feature", "properties": { "max_height": 9.7345008850097656, "mean_height": 5.4754891395568848, "std_height": 2.5699381828308105, "count_pixels": 41, "percent_cover": 0.29740316262875383, "percent_above_0.1m": 100.0, "low_level_<0.5": 0.0, "mid_level_0.5-2": 12.195121951219512, "tall_2+": 87.804878048780495 }, "geometry": { "type": "Point", "coordinates": [ 1.376159875726722, 52.663171179315384 ] } },
{ "type": "Feature", "properties": { "max_height": 11.328750610351562, "mean_height": 6.751929759979248, "std_height": 2.8291709423065186, "count_pixels": 42, "percent_cover": 0.30465689830262582, "percent_above_0.1m": 95.238095238095227, "low_level_<0.5": 2.3809523809523809, "mid_level_0.5-2": 2.3809523809523809, "tall_2+": 90.476190476190482 }, "geometry": { "type": "Point", "coordinates": [ 1.376364395726632, 52.663165348296204 ] } },
{ "type": "Feature", "properties": { "max_height": 7.1160011291503906, "mean_height": 0.19140258431434631, "std_height": 1.1386880874633789, "count_pixels": 38, "percent_cover": 0.27564195560713767, "percent_above_0.1m": 5.2631578947368416, "low_level_<0.5": 2.6315789473684208, "mid_level_0.5-2": 0.0, "tall_2+": 2.6315789473684208 }, "geometry": { "type": "Point", "coordinates": [ 1.376568915655997, 52.663159516924658 ] } },
{ "type": "Feature", "properties": { "max_height": 0.0010013580322265625, "mean_height": -2.3306869479711168e-05, "std_height": 0.00036138397990725935, "count_pixels": 41, "percent_cover": 0.29740316262875383, "percent_above_0.1m": 0.0, "low_level_<0.5": 0.0, "mid_level_0.5-2": 0.0, "tall_2+": 0.0 }, "geometry": { "type": "Point", "coordinates": [ 1.3767734355148, 52.663153685200726 ] } },
{ "type": "Feature", "properties": { "max_height": 0.0005016326904296875, "mean_height": -4.6985906010377221e-06, "std_height": 0.00027328857686370611, "count_pixels": 41, "percent_cover": 0.29740316262875383, "percent_above_0.1m": 0.0, "low_level_<0.5": 0.0, "mid_level_0.5-2": 0.0, "tall_2+": 0.0 }, "geometry": { "type": "Point", "coordinates": [ 1.376977955303035, 52.663147853124407 ] } },
{ "type": "Feature", "properties": { "max_height": 9.8472537994384766, "mean_height": 1.4493345022201538, "std_height": 2.3324105739593506, "count_pixels": 42, "percent_cover": 0.30465689830262582, "percent_above_0.1m": 50.0, "low_level_<0.5": 2.3809523809523809, "mid_level_0.5-2": 23.809523809523807, "tall_2+": 23.809523809523807 }, "geometry": { "type": "Point", "coordinates": [ 1.377182475020707, 52.663142020695716 ] } },
{ "type": "Feature", "properties": { "max_height": 7.9747505187988281, "mean_height": 1.8321859836578369, "std_height": 2.3096854686737061, "count_pixels": 42, "percent_cover": 0.30465689830262582, "percent_above_0.1m": 80.952380952380949, "low_level_<0.5": 33.333333333333329, "mid_level_0.5-2": 9.5238095238095237, "tall_2+": 35.714285714285715 }, "geometry": { "type": "Point", "coordinates": [ 1.375861399483765, 52.663287615850059 ] } },
{ "type": "Feature", "properties": { "max_height": 10.744503021240234, "mean_height": 6.2171144485473633, "std_height": 2.0297133922576904, "count_pixels": 42, "percent_cover": 0.30465689830262582, "percent_above_0.1m": 100.0, "low_level_<0.5": 0.0, "mid_level_0.5-2": 2.3809523809523809, "tall_2+": 97.61904761904762 }, "geometry": { "type": "Point", "coordinates": [ 1.376065920092299, 52.663281785335684 ] } },
{ "type": "Feature", "properties": { "max_height": 9.7327480316162109, "mean_height": 4.5054183006286621, "std_height": 3.3579838275909424, "count_pixels": 42, "percent_cover": 0.30465689830262582, "percent_above_0.1m": 76.19047619047619, "low_level_<0.5": 2.3809523809523809, "mid_level_0.5-2": 2.3809523809523809, "tall_2+": 71.428571428571431 }, "geometry": { "type": "Point", "coordinates": [ 1.376270440630292, 52.663275954468922 ] } },
{ "type": "Feature", "properties": { "max_height": 0.027502059936523438, "mean_height": 0.0006084442138671875, "std_height": 0.004245927557349205, "count_pixels": 42, "percent_cover": 0.30465689830262582, "percent_above_0.1m": 0.0, "low_level_<0.5": 0.0, "mid_level_0.5-2": 0.0, "tall_2+": 0.0 }, "geometry": { "type": "Point", "coordinates": [ 1.376474961097729, 52.663270123249774 ] } },
{ "type": "Feature", "properties": { "max_height": 0.0007495880126953125, "mean_height": -7.6066877227276564e-05, "std_height": 0.00040628618444316089, "count_pixels": 42, "percent_cover": 0.30465689830262582, "percent_above_0.1m": 0.0, "low_level_<0.5": 0.0, "mid_level_0.5-2": 0.0, "tall_2+": 0.0 }, "geometry": { "type": "Point", "coordinates": [ 1.376679481494609, 52.663264291678232 ] } },
{ "type": "Feature", "properties": { "max_height": 3.4110031127929688, "mean_height": 0.15293170511722565, "std_height": 0.63451302051544189, "count_pixels": 43, "percent_cover": 0.31191063397649793, "percent_above_0.1m": 6.9767441860465116, "low_level_<0.5": 0.0, "mid_level_0.5-2": 2.3255813953488373, "tall_2+": 4.6511627906976747 }, "geometry": { "type": "Point", "coordinates": [ 1.376884001820927, 52.663258459754331 ] } },
{ "type": "Feature", "properties": { "max_height": 7.7432518005371094, "mean_height": 1.7541624307632446, "std_height": 2.2877092361450195, "count_pixels": 42, "percent_cover": 0.30465689830262582, "percent_above_0.1m": 57.142857142857139, "low_level_<0.5": 9.5238095238095237, "mid_level_0.5-2": 11.904761904761903, "tall_2+": 35.714285714285715 }, "geometry": { "type": "Point", "coordinates": [ 1.377088522076683, 52.66325262747803 ] } },
{ "type": "Feature", "properties": { "max_height": 8.5217533111572266, "mean_height": 3.8500964641571045, "std_height": 2.5486345291137695, "count_pixels": 42, "percent_cover": 0.30465689830262582, "percent_above_0.1m": 90.476190476190482, "low_level_<0.5": 4.7619047619047619, "mid_level_0.5-2": 19.047619047619047, "tall_2+": 64.285714285714292 }, "geometry": { "type": "Point", "coordinates": [ 1.375767442843757, 52.663398221650645 ] } },
{ "type": "Feature", "properties": { "max_height": 11.999250411987305, "mean_height": 8.344822883605957, "std_height": 2.0806431770324707, "count_pixels": 42, "percent_cover": 0.30465689830262582, "percent_above_0.1m": 100.0, "low_level_<0.5": 0.0, "mid_level_0.5-2": 0.0, "tall_2+": 100.0 }, "geometry": { "type": "Point", "coordinates": [ 1.375971963990375, 52.663392391288681 ] } },
{ "type": "Feature", "properties": { "max_height": 9.9642543792724609, "mean_height": 3.0748124122619629, "std_height": 3.3166763782501221, "count_pixels": 41, "percent_cover": 0.29740316262875383, "percent_above_0.1m": 63.414634146341463, "low_level_<0.5": 4.8780487804878048, "mid_level_0.5-2": 4.8780487804878048, "tall_2+": 53.658536585365859 }, "geometry": { "type": "Point", "coordinates": [ 1.376176485066441, 52.663386560574324 ] } },
{ "type": "Feature", "properties": { "max_height": 0.0020008087158203125, "mean_height": 0.00016203380073420703, "std_height": 0.00044588791206479073, "count_pixels": 42, "percent_cover": 0.30465689830262582, "percent_above_0.1m": 0.0, "low_level_<0.5": 0.0, "mid_level_0.5-2": 0.0, "tall_2+": 0.0 }, "geometry": { "type": "Point", "coordinates": [ 1.376381006071957, 52.663380729507587 ] } },
{ "type": "Feature", "properties": { "max_height": 0.001251220703125, "mean_height": 4.1108381992671639e-05, "std_height": 0.00049164821393787861, "count_pixels": 38, "percent_cover": 0.27564195560713767, "percent_above_0.1m": 0.0, "low_level_<0.5": 0.0, "mid_level_0.5-2": 0.0, "tall_2+": 0.0 }, "geometry": { "type": "Point", "coordinates": [ 1.376585527006923, 52.663374898088463 ] } },
{ "type": "Feature", "properties": { "max_height": 7.964752197265625, "mean_height": 0.79843437671661377, "std_height": 1.8669872283935547, "count_pixels": 41, "percent_cover": 0.29740316262875383, "percent_above_0.1m": 26.829268292682929, "low_level_<0.5": 4.8780487804878048, "mid_level_0.5-2": 4.8780487804878048, "tall_2+": 14.634146341463413 }, "geometry": { "type": "Point", "coordinates": [ 1.376790047871323, 52.66336906631696 ] } },
{ "type": "Feature", "properties": { "max_height": 9.2820053100585938, "mean_height": 3.5523943901062012, "std_height": 3.2013018131256104, "count_pixels": 42, "percent_cover": 0.30465689830262582, "percent_above_0.1m": 85.714285714285708, "low_level_<0.5": 11.904761904761903, "mid_level_0.5-2": 14.285714285714285, "tall_2+": 57.142857142857139 }, "geometry": { "type": "Point", "coordinates": [ 1.375673485736238, 52.663508827383957 ] } },
{ "type": "Feature", "properties": { "max_height": 12.140249252319336, "mean_height": 6.7562570571899414, "std_height": 3.3653597831726074, "count_pixels": 42, "percent_cover": 0.30465689830262582, "percent_above_0.1m": 100.0, "low_level_<0.5": 2.3809523809523809, "mid_level_0.5-2": 11.904761904761903, "tall_2+": 85.714285714285708 }, "geometry": { "type": "Point", "coordinates": [ 1.375878007420932, 52.663502997174376 ] } },
{ "type": "Feature", "properties": { "max_height": 11.423004150390625, "mean_height": 2.0528585910797119, "std_height": 3.5366895198822021, "count_pixels": 42, "percent_cover": 0.30465689830262582, "percent_above_0.1m": 38.095238095238095, "low_level_<0.5": 4.7619047619047619, "mid_level_0.5-2": 4.7619047619047619, "tall_2+": 28.571428571428569 }, "geometry": { "type": "Point", "coordinates": [ 1.37608252903508, 52.663497166612451 ] } },
{ "type": "Feature", "properties": { "max_height": 0.0020008087158203125, "mean_height": -0.00015354156494140625, "std_height": 0.00072977249510586262, "count_pixels": 42, "percent_cover": 0.30465689830262582, "percent_above_0.1m": 0.0, "low_level_<0.5": 0.0, "mid_level_0.5-2": 0.0, "tall_2+": 0.0 }, "geometry": { "type": "Point", "coordinates": [ 1.376287050578684, 52.663491335698104 ] } },
{ "type": "Feature", "properties": { "max_height": 0.0022525787353515625, "mean_height": 0.00016798291471786797, "std_height": 0.00044225942110642791, "count_pixels": 42, "percent_cover": 0.30465689830262582, "percent_above_0.1m": 0.0, "low_level_<0.5": 0.0, "mid_level_0.5-2": 0.0, "tall_2+": 0.0 }, "geometry": { "type": "Point", "coordinates": [ 1.376491572051729, 52.663485504431407 ] } },
{ "type": "Feature", "properties": { "max_height": 9.7087516784667969, "mean_height": 2.3050191402435303, "std_height": 3.078211784362793, "count_pixels": 42, "percent_cover": 0.30465689830262582, "percent_above_0.1m": 52.380952380952387, "low_level_<0.5": 7.1428571428571423, "mid_level_0.5-2": 4.7619047619047619, "tall_2+": 38.095238095238095 }, "geometry": { "type": "Point", "coordinates": [ 1.376696093454212, 52.663479672812308 ] } },
{ "type": "Feature", "properties": { "max_height": 10.992502212524414, "mean_height": 5.6515793800354004, "std_height": 3.0250921249389648, "count_pixels": 42, "percent_cover": 0.30465689830262582, "percent_above_0.1m": 95.238095238095227, "low_level_<0.5": 0.0, "mid_level_0.5-2": 9.5238095238095237, "tall_2+": 85.714285714285708 }, "geometry": { "type": "Point", "coordinates": [ 1.375579528161198, 52.663619433049952 ] } },
{ "type": "Feature", "properties": { "max_height": 11.038501739501953, "mean_height": 7.796013355255127, "std_height": 2.1762914657592773, "count_pixels": 42, "percent_cover": 0.30465689830262582, "percent_above_0.1m": 100.0, "low_level_<0.5": 0.0, "mid_level_0.5-2": 2.3809523809523809, "tall_2+": 97.61904761904762 }, "geometry": { "type": "Point", "coordinates": [ 1.375784050383975, 52.663613602992804 ] } },
{ "type": "Feature", "properties": { "max_height": 7.4360008239746094, "mean_height": 0.53068560361862183, "std_height": 1.5338170528411865, "count_pixels": 42, "percent_cover": 0.30465689830262582, "percent_above_0.1m": 16.666666666666664, "low_level_<0.5": 0.0, "mid_level_0.5-2": 2.3809523809523809, "tall_2+": 11.904761904761903 }, "geometry": { "type": "Point", "coordinates": [ 1.375988572536205, 52.663607772583262 ] } },
{ "type": "Feature", "properties": { "max_height": 0.002002716064453125, "mean_height": 0.0001357008732156828, "std_height": 0.00064655923051759601, "count_pixels": 41, "percent_cover": 0.29740316262875383, "percent_above_0.1m": 0.0, "low_level_<0.5": 0.0, "mid_level_0.5-2": 0.0, "tall_2+": 0.0 }, "geometry": { "type": "Point", "coordinates": [ 1.376193094617894, 52.663601941821348 ] } },
{ "type": "Feature", "properties": { "max_height": 0.001251220703125, "mean_height": -4.6275912609416991e-05, "std_height": 0.00052959466120228171, "count_pixels": 42, "percent_cover": 0.30465689830262582, "percent_above_0.1m": 0.0, "low_level_<0.5": 0.0, "mid_level_0.5-2": 0.0, "tall_2+": 0.0 }, "geometry": { "type": "Point", "coordinates": [ 1.376397616629022, 52.663596110707033 ] } },
{ "type": "Feature", "properties": { "max_height": 0.003002166748046875, "mean_height": 9.998522000387311e-05, "std_height": 0.00077722151763737202, "count_pixels": 38, "percent_cover": 0.27564195560713767, "percent_above_0.1m": 0.0, "low_level_<0.5": 0.0, "mid_level_0.5-2": 0.0, "tall_2+": 0.0 }, "geometry": { "type": "Point", "coordinates": [ 1.3766021385696, 52.66359027924036 ] } },
{ "type": "Feature", "properties": { "max_height": 11.695255279541016, "mean_height": 3.5626904964447021, "std_height": 3.8269674777984619, "count_pixels": 41, "percent_cover": 0.29740316262875383, "percent_above_0.1m": 58.536585365853654, "low_level_<0.5": 4.8780487804878048, "mid_level_0.5-2": 7.3170731707317067, "tall_2+": 46.341463414634148 }, "geometry": { "type": "Point", "coordinates": [ 1.376806660439618, 52.663584447421279 ] } },
{ "type": "Feature", "properties": { "max_height": 9.0152511596679688, "mean_height": 2.3550260066986084, "std_height": 3.1672127246856689, "count_pixels": 41, "percent_cover": 0.29740316262875383, "percent_above_0.1m": 46.341463414634148, "low_level_<0.5": 2.4390243902439024, "mid_level_0.5-2": 4.8780487804878048, "tall_2+": 39.024390243902438 }, "geometry": { "type": "Point", "coordinates": [ 1.377011182239063, 52.663578615249826 ] } },
{ "type": "Feature", "properties": { "max_height": 11.132501602172852, "mean_height": 4.6471233367919922, "std_height": 4.2780499458312988, "count_pixels": 41, "percent_cover": 0.29740316262875383, "percent_above_0.1m": 65.853658536585371, "low_level_<0.5": 2.4390243902439024, "mid_level_0.5-2": 4.8780487804878048, "tall_2+": 58.536585365853654 }, "geometry": { "type": "Point", "coordinates": [ 1.375485570118627, 52.663730038648637 ] } },
{ "type": "Feature", "properties": { "max_height": 12.956501007080078, "mean_height": 9.7653942108154297, "std_height": 2.4263968467712402, "count_pixels": 42, "percent_cover": 0.30465689830262582, "percent_above_0.1m": 100.0, "low_level_<0.5": 0.0, "mid_level_0.5-2": 0.0, "tall_2+": 100.0 }, "geometry": { "type": "Point", "coordinates": [ 1.375690092879495, 52.663724208743915 ] } },
{ "type": "Feature", "properties": { "max_height": 10.708503723144531, "mean_height": 5.0718050003051758, "std_height": 3.5771634578704834, "count_pixels": 42, "percent_cover": 0.30465689830262582, "percent_above_0.1m": 83.333333333333343, "low_level_<0.5": 2.3809523809523809, "mid_level_0.5-2": 9.5238095238095237, "tall_2+": 71.428571428571431 }, "geometry": { "type": "Point", "coordinates": [ 1.375894615569811, 52.663718378486791 ] } },
{ "type": "Feature", "properties": { "max_height": 0.0032520294189453125, "mean_height": -1.0445004591019824e-05, "std_height": 0.00062423112103715539, "count_pixels": 42, "percent_cover": 0.30465689830262582, "percent_above_0.1m": 0.0, "low_level_<0.5": 0.0, "mid_level_0.5-2": 0.0, "tall_2+": 0.0 }, "geometry": { "type": "Point", "coordinates": [ 1.376099138189587, 52.663712547877282 ] } },
{ "type": "Feature", "properties": { "max_height": 0.000751495361328125, "mean_height": 2.4977183784358203e-05, "std_height": 0.00037315126974135637, "count_pixels": 42, "percent_cover": 0.30465689830262582, "percent_above_0.1m": 0.0, "low_level_<0.5": 0.0, "mid_level_0.5-2": 0.0, "tall_2+": 0.0 }, "geometry": { "type": "Point", "coordinates": [ 1.376303660738809, 52.663706716915399 ] } },
{ "type": "Feature", "properties": { "max_height": 0.0010013580322265625, "mean_height": -4.6185083192540333e-05, "std_height": 0.00045735560706816614, "count_pixels": 42, "percent_cover": 0.30465689830262582, "percent_above_0.1m": 0.0, "low_level_<0.5": 0.0, "mid_level_0.5-2": 0.0, "tall_2+": 0.0 }, "geometry": { "type": "Point", "coordinates": [ 1.376508183217473, 52.663700885601116 ] } },
{ "type": "Feature", "properties": { "max_height": 0.0085010528564453125, "mean_height": 0.00034077963209711015, "std_height": 0.0013711838982999325, "count_pixels": 42, "percent_cover": 0.30465689830262582, "percent_above_0.1m": 0.0, "low_level_<0.5": 0.0, "mid_level_0.5-2": 0.0, "tall_2+": 0.0 }, "geometry": { "type": "Point", "coordinates": [ 1.376712705625587, 52.66369505393444 ] } },
{ "type": "Feature", "properties": { "max_height": 7.3217506408691406, "mean_height": 0.63203632831573486, "std_height": 1.7290724515914917, "count_pixels": 43, "percent_cover": 0.31191063397649793, "percent_above_0.1m": 23.255813953488371, "low_level_<0.5": 9.3023255813953494, "mid_level_0.5-2": 2.3255813953488373, "tall_2+": 11.627906976744185 }, "geometry": { "type": "Point", "coordinates": [ 1.376917227963124, 52.663689221915391 ] } },
{ "type": "Feature", "properties": { "max_height": 8.256500244140625, "mean_height": 2.0982992649078369, "std_height": 2.6372396945953369, "count_pixels": 42, "percent_cover": 0.30465689830262582, "percent_above_0.1m": 54.761904761904766, "low_level_<0.5": 2.3809523809523809, "mid_level_0.5-2": 14.285714285714285, "tall_2+": 38.095238095238095 }, "geometry": { "type": "Point", "coordinates": [ 1.3771217502301, 52.663683389543948 ] } },
{ "type": "Feature", "properties": { "max_height": 10.491001129150391, "mean_height": 2.2804598808288574, "std_height": 3.5751903057098389, "count_pixels": 42, "percent_cover": 0.30465689830262582, "percent_above_0.1m": 40.476190476190474, "low_level_<0.5": 7.1428571428571423, "mid_level_0.5-2": 2.3809523809523809, "tall_2+": 30.952380952380953 }, "geometry": { "type": "Point", "coordinates": [ 1.375596134907488, 52.66383481442773 ] } },
{ "type": "Feature", "properties": { "max_height": 12.070253372192383, "mean_height": 9.2528886795043945, "std_height": 1.6985121965408325, "count_pixels": 42, "percent_cover": 0.30465689830262582, "percent_above_0.1m": 100.0, "low_level_<0.5": 0.0, "mid_level_0.5-2": 0.0, "tall_2+": 100.0 }, "geometry": { "type": "Point", "coordinates": [ 1.375800658135896, 52.663828984323033 ] } },
{ "type": "Feature", "properties": { "max_height": 11.407501220703125, "mean_height": 6.6404428482055664, "std_height": 2.5341248512268066, "count_pixels": 42, "percent_cover": 0.30465689830262582, "percent_above_0.1m": 97.61904761904762, "low_level_<0.5": 0.0, "mid_level_0.5-2": 7.1428571428571423, "tall_2+": 90.476190476190482 }, "geometry": { "type": "Point", "coordinates": [ 1.376005181293762, 52.663823153865927 ] } },
{ "type": "Feature", "properties": { "max_height": 7.884002685546875, "mean_height": 0.59956884384155273, "std_height": 1.5946060419082642, "count_pixels": 41, "percent_cover": 0.29740316262875383, "percent_above_0.1m": 19.512195121951219, "low_level_<0.5": 2.4390243902439024, "mid_level_0.5-2": 4.8780487804878048, "tall_2+": 12.195121951219512 }, "geometry": { "type": "Point", "coordinates": [ 1.376209704381074, 52.663817323056463 ] } },
{ "type": "Feature", "properties": { "max_height": 0.000751495361328125, "mean_height": -0.00010581243259366602, "std_height": 0.00035823092912323773, "count_pixels": 42, "percent_cover": 0.30465689830262582, "percent_above_0.1m": 0.0, "low_level_<0.5": 0.0, "mid_level_0.5-2": 0.0, "tall_2+": 0.0 }, "geometry": { "type": "Point", "coordinates": [ 1.376414227397835, 52.663811491894577 ] } },
{ "type": "Feature", "properties": { "max_height": 0.000751495361328125, "mean_height": -3.147125244140625e-05, "std_height": 0.00054450251627713442, "count_pixels": 38, "percent_cover": 0.27564195560713767, "percent_above_0.1m": 0.0, "low_level_<0.5": 0.0, "mid_level_0.5-2": 0.0, "tall_2+": 0.0 }, "geometry": { "type": "Point", "coordinates": [ 1.376618750344038, 52.663805660380334 ] } },
{ "type": "Feature", "properties": { "max_height": 0.000751495361328125, "mean_height": -5.9872138081118464e-05, "std_height": 0.00036953177186660469, "count_pixels": 41, "percent_cover": 0.29740316262875383, "percent_above_0.1m": 0.0, "low_level_<0.5": 0.0, "mid_level_0.5-2": 0.0, "tall_2+": 0.0 }, "geometry": { "type": "Point", "coordinates": [ 1.376823273219678, 52.663799828513675 ] } },
{ "type": "Feature", "properties": { "max_height": 0.626251220703125, "mean_height": 0.068440228700637817, "std_height": 0.15933409333229065, "count_pixels": 41, "percent_cover": 0.29740316262875383, "percent_above_0.1m": 21.951219512195124, "low_level_<0.5": 9.7560975609756095, "mid_level_0.5-2": 4.8780487804878048, "tall_2+": 0.0 }, "geometry": { "type": "Point", "coordinates": [ 1.377027796024753, 52.663793996294643 ] } },
{ "type": "Feature", "properties": { "max_height": 9.472503662109375, "mean_height": 3.0161561965942383, "std_height": 3.3101668357849121, "count_pixels": 42, "percent_cover": 0.30465689830262582, "percent_above_0.1m": 57.142857142857139, "low_level_<0.5": 2.3809523809523809, "mid_level_0.5-2": 7.1428571428571423, "tall_2+": 47.619047619047613 }, "geometry": { "type": "Point", "coordinates": [ 1.377232318759255, 52.663788163723233 ] } },
{ "type": "Feature", "properties": { "max_height": 8.6660003662109375, "mean_height": 1.6340550184249878, "std_height": 2.3730347156524658, "count_pixels": 42, "percent_cover": 0.30465689830262582, "percent_above_0.1m": 69.047619047619051, "low_level_<0.5": 11.904761904761903, "mid_level_0.5-2": 30.952380952380953, "tall_2+": 21.428571428571427 }, "geometry": { "type": "Point", "coordinates": [ 1.377436841423181, 52.663782330799407 ] } },
{ "type": "Feature", "properties": { "max_height": 11.335002899169922, "mean_height": 5.9754180908203125, "std_height": 3.1926393508911133, "count_pixels": 42, "percent_cover": 0.30465689830262582, "percent_above_0.1m": 97.61904761904762, "low_level_<0.5": 2.3809523809523809, "mid_level_0.5-2": 4.7619047619047619, "tall_2+": 90.476190476190482 }, "geometry": { "type": "Point", "coordinates": [ 1.375911223930411, 52.663933759787298 ] } },
{ "type": "Feature", "properties": { "max_height": 10.084253311157227, "mean_height": 7.6822094917297363, "std_height": 1.4987704753875732, "count_pixels": 42, "percent_cover": 0.30465689830262582, "percent_above_0.1m": 100.0, "low_level_<0.5": 0.0, "mid_level_0.5-2": 0.0, "tall_2+": 100.0 }, "geometry": { "type": "Point", "coordinates": [ 1.376115747555818, 52.663927929130217 ] } },
{ "type": "Feature", "properties": { "max_height": 11.531002044677734, "mean_height": 4.2141265869140625, "std_height": 3.6679747104644775, "count_pixels": 42, "percent_cover": 0.30465689830262582, "percent_above_0.1m": 71.428571428571431, "low_level_<0.5": 0.0, "mid_level_0.5-2": 11.904761904761903, "tall_2+": 59.523809523809526 }, "geometry": { "type": "Point", "coordinates": [ 1.376320271110675, 52.663922098120764 ] } },
{ "type": "Feature", "properties": { "max_height": 0.066251754760742188, "mean_height": 0.0016261509153991938, "std_height": 0.010106558911502361, "count_pixels": 42, "percent_cover": 0.30465689830262582, "percent_above_0.1m": 0.0, "low_level_<0.5": 0.0, "mid_level_0.5-2": 0.0, "tall_2+": 0.0 }, "geometry": { "type": "Point", "coordinates": [ 1.376524794594977, 52.663916266758925 ] } },
{ "type": "Feature", "properties": { "max_height": 0.0005016326904296875, "mean_height": -0.00011757441825466231, "std_height": 0.00067076977575197816, "count_pixels": 42, "percent_cover": 0.30465689830262582, "percent_above_0.1m": 0.0, "low_level_<0.5": 0.0, "mid_level_0.5-2": 0.0, "tall_2+": 0.0 }, "geometry": { "type": "Point", "coordinates": [ 1.376729318008716, 52.66391043504467 ] } },
{ "type": "Feature", "properties": { "max_height": 0.001750946044921875, "mean_height": -0.0002951067581307143, "std_height": 0.00075134949292987585, "count_pixels": 43, "percent_cover": 0.31191063397649793, "percent_above_0.1m": 0.0, "low_level_<0.5": 0.0, "mid_level_0.5-2": 0.0, "tall_2+": 0.0 }, "geometry": { "type": "Point", "coordinates": [ 1.376933841351891, 52.663904602978036 ] } },
{ "type": "Feature", "properties": { "max_height": 0.36575126647949219, "mean_height": 0.010638236999511719, "std_height": 0.056122388690710068, "count_pixels": 42, "percent_cover": 0.30465689830262582, "percent_above_0.1m": 2.3809523809523809, "low_level_<0.5": 2.3809523809523809, "mid_level_0.5-2": 0.0, "tall_2+": 0.0 }, "geometry": { "type": "Point", "coordinates": [ 1.377138364624498, 52.66389877055903 ] } },
{ "type": "Feature", "properties": { "max_height": 1.9435005187988281, "mean_height": 0.15926329791545868, "std_height": 0.44801798462867737, "count_pixels": 42, "percent_cover": 0.30465689830262582, "percent_above_0.1m": 14.285714285714285, "low_level_<0.5": 4.7619047619047619, "mid_level_0.5-2": 9.5238095238095237, "tall_2+": 0.0 }, "geometry": { "type": "Point", "coordinates": [ 1.377342887826529, 52.663892937787615 ] } },
{ "type": "Feature", "properties": { "max_height": 4.7875003814697266, "mean_height": 2.0769467353820801, "std_height": 1.6623817682266235, "count_pixels": 41, "percent_cover": 0.29740316262875383, "percent_above_0.1m": 78.048780487804876, "low_level_<0.5": 4.8780487804878048, "mid_level_0.5-2": 19.512195121951219, "tall_2+": 51.219512195121951 }, "geometry": { "type": "Point", "coordinates": [ 1.377547410957983, 52.663887104663822 ] } },
{ "type": "Feature", "properties": { "max_height": 8.3707504272460938, "mean_height": 2.4894719123840332, "std_height": 2.83620285987854, "count_pixels": 42, "percent_cover": 0.30465689830262582, "percent_above_0.1m": 69.047619047619051, "low_level_<0.5": 4.7619047619047619, "mid_level_0.5-2": 14.285714285714285, "tall_2+": 42.857142857142854 }, "geometry": { "type": "Point", "coordinates": [ 1.376021790263038, 52.664038535136697 ] } },
{ "type": "Feature", "properties": { "max_height": 13.018253326416016, "mean_height": 7.6245498657226562, "std_height": 2.5552923679351807, "count_pixels": 41, "percent_cover": 0.29740316262875383, "percent_above_0.1m": 100.0, "low_level_<0.5": 0.0, "mid_level_0.5-2": 0.0, "tall_2+": 100.0 }, "geometry": { "type": "Point", "coordinates": [ 1.376226314355995, 52.664032704279649 ] } },
{ "type": "Feature", "properties": { "max_height": 12.581752777099609, "mean_height": 6.9604072570800781, "std_height": 2.9027884006500244, "count_pixels": 42, "percent_cover": 0.30465689830262582, "percent_above_0.1m": 95.238095238095227, "low_level_<0.5": 0.0, "mid_level_0.5-2": 7.1428571428571423, "tall_2+": 88.095238095238088 }, "geometry": { "type": "Point", "coordinates": [ 1.376430838378395, 52.664026873070213 ] } },
{ "type": "Feature", "properties": { "max_height": 2.9650001525878906, "mean_height": 0.20394867658615112, "std_height": 0.61918342113494873, "count_pixels": 38, "percent_cover": 0.27564195560713767, "percent_above_0.1m": 10.526315789473683, "low_level_<0.5": 0.0, "mid_level_0.5-2": 7.8947368421052628, "tall_2+": 2.6315789473684208 }, "geometry": { "type": "Point", "coordinates": [ 1.376635362330238, 52.664021041508391 ] } },
{ "type": "Feature", "properties": { "max_height": 0.001251220703125, "mean_height": 6.2151651945896447e-05, "std_height": 0.00044090222218073905, "count_pixels": 41, "percent_cover": 0.29740316262875383, "percent_above_0.1m": 0.0, "low_level_<0.5": 0.0, "mid_level_0.5-2": 0.0, "tall_2+": 0.0 }, "geometry": { "type": "Point", "coordinates": [ 1.376839886211514, 52.664015209594154 ] } },
{ "type": "Feature", "properties": { "max_height": 0.48225021362304688, "mean_height": 0.01821490004658699, "std_height": 0.07978946715593338, "count_pixels": 41, "percent_cover": 0.29740316262875383, "percent_above_0.1m": 4.8780487804878048, "low_level_<0.5": 4.8780487804878048, "mid_level_0.5-2": 0.0, "tall_2+": 0.0 }, "geometry": { "type": "Point", "coordinates": [ 1.377044410022226, 52.664009377327552 ] } },
{ "type": "Feature", "properties": { "max_height": 1.6672515869140625, "mean_height": 0.064769066870212555, "std_height": 0.26571464538574219, "count_pixels": 42, "percent_cover": 0.30465689830262582, "percent_above_0.1m": 9.5238095238095237, "low_level_<0.5": 4.7619047619047619, "mid_level_0.5-2": 2.3809523809523809, "tall_2+": 0.0 }, "geometry": { "type": "Point", "coordinates": [ 1.377248933762367, 52.664003544708542 ] } },
{ "type": "Feature", "properties": { "max_height": 0.790252685546875, "mean_height": 0.022584959864616394, "std_height": 0.12140136957168579, "count_pixels": 42, "percent_cover": 0.30465689830262582, "percent_above_0.1m": 4.7619047619047619, "low_level_<0.5": 0.0, "mid_level_0.5-2": 2.3809523809523809, "tall_2+": 0.0 }, "geometry": { "type": "Point", "coordinates": [ 1.377453457431926, 52.663997711737167 ] } },
{ "type": "Feature", "properties": { "max_height": 5.7227516174316406, "mean_height": 1.1441205739974976, "std_height": 1.8479675054550171, "count_pixels": 42, "percent_cover": 0.30465689830262582, "percent_above_0.1m": 40.476190476190474, "low_level_<0.5": 7.1428571428571423, "mid_level_0.5-2": 7.1428571428571423, "tall_2+": 23.809523809523807 }, "geometry": { "type": "Point", "coordinates": [ 1.37765798103091, 52.663991878413384 ] } },
{ "type": "Feature", "properties": { "max_height": 12.006002426147461, "mean_height": 2.3271803855895996, "std_height": 2.763751745223999, "count_pixels": 42, "percent_cover": 0.30465689830262582, "percent_above_0.1m": 64.285714285714292, "low_level_<0.5": 4.7619047619047619, "mid_level_0.5-2": 7.1428571428571423, "tall_2+": 52.380952380952387 }, "geometry": { "type": "Point", "coordinates": [ 1.377862504559309, 52.6639860447372 ] } },
{ "type": "Feature", "properties": { "max_height": 11.86125373840332, "mean_height": 5.2269062995910645, "std_height": 3.8908379077911377, "count_pixels": 42, "percent_cover": 0.30465689830262582, "percent_above_0.1m": 85.714285714285708, "low_level_<0.5": 2.3809523809523809, "mid_level_0.5-2": 11.904761904761903, "tall_2+": 71.428571428571431 }, "geometry": { "type": "Point", "coordinates": [ 1.376336881694289, 52.664137479314228 ] } },
{ "type": "Feature", "properties": { "max_height": 12.436250686645508, "mean_height": 7.093407154083252, "std_height": 2.3438913822174072, "count_pixels": 42, "percent_cover": 0.30465689830262582, "percent_above_0.1m": 100.0, "low_level_<0.5": 0.0, "mid_level_0.5-2": 0.0, "tall_2+": 100.0 }, "geometry": { "type": "Point", "coordinates": [ 1.376541406184237, 52.664131647904803 ] } },
{ "type": "Feature", "properties": { "max_height": 7.7762527465820312, "mean_height": 2.6072871685028076, "std_height": 2.8031010627746582, "count_pixels": 42, "percent_cover": 0.30465689830262582, "percent_above_0.1m": 61.904761904761905, "low_level_<0.5": 2.3809523809523809, "mid_level_0.5-2": 9.5238095238095237, "tall_2+": 50.0 }, "geometry": { "type": "Point", "coordinates": [ 1.376745930603619, 52.664125816142992 ] } },
{ "type": "Feature", "properties": { "max_height": 6.7020015716552734, "mean_height": 0.22246652841567993, "std_height": 1.0700843334197998, "count_pixels": 43, "percent_cover": 0.31191063397649793, "percent_above_0.1m": 9.3023255813953494, "low_level_<0.5": 2.3255813953488373, "mid_level_0.5-2": 0.0, "tall_2+": 4.6511627906976747 }, "geometry": { "type": "Point", "coordinates": [ 1.376950454952439, 52.664119984028787 ] } },
{ "type": "Feature", "properties": { "max_height": 0.000751495361328125, "mean_height": -3.4513926948420703e-05, "std_height": 0.00046166428364813328, "count_pixels": 42, "percent_cover": 0.30465689830262582, "percent_above_0.1m": 0.0, "low_level_<0.5": 0.0, "mid_level_0.5-2": 0.0, "tall_2+": 0.0 }, "geometry": { "type": "Point", "coordinates": [ 1.377154979230686, 52.664114151562195 ] } },
{ "type": "Feature", "properties": { "max_height": 0.53425216674804688, "mean_height": 0.037215821444988251, "std_height": 0.10596120357513428, "count_pixels": 42, "percent_cover": 0.30465689830262582, "percent_above_0.1m": 11.904761904761903, "low_level_<0.5": 7.1428571428571423, "mid_level_0.5-2": 2.3809523809523809, "tall_2+": 0.0 }, "geometry": { "type": "Point", "coordinates": [ 1.37735950343836, 52.664108318743203 ] } },
{ "type": "Feature", "properties": { "max_height": 1.7045001983642578, "mean_height": 0.1069161519408226, "std_height": 0.29856288433074951, "count_pixels": 41, "percent_cover": 0.29740316262875383, "percent_above_0.1m": 17.073170731707318, "low_level_<0.5": 12.195121951219512, "mid_level_0.5-2": 4.8780487804878048, "tall_2+": 0.0 }, "geometry": { "type": "Point", "coordinates": [ 1.377564027575455, 52.664102485571831 ] } },
{ "type": "Feature", "properties": { "max_height": 5.41400146484375, "mean_height": 0.38460862636566162, "std_height": 1.0494253635406494, "count_pixels": 42, "percent_cover": 0.30465689830262582, "percent_above_0.1m": 26.190476190476193, "low_level_<0.5": 9.5238095238095237, "mid_level_0.5-2": 9.5238095238095237, "tall_2+": 7.1428571428571423 }, "geometry": { "type": "Point", "coordinates": [ 1.377768551641969, 52.664096652048052 ] } },
{ "type": "Feature", "properties": { "max_height": 1.8765010833740234, "mean_height": 0.44350779056549072, "std_height": 0.64114391803741455, "count_pixels": 38, "percent_cover": 0.27564195560713767, "percent_above_0.1m": 42.105263157894733, "low_level_<0.5": 10.526315789473683, "mid_level_0.5-2": 28.947368421052634, "tall_2+": 0.0 }, "geometry": { "type": "Point", "coordinates": [ 1.377973075637892, 52.664090818171893 ] } },
{ "type": "Feature", "properties": { "max_height": 10.91925048828125, "mean_height": 4.3048348426818848, "std_height": 3.8626627922058105, "count_pixels": 42, "percent_cover": 0.30465689830262582, "percent_above_0.1m": 78.571428571428569, "low_level_<0.5": 4.7619047619047619, "mid_level_0.5-2": 14.285714285714285, "tall_2+": 59.523809523809526 }, "geometry": { "type": "Point", "coordinates": [ 1.376447449570702, 52.664242254233933 ] } },
{ "type": "Feature", "properties": { "max_height": 12.750003814697266, "mean_height": 6.6921796798706055, "std_height": 2.4495253562927246, "count_pixels": 38, "percent_cover": 0.27564195560713767, "percent_above_0.1m": 100.0, "low_level_<0.5": 0.0, "mid_level_0.5-2": 0.0, "tall_2+": 100.0 }, "geometry": { "type": "Point", "coordinates": [ 1.376651974528203, 52.664236422624533 ] } },
{ "type": "Feature", "properties": { "max_height": 10.066501617431641, "mean_height": 4.898160457611084, "std_height": 2.1024947166442871, "count_pixels": 41, "percent_cover": 0.29740316262875383, "percent_above_0.1m": 100.0, "low_level_<0.5": 0.0, "mid_level_0.5-2": 12.195121951219512, "tall_2+": 87.804878048780495 }, "geometry": { "type": "Point", "coordinates": [ 1.37685649941513, 52.664230590662733 ] } },
{ "type": "Feature", "properties": { "max_height": 9.5630016326904297, "mean_height": 5.5992093086242676, "std_height": 2.5579173564910889, "count_pixels": 41, "percent_cover": 0.29740316262875383, "percent_above_0.1m": 90.243902439024396, "low_level_<0.5": 2.4390243902439024, "mid_level_0.5-2": 2.4390243902439024, "tall_2+": 85.365853658536579 }, "geometry": { "type": "Point", "coordinates": [ 1.377061024231492, 52.664224758348546 ] } },
{ "type": "Feature", "properties": { "max_height": 7.4814987182617188, "mean_height": 2.7260074615478516, "std_height": 2.6169090270996094, "count_pixels": 42, "percent_cover": 0.30465689830262582, "percent_above_0.1m": 64.285714285714292, "low_level_<0.5": 4.7619047619047619, "mid_level_0.5-2": 4.7619047619047619, "tall_2+": 54.761904761904766 }, "geometry": { "type": "Point", "coordinates": [ 1.37726554897728, 52.664218925681958 ] } },
{ "type": "Feature", "properties": { "max_height": 7.6192493438720703, "mean_height": 2.4452457427978516, "std_height": 2.9139740467071533, "count_pixels": 42, "percent_cover": 0.30465689830262582, "percent_above_0.1m": 50.0, "low_level_<0.5": 2.3809523809523809, "mid_level_0.5-2": 2.3809523809523809, "tall_2+": 42.857142857142854 }, "geometry": { "type": "Point", "coordinates": [ 1.377470073652487, 52.664213092662983 ] } },
{ "type": "Feature", "properties": { "max_height": 8.4982490539550781, "mean_height": 0.74348950386047363, "std_height": 1.7218203544616699, "count_pixels": 42, "percent_cover": 0.30465689830262582, "percent_above_0.1m": 26.190476190476193, "low_level_<0.5": 7.1428571428571423, "mid_level_0.5-2": 2.3809523809523809, "tall_2+": 16.666666666666664 }, "geometry": { "type": "Point", "coordinates": [ 1.377674598257115, 52.664207259291629 ] } },
{ "type": "Feature", "properties": { "max_height": 5.9367504119873047, "mean_height": 0.18466827273368835, "std_height": 0.90915894508361816, "count_pixels": 42, "percent_cover": 0.30465689830262582, "percent_above_0.1m": 11.904761904761903, "low_level_<0.5": 7.1428571428571423, "mid_level_0.5-2": 2.3809523809523809, "tall_2+": 2.3809523809523809 }, "geometry": { "type": "Point", "coordinates": [ 1.377879122791158, 52.664201425567853 ] } },
{ "type": "Feature", "properties": { "max_height": 2.0877513885498047, "mean_height": 0.42023354768753052, "std_height": 0.63487821817398071, "count_pixels": 42, "percent_cover": 0.30465689830262582, "percent_above_0.1m": 45.238095238095241, "low_level_<0.5": 19.047619047619047, "mid_level_0.5-2": 23.809523809523807, "tall_2+": 2.3809523809523809 }, "geometry": { "type": "Point", "coordinates": [ 1.378083647254611, 52.664195591491705 ] } },
{ "type": "Feature", "properties": { "max_height": 2.1100006103515625, "mean_height": 0.42526957392692566, "std_height": 0.63749092817306519, "count_pixels": 42, "percent_cover": 0.30465689830262582, "percent_above_0.1m": 40.476190476190474, "low_level_<0.5": 9.5238095238095237, "mid_level_0.5-2": 26.190476190476193, "tall_2+": 4.7619047619047619 }, "geometry": { "type": "Point", "coordinates": [ 1.378288171647472, 52.664189757063163 ] } },
{ "type": "Feature", "properties": { "max_height": 11.08125114440918, "mean_height": 3.6542870998382568, "std_height": 2.6990854740142822, "count_pixels": 42, "percent_cover": 0.30465689830262582, "percent_above_0.1m": 90.476190476190482, "low_level_<0.5": 7.1428571428571423, "mid_level_0.5-2": 14.285714285714285, "tall_2+": 69.047619047619051 }, "geometry": { "type": "Point", "coordinates": [ 1.376762543410297, 52.664341197229376 ] } },
{ "type": "Feature", "properties": { "max_height": 9.5427532196044922, "mean_height": 5.4123563766479492, "std_height": 2.0153372287750244, "count_pixels": 43, "percent_cover": 0.31191063397649793, "percent_above_0.1m": 100.0, "low_level_<0.5": 0.0, "mid_level_0.5-2": 9.3023255813953494, "tall_2+": 90.697674418604649 }, "geometry": { "type": "Point", "coordinates": [ 1.376967068764772, 52.664335365067615 ] } },
{ "type": "Feature", "properties": { "max_height": 9.9415035247802734, "mean_height": 6.5598406791687012, "std_height": 1.5145390033721924, "count_pixels": 42, "percent_cover": 0.30465689830262582, "percent_above_0.1m": 100.0, "low_level_<0.5": 0.0, "mid_level_0.5-2": 0.0, "tall_2+": 100.0 }, "geometry": { "type": "Point", "coordinates": [ 1.377171594048673, 52.664329532553424 ] } },
{ "type": "Feature", "properties": { "max_height": 10.076000213623047, "mean_height": 6.1421327590942383, "std_height": 1.6666132211685181, "count_pixels": 42, "percent_cover": 0.30465689830262582, "percent_above_0.1m": 100.0, "low_level_<0.5": 0.0, "mid_level_0.5-2": 0.0, "tall_2+": 100.0 }, "geometry": { "type": "Point", "coordinates": [ 1.377376119262007, 52.664323699686861 ] } },
{ "type": "Feature", "properties": { "max_height": 8.6950035095214844, "mean_height": 5.2661118507385254, "std_height": 2.0896711349487305, "count_pixels": 41, "percent_cover": 0.29740316262875383, "percent_above_0.1m": 100.0, "low_level_<0.5": 0.0, "mid_level_0.5-2": 7.3170731707317067, "tall_2+": 92.682926829268297 }, "geometry": { "type": "Point", "coordinates": [ 1.37758064440475, 52.664317866467904 ] } },
{ "type": "Feature", "properties": { "max_height": 9.3455009460449219, "mean_height": 5.5773653984069824, "std_height": 1.9647055864334106, "count_pixels": 42, "percent_cover": 0.30465689830262582, "percent_above_0.1m": 97.61904761904762, "low_level_<0.5": 2.3809523809523809, "mid_level_0.5-2": 0.0, "tall_2+": 95.238095238095227 }, "geometry": { "type": "Point", "coordinates": [ 1.377785169476915, 52.664312032896547 ] } },
{ "type": "Feature", "properties": { "max_height": 9.4139976501464844, "mean_height": 1.5318633317947388, "std_height": 2.624997615814209, "count_pixels": 38, "percent_cover": 0.27564195560713767, "percent_above_0.1m": 39.473684210526315, "low_level_<0.5": 10.526315789473683, "mid_level_0.5-2": 0.0, "tall_2+": 28.947368421052634 }, "geometry": { "type": "Point", "coordinates": [ 1.37798969447849, 52.664306198972788 ] } },
{ "type": "Feature", "properties": { "max_height": 0.39274978637695312, "mean_height": 0.033917926251888275, "std_height": 0.096349269151687622, "count_pixels": 42, "percent_cover": 0.30465689830262582, "percent_above_0.1m": 9.5238095238095237, "low_level_<0.5": 9.5238095238095237, "mid_level_0.5-2": 0.0, "tall_2+": 0.0 }, "geometry": { "type": "Point", "coordinates": [ 1.378194219409472, 52.664300364696658 ] } },
{ "type": "Feature", "properties": { "max_height": 7.4880008697509766, "mean_height": 2.5754463672637939, "std_height": 2.3947722911834717, "count_pixels": 41, "percent_cover": 0.29740316262875383, "percent_above_0.1m": 90.243902439024396, "low_level_<0.5": 7.3170731707317067, "mid_level_0.5-2": 34.146341463414636, "tall_2+": 43.902439024390247 }, "geometry": { "type": "Point", "coordinates": [ 1.377077638652549, 52.664440139357616 ] } },
{ "type": "Feature", "properties": { "max_height": 8.8187503814697266, "mean_height": 3.4890191555023193, "std_height": 2.9245107173919678, "count_pixels": 42, "percent_cover": 0.30465689830262582, "percent_above_0.1m": 83.333333333333343, "low_level_<0.5": 0.0, "mid_level_0.5-2": 19.047619047619047, "tall_2+": 59.523809523809526 }, "geometry": { "type": "Point", "coordinates": [ 1.377282164403998, 52.664434306643457 ] } },
{ "type": "Feature", "properties": { "max_height": 7.739501953125, "mean_height": 3.1597158908843994, "std_height": 2.4855122566223145, "count_pixels": 42, "percent_cover": 0.30465689830262582, "percent_above_0.1m": 85.714285714285708, "low_level_<0.5": 7.1428571428571423, "mid_level_0.5-2": 19.047619047619047, "tall_2+": 59.523809523809526 }, "geometry": { "type": "Point", "coordinates": [ 1.377486690084867, 52.664428473576912 ] } },
{ "type": "Feature", "properties": { "max_height": 8.0255012512207031, "mean_height": 3.733668327331543, "std_height": 2.522280216217041, "count_pixels": 42, "percent_cover": 0.30465689830262582, "percent_above_0.1m": 92.857142857142861, "low_level_<0.5": 4.7619047619047619, "mid_level_0.5-2": 19.047619047619047, "tall_2+": 69.047619047619051 }, "geometry": { "type": "Point", "coordinates": [ 1.377691215695156, 52.664422640157944 ] } },
{ "type": "Feature", "properties": { "max_height": 10.334751129150391, "mean_height": 4.5584659576416016, "std_height": 3.315516471862793, "count_pixels": 42, "percent_cover": 0.30465689830262582, "percent_above_0.1m": 76.19047619047619, "low_level_<0.5": 2.3809523809523809, "mid_level_0.5-2": 4.7619047619047619, "tall_2+": 69.047619047619051 }, "geometry": { "type": "Point", "coordinates": [ 1.377895741234857, 52.664416806386612 ] } },
{ "type": "Feature", "properties": { "max_height": 3.13275146484375, "mean_height": 0.13667996227741241, "std_height": 0.51312470436096191, "count_pixels": 42, "percent_cover": 0.30465689830262582, "percent_above_0.1m": 11.904761904761903, "low_level_<0.5": 4.7619047619047619, "mid_level_0.5-2": 4.7619047619047619, "tall_2+": 2.3809523809523809 }, "geometry": { "type": "Point", "coordinates": [ 1.377801787523702, 52.664527413733126 ] } }
]
}
