{
"type": "FeatureCollection",
"name": "THURR_39",
"crs": { "type": "name", "properties": { "name": "urn:ogc:def:crs:OGC:1.3:CRS84" } },
"features": [
{ "type": "Feature", "properties": { "osm_id": 5842116916, "name": null, "amenity": "bench", "man_made": null, "leisure": null, "playground": null, "memorial": null }, "geometry": { "type": "Point", "coordinates": [ 0.2782677, 51.5064538 ] } },
{ "type": "Feature", "properties": { "osm_id": 5842116917, "name": null, "amenity": "bench", "man_made": null, "leisure": null, "playground": null, "memorial": null }, "geometry": { "type": "Point", "coordinates": [ 0.2776844, 51.5064571 ] } },
{ "type": "Feature", "properties": { "osm_id": 5842116914, "name": null, "amenity": "bench", "man_made": null, "leisure": null, "playground": null, "memorial": null }, "geometry": { "type": "Point", "coordinates": [ 0.2776884, 51.5067835 ] } },
{ "type": "Feature", "properties": { "osm_id": 5842116915, "name": null, "amenity": "bench", "man_made": null, "leisure": null, "playground": null, "memorial": null }, "geometry": { "type": "Point", "coordinates": [ 0.278261, 51.5067843 ] } }
]
}
