{
"type": "FeatureCollection",
"name": "BASIL_71_toilets",
"crs": { "type": "name", "properties": { "name": "urn:ogc:def:crs:OGC:1.3:CRS84" } },
"features": [
{ "type": "Feature", "properties": { "name": "Northlands park ", "payment_info": "Free", "accessible": "True", "radar": "True", "women": "True", "men": "True", "baby_change": "True", "Mon": "Unknown", "Tue": "Unknown", "Wed": "Unknown", "Thu": "Unknown", "Fri": "Unknown", "Sat": "Unknown", "Sun": "Unknown", "index_right": 90, "park_offical_id": "BASIL_71" }, "geometry": { "type": "Point", "coordinates": [ 0.496916771, 51.578916413 ] } }
]
}
