{
"type": "FeatureCollection",
"name": "MALDO_0_cycling",
"crs": { "type": "name", "properties": { "name": "urn:ogc:def:crs:OGC:1.3:CRS84" } },
"features": [
{"type":"Feature","properties":{"highway":"track","name":null,"category":"Track"},"geometry":{"type":"MultiLineString","coordinates":[[[0.8145179,51.6372263],[0.8146059,51.6373114],[0.8146195,51.6373669],[0.8146469,51.6375608],[0.8146458,51.6378387],[0.8146454,51.6379537],[0.8146427,51.6381368],[0.8146534,51.6382117],[0.8145408,51.6382333],[0.8144227,51.6382783]]]}},
{"type":"Feature","properties":{"highway":"track","name":null,"category":"Track"},"geometry":{"type":"MultiLineString","coordinates":[[[0.8146534,51.6382117],[0.814868,51.6382333],[0.8149672,51.6382367]]]}},
{"type":"Feature","properties":{"highway":"track","name":null,"category":"Track"},"geometry":{"type":"MultiLineString","coordinates":[[[0.8179028,51.6400488],[0.817841,51.6400408],[0.8177885,51.6400088],[0.8177964,51.6393451]]]}},
{"type":"Feature","properties":{"highway":"path","name":null,"category":"Shared path"},"geometry":{"type":"MultiLineString","coordinates":[[[0.812348,51.6331611],[0.8122763,51.6332806]]]}}
]
}
