{
"type": "FeatureCollection",
"name": "IPSWI_27_cycling",
"crs": { "type": "name", "properties": { "name": "urn:ogc:def:crs:OGC:1.3:CRS84" } },
"features": [
{"type":"Feature","properties":{"highway":"cycleway","name":"Corporation Avenue","category":"Dedicated cycleway"},"geometry":{"type":"MultiLineString","coordinates":[[[1.1365691,52.0339348],[1.1367544,52.0339394],[1.1372088,52.0339506],[1.1379497,52.0339796],[1.1385411,52.0340155],[1.1391928,52.0340527],[1.1397014,52.0340725],[1.1400696,52.0340859],[1.1411353,52.0341709],[1.141702,52.0342118],[1.1427567,52.034342],[1.1432302,52.0344092],[1.1436225,52.0344607],[1.1439699,52.0345078],[1.1449929,52.0346091],[1.1460472,52.034682],[1.1465051,52.034723]]]}},
{"type":"Feature","properties":{"highway":"cycleway","name":null,"category":"Dedicated cycleway"},"geometry":{"type":"MultiLineString","coordinates":[[[1.1237176,52.0344195],[1.1235285,52.0342014],[1.1235106,52.0340792],[1.1235329,52.0340604],[1.1236142,52.0339919]]]}},
{"type":"Feature","properties":{"highway":"cycleway","name":null,"category":"Dedicated cycleway"},"geometry":{"type":"MultiLineString","coordinates":[[[1.1177096,52.0351921],[1.1177565,52.0352576],[1.1178967,52.0352601],[1.1180695,52.0352607],[1.1182917,52.0352971],[1.1186064,52.0353394],[1.1189977,52.0354002],[1.1196369,52.0354611],[1.1200992,52.0354496],[1.1207197,52.0354529],[1.1209013,52.0354499],[1.1213317,52.0354488],[1.121548,52.035441],[1.1218845,52.0353668],[1.122196,52.0352477],[1.1226408,52.0350396],[1.1230605,52.0348147],[1.1237176,52.0344195]]]}},
{"type":"Feature","properties":{"highway":"track","name":"Stone Lodge Walk","category":"Track"},"geometry":{"type":"MultiLineString","coordinates":[[[1.1408007,52.046762],[1.1411918,52.0467654],[1.1415517,52.0467686],[1.141777,52.0467785],[1.1421686,52.0467917],[1.142528,52.0468345],[1.1427479,52.0468906],[1.142866,52.0468873],[1.14297,52.0468283]]]}},
{"type":"Feature","properties":{"highway":"cycleway","name":null,"category":"Dedicated cycleway"},"geometry":{"type":"MultiLineString","coordinates":[[[1.1253158,52.0414273],[1.1253571,52.0414001],[1.1254802,52.0413309]]]}},
{"type":"Feature","properties":{"highway":"path","name":null,"category":"Shared path"},"geometry":{"type":"MultiLineString","coordinates":[[[1.1272789,52.0353983],[1.1272801,52.0354013],[1.1273787,52.035359],[1.1275266,52.0353369],[1.1276129,52.0353255],[1.1277217,52.0352983]]]}},
{"type":"Feature","properties":{"highway":"cycle_lane_on_street","name":"Stoke Park Drive","category":"Cycle lane on street"},"geometry":{"type":"MultiLineString","coordinates":[[[1.1252653,52.0344836],[1.1255889,52.0344656],[1.1257086,52.0344298],[1.1259,52.0343705],[1.1262285,52.0342124],[1.1266681,52.0338889],[1.1269735,52.0334631],[1.1272022,52.0331983],[1.1273907,52.0330185],[1.1275725,52.0328672],[1.1279488,52.0325905],[1.1280367,52.0325305],[1.1285106,52.0322218],[1.128703,52.0320907],[1.1294023,52.0316393],[1.1297869,52.0315195],[1.1299197,52.0314643],[1.1299698,52.0314577],[1.130411,52.0313891],[1.1306794,52.0313658],[1.1314372,52.0313997],[1.1318385,52.0314726],[1.132215,52.0315946],[1.132879,52.0318373],[1.1332908,52.0320741],[1.1335832,52.0322746],[1.133846,52.0325543],[1.1339971,52.0328653],[1.1340084,52.0328885],[1.1340835,52.0331269],[1.1341103,52.0334751],[1.1341698,52.0336844],[1.1342624,52.033877],[1.1343297,52.0339825],[1.1344082,52.034081],[1.134492,52.0341574]]]}},
{"type":"Feature","properties":{"highway":"cycle_lane_on_street","name":"Stoke Park Drive","category":"Cycle lane on street"},"geometry":{"type":"MultiLineString","coordinates":[[[1.134492,52.0341574],[1.1347958,52.0344033],[1.1349933,52.0345583],[1.1352144,52.0347317],[1.1354066,52.0348841],[1.1355206,52.0349676],[1.1357406,52.0351545],[1.135892,52.0353025],[1.1359706,52.0354089],[1.1360068,52.0354691],[1.1360283,52.0355161],[1.136061,52.0355851],[1.1360947,52.0356782],[1.1361236,52.0357917],[1.1361223,52.0359262],[1.136107,52.0361137],[1.1360575,52.0364732],[1.1359464,52.0371497],[1.1359121,52.0372809],[1.1358537,52.037482],[1.1357711,52.0376643]]]}},
{"type":"Feature","properties":{"highway":"cycle_lane_on_street","name":"Stoke Park Drive","category":"Cycle lane on street"},"geometry":{"type":"MultiLineString","coordinates":[[[1.1357711,52.0376643],[1.1356772,52.0378487],[1.135637,52.0379362],[1.1355673,52.0381078],[1.1355378,52.0383008]]]}}
]
}
