{
"type": "FeatureCollection",
"name": "CHELM_187_cycling",
"crs": { "type": "name", "properties": { "name": "urn:ogc:def:crs:OGC:1.3:CRS84" } },
"features": [
{"type":"Feature","properties":{"highway":"bridleway","name":null,"category":"Bridleway"},"geometry":{"type":"MultiLineString","coordinates":[[[0.4282712,51.7859154],[0.428208,51.7859063],[0.4281989,51.7859038],[0.428106,51.7858781],[0.4279552,51.7858353],[0.4277348,51.7857554],[0.4275661,51.7856799],[0.4272932,51.7855769],[0.4271653,51.7854981],[0.4269703,51.7853652],[0.4268904,51.7853579],[0.4266886,51.7853571],[0.4263742,51.7853869],[0.426099,51.7854063],[0.4258172,51.7853961],[0.4255805,51.7853644],[0.4253186,51.7853258],[0.4250845,51.7852764],[0.42486,51.7852513],[0.4244097,51.7852305],[0.4239217,51.785236],[0.4231693,51.7842254],[0.4228782,51.7838889],[0.4225682,51.7835889],[0.4223869,51.7834193],[0.4226558,51.7831167],[0.4228725,51.7829122],[0.4231414,51.7827313],[0.4235233,51.7825164],[0.4238535,51.7823378]]]}},
{"type":"Feature","properties":{"highway":"track","name":"Green Lane","category":"Track"},"geometry":{"type":"MultiLineString","coordinates":[[[0.439154,51.7859129],[0.4385199,51.7858391],[0.4383595,51.7858229],[0.4381282,51.7858081],[0.4378036,51.7858105],[0.4374845,51.7858438],[0.4371037,51.7859375],[0.4370666,51.7859454],[0.4368334,51.7859952],[0.4363607,51.7860723],[0.4360897,51.7860972],[0.4358513,51.7861094],[0.435568,51.7860899],[0.4353479,51.786046],[0.4350007,51.7859817],[0.4346148,51.7858973],[0.4341981,51.7858031],[0.4337484,51.785675],[0.4335266,51.785604],[0.432947,51.7854211],[0.4324974,51.7852633],[0.4323842,51.7852174],[0.4321803,51.7852105],[0.432007,51.7852555],[0.4318409,51.7853547],[0.4317805,51.7853908],[0.4316641,51.785444],[0.4312304,51.7855715],[0.4309244,51.7856499],[0.4305102,51.7857177],[0.4301863,51.7857941],[0.4297905,51.7859007],[0.429532,51.7859587],[0.4292119,51.786034],[0.4290779,51.7860481],[0.4288911,51.7860392],[0.4286179,51.7860197],[0.4284354,51.7859528],[0.4282712,51.7859154]]]}},
{"type":"Feature","properties":{"highway":"track","name":null,"category":"Track"},"geometry":{"type":"MultiLineString","coordinates":[[[0.4282712,51.7859154],[0.4280592,51.7861873],[0.4281022,51.7869174],[0.4286171,51.7870767],[0.4291107,51.7874085],[0.4293896,51.7877536],[0.4295613,51.7880323],[0.4294969,51.7886296],[0.4286386,51.7888287],[0.4286815,51.7907665],[0.4285742,51.7909258],[0.4278337,51.7909949],[0.4277817,51.7911183],[0.4276529,51.7919677],[0.4281035,51.7920142],[0.4280928,51.7923394],[0.4280764,51.7924076]]]}},
{"type":"Feature","properties":{"highway":"bridleway","name":null,"category":"Bridleway"},"geometry":{"type":"MultiLineString","coordinates":[[[0.4338853,51.7837625],[0.4333164,51.7839839],[0.4322649,51.7841431],[0.4313423,51.7843821],[0.430484,51.7845148],[0.4297758,51.7845546],[0.4290034,51.7846608],[0.4287459,51.7847803],[0.4285528,51.7850325],[0.4285098,51.7853245],[0.4283838,51.7856979],[0.4282712,51.7859154]]]}}
]
}
