{
"type": "FeatureCollection",
"name": "EASCA_117_walking",
"crs": { "type": "name", "properties": { "name": "urn:ogc:def:crs:OGC:1.3:CRS84" } },
"features": [
{"type":"Feature","properties":{"highway":"footway","name":null,"category":"Footpath (pedestrian only)"},"geometry":{"type":"MultiLineString","coordinates":[[[0.2651478,52.2217576],[0.2650231,52.2215011],[0.2647927,52.2210985]]]}},
{"type":"Feature","properties":{"highway":"footway","name":null,"category":"Footpath (pedestrian only)"},"geometry":{"type":"MultiLineString","coordinates":[[[0.2641474,52.2221427],[0.2641554,52.2222368],[0.2643935,52.2224477],[0.2644793,52.2225119],[0.2644933,52.2225342],[0.2645558,52.2225892],[0.2647924,52.2227974]]]}},
{"type":"Feature","properties":{"highway":"footway","name":null,"category":"Footpath (pedestrian only)"},"geometry":{"type":"MultiLineString","coordinates":[[[0.2641474,52.2221427],[0.2640748,52.2222541],[0.2633854,52.2225465],[0.2631183,52.222735],[0.2629881,52.222784],[0.2627067,52.2229119],[0.2626292,52.2229667]]]}},
{"type":"Feature","properties":{"highway":"footway","name":null,"category":"Footpath (pedestrian only)"},"geometry":{"type":"MultiLineString","coordinates":[[[0.2643323,52.2225837],[0.2642948,52.2225278],[0.2643256,52.2225081],[0.2643935,52.2224477],[0.2647922,52.2222746],[0.2649183,52.222182],[0.2650096,52.2221373],[0.2651319,52.2220847],[0.2654018,52.2219963],[0.2654769,52.221998],[0.2658531,52.2218456]]]}},
{"type":"Feature","properties":{"highway":"footway","name":null,"category":"Footpath (pedestrian only)"},"geometry":{"type":"MultiLineString","coordinates":[[[0.2644933,52.2225342],[0.2652556,52.22221],[0.2651319,52.2220847]]]}},
{"type":"Feature","properties":{"highway":"footway","name":null,"category":"Footpath (pedestrian only)"},"geometry":{"type":"MultiLineString","coordinates":[[[0.2622511,52.2227993],[0.2621729,52.2227622],[0.262125,52.2226816],[0.262051,52.2217407],[0.2620645,52.2216239],[0.262098,52.2215323],[0.2621992,52.2214554]]]}},
{"type":"Feature","properties":{"highway":"footway","name":null,"category":"Footpath (pedestrian only)"},"geometry":{"type":"MultiLineString","coordinates":[[[0.2638723,52.2216171],[0.2638558,52.2215618],[0.2637732,52.2214254],[0.2637195,52.2213443],[0.2638718,52.2213109]]]}},
{"type":"Feature","properties":{"highway":"footway","name":null,"category":"Footpath (pedestrian only)"},"geometry":{"type":"MultiLineString","coordinates":[[[0.2627595,52.2214192],[0.2631322,52.2216951],[0.263455,52.2217163],[0.2636366,52.2217128]]]}},
{"type":"Feature","properties":{"highway":"footway","name":null,"category":"Footpath (pedestrian only)"},"geometry":{"type":"MultiLineString","coordinates":[[[0.2623424,52.2214266],[0.2623503,52.2213813],[0.2624917,52.2213507],[0.2626086,52.2213615],[0.2626392,52.221366],[0.2627595,52.2214192],[0.2638213,52.221134],[0.2639182,52.221126]]]}},
{"type":"Feature","properties":{"highway":"footway","name":null,"category":"Footpath (pedestrian only)"},"geometry":{"type":"MultiLineString","coordinates":[[[0.2636366,52.2217128],[0.2637309,52.2217005],[0.2638723,52.2216171],[0.2639304,52.221612],[0.2640705,52.2215774],[0.2641804,52.2215588],[0.2642941,52.2215487],[0.264463,52.2215559],[0.2645476,52.2215737],[0.2646173,52.2215734],[0.2646971,52.2215736],[0.2650231,52.2215011]]]}},
{"type":"Feature","properties":{"highway":"footway","name":null,"category":"Footpath (pedestrian only)"},"geometry":{"type":"MultiLineString","coordinates":[[[0.2632373,52.2223463],[0.2632369,52.222391],[0.2633854,52.2225465]]]}},
{"type":"Feature","properties":{"highway":"track","name":null,"category":"Track"},"geometry":{"type":"MultiLineString","coordinates":[[[0.2618801,52.2169514],[0.2618694,52.2171716],[0.2619123,52.2173392],[0.2619351,52.2175154],[0.261956,52.2176661]]]}},
{"type":"Feature","properties":{"highway":"footway","name":null,"category":"Footpath (pedestrian only)"},"geometry":{"type":"MultiLineString","coordinates":[[[0.2613948,52.2116137],[0.2588741,52.2126179]]]}},
{"type":"Feature","properties":{"highway":"footway","name":null,"category":"Footpath (pedestrian only)"},"geometry":{"type":"MultiLineString","coordinates":[[[0.2606085,52.2208883],[0.2609251,52.220843],[0.2611506,52.2208108],[0.2611483,52.2208342]]]}},
{"type":"Feature","properties":{"highway":"footway","name":null,"category":"Footpath (pedestrian only)"},"geometry":{"type":"MultiLineString","coordinates":[[[0.2609251,52.220843],[0.2608814,52.2208897],[0.2608586,52.2209283],[0.2608623,52.2209677],[0.260906,52.22102]]]}},
{"type":"Feature","properties":{"highway":"footway","name":null,"category":"Footpath (pedestrian only)"},"geometry":{"type":"MultiLineString","coordinates":[[[0.2606085,52.2208883],[0.260906,52.22102],[0.2610247,52.2210424],[0.2612324,52.2210803],[0.2614199,52.2211064],[0.2615864,52.2211378],[0.2618344,52.2211787],[0.2619393,52.2211875],[0.2619831,52.2212143]]]}},
{"type":"Feature","properties":{"highway":"footway","name":null,"category":"Footpath (pedestrian only)"},"geometry":{"type":"MultiLineString","coordinates":[[[0.2606085,52.2208883],[0.2606762,52.2209036],[0.260826,52.2209241],[0.2608586,52.2209283],[0.2608829,52.2209357]]]}},
{"type":"Feature","properties":{"highway":"track","name":null,"category":"Track"},"geometry":{"type":"MultiLineString","coordinates":[[[0.2622597,52.2187526],[0.2623754,52.2189482],[0.2624572,52.2190074],[0.2625256,52.2190312],[0.2625723,52.2190467]]]}},
{"type":"Feature","properties":{"highway":"footway","name":null,"category":"Footpath (pedestrian only)"},"geometry":{"type":"MultiLineString","coordinates":[[[0.2609073,52.2202995],[0.2608465,52.2201985],[0.2607531,52.2200478],[0.2606949,52.2199671],[0.2606522,52.2198572],[0.2605018,52.2194933]]]}},
{"type":"Feature","properties":{"highway":"track","name":null,"category":"Track"},"geometry":{"type":"MultiLineString","coordinates":[[[0.255139,52.2214803],[0.2564497,52.2214639],[0.2564996,52.2214532],[0.2565211,52.2214236],[0.2565198,52.2213784]]]}},
{"type":"Feature","properties":{"highway":"footway","name":null,"category":"Footpath (pedestrian only)"},"geometry":{"type":"MultiLineString","coordinates":[[[0.2645558,52.2225892],[0.2644148,52.2226391],[0.2643323,52.2225837],[0.2642635,52.2226324]]]}},
{"type":"Feature","properties":{"highway":"footway","name":null,"category":"Footpath (pedestrian only)"},"geometry":{"type":"MultiLineString","coordinates":[[[0.2620746,52.2228694],[0.2619967,52.2228802],[0.2622811,52.2231217],[0.2626188,52.2229628]]]}},
{"type":"Feature","properties":{"highway":"footway","name":null,"category":"Footpath (pedestrian only)"},"geometry":{"type":"MultiLineString","coordinates":[[[0.2616115,52.2229325],[0.2619096,52.2231974]]]}},
{"type":"Feature","properties":{"highway":"footway","name":null,"category":"Footpath (pedestrian only)"},"geometry":{"type":"MultiLineString","coordinates":[[[0.2619967,52.2228802],[0.2619043,52.2228055],[0.2616115,52.2229325],[0.2611995,52.2231112]]]}},
{"type":"Feature","properties":{"highway":"footway","name":null,"category":"Footpath (pedestrian only)"},"geometry":{"type":"MultiLineString","coordinates":[[[0.2629429,52.2227428],[0.2629852,52.2226679],[0.2627452,52.2224473]]]}},
{"type":"Feature","properties":{"highway":"footway","name":null,"category":"Footpath (pedestrian only)"},"geometry":{"type":"MultiLineString","coordinates":[[[0.2629881,52.222784],[0.2629429,52.2227428],[0.2626472,52.2224843]]]}},
{"type":"Feature","properties":{"highway":"footway","name":null,"category":"Footpath (pedestrian only)"},"geometry":{"type":"MultiLineString","coordinates":[[[0.2616343,52.2219004],[0.2618016,52.2215481]]]}},
{"type":"Feature","properties":{"highway":"footway","name":null,"category":"Footpath (pedestrian only)"},"geometry":{"type":"MultiLineString","coordinates":[[[0.261124,52.2218103],[0.2616343,52.2219004],[0.2617353,52.2219182]]]}},
{"type":"Feature","properties":{"highway":"footway","name":null,"category":"Footpath (pedestrian only)"},"geometry":{"type":"MultiLineString","coordinates":[[[0.2582393,52.2244074],[0.2585234,52.2245989]]]}},
{"type":"Feature","properties":{"highway":"footway","name":null,"category":"Footpath (pedestrian only)"},"geometry":{"type":"MultiLineString","coordinates":[[[0.2584956,52.2242485],[0.2585555,52.2242752],[0.2586722,52.2243418],[0.2585233,52.2245288],[0.2585153,52.2245603],[0.2585234,52.2245989],[0.2585555,52.2246627],[0.258632,52.2247295]]]}},
{"type":"Feature","properties":{"highway":"track","name":null,"category":"Track"},"geometry":{"type":"MultiLineString","coordinates":[[[0.2625146,52.2124969],[0.2626016,52.2124568],[0.2626929,52.2124186],[0.2627947,52.2124354],[0.2628726,52.212509],[0.2629316,52.2125895],[0.2630148,52.2127062],[0.2630872,52.2127966],[0.2633742,52.2130365],[0.2636986,52.2132555],[0.2639375,52.2134014],[0.2640983,52.2135135],[0.264219,52.2135793],[0.2643745,52.2135973],[0.2645006,52.2135908],[0.2660016,52.2133258],[0.2677018,52.2130685],[0.269374,52.2128474],[0.2710774,52.2126721],[0.2712356,52.2126277]]]}},
{"type":"Feature","properties":{"highway":"footway","name":null,"category":"Footpath (pedestrian only)"},"geometry":{"type":"MultiLineString","coordinates":[[[0.257322,52.2259487],[0.2575028,52.2259035],[0.2577918,52.2258439],[0.2580942,52.2258114],[0.2581824,52.2258356]]]}},
{"type":"Feature","properties":{"highway":"footway","name":null,"category":"Footpath (pedestrian only)"},"geometry":{"type":"MultiLineString","coordinates":[[[0.2581824,52.2258356],[0.2581995,52.2257697],[0.2581737,52.2254815],[0.2581655,52.2252442],[0.2584097,52.2249569],[0.258632,52.2247295]]]}},
{"type":"Feature","properties":{"highway":"footway","name":null,"category":"Footpath (pedestrian only)"},"geometry":{"type":"MultiLineString","coordinates":[[[0.2597493,52.2265112],[0.2598827,52.2264293]]]}},
{"type":"Feature","properties":{"highway":"footway","name":null,"category":"Footpath (pedestrian only)"},"geometry":{"type":"MultiLineString","coordinates":[[[0.2601206,52.2191423],[0.2590453,52.219224],[0.2589952,52.2195861],[0.2589784,52.2196623],[0.2589677,52.2197434]]]}},
{"type":"Feature","properties":{"highway":"footway","name":null,"category":"Footpath (pedestrian only)"},"geometry":{"type":"MultiLineString","coordinates":[[[0.2609717,52.2202482],[0.2617789,52.2205888],[0.261833,52.2207083],[0.2620209,52.2211228],[0.2619831,52.2212143],[0.2620845,52.2212905],[0.2621992,52.2214554]]]}},
{"type":"Feature","properties":{"highway":"footway","name":null,"category":"Footpath (pedestrian only)"},"geometry":{"type":"MultiLineString","coordinates":[[[0.2617789,52.2205888],[0.2618568,52.2205443],[0.262124,52.2204673],[0.2618145,52.2199194]]]}},
{"type":"Feature","properties":{"highway":"footway","name":null,"category":"Footpath (pedestrian only)"},"geometry":{"type":"MultiLineString","coordinates":[[[0.2659648,52.2191619],[0.2662654,52.2196654],[0.2670219,52.2206067]]]}},
{"type":"Feature","properties":{"highway":"footway","name":null,"category":"Footpath (pedestrian only)"},"geometry":{"type":"MultiLineString","coordinates":[[[0.2632149,52.2234403],[0.2632294,52.2235017],[0.2631463,52.223537],[0.2634248,52.2237577],[0.263101,52.2238976],[0.2647096,52.2256374],[0.2647078,52.2256645],[0.264778,52.2257315],[0.2651703,52.2261058]]]}},
{"type":"Feature","properties":{"highway":"footway","name":null,"category":"Footpath (pedestrian only)"},"geometry":{"type":"MultiLineString","coordinates":[[[0.263101,52.2238976],[0.2629072,52.2239862],[0.2622136,52.2242835],[0.2623901,52.2244544],[0.2623834,52.2245107],[0.2626013,52.2247026]]]}},
{"type":"Feature","properties":{"highway":"footway","name":null,"category":"Footpath (pedestrian only)"},"geometry":{"type":"MultiLineString","coordinates":[[[0.2517416,52.2185445],[0.2519548,52.2183373],[0.2540269,52.2180176],[0.2565418,52.2179739],[0.2583766,52.2179158],[0.2600123,52.2178471],[0.262019,52.2178168],[0.2640391,52.2176353],[0.2650365,52.2175207],[0.2656698,52.217448],[0.2674921,52.2171759],[0.268191,52.2171079],[0.2683483,52.2171052],[0.2685393,52.217152],[0.2686993,52.217259]]]}},
{"type":"Feature","properties":{"highway":"footway","name":null,"category":"Footpath (pedestrian only)"},"geometry":{"type":"MultiLineString","coordinates":[[[0.2638213,52.221134],[0.2636967,52.2209247]]]}},
{"type":"Feature","properties":{"highway":"footway","name":null,"category":"Footpath (pedestrian only)"},"geometry":{"type":"MultiLineString","coordinates":[[[0.2589677,52.2197434],[0.2589625,52.2197776],[0.258958,52.2198105],[0.2589724,52.2198409],[0.2589969,52.219893],[0.2590234,52.219949],[0.2589711,52.2199506],[0.258816,52.2199772],[0.2587227,52.2200367],[0.2587017,52.2201721]]]}},
{"type":"Feature","properties":{"highway":"footway","name":null,"category":"Footpath (pedestrian only)"},"geometry":{"type":"MultiLineString","coordinates":[[[0.2581824,52.2258356],[0.2587337,52.2260229],[0.2589393,52.2260769],[0.2591697,52.2261594],[0.2597493,52.2265112],[0.2602034,52.2267904],[0.2586523,52.2287041],[0.2588545,52.2297902],[0.2591324,52.2301744],[0.2594266,52.2307257],[0.2595484,52.2308914],[0.2595117,52.2312446],[0.2587653,52.2332079]]]}},
{"type":"Feature","properties":{"highway":"footway","name":null,"category":"Footpath (pedestrian only)"},"geometry":{"type":"MultiLineString","coordinates":[[[0.2581995,52.2257697],[0.2582782,52.2257277]]]}},
{"type":"Feature","properties":{"highway":"footway","name":null,"category":"Footpath (pedestrian only)"},"geometry":{"type":"MultiLineString","coordinates":[[[0.2670219,52.2206067],[0.2665636,52.2207598]]]}},
{"type":"Feature","properties":{"highway":"footway","name":null,"category":"Footpath (pedestrian only)"},"geometry":{"type":"MultiLineString","coordinates":[[[0.2574547,52.2131189],[0.2566384,52.2134269],[0.2550507,52.2132228],[0.2529453,52.2129132],[0.2517769,52.2127294],[0.250964,52.2126385],[0.2498453,52.2124564]]]}},
{"type":"Feature","properties":{"highway":"footway","name":null,"category":"Footpath (pedestrian only)"},"geometry":{"type":"MultiLineString","coordinates":[[[0.2588741,52.2126179],[0.2574547,52.2131189]]]}},
{"type":"Feature","properties":{"highway":"footway","name":null,"category":"Footpath (pedestrian only)"},"geometry":{"type":"MultiLineString","coordinates":[[[0.2574547,52.2131189],[0.2529451,52.2105729]]]}},
{"type":"Feature","properties":{"highway":"footway","name":null,"category":"Footpath (pedestrian only)"},"geometry":{"type":"MultiLineString","coordinates":[[[0.2650365,52.2175207],[0.2650396,52.2174339]]]}},
{"type":"Feature","properties":{"highway":"footway","name":null,"category":"Footpath (pedestrian only)"},"geometry":{"type":"MultiLineString","coordinates":[[[0.2601206,52.2191423],[0.2600514,52.2186219],[0.2600446,52.2182769],[0.2600156,52.2178909],[0.2600123,52.2178471]]]}},
{"type":"Feature","properties":{"highway":"footway","name":null,"category":"Footpath (pedestrian only)"},"geometry":{"type":"MultiLineString","coordinates":[[[0.2605018,52.2194933],[0.2604918,52.2194691]]]}},
{"type":"Feature","properties":{"highway":"footway","name":null,"category":"Footpath (pedestrian only)"},"geometry":{"type":"MultiLineString","coordinates":[[[0.2604918,52.2194691],[0.2604836,52.2194492],[0.2604106,52.2194536],[0.2602934,52.2194603],[0.2602111,52.2194553],[0.2601133,52.2193088],[0.2601206,52.2191423]]]}},
{"type":"Feature","properties":{"highway":"footway","name":null,"category":"Footpath (pedestrian only)"},"geometry":{"type":"MultiLineString","coordinates":[[[0.2611506,52.2208108],[0.2617951,52.2207148],[0.261833,52.2207083]]]}},
{"type":"Feature","properties":{"highway":"track","name":null,"category":"Track"},"geometry":{"type":"MultiLineString","coordinates":[[[0.2626348,52.2260942],[0.2631482,52.2259848],[0.2631837,52.2259801],[0.2632243,52.2259796],[0.2632682,52.2259848],[0.2633414,52.2259939],[0.2636177,52.2260104],[0.2641219,52.2259545],[0.264778,52.2257315],[0.2653933,52.2255421],[0.2664018,52.2251198],[0.2674881,52.2246138],[0.2685341,52.224065],[0.2686602,52.2239434],[0.268797,52.2237857],[0.2689606,52.2236493],[0.2700013,52.2232451],[0.2715302,52.2228229],[0.2725145,52.2226635],[0.2735311,52.222486],[0.2735552,52.2224285]]]}},
{"type":"Feature","properties":{"highway":"footway","name":null,"category":"Footpath (pedestrian only)"},"geometry":{"type":"MultiLineString","coordinates":[[[0.2632294,52.2235017],[0.2640135,52.2232066],[0.2648613,52.2228778],[0.2652331,52.2227221],[0.2653582,52.2226524],[0.26562,52.2224665],[0.2656101,52.2224255]]]}},
{"type":"Feature","properties":{"highway":"footway","name":null,"category":"Footpath (pedestrian only)"},"geometry":{"type":"MultiLineString","coordinates":[[[0.265225,52.2210037],[0.2655117,52.2216865]]]}},
{"type":"Feature","properties":{"highway":"path","name":null,"category":"Shared path"},"geometry":{"type":"MultiLineString","coordinates":[[[0.2576935,52.2193997],[0.2575467,52.2194127]]]}},
{"type":"Feature","properties":{"highway":"path","name":null,"category":"Shared path"},"geometry":{"type":"MultiLineString","coordinates":[[[0.2577695,52.2201295],[0.2577442,52.2198199],[0.2577415,52.2196227],[0.2577135,52.2194476],[0.2576935,52.2193997],[0.2576807,52.2193586],[0.2576625,52.2192714],[0.257621,52.2191925],[0.2575713,52.2191457],[0.2575082,52.2190966],[0.2574519,52.2190797]]]}}
]
}
