{
"type": "FeatureCollection",
"name": "EASCA_7_walking",
"crs": { "type": "name", "properties": { "name": "urn:ogc:def:crs:OGC:1.3:CRS84" } },
"features": [
{"type":"Feature","properties":{"highway":"footway","name":null,"category":"Footpath (pedestrian only)"},"geometry":{"type":"MultiLineString","coordinates":[[[0.249678,52.3928861],[0.2495823,52.3928038]]]}},
{"type":"Feature","properties":{"highway":"footway","name":null,"category":"Footpath (pedestrian only)"},"geometry":{"type":"MultiLineString","coordinates":[[[0.2504693,52.3922067],[0.2503073,52.3922989],[0.2502943,52.3924463],[0.250257,52.3924816],[0.249738,52.3927515],[0.2496701,52.3927712],[0.2495823,52.3928038],[0.2495103,52.3928713],[0.248694,52.393309],[0.2485355,52.3934872]]]}},
{"type":"Feature","properties":{"highway":"footway","name":null,"category":"Footpath (pedestrian only)"},"geometry":{"type":"MultiLineString","coordinates":[[[0.248694,52.393309],[0.2489137,52.3934224],[0.2490332,52.3934213]]]}},
{"type":"Feature","properties":{"highway":"footway","name":null,"category":"Footpath (pedestrian only)"},"geometry":{"type":"MultiLineString","coordinates":[[[0.2438553,52.3922508],[0.2437928,52.3922793],[0.2435955,52.3923484],[0.2433947,52.3924164],[0.2432451,52.3924665],[0.2428416,52.3927059],[0.2424448,52.3930009],[0.2421412,52.3932814],[0.2418995,52.3935106],[0.2418647,52.3935911],[0.2418861,52.3936718],[0.241929,52.3937509],[0.2420953,52.3940172],[0.2421115,52.3940901],[0.2421097,52.3942086],[0.242125,52.3942764],[0.2421633,52.3943475],[0.242203,52.3943999],[0.2422813,52.3944695],[0.2422883,52.3945611],[0.242205,52.3946529],[0.2418003,52.3948506],[0.2417512,52.3949378],[0.2416633,52.395033],[0.2416022,52.3951715]]]}},
{"type":"Feature","properties":{"highway":"footway","name":null,"category":"Footpath (pedestrian only)"},"geometry":{"type":"MultiLineString","coordinates":[[[0.2423992,52.3945154],[0.242329,52.3944972],[0.2422813,52.3944695]]]}},
{"type":"Feature","properties":{"highway":"footway","name":null,"category":"Footpath (pedestrian only)"},"geometry":{"type":"MultiLineString","coordinates":[[[0.2429523,52.3927586],[0.2428416,52.3927059]]]}},
{"type":"Feature","properties":{"highway":"footway","name":null,"category":"Footpath (pedestrian only)"},"geometry":{"type":"MultiLineString","coordinates":[[[0.2447612,52.3961256],[0.245244,52.3953663],[0.2452932,52.3950462],[0.2451236,52.3946427],[0.2451009,52.3945888],[0.2456806,52.3945482]]]}},
{"type":"Feature","properties":{"highway":"footway","name":null,"category":"Footpath (pedestrian only)"},"geometry":{"type":"MultiLineString","coordinates":[[[0.2477595,52.3966802],[0.2482388,52.396545],[0.249071,52.3963469],[0.2500509,52.3961082]]]}},
{"type":"Feature","properties":{"highway":"footway","name":null,"category":"Footpath (pedestrian only)"},"geometry":{"type":"MultiLineString","coordinates":[[[0.246121,52.4040216],[0.2460701,52.4040623],[0.2460548,52.404115],[0.2460187,52.404189],[0.2460079,52.4042538],[0.2460244,52.4043658],[0.245901,52.4044336],[0.245848,52.4044801],[0.2457729,52.4045607],[0.2457085,52.4046463],[0.2456714,52.4047139],[0.2456503,52.4048067],[0.2456432,52.4048754],[0.2456596,52.4049117],[0.2457573,52.4049929]]]}},
{"type":"Feature","properties":{"highway":"footway","name":null,"category":"Footpath (pedestrian only)"},"geometry":{"type":"MultiLineString","coordinates":[[[0.2456714,52.4047139],[0.2456323,52.4046992],[0.2453125,52.4043669],[0.2451297,52.4041716],[0.2449636,52.4040409],[0.2448837,52.4039434],[0.2447959,52.4038286],[0.2447427,52.4037547],[0.2446968,52.4036657],[0.2446894,52.4036126],[0.2447567,52.403499],[0.2447672,52.4033269],[0.2446879,52.4032334],[0.2446002,52.4031806],[0.244488,52.4031105],[0.2443837,52.4030348],[0.2443041,52.4029515],[0.2442114,52.4028271],[0.2441664,52.402741],[0.244118,52.4026714],[0.2440061,52.4025968],[0.243892,52.4025402],[0.2437653,52.4024837],[0.2436294,52.4024392],[0.2435459,52.4024118],[0.2434807,52.4023747],[0.2434119,52.4023353],[0.2433493,52.4022749],[0.2433042,52.4021942],[0.2432181,52.4020569],[0.2432497,52.4019918],[0.2432095,52.40194],[0.243146,52.4018678],[0.2430467,52.4017687],[0.2429459,52.4016881],[0.242852,52.4016255],[0.2427426,52.4015824],[0.2426593,52.4015401],[0.242593,52.4014934],[0.2425288,52.401432],[0.2424812,52.4013671],[0.242447,52.4012445],[0.2424301,52.401129],[0.2423933,52.401034],[0.2423382,52.4009431],[0.2422946,52.4008638],[0.2422485,52.4007729],[0.2422549,52.4006779],[0.2422272,52.4006167],[0.2421553,52.4005488],[0.2418405,52.4003222],[0.2417089,52.4002139],[0.2417171,52.400139],[0.2416349,52.3999949],[0.2416125,52.3999422],[0.2416447,52.3998748],[0.2417493,52.399707],[0.2416367,52.3995005],[0.241583,52.3992429],[0.2415294,52.3990504],[0.2414918,52.3988872],[0.2414757,52.3987898],[0.2414355,52.3986953],[0.2414301,52.3986422],[0.241457,52.3985955]]]}},
{"type":"Feature","properties":{"highway":"footway","name":null,"category":"Footpath (pedestrian only)"},"geometry":{"type":"MultiLineString","coordinates":[[[0.2497399,52.3958565],[0.2496743,52.3957517]]]}},
{"type":"Feature","properties":{"highway":"footway","name":null,"category":"Footpath (pedestrian only)"},"geometry":{"type":"MultiLineString","coordinates":[[[0.2509912,52.3947682],[0.2515996,52.3949166],[0.2517486,52.3948539],[0.2519806,52.3948061],[0.2524486,52.3948614]]]}},
{"type":"Feature","properties":{"highway":"footway","name":null,"category":"Footpath (pedestrian only)"},"geometry":{"type":"MultiLineString","coordinates":[[[0.2447045,52.3980331],[0.2445097,52.3981138],[0.2443085,52.3982408],[0.2441536,52.3982884],[0.2436867,52.3983529],[0.2435832,52.3983977],[0.2433656,52.3985677],[0.2432323,52.3986025],[0.2428623,52.3985994],[0.2423895,52.3985469],[0.2418243,52.3985527],[0.2416294,52.3985574],[0.241457,52.3985955]]]}},
{"type":"Feature","properties":{"highway":"footway","name":null,"category":"Footpath (pedestrian only)"},"geometry":{"type":"MultiLineString","coordinates":[[[0.2444736,52.3980504],[0.2445097,52.3981138],[0.2447417,52.3983441],[0.2448706,52.398472],[0.2449095,52.3985678],[0.2448984,52.3986569],[0.2447912,52.398739],[0.2445435,52.3988208],[0.2443948,52.3989133],[0.2443673,52.3989992],[0.2444354,52.3990939],[0.2446669,52.399258],[0.2447911,52.3993668],[0.2449716,52.3994631]]]}},
{"type":"Feature","properties":{"highway":"footway","name":null,"category":"Footpath (pedestrian only)"},"geometry":{"type":"MultiLineString","coordinates":[[[0.2446879,52.4032334],[0.2449189,52.4032474],[0.2450715,52.403215],[0.2452,52.4031741],[0.24527,52.4031175],[0.2453043,52.4030525],[0.2452758,52.4029922],[0.245214,52.4029337],[0.2451905,52.4028726],[0.2452492,52.4027458],[0.2452279,52.4026456]]]}},
{"type":"Feature","properties":{"highway":"footway","name":null,"category":"Footpath (pedestrian only)"},"geometry":{"type":"MultiLineString","coordinates":[[[0.2449189,52.4032474],[0.2447672,52.4033269]]]}},
{"type":"Feature","properties":{"highway":"path","name":null,"category":"Shared path"},"geometry":{"type":"MultiLineString","coordinates":[[[0.2422549,52.4006779],[0.242321,52.4006548],[0.2424393,52.4006224],[0.2427634,52.4004997],[0.2428021,52.4004622]]]}},
{"type":"Feature","properties":{"highway":"footway","name":null,"category":"Footpath (pedestrian only)"},"geometry":{"type":"MultiLineString","coordinates":[[[0.2432497,52.4019918],[0.2433132,52.4019371],[0.2436565,52.4018158],[0.2438332,52.4019175]]]}},
{"type":"Feature","properties":{"highway":"footway","name":null,"category":"Footpath (pedestrian only)"},"geometry":{"type":"MultiLineString","coordinates":[[[0.2477478,52.4014424],[0.2478976,52.4016398],[0.2477817,52.4019332],[0.247552,52.4021161],[0.2473575,52.4022577],[0.2472427,52.4022904],[0.2472064,52.4023691],[0.2471734,52.4023935],[0.246619,52.4027143],[0.2463488,52.4028281],[0.2460283,52.402978],[0.2457882,52.4031258],[0.2455589,52.4031733],[0.2452884,52.4032791],[0.2447567,52.403499]]]}},
{"type":"Feature","properties":{"highway":"footway","name":null,"category":"Footpath (pedestrian only)"},"geometry":{"type":"MultiLineString","coordinates":[[[0.2463488,52.4028281],[0.2460888,52.4026523]]]}},
{"type":"Feature","properties":{"highway":"footway","name":null,"category":"Footpath (pedestrian only)"},"geometry":{"type":"MultiLineString","coordinates":[[[0.246619,52.4027143],[0.2467512,52.402812],[0.2467257,52.4028611],[0.2467308,52.4028964]]]}},
{"type":"Feature","properties":{"highway":"footway","name":null,"category":"Footpath (pedestrian only)"},"geometry":{"type":"MultiLineString","coordinates":[[[0.2478615,52.4013777],[0.2483938,52.4011696]]]}},
{"type":"Feature","properties":{"highway":"footway","name":null,"category":"Footpath (pedestrian only)"},"geometry":{"type":"MultiLineString","coordinates":[[[0.253691,52.4084321],[0.2534241,52.4083348],[0.2533007,52.408233],[0.2531818,52.4081508],[0.2529046,52.4079892],[0.2527303,52.4079009],[0.2525417,52.4078319],[0.2524432,52.4077999],[0.2523003,52.407817],[0.2521619,52.4078298],[0.2520449,52.4078586],[0.2519476,52.4079165],[0.2518207,52.4079749],[0.2517119,52.4080204],[0.2515525,52.4080618],[0.2513618,52.4081508],[0.2511897,52.4081539],[0.2510556,52.4081442],[0.2509224,52.4081106],[0.2508127,52.4080603],[0.2506834,52.4079736],[0.2505686,52.4078575],[0.2504973,52.4077153],[0.2504397,52.4076399],[0.2503375,52.4075567],[0.2500784,52.4074092],[0.2500111,52.4073752],[0.2499079,52.4073322],[0.2496724,52.4072693],[0.249584,52.4072035],[0.2494875,52.40713],[0.2493979,52.4070261],[0.249327,52.4069752],[0.2492659,52.4069158],[0.2491351,52.4068694],[0.2490253,52.4068385],[0.2489111,52.4068191],[0.2487644,52.4068129],[0.2487158,52.4068051],[0.2486583,52.4067878],[0.24859,52.406759],[0.2485173,52.4067284],[0.2484715,52.4066852],[0.2484261,52.4066469],[0.248393,52.4066107],[0.2483746,52.4065662],[0.2483575,52.4065197],[0.2483305,52.4064831],[0.2482855,52.4064378],[0.2482168,52.4063559],[0.2481894,52.4063233],[0.247964,52.40623],[0.2478225,52.4061617],[0.2477199,52.4060969],[0.2476691,52.4060573],[0.2476358,52.4060165],[0.2476117,52.4059681],[0.2476083,52.4059076],[0.247664,52.4058195],[0.2477559,52.4057887]]]}},
{"type":"Feature","properties":{"highway":"footway","name":null,"category":"Footpath (pedestrian only)"},"geometry":{"type":"MultiLineString","coordinates":[[[0.247664,52.4058195],[0.2475757,52.4057947],[0.2475002,52.4057573],[0.2474745,52.4057251],[0.2474377,52.405696],[0.2473956,52.4056639],[0.2473531,52.4056521],[0.2472779,52.405686],[0.2472344,52.4057073],[0.2471617,52.4057346],[0.2471266,52.4057413],[0.247061,52.4057397]]]}},
{"type":"Feature","properties":{"highway":"footway","name":null,"category":"Footpath (pedestrian only)"},"geometry":{"type":"MultiLineString","coordinates":[[[0.2476038,52.4061858],[0.2476566,52.4061213],[0.2477199,52.4060969]]]}},
{"type":"Feature","properties":{"highway":"footway","name":null,"category":"Footpath (pedestrian only)"},"geometry":{"type":"MultiLineString","coordinates":[[[0.2524432,52.4077999],[0.2524403,52.4078668],[0.2524467,52.4079708],[0.2524505,52.4080057],[0.2523901,52.4080435],[0.2523005,52.4080671],[0.2521922,52.4080996],[0.2521173,52.4081207],[0.2520503,52.4081513],[0.2518757,52.408174],[0.2517561,52.4081835]]]}},
{"type":"Feature","properties":{"highway":"footway","name":null,"category":"Footpath (pedestrian only)"},"geometry":{"type":"MultiLineString","coordinates":[[[0.2520503,52.4081513],[0.2520224,52.4081911],[0.2520393,52.4082814]]]}},
{"type":"Feature","properties":{"highway":"footway","name":null,"category":"Footpath (pedestrian only)"},"geometry":{"type":"MultiLineString","coordinates":[[[0.2533007,52.408233],[0.2532645,52.4082729],[0.2532258,52.408306],[0.253224,52.4083491],[0.2532477,52.4084056],[0.2533312,52.4084846],[0.2533644,52.4085224]]]}},
{"type":"Feature","properties":{"highway":"footway","name":null,"category":"Footpath (pedestrian only)"},"geometry":{"type":"MultiLineString","coordinates":[[[0.2533747,52.4080075],[0.2532682,52.4080888],[0.2531818,52.4081508]]]}},
{"type":"Feature","properties":{"highway":"footway","name":null,"category":"Footpath (pedestrian only)"},"geometry":{"type":"MultiLineString","coordinates":[[[0.250665,52.4075003],[0.250472,52.4075521],[0.2503375,52.4075567]]]}},
{"type":"Feature","properties":{"highway":"footway","name":null,"category":"Footpath (pedestrian only)"},"geometry":{"type":"MultiLineString","coordinates":[[[0.2504397,52.4076399],[0.250472,52.4075521]]]}},
{"type":"Feature","properties":{"highway":"footway","name":null,"category":"Footpath (pedestrian only)"},"geometry":{"type":"MultiLineString","coordinates":[[[0.249352,52.4068382],[0.2492659,52.4069158]]]}},
{"type":"Feature","properties":{"highway":"footway","name":null,"category":"Footpath (pedestrian only)"},"geometry":{"type":"MultiLineString","coordinates":[[[0.2505307,52.4057213],[0.2505451,52.4056936],[0.2506754,52.4056683],[0.2507479,52.4056736],[0.2508164,52.4057017],[0.2508896,52.4057318],[0.2509401,52.4057763],[0.251019,52.4058273],[0.2510782,52.4058489],[0.2511583,52.4058608],[0.2512765,52.4058982],[0.2516524,52.4058106],[0.2519404,52.4057422]]]}},
{"type":"Feature","properties":{"highway":"footway","name":null,"category":"Footpath (pedestrian only)"},"geometry":{"type":"MultiLineString","coordinates":[[[0.2512765,52.4058982],[0.2512826,52.4059403],[0.2513058,52.4059825],[0.2513275,52.4060374],[0.2514106,52.4061058],[0.2516558,52.4061841],[0.2517136,52.4061655],[0.251816,52.4061587],[0.2518903,52.4061537],[0.2520463,52.4061435],[0.2521319,52.4061493],[0.2523097,52.4061924],[0.252376,52.4061931],[0.2525101,52.4061675],[0.2525883,52.4061468],[0.2526928,52.4061392],[0.2528047,52.4061413],[0.2528403,52.4060482],[0.2528624,52.4059814],[0.2528624,52.4059235],[0.2528215,52.4058851],[0.2527651,52.4058519],[0.2526772,52.4058206],[0.2526356,52.4057944],[0.2526176,52.4057652],[0.2525689,52.4057073],[0.2525243,52.4055959]]]}},
{"type":"Feature","properties":{"highway":"footway","name":null,"category":"Footpath (pedestrian only)"},"geometry":{"type":"MultiLineString","coordinates":[[[0.2528047,52.4061413],[0.2528549,52.4061589],[0.2529194,52.4061888],[0.2529556,52.4062271],[0.2529616,52.4062694],[0.2529498,52.4063117]]]}},
{"type":"Feature","properties":{"highway":"footway","name":null,"category":"Footpath (pedestrian only)"},"geometry":{"type":"MultiLineString","coordinates":[[[0.2514106,52.4061058],[0.2512639,52.4060956],[0.2511444,52.406114],[0.2509866,52.4061446],[0.2510678,52.4063609],[0.2511672,52.4065817],[0.2511364,52.4065998],[0.2511218,52.4066058]]]}},
{"type":"Feature","properties":{"highway":"footway","name":null,"category":"Footpath (pedestrian only)"},"geometry":{"type":"MultiLineString","coordinates":[[[0.2516558,52.4061841],[0.2515639,52.4063282],[0.2515756,52.4063802]]]}},
{"type":"Feature","properties":{"highway":"footway","name":null,"category":"Footpath (pedestrian only)"},"geometry":{"type":"MultiLineString","coordinates":[[[0.2503439,52.4052338],[0.2503807,52.4052698],[0.250539,52.4053294],[0.2513728,52.4051457],[0.2515077,52.4050912],[0.2516637,52.405025],[0.251764,52.4050074]]]}},
{"type":"Feature","properties":{"highway":"footway","name":null,"category":"Footpath (pedestrian only)"},"geometry":{"type":"MultiLineString","coordinates":[[[0.2503439,52.4052338],[0.249882,52.4043896],[0.2499427,52.4043057],[0.2498591,52.4041656]]]}},
{"type":"Feature","properties":{"highway":"footway","name":null,"category":"Footpath (pedestrian only)"},"geometry":{"type":"MultiLineString","coordinates":[[[0.2481894,52.4063233],[0.2484062,52.4062691]]]}},
{"type":"Feature","properties":{"highway":"footway","name":null,"category":"Footpath (pedestrian only)"},"geometry":{"type":"MultiLineString","coordinates":[[[0.2569117,52.4015237],[0.2569294,52.4016404],[0.2568368,52.4017201],[0.2564428,52.4018198],[0.2563281,52.4018409],[0.2560485,52.4018925],[0.2556043,52.4019519],[0.2555281,52.4019261]]]}},
{"type":"Feature","properties":{"highway":"track","name":"Upherds Lane","category":"Track"},"geometry":{"type":"MultiLineString","coordinates":[[[0.2579838,52.4023858],[0.2565742,52.4025413],[0.255556,52.4026133]]]}},
{"type":"Feature","properties":{"highway":"footway","name":null,"category":"Footpath (pedestrian only)"},"geometry":{"type":"MultiLineString","coordinates":[[[0.2528795,52.4048377],[0.2528682,52.4048197]]]}},
{"type":"Feature","properties":{"highway":"footway","name":null,"category":"Footpath (pedestrian only)"},"geometry":{"type":"MultiLineString","coordinates":[[[0.2514304,52.4046744],[0.2515905,52.4046993],[0.2518215,52.404648]]]}},
{"type":"Feature","properties":{"highway":"footway","name":null,"category":"Footpath (pedestrian only)"},"geometry":{"type":"MultiLineString","coordinates":[[[0.2515905,52.4046993],[0.251764,52.4050074]]]}},
{"type":"Feature","properties":{"highway":"footway","name":"Priors Court","category":"Footpath (pedestrian only)"},"geometry":{"type":"MultiLineString","coordinates":[[[0.2520226,52.4038605],[0.2520888,52.4040123],[0.252387,52.4045418],[0.252211,52.4047476],[0.2520266,52.4049422]]]}},
{"type":"Feature","properties":{"highway":"footway","name":null,"category":"Footpath (pedestrian only)"},"geometry":{"type":"MultiLineString","coordinates":[[[0.2528201,52.4032966],[0.2529497,52.4032196],[0.2532938,52.4031766],[0.2534466,52.4031821],[0.2536449,52.4031341]]]}},
{"type":"Feature","properties":{"highway":"footway","name":null,"category":"Footpath (pedestrian only)"},"geometry":{"type":"MultiLineString","coordinates":[[[0.2536542,52.4026981],[0.2536449,52.4031341],[0.2536362,52.4034148],[0.2536401,52.403719],[0.2535767,52.4037883]]]}},
{"type":"Feature","properties":{"highway":"footway","name":null,"category":"Footpath (pedestrian only)"},"geometry":{"type":"MultiLineString","coordinates":[[[0.2537175,52.4048848],[0.2538852,52.4048301],[0.2541031,52.4047847],[0.2541355,52.4047661]]]}},
{"type":"Feature","properties":{"highway":"footway","name":null,"category":"Footpath (pedestrian only)"},"geometry":{"type":"MultiLineString","coordinates":[[[0.2548877,52.404914],[0.2549292,52.4049447],[0.254996,52.405476]]]}},
{"type":"Feature","properties":{"highway":"footway","name":null,"category":"Footpath (pedestrian only)"},"geometry":{"type":"MultiLineString","coordinates":[[[0.2429325,52.3967168],[0.2428574,52.3969496],[0.2429993,52.3971502],[0.243652,52.39746],[0.244167,52.3976433],[0.2445134,52.3980419]]]}},
{"type":"Feature","properties":{"highway":"footway","name":null,"category":"Footpath (pedestrian only)"},"geometry":{"type":"MultiLineString","coordinates":[[[0.246432,52.3940507],[0.2463567,52.394089],[0.2459219,52.3941384]]]}},
{"type":"Feature","properties":{"highway":"footway","name":"Thomas Parsons Square","category":"Footpath (pedestrian only)"},"geometry":{"type":"MultiLineString","coordinates":[[[0.2586092,52.3987225],[0.2588597,52.3983692],[0.2590457,52.398423],[0.2588612,52.3986798],[0.2587571,52.3987835]]]}},
{"type":"Feature","properties":{"highway":"footway","name":null,"category":"Footpath (pedestrian only)"},"geometry":{"type":"MultiLineString","coordinates":[[[0.2520361,52.3987976],[0.2520867,52.3987514],[0.2520874,52.3986254],[0.2519561,52.3986012],[0.252241,52.3981152],[0.2522605,52.3980825]]]}},
{"type":"Feature","properties":{"highway":"footway","name":null,"category":"Footpath (pedestrian only)"},"geometry":{"type":"MultiLineString","coordinates":[[[0.2463482,52.3975808],[0.2466875,52.3978063]]]}},
{"type":"Feature","properties":{"highway":"footway","name":null,"category":"Footpath (pedestrian only)"},"geometry":{"type":"MultiLineString","coordinates":[[[0.2486436,52.4022006],[0.2486261,52.4022592],[0.2486472,52.4023103],[0.2485577,52.4023483],[0.2485603,52.4023915],[0.2486048,52.4024985]]]}},
{"type":"Feature","properties":{"highway":"footway","name":null,"category":"Footpath (pedestrian only)"},"geometry":{"type":"MultiLineString","coordinates":[[[0.2482221,52.4050333],[0.2483229,52.40506],[0.2487728,52.405065]]]}},
{"type":"Feature","properties":{"highway":"footway","name":null,"category":"Footpath (pedestrian only)"},"geometry":{"type":"MultiLineString","coordinates":[[[0.2515077,52.4050912],[0.2518165,52.4056679],[0.2518396,52.4056973],[0.2518882,52.4057116],[0.2519404,52.4057422]]]}},
{"type":"Feature","properties":{"highway":"footway","name":"Abbots Way","category":"Footpath (pedestrian only)"},"geometry":{"type":"MultiLineString","coordinates":[[[0.2519404,52.4057422],[0.2521921,52.4056855],[0.2522519,52.4056518],[0.2525243,52.4055959],[0.2532103,52.405459],[0.2539008,52.4053195]]]}},
{"type":"Feature","properties":{"highway":"footway","name":null,"category":"Footpath (pedestrian only)"},"geometry":{"type":"MultiLineString","coordinates":[[[0.2554449,52.4068447],[0.2555729,52.4068739],[0.25624,52.4069788]]]}},
{"type":"Feature","properties":{"highway":"footway","name":null,"category":"Footpath (pedestrian only)"},"geometry":{"type":"MultiLineString","coordinates":[[[0.2558927,52.4078352],[0.2557955,52.4077578],[0.2557767,52.4077187]]]}},
{"type":"Feature","properties":{"highway":"track","name":"Hurst Lane","category":"Track"},"geometry":{"type":"MultiLineString","coordinates":[[[0.2424351,52.4098024],[0.2423067,52.4100368],[0.2422731,52.4102256],[0.242271,52.4108432],[0.2423167,52.4110277],[0.2424126,52.4112153],[0.2425364,52.4113126],[0.2426977,52.4114603],[0.2432348,52.4118432],[0.2445842,52.4129234],[0.2448755,52.4133472],[0.2448991,52.4136039],[0.2448888,52.4137373],[0.2448408,52.4140441],[0.2448124,52.4143811],[0.2448333,52.4145671],[0.2449084,52.4150623],[0.2449411,52.4152233],[0.2449713,52.4152941],[0.2450953,52.4155843],[0.2451832,52.4157297],[0.245304,52.4158895],[0.245519,52.4161639],[0.2457829,52.4165367],[0.2458984,52.4167692],[0.2459391,52.4169896],[0.2459441,52.4175505],[0.2459216,52.4181273],[0.2460535,52.4191474],[0.246052,52.419477],[0.2459732,52.4198529],[0.2459909,52.4202633],[0.2459868,52.4204781],[0.2459669,52.4207533],[0.2459357,52.4209505],[0.2458311,52.4213429],[0.245775,52.4215323],[0.2455912,52.4219396]]]}},
{"type":"Feature","properties":{"highway":"footway","name":null,"category":"Footpath (pedestrian only)"},"geometry":{"type":"MultiLineString","coordinates":[[[0.2424786,52.3974169],[0.2425826,52.3969779],[0.2428554,52.3967216]]]}},
{"type":"Feature","properties":{"highway":"footway","name":null,"category":"Footpath (pedestrian only)"},"geometry":{"type":"MultiLineString","coordinates":[[[0.2420594,52.3961503],[0.2420682,52.3961203],[0.2419272,52.3960044]]]}},
{"type":"Feature","properties":{"highway":"footway","name":null,"category":"Footpath (pedestrian only)"},"geometry":{"type":"MultiLineString","coordinates":[[[0.2476468,52.4028607],[0.2473713,52.4025708],[0.247356,52.4025015],[0.2472064,52.4023691]]]}},
{"type":"Feature","properties":{"highway":"footway","name":null,"category":"Footpath (pedestrian only)"},"geometry":{"type":"MultiLineString","coordinates":[[[0.2486579,52.3996838],[0.2483304,52.3997683],[0.2485448,52.3999549],[0.2485101,52.3999817],[0.2485199,52.4000561]]]}},
{"type":"Feature","properties":{"highway":"footway","name":null,"category":"Footpath (pedestrian only)"},"geometry":{"type":"MultiLineString","coordinates":[[[0.2407467,52.3957158],[0.2407283,52.3956811],[0.2406326,52.3956808],[0.2405011,52.3957246],[0.2404367,52.3958032],[0.2404689,52.3959276],[0.2404903,52.3960127],[0.2404851,52.3960914],[0.2404367,52.3961633],[0.2403764,52.3962264],[0.2403429,52.3962963],[0.2403492,52.3963571],[0.2403858,52.3964226],[0.2404314,52.3964947],[0.2405038,52.3965852],[0.2405225,52.3966517],[0.2405325,52.3967261],[0.2404994,52.3967659],[0.2404797,52.3968036],[0.2404421,52.3968479],[0.24041,52.3969671],[0.2404287,52.3970388],[0.2404797,52.3970934],[0.2405504,52.3971555],[0.2406362,52.397201]]]}},
{"type":"Feature","properties":{"highway":"footway","name":null,"category":"Footpath (pedestrian only)"},"geometry":{"type":"MultiLineString","coordinates":[[[0.2406362,52.397201],[0.2406408,52.3972854],[0.2406062,52.3973666],[0.2405209,52.3974654],[0.2404467,52.3975598],[0.2404254,52.3976489],[0.2404376,52.3977555],[0.2404553,52.3978207],[0.2405584,52.3978191],[0.2406298,52.3978016],[0.2407106,52.3978063],[0.2408195,52.3978163],[0.2409904,52.3978435],[0.2410864,52.3978843],[0.2412102,52.3979838],[0.2413427,52.3981223],[0.2414784,52.3982536],[0.2414328,52.3983636],[0.2414114,52.398476],[0.241457,52.3985955]]]}},
{"type":"Feature","properties":{"highway":"footway","name":null,"category":"Footpath (pedestrian only)"},"geometry":{"type":"MultiLineString","coordinates":[[[0.240731,52.3966803],[0.240692,52.3967194],[0.2405325,52.3967261]]]}},
{"type":"Feature","properties":{"highway":"footway","name":null,"category":"Footpath (pedestrian only)"},"geometry":{"type":"MultiLineString","coordinates":[[[0.2409855,52.3971587],[0.2407214,52.3971815],[0.2406362,52.397201]]]}},
{"type":"Feature","properties":{"highway":"footway","name":null,"category":"Footpath (pedestrian only)"},"geometry":{"type":"MultiLineString","coordinates":[[[0.2409855,52.3971587],[0.2409362,52.3966755]]]}},
{"type":"Feature","properties":{"highway":"footway","name":null,"category":"Footpath (pedestrian only)"},"geometry":{"type":"MultiLineString","coordinates":[[[0.2416022,52.3951715],[0.2415042,52.3952384]]]}},
{"type":"Feature","properties":{"highway":"footway","name":null,"category":"Footpath (pedestrian only)"},"geometry":{"type":"MultiLineString","coordinates":[[[0.247061,52.4057397],[0.2469124,52.4056874]]]}},
{"type":"Feature","properties":{"highway":"track","name":null,"category":"Track"},"geometry":{"type":"MultiLineString","coordinates":[[[0.2424351,52.4098024],[0.2393626,52.4060691]]]}},
{"type":"Feature","properties":{"highway":"path","name":null,"category":"Shared path"},"geometry":{"type":"MultiLineString","coordinates":[[[0.2555951,52.3945308],[0.2548019,52.3936787],[0.2544797,52.3933413],[0.2537537,52.3928072],[0.2530435,52.3922743],[0.2527436,52.392137],[0.2526341,52.3920468]]]}},
{"type":"Feature","properties":{"highway":"track","name":null,"category":"Track"},"geometry":{"type":"MultiLineString","coordinates":[[[0.2319306,52.3881826],[0.2319551,52.3882414],[0.2320044,52.3892637],[0.233831,52.3904094],[0.2357654,52.3915538],[0.237376,52.3924615],[0.2383602,52.3931033],[0.2389066,52.3935354],[0.2390019,52.3936108],[0.2391279,52.3937485],[0.240047,52.3944019],[0.240234,52.3945199],[0.2407448,52.3949292],[0.2416022,52.3951715]]]}},
{"type":"Feature","properties":{"highway":"footway","name":null,"category":"Footpath (pedestrian only)"},"geometry":{"type":"MultiLineString","coordinates":[[[0.2408346,52.392383],[0.2410514,52.3922469]]]}},
{"type":"Feature","properties":{"highway":"footway","name":null,"category":"Footpath (pedestrian only)"},"geometry":{"type":"MultiLineString","coordinates":[[[0.2524533,52.4076602],[0.2524653,52.4076034]]]}},
{"type":"Feature","properties":{"highway":"footway","name":null,"category":"Footpath (pedestrian only)"},"geometry":{"type":"MultiLineString","coordinates":[[[0.2512639,52.4060956],[0.2513275,52.4060374]]]}},
{"type":"Feature","properties":{"highway":"footway","name":"Priors Court","category":"Footpath (pedestrian only)"},"geometry":{"type":"MultiLineString","coordinates":[[[0.2518215,52.404648],[0.2518725,52.4046557]]]}},
{"type":"Feature","properties":{"highway":"footway","name":"Priors Court","category":"Footpath (pedestrian only)"},"geometry":{"type":"MultiLineString","coordinates":[[[0.2518725,52.4046557],[0.2520266,52.4049422],[0.252561,52.4048257],[0.2525165,52.404816],[0.252387,52.4045418],[0.2518725,52.4046557]]]}},
{"type":"Feature","properties":{"highway":"footway","name":null,"category":"Footpath (pedestrian only)"},"geometry":{"type":"MultiLineString","coordinates":[[[0.2518725,52.4046557],[0.2519277,52.4046662],[0.252211,52.4047476],[0.2524746,52.404806],[0.2525165,52.404816]]]}},
{"type":"Feature","properties":{"highway":"footway","name":null,"category":"Footpath (pedestrian only)"},"geometry":{"type":"MultiLineString","coordinates":[[[0.2486583,52.4067878],[0.2486836,52.40684],[0.2487202,52.4068809],[0.2487456,52.4069162],[0.2487759,52.4069488],[0.2488148,52.4069705],[0.2488817,52.4069799],[0.2489414,52.4069822],[0.2490014,52.4070017],[0.2491377,52.4070367],[0.24926,52.4070977],[0.2493239,52.4071533],[0.2493963,52.4072071],[0.2494204,52.4072693],[0.249454,52.4073268],[0.2494933,52.4073746],[0.2495274,52.4074228],[0.2495786,52.4074533],[0.2496364,52.4074942],[0.2497047,52.4074911],[0.2497654,52.4074737],[0.2498481,52.4074574],[0.2499401,52.4074517],[0.2499866,52.4074343],[0.250013,52.4074214],[0.2500784,52.4074092]]]}},
{"type":"Feature","properties":{"highway":"footway","name":null,"category":"Footpath (pedestrian only)"},"geometry":{"type":"MultiLineString","coordinates":[[[0.2492614,52.4070166],[0.249221,52.407027],[0.2491816,52.4070339],[0.2491377,52.4070367]]]}},
{"type":"Feature","properties":{"highway":"footway","name":null,"category":"Footpath (pedestrian only)"},"geometry":{"type":"MultiLineString","coordinates":[[[0.24926,52.4070977],[0.2492556,52.4070505],[0.2492614,52.4070166],[0.249293,52.406992],[0.249327,52.4069752]]]}},
{"type":"Feature","properties":{"highway":"track","name":null,"category":"Track"},"geometry":{"type":"MultiLineString","coordinates":[[[0.2383269,52.3965605],[0.238797,52.3963773],[0.2390568,52.396273],[0.2391356,52.3962458],[0.2395607,52.3961266],[0.2396718,52.3961016],[0.2397996,52.3960776]]]}},
{"type":"Feature","properties":{"highway":"track","name":null,"category":"Track"},"geometry":{"type":"MultiLineString","coordinates":[[[0.2402964,52.3958659],[0.2401676,52.3959104],[0.239912,52.3959748],[0.2398103,52.3959638]]]}},
{"type":"Feature","properties":{"highway":"track","name":null,"category":"Track"},"geometry":{"type":"MultiLineString","coordinates":[[[0.2390568,52.396273],[0.2390518,52.3963693],[0.2390839,52.3964716]]]}},
{"type":"Feature","properties":{"highway":"track","name":null,"category":"Track"},"geometry":{"type":"MultiLineString","coordinates":[[[0.2383269,52.3965605],[0.2381563,52.3966293],[0.2373031,52.3969922],[0.2367584,52.397228]]]}},
{"type":"Feature","properties":{"highway":"track","name":null,"category":"Track"},"geometry":{"type":"MultiLineString","coordinates":[[[0.2418405,52.4003222],[0.2416241,52.4003932],[0.241329,52.4004984],[0.2407765,52.4007104]]]}},
{"type":"Feature","properties":{"highway":"footway","name":null,"category":"Footpath (pedestrian only)"},"geometry":{"type":"MultiLineString","coordinates":[[[0.2432181,52.4020569],[0.243066,52.4021113]]]}},
{"type":"Feature","properties":{"highway":"footway","name":null,"category":"Footpath (pedestrian only)"},"geometry":{"type":"MultiLineString","coordinates":[[[0.2569117,52.4015237],[0.2569746,52.4014949],[0.2569999,52.4012764],[0.256978,52.4010728],[0.2568583,52.4008751],[0.2568368,52.400825]]]}},
{"type":"Feature","properties":{"highway":"footway","name":null,"category":"Footpath (pedestrian only)"},"geometry":{"type":"MultiLineString","coordinates":[[[0.257942,52.4008391],[0.2577791,52.4008544],[0.2576601,52.4008693],[0.2576034,52.4008929],[0.2575296,52.4009313],[0.2574537,52.4009439],[0.2573127,52.4009822],[0.2571683,52.4010399],[0.256978,52.4010728]]]}},
{"type":"Feature","properties":{"highway":"footway","name":null,"category":"Footpath (pedestrian only)"},"geometry":{"type":"MultiLineString","coordinates":[[[0.2487579,52.3972973],[0.2485139,52.3971945]]]}},
{"type":"Feature","properties":{"highway":"footway","name":null,"category":"Footpath (pedestrian only)"},"geometry":{"type":"MultiLineString","coordinates":[[[0.242329,52.3944972],[0.2422883,52.3945611]]]}},
{"type":"Feature","properties":{"highway":"footway","name":null,"category":"Footpath (pedestrian only)"},"geometry":{"type":"MultiLineString","coordinates":[[[0.247061,52.4057397],[0.247049,52.4058116],[0.2470646,52.4058646],[0.2472047,52.4059345],[0.2472592,52.4059876],[0.2473017,52.406052],[0.2473307,52.4060913],[0.2473889,52.4061216],[0.2474886,52.406148],[0.2476038,52.4061858],[0.2476655,52.4062719],[0.2477036,52.4062911],[0.2477611,52.406327],[0.247807,52.4063563],[0.2478552,52.4063789],[0.2479257,52.4063814],[0.2479913,52.4063942],[0.2480529,52.4064086],[0.2481092,52.4064306],[0.2481664,52.4064443],[0.2482203,52.4064468],[0.2482855,52.4064378]]]}},
{"type":"Feature","properties":{"highway":"footway","name":null,"category":"Footpath (pedestrian only)"},"geometry":{"type":"MultiLineString","coordinates":[[[0.253505,52.4094809],[0.2535589,52.4094514],[0.2535174,52.4094168],[0.2534935,52.4093835],[0.2534835,52.4093322],[0.2534834,52.4092978],[0.2534885,52.4092418],[0.2535101,52.4091787],[0.2535431,52.409109],[0.2535881,52.4090311],[0.253685,52.4089277],[0.2538052,52.408803],[0.2539429,52.408692],[0.2541255,52.4085607],[0.2542964,52.4084555],[0.2544762,52.4083697]]]}},
{"type":"Feature","properties":{"highway":"footway","name":null,"category":"Footpath (pedestrian only)"},"geometry":{"type":"MultiLineString","coordinates":[[[0.2485151,52.3975726],[0.2487579,52.3972973],[0.2488111,52.3972388]]]}},
{"type":"Feature","properties":{"highway":"footway","name":null,"category":"Footpath (pedestrian only)"},"geometry":{"type":"MultiLineString","coordinates":[[[0.2478976,52.4016398],[0.2480901,52.4016384],[0.2482154,52.4018083],[0.2482777,52.4018014]]]}},
{"type":"Feature","properties":{"highway":"footway","name":null,"category":"Footpath (pedestrian only)"},"geometry":{"type":"MultiLineString","coordinates":[[[0.2472427,52.4022904],[0.2472079,52.4022889],[0.2468441,52.4019758],[0.2463394,52.4015448],[0.2462067,52.4014111],[0.2461421,52.4012991],[0.2459431,52.4011215]]]}},
{"type":"Feature","properties":{"highway":"track","name":null,"category":"Track"},"geometry":{"type":"MultiLineString","coordinates":[[[0.2418423,52.4053667],[0.2414845,52.4053078],[0.2413035,52.4052912],[0.2411774,52.4052655],[0.2410451,52.4051931],[0.2408502,52.4050592],[0.2407464,52.4049749],[0.2406246,52.4049008],[0.2405369,52.404891],[0.2403218,52.4049402],[0.2401734,52.4049681],[0.2400217,52.4049424],[0.2399218,52.4049017],[0.2398124,52.4048123],[0.239732,52.4047048],[0.23963,52.4045974],[0.2395101,52.404485],[0.2394214,52.4043194],[0.2394262,52.4041512],[0.2394852,52.4040821],[0.2396164,52.4040178],[0.2397236,52.4039751],[0.2398929,52.4039082],[0.2399573,52.4038493],[0.2399573,52.4038034],[0.2398714,52.4034323],[0.2397857,52.402874],[0.2397773,52.4027375],[0.2397534,52.4026581],[0.2396676,52.4025864],[0.238246,52.4024104],[0.2373502,52.4022979],[0.2367732,52.402276],[0.2360414,52.402299],[0.235775,52.402295],[0.2354705,52.4022727],[0.234993,52.4022037],[0.2348705,52.4021551],[0.2347081,52.4020916],[0.2345604,52.4020047],[0.2344092,52.4018727],[0.2343209,52.4017681],[0.2342495,52.4016348],[0.234184,52.4014179],[0.2341862,52.4012022],[0.2341696,52.4009897],[0.2341452,52.4008305],[0.2341066,52.4006366],[0.2340655,52.4005374],[0.2340119,52.4004577],[0.233866,52.4003296],[0.2337023,52.4002073],[0.2335709,52.4000903],[0.2334671,52.3999962],[0.2332893,52.3998648],[0.2326984,52.3995768],[0.2324256,52.3994543],[0.2320649,52.3993208],[0.2320042,52.3993129],[0.2319066,52.3993249],[0.2317643,52.399362],[0.2315443,52.3994046],[0.2313566,52.3993948]]]}},
{"type":"Feature","properties":{"highway":"track","name":null,"category":"Track"},"geometry":{"type":"MultiLineString","coordinates":[[[0.2344315,52.4076238],[0.2339419,52.4080808],[0.2339289,52.40814],[0.2339631,52.4081861],[0.2364213,52.4120034],[0.2365788,52.4124214],[0.2367746,52.4127552],[0.2366861,52.4128304],[0.2361853,52.4130472]]]}},
{"type":"Feature","properties":{"highway":"track","name":null,"category":"Track"},"geometry":{"type":"MultiLineString","coordinates":[[[0.2368881,52.4063523],[0.2368194,52.4063148],[0.2366385,52.4062422],[0.233642,52.4057468],[0.2335348,52.4056982],[0.2300172,52.4051003],[0.2294726,52.4049809],[0.2275516,52.4045635],[0.2273058,52.4045509],[0.2265252,52.4043967],[0.2259393,52.4043385],[0.2253003,52.4044735],[0.2248313,52.4046798],[0.224674,52.4047248]]]}},
{"type":"Feature","properties":{"highway":"footway","name":null,"category":"Footpath (pedestrian only)"},"geometry":{"type":"MultiLineString","coordinates":[[[0.2528142,52.4096514],[0.2527471,52.4097087],[0.2526586,52.4097938],[0.2525701,52.4098952],[0.2524682,52.4100818],[0.2524199,52.4102176],[0.2523918,52.4103785],[0.2523823,52.4105153],[0.2523743,52.4107788],[0.2523823,52.4109915],[0.2524333,52.4114398],[0.2523753,52.4114451],[0.252318,52.4114479],[0.2523475,52.4116623],[0.2523796,52.4118537],[0.2524118,52.4121973],[0.2524199,52.4124067],[0.2524252,52.4125719],[0.2524145,52.4127045],[0.2523945,52.4128915],[0.2523735,52.41296],[0.2523501,52.4130464],[0.2523126,52.4132411],[0.2522831,52.4135094],[0.2522724,52.4136975],[0.2522697,52.4138775],[0.2522831,52.4140133],[0.2523045,52.4141523],[0.2523287,52.4142832],[0.2524145,52.4146088],[0.2525218,52.4149883],[0.2526076,52.4152992],[0.2526439,52.4154277],[0.2526854,52.4155478],[0.2528759,52.4161253],[0.2530663,52.4167143],[0.2531441,52.4169744],[0.253187,52.4171658],[0.2532943,52.4176909],[0.2534203,52.4183878],[0.2534606,52.4186888],[0.2534767,52.4189096],[0.2534847,52.4191026],[0.2534606,52.4194494],[0.2533828,52.4200547],[0.2533318,52.4205094],[0.2533265,52.4207613],[0.2533318,52.4208741],[0.2533506,52.4209952],[0.2533855,52.4211277],[0.2534364,52.4212667],[0.2534767,52.4213812],[0.2536725,52.4217492],[0.2539058,52.4221811],[0.2540131,52.4224084],[0.2540333,52.4224728],[0.254056,52.4225507],[0.2540721,52.4226391],[0.2540802,52.4227061],[0.2540694,52.4228484],[0.2540372,52.4230202],[0.253989,52.4232426],[0.2539165,52.4236957],[0.2538683,52.4239231],[0.2538081,52.4241102],[0.2537476,52.4242208],[0.2536939,52.4243222],[0.2536269,52.4244138],[0.2535786,52.4244677],[0.2534498,52.4246313],[0.2533265,52.4247752],[0.2532165,52.4249143],[0.2531173,52.4250664],[0.2528571,52.4255047],[0.2525996,52.4258875],[0.2524306,52.4261524],[0.2523126,52.4263749],[0.2521302,52.4267036],[0.2520202,52.4268655],[0.2518997,52.4270127],[0.2517723,52.4271458],[0.2515186,52.4273757]]]}},
{"type":"Feature","properties":{"highway":"footway","name":null,"category":"Footpath (pedestrian only)"},"geometry":{"type":"MultiLineString","coordinates":[[[0.2548991,52.4026605],[0.2548286,52.402797],[0.2548905,52.4032464]]]}},
{"type":"Feature","properties":{"highway":"footway","name":null,"category":"Footpath (pedestrian only)"},"geometry":{"type":"MultiLineString","coordinates":[[[0.2548286,52.402797],[0.2546708,52.4026896]]]}},
{"type":"Feature","properties":{"highway":"footway","name":null,"category":"Footpath (pedestrian only)"},"geometry":{"type":"MultiLineString","coordinates":[[[0.2560485,52.4018925],[0.2560418,52.4018314],[0.2561409,52.4018097],[0.2562407,52.4018087],[0.2563281,52.4018409]]]}},
{"type":"Feature","properties":{"highway":"footway","name":null,"category":"Footpath (pedestrian only)"},"geometry":{"type":"MultiLineString","coordinates":[[[0.2447758,52.3982069],[0.24497,52.3981347],[0.2451363,52.3980545],[0.2452114,52.3979857],[0.2452195,52.3979579],[0.2452014,52.3978895]]]}},
{"type":"Feature","properties":{"highway":"footway","name":null,"category":"Footpath (pedestrian only)"},"geometry":{"type":"MultiLineString","coordinates":[[[0.2520393,52.4082814],[0.2519417,52.4082418],[0.2518781,52.408215],[0.2518353,52.4082023],[0.2517561,52.4081835],[0.2515943,52.4082024],[0.2513636,52.4081896],[0.2512618,52.4081839],[0.2511897,52.4081539]]]}},
{"type":"Feature","properties":{"highway":"footway","name":null,"category":"Footpath (pedestrian only)"},"geometry":{"type":"MultiLineString","coordinates":[[[0.2516046,52.4089508],[0.2514511,52.4090715],[0.2512423,52.4091365],[0.2511783,52.4091982],[0.2511913,52.409383],[0.2511983,52.4094827]]]}},
{"type":"Feature","properties":{"highway":"footway","name":null,"category":"Footpath (pedestrian only)"},"geometry":{"type":"MultiLineString","coordinates":[[[0.2516046,52.4089508],[0.2506907,52.4086151],[0.2504264,52.4085106],[0.2503863,52.4085044]]]}},
{"type":"Feature","properties":{"highway":"footway","name":null,"category":"Footpath (pedestrian only)"},"geometry":{"type":"MultiLineString","coordinates":[[[0.2500509,52.3961082],[0.2500972,52.3960976],[0.2505678,52.3959888],[0.2510902,52.3962332],[0.2518038,52.3962257],[0.252638,52.3959026],[0.2527093,52.3958394]]]}},
{"type":"Feature","properties":{"highway":"footway","name":null,"category":"Footpath (pedestrian only)"},"geometry":{"type":"MultiLineString","coordinates":[[[0.243146,52.4018678],[0.2460672,52.4006581],[0.2462665,52.4004813]]]}},
{"type":"Feature","properties":{"highway":"footway","name":null,"category":"Footpath (pedestrian only)"},"geometry":{"type":"MultiLineString","coordinates":[[[0.2496911,52.3951322],[0.2496104,52.3951647],[0.2495152,52.3952425],[0.2494334,52.3953259],[0.2494146,52.3954029],[0.2494508,52.3954921],[0.2495125,52.395569],[0.2496345,52.3956198]]]}},
{"type":"Feature","properties":{"highway":"footway","name":null,"category":"Footpath (pedestrian only)"},"geometry":{"type":"MultiLineString","coordinates":[[[0.2513122,52.4046985],[0.2514304,52.4046744]]]}},
{"type":"Feature","properties":{"highway":"footway","name":null,"category":"Footpath (pedestrian only)"},"geometry":{"type":"MultiLineString","coordinates":[[[0.2510303,52.4047607],[0.2513122,52.4046985]]]}},
{"type":"Feature","properties":{"highway":"footway","name":null,"category":"Footpath (pedestrian only)"},"geometry":{"type":"MultiLineString","coordinates":[[[0.2534877,52.3945811],[0.2537294,52.3945252],[0.2544136,52.3945252],[0.2555951,52.3945308],[0.2568992,52.3945077],[0.2574951,52.3945192],[0.257822,52.394537],[0.2581897,52.3945757],[0.2582485,52.3945858]]]}},
{"type":"Feature","properties":{"highway":"path","name":null,"category":"Shared path"},"geometry":{"type":"MultiLineString","coordinates":[[[0.2417089,52.4002139],[0.2415091,52.4000789],[0.2413267,52.3998367],[0.2412355,52.3995945],[0.2412516,52.3993785],[0.241214,52.3992639],[0.2411067,52.3991592],[0.2411014,52.3990086],[0.2411872,52.3986977],[0.2413052,52.3986224],[0.241457,52.3985955]]]}},
{"type":"Feature","properties":{"highway":"path","name":null,"category":"Shared path"},"geometry":{"type":"MultiLineString","coordinates":[[[0.2413052,52.3986224],[0.2411604,52.398606],[0.2411872,52.3986977]]]}},
{"type":"Feature","properties":{"highway":"path","name":null,"category":"Shared path"},"geometry":{"type":"MultiLineString","coordinates":[[[0.2411604,52.398606],[0.241037,52.3985144],[0.2406508,52.3983376],[0.2405649,52.3981838],[0.2404791,52.3979972],[0.2404523,52.3978761],[0.2404553,52.3978207]]]}},
{"type":"Feature","properties":{"highway":"path","name":null,"category":"Shared path"},"geometry":{"type":"MultiLineString","coordinates":[[[0.2579564,52.400803],[0.2579256,52.4006591],[0.2582126,52.4005855],[0.2582702,52.4005796]]]}},
{"type":"Feature","properties":{"highway":"path","name":null,"category":"Shared path"},"geometry":{"type":"MultiLineString","coordinates":[[[0.2579256,52.4006591],[0.2579051,52.4005852],[0.2578759,52.4005183]]]}},
{"type":"Feature","properties":{"highway":"footway","name":null,"category":"Footpath (pedestrian only)"},"geometry":{"type":"MultiLineString","coordinates":[[[0.2526581,52.4048654],[0.2526394,52.4048644],[0.252561,52.4048257]]]}},
{"type":"Feature","properties":{"highway":"footway","name":null,"category":"Footpath (pedestrian only)"},"geometry":{"type":"MultiLineString","coordinates":[[[0.2527975,52.4048376],[0.2526581,52.4048654]]]}},
{"type":"Feature","properties":{"highway":"track","name":null,"category":"Track"},"geometry":{"type":"MultiLineString","coordinates":[[[0.2393626,52.4060691],[0.2391578,52.4058136],[0.2390189,52.4056811]]]}},
{"type":"Feature","properties":{"highway":"track","name":"Hurst Lane","category":"Track"},"geometry":{"type":"MultiLineString","coordinates":[[[0.2449218,52.4053638],[0.2448545,52.4055778],[0.2447502,52.4057627],[0.2445785,52.4060404],[0.2445412,52.406153],[0.2445141,52.4062907],[0.2445278,52.4064235],[0.2445222,52.4066129],[0.2445194,52.4066798],[0.2445164,52.4067538],[0.2444941,52.4068722],[0.2444648,52.4070106],[0.2443768,52.4072101],[0.24421,52.4074692],[0.2441599,52.4075484],[0.2440002,52.4078618]]]}},
{"type":"Feature","properties":{"highway":"footway","name":null,"category":"Footpath (pedestrian only)"},"geometry":{"type":"MultiLineString","coordinates":[[[0.2416022,52.3951715],[0.2427667,52.3955453]]]}},
{"type":"Feature","properties":{"highway":"footway","name":null,"category":"Footpath (pedestrian only)"},"geometry":{"type":"MultiLineString","coordinates":[[[0.2544762,52.4083697],[0.2545318,52.4083471],[0.2546033,52.4083224],[0.2546965,52.4082998],[0.2548366,52.4082984],[0.2549533,52.4083221],[0.2550659,52.4083549],[0.2551113,52.4083316],[0.2551864,52.4082905],[0.2552295,52.4082664],[0.2552088,52.4082299],[0.2552002,52.4081727],[0.2552317,52.4081049],[0.2553036,52.4080325],[0.2554961,52.407906],[0.255652,52.4078148],[0.2557955,52.4077578],[0.255915,52.4076646],[0.2560342,52.407558],[0.2562066,52.4073948],[0.2562307,52.4073738]]]}},
{"type":"Feature","properties":{"highway":"footway","name":null,"category":"Footpath (pedestrian only)"},"geometry":{"type":"MultiLineString","coordinates":[[[0.2479492,52.3932112],[0.2479245,52.3931937],[0.2479357,52.3931799],[0.2479504,52.3931471],[0.2480054,52.393118],[0.2480301,52.3930674],[0.2480908,52.3930312],[0.2481648,52.3930231],[0.248259,52.3929694],[0.2483681,52.3928998],[0.2485516,52.3927961],[0.2486471,52.392728],[0.2488009,52.3926327],[0.248915,52.3925736],[0.2490972,52.3924677],[0.2492274,52.3923867],[0.2494048,52.3922816],[0.2496304,52.3921393],[0.2497631,52.3920674],[0.2498325,52.3920341]]]}},
{"type":"Feature","properties":{"highway":"footway","name":null,"category":"Footpath (pedestrian only)"},"geometry":{"type":"MultiLineString","coordinates":[[[0.2479492,52.3932112],[0.2478982,52.3932259],[0.247825,52.393232],[0.2477953,52.3932758],[0.2477734,52.3933437]]]}},
{"type":"Feature","properties":{"highway":"footway","name":null,"category":"Footpath (pedestrian only)"},"geometry":{"type":"MultiLineString","coordinates":[[[0.2498325,52.3920341],[0.2498619,52.3920115],[0.2498974,52.3920069],[0.2499362,52.3920366],[0.2499459,52.3920687]]]}},
{"type":"Feature","properties":{"highway":"path","name":null,"category":"Shared path"},"geometry":{"type":"MultiLineString","coordinates":[[[0.2582702,52.4005796],[0.2579564,52.400803],[0.257942,52.4008391]]]}},
{"type":"Feature","properties":{"highway":"footway","name":null,"category":"Footpath (pedestrian only)"},"geometry":{"type":"MultiLineString","coordinates":[[[0.2468179,52.3969369],[0.2477595,52.3966802]]]}},
{"type":"Feature","properties":{"highway":"footway","name":null,"category":"Footpath (pedestrian only)"},"geometry":{"type":"MultiLineString","coordinates":[[[0.2580969,52.4008929],[0.2580902,52.4008691],[0.2580808,52.4008544],[0.2580412,52.4008413],[0.257942,52.4008391]]]}},
{"type":"Feature","properties":{"highway":"footway","name":null,"category":"Footpath (pedestrian only)"},"geometry":{"type":"MultiLineString","coordinates":[[[0.2531042,52.4047677],[0.2528682,52.4048197],[0.2527975,52.4048376]]]}},
{"type":"Feature","properties":{"highway":"footway","name":null,"category":"Footpath (pedestrian only)"},"geometry":{"type":"MultiLineString","coordinates":[[[0.251764,52.4050074],[0.2519844,52.4049667],[0.2520266,52.4049422]]]}},
{"type":"Feature","properties":{"highway":"footway","name":null,"category":"Footpath (pedestrian only)"},"geometry":{"type":"MultiLineString","coordinates":[[[0.250022,52.405266],[0.2500521,52.405234],[0.2503439,52.4052338]]]}},
{"type":"Feature","properties":{"highway":"footway","name":null,"category":"Footpath (pedestrian only)"},"geometry":{"type":"MultiLineString","coordinates":[[[0.2524533,52.4076602],[0.2524432,52.4077999]]]}},
{"type":"Feature","properties":{"highway":"footway","name":null,"category":"Footpath (pedestrian only)"},"geometry":{"type":"MultiLineString","coordinates":[[[0.252318,52.4114479],[0.252243,52.4108171],[0.2522188,52.4107885],[0.2522115,52.4107542],[0.252196,52.4106813],[0.2522443,52.410656],[0.2522738,52.4102396],[0.2522403,52.4102077],[0.2521572,52.4101651],[0.2521142,52.4101316],[0.2520941,52.4100841],[0.2520966,52.4100466],[0.252097,52.40997],[0.2520981,52.4099451]]]}},
{"type":"Feature","properties":{"highway":"footway","name":null,"category":"Footpath (pedestrian only)"},"geometry":{"type":"MultiLineString","coordinates":[[[0.2514262,52.4094689],[0.2514665,52.4094853],[0.2514703,52.4095636],[0.2514705,52.4096015],[0.2516715,52.4096761],[0.2517441,52.4097029],[0.2518152,52.4097299],[0.2517831,52.4097555],[0.2517602,52.4097702],[0.2517226,52.4097913],[0.2513914,52.4097937],[0.2513994,52.4099362],[0.2514021,52.4099844],[0.2520794,52.4099713],[0.252097,52.40997]]]}},
{"type":"Feature","properties":{"highway":"footway","name":null,"category":"Footpath (pedestrian only)"},"geometry":{"type":"MultiLineString","coordinates":[[[0.2511913,52.409383],[0.2514262,52.4094689],[0.2515956,52.4093072],[0.2515957,52.4092464]]]}},
{"type":"Feature","properties":{"highway":"footway","name":null,"category":"Footpath (pedestrian only)"},"geometry":{"type":"MultiLineString","coordinates":[[[0.2511983,52.4094827],[0.251201,52.4095673],[0.251209,52.4097167],[0.251213,52.4098601],[0.251217,52.4099373],[0.251221,52.4100158],[0.2512224,52.4100956],[0.2520941,52.4100841]]]}},
{"type":"Feature","properties":{"highway":"footway","name":null,"category":"Footpath (pedestrian only)"},"geometry":{"type":"MultiLineString","coordinates":[[[0.253505,52.4094809],[0.2534634,52.4095152],[0.2534239,52.4095666],[0.2533969,52.4096024],[0.2533157,52.4095827],[0.2532272,52.4095713],[0.253136,52.4095664],[0.2530529,52.409568],[0.2529751,52.4095844],[0.2528946,52.4096089],[0.2528142,52.4096514],[0.2527317,52.4096453]]]}},
{"type":"Feature","properties":{"highway":"footway","name":null,"category":"Footpath (pedestrian only)"},"geometry":{"type":"MultiLineString","coordinates":[[[0.2508606,52.3942844],[0.2506658,52.3943204]]]}},
{"type":"Feature","properties":{"highway":"footway","name":null,"category":"Footpath (pedestrian only)"},"geometry":{"type":"MultiLineString","coordinates":[[[0.2491059,52.3936763],[0.2491428,52.3938423]]]}},
{"type":"Feature","properties":{"highway":"track","name":null,"category":"Track"},"geometry":{"type":"MultiLineString","coordinates":[[[0.2475545,52.4068134],[0.2478282,52.4067284]]]}},
{"type":"Feature","properties":{"highway":"footway","name":null,"category":"Footpath (pedestrian only)"},"geometry":{"type":"MultiLineString","coordinates":[[[0.2499459,52.3920687],[0.2503073,52.3922989]]]}},
{"type":"Feature","properties":{"highway":"footway","name":null,"category":"Footpath (pedestrian only)"},"geometry":{"type":"MultiLineString","coordinates":[[[0.2479913,52.4063942],[0.2480816,52.4063931],[0.2481511,52.4063811],[0.2482168,52.4063559]]]}},
{"type":"Feature","properties":{"highway":"footway","name":null,"category":"Footpath (pedestrian only)"},"geometry":{"type":"MultiLineString","coordinates":[[[0.247061,52.4057397],[0.2472324,52.4058102],[0.2474594,52.4059047],[0.2476117,52.4059681]]]}},
{"type":"Feature","properties":{"highway":"footway","name":null,"category":"Footpath (pedestrian only)"},"geometry":{"type":"MultiLineString","coordinates":[[[0.2541255,52.4085607],[0.2540885,52.4085405]]]}},
{"type":"Feature","properties":{"highway":"track","name":"Hurst Lane","category":"Track"},"geometry":{"type":"MultiLineString","coordinates":[[[0.2440002,52.4078618],[0.2438944,52.4080628],[0.2438533,52.4081958],[0.2438408,52.4083263],[0.243875,52.4084473],[0.2439106,52.4086552],[0.2439259,52.4087728],[0.2439254,52.4088542],[0.2439221,52.4089496],[0.2439019,52.409036],[0.2438664,52.4090985],[0.2437913,52.4091557],[0.2437204,52.409193],[0.2434674,52.4092542],[0.243269,52.4093063],[0.2431597,52.4093406],[0.2430203,52.4093937],[0.2428441,52.4094849],[0.2426284,52.4096335],[0.2424351,52.4098024]]]}},
{"type":"Feature","properties":{"highway":"track","name":null,"category":"Track"},"geometry":{"type":"MultiLineString","coordinates":[[[0.2441599,52.4075484],[0.2439529,52.4076334],[0.2437455,52.4077112],[0.2433226,52.4078698]]]}},
{"type":"Feature","properties":{"highway":"track","name":null,"category":"Track"},"geometry":{"type":"MultiLineString","coordinates":[[[0.2437455,52.4077112],[0.243259,52.407218]]]}},
{"type":"Feature","properties":{"highway":"track","name":null,"category":"Track"},"geometry":{"type":"MultiLineString","coordinates":[[[0.2445194,52.4066798],[0.2439867,52.4068844],[0.243881,52.4069824],[0.243259,52.407218],[0.2430944,52.4072564],[0.242387,52.4075218]]]}},
{"type":"Feature","properties":{"highway":"footway","name":null,"category":"Footpath (pedestrian only)"},"geometry":{"type":"MultiLineString","coordinates":[[[0.2479878,52.4087911],[0.2491457,52.4087687],[0.2504269,52.4087439],[0.2504928,52.4087399]]]}},
{"type":"Feature","properties":{"highway":"footway","name":null,"category":"Footpath (pedestrian only)"},"geometry":{"type":"MultiLineString","coordinates":[[[0.2491474,52.4088028],[0.2491457,52.4087687],[0.24914,52.4086473],[0.2491332,52.4085032],[0.2491265,52.4083625],[0.24912,52.4082263],[0.2491131,52.4080799],[0.2491117,52.4080499],[0.2492534,52.4079697]]]}},
{"type":"Feature","properties":{"highway":"footway","name":null,"category":"Footpath (pedestrian only)"},"geometry":{"type":"MultiLineString","coordinates":[[[0.2504715,52.409959],[0.2505572,52.409957],[0.2505525,52.4098681],[0.2505447,52.4097221],[0.250537,52.4095766],[0.2505291,52.4094273],[0.2505216,52.409285],[0.2505143,52.409147],[0.2505063,52.4089958],[0.2504928,52.4087399],[0.2504879,52.4086436],[0.2504493,52.408568],[0.2503863,52.4085044],[0.2494798,52.408063],[0.249285,52.4079481],[0.2492534,52.4079697]]]}},
{"type":"Feature","properties":{"highway":"footway","name":null,"category":"Footpath (pedestrian only)"},"geometry":{"type":"MultiLineString","coordinates":[[[0.2513994,52.4099362],[0.2512487,52.4099374],[0.251217,52.4099373],[0.2505572,52.409957]]]}},
{"type":"Feature","properties":{"highway":"footway","name":"Links 2 footpaths without going on road","category":"Footpath (pedestrian only)"},"geometry":{"type":"MultiLineString","coordinates":[[[0.248694,52.393309],[0.2480444,52.3931969],[0.2479492,52.3932112]]]}},
{"type":"Feature","properties":{"highway":"footway","name":null,"category":"Footpath (pedestrian only)"},"geometry":{"type":"MultiLineString","coordinates":[[[0.2496284,52.3938158],[0.2496741,52.3937694]]]}},
{"type":"Feature","properties":{"highway":"footway","name":null,"category":"Footpath (pedestrian only)"},"geometry":{"type":"MultiLineString","coordinates":[[[0.2451236,52.3946427],[0.2448306,52.3948492]]]}},
{"type":"Feature","properties":{"highway":"footway","name":null,"category":"Footpath (pedestrian only)"},"geometry":{"type":"MultiLineString","coordinates":[[[0.2429993,52.3971502],[0.24246,52.3970562]]]}},
{"type":"Feature","properties":{"highway":"footway","name":null,"category":"Footpath (pedestrian only)"},"geometry":{"type":"MultiLineString","coordinates":[[[0.2419458,52.3969627],[0.2421267,52.3970542],[0.2423076,52.397087],[0.24246,52.3970562]]]}}
]
}
