{
"type": "FeatureCollection",
"name": "HUNTI_88_NACH",
"crs": { "type": "name", "properties": { "name": "urn:ogc:def:crs:OGC:1.3:CRS84" } },
"features": [
{"type":"Feature","properties":{"id":20728,"nach":0.29073384107953987},"geometry":{"type":"LineString","coordinates":[[-0.2583167,52.2766893],[-0.2585907,52.2766857]]}},
{"type":"Feature","properties":{"id":85650,"nach":0.074471412848577223},"geometry":{"type":"LineString","coordinates":[[-0.2617948,52.2699688],[-0.2615556,52.2703594],[-0.2612131,52.2709083],[-0.2609181,52.2713812],[-0.260377,52.272277],[-0.2600508,52.27283520000001],[-0.2595804,52.2736011],[-0.2592758,52.2741164],[-0.2591059,52.2744386],[-0.2589845,52.2747029],[-0.2588826,52.2749487],[-0.2588135,52.2751517],[-0.2587711,52.275296100000013],[-0.2587324,52.27544970000001],[-0.258668,52.2757262],[-0.2586236,52.2760472],[-0.2586122,52.2761674],[-0.2585961,52.2763762],[-0.2585907,52.2766857]]}},
{"type":"Feature","properties":{"id":45090,"nach":0.30723310653002872},"geometry":{"type":"LineString","coordinates":[[-0.2582024,52.27669740000001],[-0.2583167,52.2766893]]}},
{"type":"Feature","properties":{"id":20729,"nach":0.19206497851360801},"geometry":{"type":"LineString","coordinates":[[-0.2583167,52.2766893],[-0.2583745,52.2762936],[-0.2584142,52.276044],[-0.2584985,52.275679100000012],[-0.2585259,52.2755531],[-0.2586092,52.275254],[-0.2586759,52.2750157],[-0.2587847,52.2747083],[-0.2589488,52.2742793],[-0.2590344,52.2740751],[-0.2591131,52.2738996],[-0.2592823,52.2735586],[-0.2594317,52.2732771],[-0.259873,52.2725296],[-0.2607042,52.2712093],[-0.26086190000001,52.2709524],[-0.2612738,52.270284]]}},
{"type":"Feature","properties":{"id":100865,"nach":0.21807598074242818},"geometry":{"type":"LineString","coordinates":[[-0.2582962,52.2770013],[-0.2583167,52.2766893]]}},
{"type":"Feature","properties":{"id":100877,"nach":0.237105386955375},"geometry":{"type":"LineString","coordinates":[[-0.2582028,52.2766166],[-0.2582013,52.276643100000015],[-0.2582024,52.27669740000001]]}},
{"type":"Feature","properties":{"id":100869,"nach":0.31439771380258247},"geometry":{"type":"LineString","coordinates":[[-0.2580123,52.2767023],[-0.2581018,52.2766987],[-0.2582024,52.27669740000001]]}},
{"type":"Feature","properties":{"id":70303,"nach":0.278953302867471},"geometry":{"type":"LineString","coordinates":[[-0.2612738,52.270284],[-0.2611846,52.27026390000001]]}},
{"type":"Feature","properties":{"id":70304,"nach":0.32171374702766437},"geometry":{"type":"LineString","coordinates":[[-0.2612738,52.270284],[-0.2616241,52.2697204],[-0.2618405,52.2693679],[-0.2619515,52.2691644]]}},
{"type":"Feature","properties":{"id":100882,"nach":0.45173976572505697},"geometry":{"type":"LineString","coordinates":[[-0.2623351,52.268666],[-0.2624849,52.2686747]]}},
{"type":"Feature","properties":{"id":100887,"nach":0.45681918849557601},"geometry":{"type":"LineString","coordinates":[[-0.2634062,52.2681223],[-0.2630714,52.268352],[-0.2627085,52.268603199999987],[-0.2626695,52.2686232],[-0.2626151,52.2686484],[-0.2625715,52.2686604],[-0.2625351,52.268668299999987],[-0.2624849,52.2686747]]}},
{"type":"Feature","properties":{"id":20745,"nach":0.31151128182018339},"geometry":{"type":"LineString","coordinates":[[-0.2624849,52.2686747],[-0.2624418,52.2688095],[-0.2623285,52.2690611],[-0.2621813,52.2693366],[-0.2617948,52.2699688]]}},
{"type":"Feature","properties":{"id":100890,"nach":0.37905499711530938},"geometry":{"type":"LineString","coordinates":[[-0.262558,52.2680456],[-0.2625626,52.268099300000017],[-0.2625671,52.268207],[-0.2625528,52.2683336],[-0.2625379,52.2684589],[-0.2625114,52.2685917],[-0.2624849,52.2686747]]}},
{"type":"Feature","properties":{"id":44965,"nach":0.33821525378500977},"geometry":{"type":"LineString","coordinates":[[-0.2619515,52.2691644],[-0.262114,52.2690201],[-0.2621935,52.2688739],[-0.2622421,52.268793300000013],[-0.2622734,52.2687461],[-0.2623351,52.268666]]}},
{"type":"Feature","properties":{"id":100883,"nach":0.43230822015490439},"geometry":{"type":"LineString","coordinates":[[-0.2623351,52.268666],[-0.2622705,52.2686354],[-0.2622205,52.268601600000011],[-0.2621843,52.2685705]]}},
{"type":"Feature","properties":{"id":85654,"nach":0.0},"geometry":{"type":"LineString","coordinates":[[-0.2798402,52.2742849],[-0.2775654,52.2742734],[-0.2750248,52.27423120000001],[-0.2748639,52.2742084],[-0.2747325,52.2741748],[-0.2745931,52.2741111],[-0.2745186,52.274065500000013],[-0.2744597,52.2739839],[-0.2744224,52.2739082],[-0.2744185,52.273805],[-0.274442,52.2737197],[-0.274639,52.2731568],[-0.2746868,52.2730272],[-0.2746595,52.2729436],[-0.2745911,52.2728349],[-0.2744818,52.2727596],[-0.27427,52.2726927],[-0.2698037,52.271653],[-0.2684445,52.2713199],[-0.2669922,52.271026900000017],[-0.2639624,52.2704133],[-0.2629913,52.2702212],[-0.262095,52.2700314],[-0.2617948,52.2699688]]}},
{"type":"Feature","properties":{"id":20746,"nach":0.38316967860057977},"geometry":{"type":"LineString","coordinates":[[-0.2621843,52.2685705],[-0.2621969,52.2685007],[-0.2622198,52.2683037],[-0.2622193,52.2681242],[-0.2622013,52.2679134],[-0.2621823,52.2678229],[-0.262157,52.2677101],[-0.262109,52.2675621],[-0.2620744,52.267472],[-0.2620238,52.2673565],[-0.2619531,52.26721040000001],[-0.2618898,52.2670846],[-0.2618053,52.2669367],[-0.2614719,52.26633120000001]]}},
{"type":"Feature","properties":{"id":100885,"nach":0.41853628484513833},"geometry":{"type":"LineString","coordinates":[[-0.262157,52.2686672],[-0.2621843,52.2685705]]}},
{"type":"Feature","properties":{"id":44966,"nach":0.30413253794463679},"geometry":{"type":"LineString","coordinates":[[-0.2619515,52.2691644],[-0.2620106,52.2690443],[-0.2620853,52.2688752],[-0.262157,52.2686672]]}},
{"type":"Feature","properties":{"id":100884,"nach":0.39399362939425364},"geometry":{"type":"LineString","coordinates":[[-0.262157,52.2686672],[-0.2620789,52.2686566]]}},
{"type":"Feature","properties":{"id":100876,"nach":0.18375310214028673},"geometry":{"type":"LineString","coordinates":[[-0.2582028,52.2766166],[-0.2582056,52.2765682],[-0.2582241,52.276498],[-0.2582578,52.276386],[-0.2583405,52.2759641],[-0.2584417,52.275501],[-0.2585416,52.275162],[-0.2585782,52.2750424],[-0.2588608,52.2742554],[-0.258976,52.27399040000001],[-0.2591673,52.273582400000016],[-0.2594266,52.2731177],[-0.2597483,52.2725797],[-0.2599604,52.2722585],[-0.2603764,52.271567599999983],[-0.2608538,52.2707979],[-0.2611846,52.27026390000001]]}},
{"type":"Feature","properties":{"id":100878,"nach":0.24853527785051349},"geometry":{"type":"LineString","coordinates":[[-0.2582028,52.2766166],[-0.2581746,52.2766349],[-0.2581478,52.2766458],[-0.2580625,52.2766598],[-0.2580123,52.2767023]]}},
{"type":"Feature","properties":{"id":107351,"nach":0.2068932423164099},"geometry":{"type":"LineString","coordinates":[[-0.2438709,52.2658492],[-0.2437697,52.2659872],[-0.2437526,52.2660298],[-0.243711,52.2668249],[-0.2437326,52.2670922],[-0.2438305,52.2675065],[-0.2440247,52.2677252],[-0.244114,52.2680934],[-0.2440555,52.2686095],[-0.2440906,52.2687369],[-0.2441253,52.2687491],[-0.2442449,52.2687568],[-0.2443247,52.2688263],[-0.2443347,52.2688791],[-0.2443308,52.2689261],[-0.2439681,52.2695959],[-0.2436361,52.2697194],[-0.2435403,52.2698718],[-0.2431509,52.2711035]]}},
{"type":"Feature","properties":{"id":100870,"nach":0.37313857457836347},"geometry":{"type":"LineString","coordinates":[[-0.2581562,52.2767815],[-0.2580123,52.2767023]]}},
{"type":"Feature","properties":{"id":100867,"nach":0.40413631764316799},"geometry":{"type":"LineString","coordinates":[[-0.2580123,52.2767023],[-0.2578547,52.276705699999987],[-0.2576831,52.27670950000001],[-0.2573051,52.276753],[-0.2563881,52.2770037]]}},
{"type":"Feature","properties":{"id":58439,"nach":0.20682914443836087},"geometry":{"type":"LineString","coordinates":[[-0.2431509,52.2711035],[-0.2435955,52.27116980000001]]}},
{"type":"Feature","properties":{"id":107130,"nach":0.24554971737834816},"geometry":{"type":"LineString","coordinates":[[-0.242689,52.2712613],[-0.2427807,52.271120299999986],[-0.2427987,52.2711015],[-0.2428345,52.2710958],[-0.2431509,52.2711035]]}},
{"type":"Feature","properties":{"id":107131,"nach":0.0},"geometry":{"type":"LineString","coordinates":[[-0.242689,52.2712613],[-0.2422338,52.2718525],[-0.2421786,52.2719789],[-0.2421795,52.2720037],[-0.242212,52.2720159],[-0.2431275,52.2721682],[-0.2434253,52.2722364],[-0.2434891,52.2722453],[-0.2435854,52.2722454],[-0.2440318,52.2721331],[-0.2441435,52.2721212],[-0.2443085,52.2721092],[-0.2446603,52.2721341],[-0.2447584,52.2721449],[-0.2448659,52.2721671],[-0.2450107,52.272210800000018],[-0.2451322,52.2722647],[-0.2452633,52.2723442],[-0.2454264,52.272476],[-0.2456685,52.2726598],[-0.2459328,52.2729116],[-0.2459744,52.272942099999987],[-0.246046,52.2729576],[-0.2461509,52.2729518],[-0.2465531,52.2728777],[-0.246844,52.27285890000001],[-0.2469314,52.2728685],[-0.2469971,52.2728901],[-0.2470776,52.2729339],[-0.2472596,52.2730879],[-0.2473927,52.2731791],[-0.2474302,52.2732033],[-0.2474366,52.2732345],[-0.2472993,52.2736153],[-0.2472752,52.2736679],[-0.2472537,52.2737279],[-0.2472343,52.2740465],[-0.247194,52.2741831],[-0.2471081,52.2743727],[-0.2469099,52.2747436],[-0.246847,52.2748125],[-0.2467131,52.2749066],[-0.2462986,52.2751054],[-0.2462425,52.2751251],[-0.2461594,52.27514630000001],[-0.2455532,52.2752518],[-0.2454789,52.2752806],[-0.2454512,52.27532],[-0.245337,52.275460499999987],[-0.245286,52.2754997],[-0.2452084,52.2755332],[-0.2447348,52.2756606],[-0.2446247,52.2756898],[-0.2445291,52.2757338],[-0.2439725,52.2760186],[-0.2439108,52.2760714],[-0.2438714,52.27612340000001],[-0.243827,52.276222700000012],[-0.2435521,52.2765692],[-0.2432898,52.2768927]]}},
{"type":"Feature","properties":{"id":108024,"nach":0.24918714622343999},"geometry":{"type":"LineString","coordinates":[[-0.2387751,52.2706441],[-0.242689,52.2712613]]}},
{"type":"Feature","properties":{"id":108023,"nach":0.19261224643679822},"geometry":{"type":"LineString","coordinates":[[-0.2443208,52.271095099999989],[-0.2439088,52.2713314],[-0.2435489,52.2713935],[-0.242689,52.2712613]]}}
]
}
