{
"type": "FeatureCollection",
"name": "HUNTI_236_NACH",
"crs": { "type": "name", "properties": { "name": "urn:ogc:def:crs:OGC:1.3:CRS84" } },
"features": [
{"type":"Feature","properties":{"id":1172,"nach":0.37573814520750365},"geometry":{"type":"LineString","coordinates":[[-0.1521768,52.3683639],[-0.1520065,52.3682716]]}},
{"type":"Feature","properties":{"id":72847,"nach":0.42059719693427133},"geometry":{"type":"LineString","coordinates":[[-0.1517278,52.3686804],[-0.1517727,52.3685836],[-0.1517862,52.3684962],[-0.1518159,52.3684255],[-0.1518742,52.3683617],[-0.1519802,52.3682901],[-0.1520065,52.3682716]]}},
{"type":"Feature","properties":{"id":36151,"nach":0.33340363188059408},"geometry":{"type":"LineString","coordinates":[[-0.1468174,52.3654155],[-0.1499653,52.3669317],[-0.1505153,52.3672348],[-0.1509278,52.367519300000012],[-0.1514165,52.3678975],[-0.1517057,52.3680876],[-0.1520065,52.3682716]]}},
{"type":"Feature","properties":{"id":62969,"nach":0.28702538799148325},"geometry":{"type":"LineString","coordinates":[[-0.15572,52.36567],[-0.1552734,52.366107],[-0.1548218,52.366558],[-0.1544711,52.3668727],[-0.1538228,52.36733670000001],[-0.152962,52.3678428],[-0.1522119,52.368341],[-0.1521768,52.3683639]]}},
{"type":"Feature","properties":{"id":62972,"nach":0.27193064863740346},"geometry":{"type":"LineString","coordinates":[[-0.1567552,52.370946600000011],[-0.1551992,52.3700687],[-0.1526338,52.3686207],[-0.1521768,52.3683639]]}},
{"type":"Feature","properties":{"id":78719,"nach":0.44657649667154442},"geometry":{"type":"LineString","coordinates":[[-0.1513471,52.3691558],[-0.1514322,52.36905070000001],[-0.1516855,52.3687396],[-0.1517278,52.3686804]]}},
{"type":"Feature","properties":{"id":87106,"nach":0.33858902454543571},"geometry":{"type":"LineString","coordinates":[[-0.1520407,52.3684808],[-0.1518052,52.3686584],[-0.1517278,52.3686804]]}},
{"type":"Feature","properties":{"id":62968,"nach":0.28264448428834282},"geometry":{"type":"LineString","coordinates":[[-0.15572,52.36567],[-0.1560758,52.3653218],[-0.15674,52.3645658],[-0.1570907,52.3640142],[-0.1574414,52.3633977],[-0.1580283,52.3624199]]}},
{"type":"Feature","properties":{"id":62971,"nach":0.21794424801432438},"geometry":{"type":"LineString","coordinates":[[-0.1597192,52.364891800000017],[-0.1574263,52.365599],[-0.1573002,52.365638900000015],[-0.1571274,52.3656674],[-0.1569499,52.3656845],[-0.1562775,52.3657587],[-0.1561,52.3657558],[-0.1558992,52.3657216],[-0.15572,52.36567]]}},
{"type":"Feature","properties":{"id":62967,"nach":0.16229913200564813},"geometry":{"type":"LineString","coordinates":[[-0.170027,52.352604600000014],[-0.1697346,52.352735800000012],[-0.16618,52.3553513],[-0.1645319,52.356306300000014],[-0.1633132,52.3570203]]}},
{"type":"Feature","properties":{"id":36879,"nach":0.28456487423723836},"geometry":{"type":"LineString","coordinates":[[-0.1634297,52.3571052],[-0.1635129,52.3571609],[-0.1636095,52.3572216],[-0.1637302,52.357251],[-0.1638589,52.357265799999986],[-0.1639968,52.3572592]]}},
{"type":"Feature","properties":{"id":36883,"nach":0.32230871506314701},"geometry":{"type":"LineString","coordinates":[[-0.1633132,52.3570203],[-0.1634297,52.3571052]]}},
{"type":"Feature","properties":{"id":89006,"nach":0.316247657087114},"geometry":{"type":"LineString","coordinates":[[-0.1611133,52.3599716],[-0.1611764,52.3598883],[-0.1612194,52.3597851],[-0.1612381,52.3596884],[-0.1612381,52.3596295],[-0.1612006,52.3595263],[-0.161155,52.3594575],[-0.1611174,52.3594132],[-0.160916,52.359425200000011],[-0.1608181,52.3594293],[-0.1607148,52.35941050000001],[-0.1605847,52.3593663],[-0.1604801,52.3593376],[-0.160397,52.3592852],[-0.1603634,52.3592106],[-0.1603746,52.3591435],[-0.1603495,52.3591148],[-0.160283,52.3590862],[-0.1602789,52.3590419],[-0.1602977,52.358966600000016],[-0.1603232,52.3589404],[-0.1604153,52.3588791],[-0.160638,52.3587382],[-0.1615177,52.3582108],[-0.1624324,52.3576735],[-0.1634297,52.3571052]]}},
{"type":"Feature","properties":{"id":90239,"nach":0.14887985191910402},"geometry":{"type":"LineString","coordinates":[[-0.1700584,52.3526353],[-0.1697276,52.35282320000001],[-0.1687405,52.3535375],[-0.1678393,52.3542187],[-0.1663669,52.355297],[-0.1664195,52.355382],[-0.1657311,52.3557783],[-0.1645134,52.35649750000001],[-0.1634297,52.3571052]]}},
{"type":"Feature","properties":{"id":43737,"nach":0.32646970139780102},"geometry":{"type":"LineString","coordinates":[[-0.1622289,52.3576556],[-0.1633132,52.3570203]]}},
{"type":"Feature","properties":{"id":89003,"nach":0.32080600078919513},"geometry":{"type":"LineString","coordinates":[[-0.1611133,52.3599716],[-0.1611402,52.3600223],[-0.1611938,52.3601566],[-0.1611938,52.360232],[-0.1611724,52.3603352],[-0.1611375,52.3604072],[-0.1610543,52.360494],[-0.1609578,52.3605825],[-0.1609068,52.3606316],[-0.1608505,52.3607135],[-0.1608371,52.3607954],[-0.1608478,52.3608642],[-0.160876,52.360918]]}},
{"type":"Feature","properties":{"id":89004,"nach":0.1620960919555228},"geometry":{"type":"LineString","coordinates":[[-0.1611133,52.3599716],[-0.1610061,52.359881399999985],[-0.1608854,52.359814299999989],[-0.1607727,52.35977170000001],[-0.1606064,52.359735599999986],[-0.1604294,52.3597225],[-0.1602926,52.3597258],[-0.1601665,52.3597422],[-0.1599895,52.359793]]}},
{"type":"Feature","properties":{"id":89010,"nach":0.26578876282614383},"geometry":{"type":"LineString","coordinates":[[-0.1604133,52.3602123],[-0.1605501,52.3602041],[-0.160703,52.3601746],[-0.1608612,52.36011890000001],[-0.1609873,52.3600616],[-0.1610623,52.3600092],[-0.1611133,52.3599716]]}},
{"type":"Feature","properties":{"id":62946,"nach":0.29346142512913764},"geometry":{"type":"LineString","coordinates":[[-0.1588106,52.3611507],[-0.1590939,52.3606461],[-0.1591775,52.36047580000001],[-0.1592533,52.3602794],[-0.1592941,52.3600837],[-0.1593183,52.3599025],[-0.1593718,52.359585],[-0.1594632,52.3594083],[-0.1596757,52.3592325],[-0.1601703,52.3589293],[-0.1610782,52.3583855],[-0.1618101,52.35794520000001],[-0.1620169,52.3578254],[-0.1622289,52.3576556]]}},
{"type":"Feature","properties":{"id":64675,"nach":0.27770012781499154},"geometry":{"type":"LineString","coordinates":[[-0.1606869,52.3543034],[-0.1607604,52.354333],[-0.1608425,52.354444100000016],[-0.161296,52.3555227],[-0.1619674,52.357117299999985],[-0.1622289,52.3576556]]}},
{"type":"Feature","properties":{"id":62960,"nach":0.361926088593372},"geometry":{"type":"LineString","coordinates":[[-0.1583704,52.3618669],[-0.1587751,52.3612139],[-0.1588106,52.3611507]]}},
{"type":"Feature","properties":{"id":62949,"nach":0.30141383357381368},"geometry":{"type":"LineString","coordinates":[[-0.1584236,52.3608629],[-0.1584519,52.360962300000011],[-0.1585368,52.3610704],[-0.158643,52.3611222],[-0.1588106,52.3611507]]}},
{"type":"Feature","properties":{"id":64674,"nach":0.28767080090601027},"geometry":{"type":"LineString","coordinates":[[-0.1606869,52.3543034],[-0.1605474,52.3542903],[-0.1603436,52.3542608],[-0.1601236,52.3541691],[-0.1600638,52.3541327]]}},
{"type":"Feature","properties":{"id":91436,"nach":0.21159229949390856},"geometry":{"type":"LineString","coordinates":[[-0.1607823,52.354206],[-0.160762,52.35424110000001],[-0.1606869,52.3543034]]}},
{"type":"Feature","properties":{"id":81111,"nach":0.39290915812846605},"geometry":{"type":"LineString","coordinates":[[-0.1583465,52.3619054],[-0.1583704,52.3618669]]}},
{"type":"Feature","properties":{"id":62961,"nach":0.30274329975526265},"geometry":{"type":"LineString","coordinates":[[-0.1581985,52.3618289],[-0.1583704,52.3618669]]}},
{"type":"Feature","properties":{"id":81112,"nach":0.39676303836528404},"geometry":{"type":"LineString","coordinates":[[-0.1583465,52.3619054],[-0.1581827,52.362169799999982]]}},
{"type":"Feature","properties":{"id":62953,"nach":0.30326027782603004},"geometry":{"type":"LineString","coordinates":[[-0.1576181,52.3620515],[-0.1581827,52.362169799999982]]}},
{"type":"Feature","properties":{"id":62955,"nach":0.36324487075488698},"geometry":{"type":"LineString","coordinates":[[-0.1580283,52.3624199],[-0.1580471,52.3623886],[-0.1581827,52.362169799999982]]}},
{"type":"Feature","properties":{"id":89023,"nach":0.42897096744262742},"geometry":{"type":"LineString","coordinates":[[-0.1602274,52.3617033],[-0.1599922,52.3617602],[-0.159445,52.3618683],[-0.1591929,52.3618929],[-0.1589622,52.3619011],[-0.1586317,52.3619034],[-0.1583465,52.3619054]]}},
{"type":"Feature","properties":{"id":62957,"nach":0.30203328975790411},"geometry":{"type":"LineString","coordinates":[[-0.1576687,52.3623525],[-0.1580283,52.3624199]]}},
{"type":"Feature","properties":{"id":91435,"nach":0.074066246824991092},"geometry":{"type":"LineString","coordinates":[[-0.1607823,52.354206],[-0.1610526,52.3541835],[-0.1612586,52.3541572],[-0.1613255,52.3541371],[-0.16138,52.3541038],[-0.1614059,52.3540436],[-0.1614111,52.35383920000001],[-0.1613981,52.3537679],[-0.1613436,52.3537108],[-0.1612684,52.3536871],[-0.1611646,52.353668],[-0.1610427,52.353677500000011],[-0.1609311,52.353690200000017],[-0.1607459,52.35372670000001]]}},
{"type":"Feature","properties":{"id":64670,"nach":0.2893050457558321},"geometry":{"type":"LineString","coordinates":[[-0.1600638,52.3541327],[-0.1601022,52.3540935],[-0.1600002,52.35386110000001]]}},
{"type":"Feature","properties":{"id":64669,"nach":0.19850313873618405},"geometry":{"type":"LineString","coordinates":[[-0.1600638,52.3541327],[-0.1600217,52.3541756],[-0.1598018,52.3542542],[-0.1576238,52.3549947],[-0.1562451,52.3554731]]}},
{"type":"Feature","properties":{"id":89022,"nach":0.43103021745459058},"geometry":{"type":"LineString","coordinates":[[-0.1602274,52.3617033],[-0.1604321,52.3616537],[-0.1606091,52.3616324],[-0.1607405,52.3616279]]}},
{"type":"Feature","properties":{"id":89024,"nach":0.3699182954888855},"geometry":{"type":"LineString","coordinates":[[-0.1602274,52.3617033],[-0.1601075,52.3616914],[-0.1599198,52.3616701],[-0.1597991,52.3616423]]}},
{"type":"Feature","properties":{"id":94802,"nach":0.29283416670148377},"geometry":{"type":"LineString","coordinates":[[-0.1621044,52.3617021],[-0.1621648,52.3617012],[-0.1624974,52.3616816],[-0.1627388,52.36158],[-0.1629051,52.3614654],[-0.1629909,52.361311400000012],[-0.1630392,52.3607381],[-0.1630231,52.3606562],[-0.1629319,52.3605481],[-0.1626809,52.3603156]]}},
{"type":"Feature","properties":{"id":94803,"nach":0.44812079987043535},"geometry":{"type":"LineString","coordinates":[[-0.1621044,52.3617021],[-0.1614218,52.3617127],[-0.1612676,52.3617037],[-0.1610919,52.361675],[-0.1608612,52.3616374],[-0.1607405,52.3616279]]}},
{"type":"Feature","properties":{"id":94816,"nach":0.44437256165015088},"geometry":{"type":"LineString","coordinates":[[-0.1621524,52.3612624],[-0.1621044,52.3617021]]}},
{"type":"Feature","properties":{"id":88995,"nach":0.40723861592750632},"geometry":{"type":"LineString","coordinates":[[-0.160876,52.360918],[-0.160931,52.3610231],[-0.1609846,52.3611312],[-0.1609953,52.3612344],[-0.1609444,52.3613802],[-0.1608505,52.3615162],[-0.1607405,52.3616279]]}},
{"type":"Feature","properties":{"id":88996,"nach":0.39107454729533003},"geometry":{"type":"LineString","coordinates":[[-0.1607405,52.360838],[-0.160876,52.360918]]}},
{"type":"Feature","properties":{"id":89013,"nach":0.32371564673276371},"geometry":{"type":"LineString","coordinates":[[-0.1601034,52.3606749],[-0.1602819,52.360707],[-0.1604589,52.36072990000001],[-0.160585,52.3607692],[-0.1607405,52.360838]]}},
{"type":"Feature","properties":{"id":89031,"nach":0.24721101037016521},"geometry":{"type":"LineString","coordinates":[[-0.1601719,52.3612082],[-0.1602926,52.3611738],[-0.160424,52.3611263],[-0.1605528,52.3610493],[-0.1606413,52.360978900000013],[-0.1606949,52.3609068],[-0.1607405,52.360838]]}},
{"type":"Feature","properties":{"id":89011,"nach":0.32923586901307217},"geometry":{"type":"LineString","coordinates":[[-0.1604133,52.3602123],[-0.1604991,52.3602582],[-0.1605608,52.3602926],[-0.1606332,52.3603532],[-0.1606896,52.36042530000001],[-0.1607459,52.360507200000015],[-0.1607727,52.360589100000013],[-0.1607915,52.3606628],[-0.1607861,52.360707],[-0.160762,52.3607791],[-0.1607405,52.360838]]}},
{"type":"Feature","properties":{"id":89015,"nach":0.25398420926271326},"geometry":{"type":"LineString","coordinates":[[-0.1601034,52.3606749],[-0.1601799,52.3606267],[-0.1602738,52.360557900000011],[-0.160357,52.3604629],[-0.1604106,52.360343400000012],[-0.1604133,52.3602123]]}},
{"type":"Feature","properties":{"id":89033,"nach":0.28768539515348784},"geometry":{"type":"LineString","coordinates":[[-0.1596677,52.3600289],[-0.1596301,52.3600944],[-0.1596033,52.3601845],[-0.1596086,52.3602713],[-0.1596462,52.3603794],[-0.1596998,52.3604564],[-0.1597964,52.3605383],[-0.1599305,52.360612],[-0.1600727,52.3606693],[-0.1601034,52.3606749]]}},
{"type":"Feature","properties":{"id":89026,"nach":0.32682526568161818},"geometry":{"type":"LineString","coordinates":[[-0.1597676,52.3608012],[-0.1598447,52.3607758],[-0.1599841,52.3607234],[-0.1601034,52.3606749]]}},
{"type":"Feature","properties":{"id":89030,"nach":0.13119599745670513},"geometry":{"type":"LineString","coordinates":[[-0.1601719,52.3612082],[-0.1600914,52.3612213],[-0.1599439,52.3612344],[-0.1597937,52.3612344],[-0.1596596,52.361223],[-0.1595389,52.361203300000014],[-0.1593726,52.3611492]]}},
{"type":"Feature","properties":{"id":89028,"nach":0.33650082102317513},"geometry":{"type":"LineString","coordinates":[[-0.1601719,52.3612082],[-0.1601665,52.3612917],[-0.1601075,52.361408],[-0.1600566,52.361473599999989],[-0.1599895,52.36153250000001],[-0.1599225,52.3615768],[-0.1597991,52.3616423]]}},
{"type":"Feature","properties":{"id":89029,"nach":0.29297256392387777},"geometry":{"type":"LineString","coordinates":[[-0.1601719,52.3612082],[-0.1601531,52.3611247],[-0.1600941,52.3610182],[-0.1600083,52.3609314],[-0.1598849,52.3608495],[-0.1597676,52.3608012]]}},
{"type":"Feature","properties":{"id":89008,"nach":0.28986573154627671},"geometry":{"type":"LineString","coordinates":[[-0.1604133,52.3602123],[-0.1604053,52.360158300000016],[-0.1603865,52.360109099999988],[-0.1603248,52.360014100000015],[-0.1602309,52.3599289],[-0.1601048,52.3598552],[-0.1599895,52.359793]]}},
{"type":"Feature","properties":{"id":89034,"nach":0.17319080227890737},"geometry":{"type":"LineString","coordinates":[[-0.1596677,52.3600289],[-0.1598313,52.3601124],[-0.1599225,52.3601484],[-0.1600807,52.3601894],[-0.1602068,52.3602107],[-0.1603302,52.3602139],[-0.1604133,52.3602123]]}},
{"type":"Feature","properties":{"id":89032,"nach":0.074180618364507289},"geometry":{"type":"LineString","coordinates":[[-0.1596677,52.3600289],[-0.1596837,52.360001],[-0.1597562,52.359927299999988],[-0.15985,52.3598618],[-0.1599895,52.359793]]}},
{"type":"Feature","properties":{"id":89025,"nach":0.20524947107674021},"geometry":{"type":"LineString","coordinates":[[-0.1597676,52.3608012],[-0.1597106,52.36082],[-0.1595925,52.360879],[-0.1594826,52.3609592],[-0.1594155,52.3610477],[-0.1593726,52.3611492]]}},
{"type":"Feature","properties":{"id":89020,"nach":0.27706975975500209},"geometry":{"type":"LineString","coordinates":[[-0.1597991,52.3616423],[-0.1596381,52.3615768],[-0.1595228,52.3615145],[-0.1594262,52.361413],[-0.1593753,52.361313],[-0.1593619,52.361223],[-0.1593726,52.3611492]]}},
{"type":"Feature","properties":{"id":94840,"nach":0.41916479048658201},"geometry":{"type":"LineString","coordinates":[[-0.1621689,52.3611115],[-0.1621524,52.3612624]]}},
{"type":"Feature","properties":{"id":94838,"nach":0.35712713053154405},"geometry":{"type":"LineString","coordinates":[[-0.1627619,52.3611295],[-0.1627482,52.361259],[-0.1627107,52.3612754],[-0.1621524,52.3612624]]}},
{"type":"Feature","properties":{"id":94807,"nach":0.29042352984449932},"geometry":{"type":"LineString","coordinates":[[-0.1634188,52.3598012],[-0.1623325,52.35997480000001]]}},
{"type":"Feature","properties":{"id":94842,"nach":0.29042352984449932},"geometry":{"type":"LineString","coordinates":[[-0.162244,52.3597602],[-0.1623325,52.35997480000001]]}},
{"type":"Feature","properties":{"id":94809,"nach":0.36004710078021063},"geometry":{"type":"LineString","coordinates":[[-0.1622563,52.3603106],[-0.1622815,52.3600796],[-0.1622976,52.3600076],[-0.1623325,52.35997480000001]]}},
{"type":"Feature","properties":{"id":94811,"nach":0.29070712280708533},"geometry":{"type":"LineString","coordinates":[[-0.1622563,52.3603106],[-0.1625176,52.3602172],[-0.1625793,52.360209],[-0.1626042,52.360238099999982]]}},
{"type":"Feature","properties":{"id":94813,"nach":0.39068311906984443},"geometry":{"type":"LineString","coordinates":[[-0.1622329,52.3605254],[-0.1622359,52.3604973],[-0.1622563,52.3603106]]}},
{"type":"Feature","properties":{"id":94821,"nach":0.39263185342082529},"geometry":{"type":"LineString","coordinates":[[-0.1622161,52.3606791],[-0.1622329,52.3605254]]}},
{"type":"Feature","properties":{"id":94820,"nach":0.26097930770646727},"geometry":{"type":"LineString","coordinates":[[-0.1628072,52.3606985],[-0.1628099,52.3606726],[-0.1626892,52.3605416],[-0.1622329,52.3605254]]}},
{"type":"Feature","properties":{"id":94823,"nach":0.14741751759356747},"geometry":{"type":"LineString","coordinates":[[-0.1622161,52.3606791],[-0.1628072,52.3606985]]}},
{"type":"Feature","properties":{"id":94827,"nach":0.40100444011152653},"geometry":{"type":"LineString","coordinates":[[-0.1622002,52.3608248],[-0.1622161,52.3606791]]}},
{"type":"Feature","properties":{"id":94825,"nach":0.31240680332498771},"geometry":{"type":"LineString","coordinates":[[-0.162792,52.360843],[-0.1628072,52.3606985]]}},
{"type":"Feature","properties":{"id":94839,"nach":0.41515845274991725},"geometry":{"type":"LineString","coordinates":[[-0.1621689,52.3611115],[-0.1621841,52.360972400000016]]}},
{"type":"Feature","properties":{"id":94841,"nach":0.10832180107331489},"geometry":{"type":"LineString","coordinates":[[-0.1621689,52.3611115],[-0.1627619,52.3611295]]}},
{"type":"Feature","properties":{"id":94836,"nach":0.34665203393670196},"geometry":{"type":"LineString","coordinates":[[-0.1627619,52.3611295],[-0.1627767,52.360989]]}},
{"type":"Feature","properties":{"id":94831,"nach":0.33624999406142148},"geometry":{"type":"LineString","coordinates":[[-0.1627767,52.360989],[-0.162792,52.360843]]}},
{"type":"Feature","properties":{"id":94829,"nach":0.14756971847294195},"geometry":{"type":"LineString","coordinates":[[-0.1622002,52.3608248],[-0.162792,52.360843]]}},
{"type":"Feature","properties":{"id":94833,"nach":0.40793513762606182},"geometry":{"type":"LineString","coordinates":[[-0.1621841,52.360972400000016],[-0.1622002,52.3608248]]}},
{"type":"Feature","properties":{"id":94835,"nach":0.17244761035512401},"geometry":{"type":"LineString","coordinates":[[-0.1621841,52.360972400000016],[-0.1627767,52.360989]]}}
]
}
