{
"type": "FeatureCollection",
"name": "CHELM_51_NACH",
"crs": { "type": "name", "properties": { "name": "urn:ogc:def:crs:OGC:1.3:CRS84" } },
"features": [
{"type":"Feature","properties":{"id":1227,"nach":0.42631704506982676},"geometry":{"type":"LineString","coordinates":[[0.5178193,51.7211088],[0.5179432,51.7212015],[0.5180814,51.7213262],[0.5181997,51.7214585]]}},
{"type":"Feature","properties":{"id":4084,"nach":0.45626826430493617},"geometry":{"type":"LineString","coordinates":[[0.5183595,51.7212369],[0.5180857,51.72117870000001],[0.5179685,51.7211511],[0.5178193,51.7211088]]}},
{"type":"Feature","properties":{"id":1230,"nach":0.47571070582879971},"geometry":{"type":"LineString","coordinates":[[0.5164922,51.7204913],[0.516601,51.720531],[0.5167728,51.7206125],[0.5170409,51.7207634],[0.5172776,51.72088320000001],[0.5175898,51.7210193],[0.5178193,51.7211088]]}},
{"type":"Feature","properties":{"id":4081,"nach":0.46437183833825807},"geometry":{"type":"LineString","coordinates":[[0.5181997,51.7214585],[0.5181998,51.7215037],[0.5182582,51.7216478],[0.5183916,51.7219607]]}},
{"type":"Feature","properties":{"id":4082,"nach":0.45061445845292314},"geometry":{"type":"LineString","coordinates":[[0.5183595,51.7212369],[0.5183096,51.7212868],[0.5182226,51.7214024],[0.5181997,51.7214585]]}},
{"type":"Feature","properties":{"id":18997,"nach":0.50897604647429029},"geometry":{"type":"LineString","coordinates":[[0.5209049,51.7210919],[0.5195661,51.7212395],[0.5191332,51.7212706],[0.5188117,51.7212715],[0.5186101,51.7212683],[0.5183595,51.7212369]]}},
{"type":"Feature","properties":{"id":7061,"nach":0.43210916534622323},"geometry":{"type":"LineString","coordinates":[[0.5155597,51.7202833],[0.515941,51.7203505],[0.5161576,51.7203987],[0.5163845,51.720458100000016],[0.5164922,51.7204913]]}},
{"type":"Feature","properties":{"id":7058,"nach":0.413308847699418},"geometry":{"type":"LineString","coordinates":[[0.5163096,51.7200881],[0.5165038,51.7203727],[0.5165191,51.720418100000018],[0.5165177,51.720459699999985],[0.5164922,51.7204913]]}},
{"type":"Feature","properties":{"id":7060,"nach":0.45175986271572532},"geometry":{"type":"LineString","coordinates":[[0.5155597,51.7202833],[0.5149582,51.7201834],[0.5143878,51.7201279]]}},
{"type":"Feature","properties":{"id":7059,"nach":0.38070126624445827},"geometry":{"type":"LineString","coordinates":[[0.5155597,51.7202833],[0.5163096,51.7200881]]}},
{"type":"Feature","properties":{"id":7057,"nach":0.43259302485030721},"geometry":{"type":"LineString","coordinates":[[0.5163096,51.7200881],[0.5160251,51.7196075],[0.5158394,51.7186802],[0.5158155,51.7177332],[0.5156534,51.7170268],[0.5154157,51.716326699999989]]}},
{"type":"Feature","properties":{"id":1330,"nach":0.6117689171436711},"geometry":{"type":"LineString","coordinates":[[0.525935,51.7206736],[0.526179,51.7206566],[0.5263657,51.7206404],[0.5265203,51.7206197],[0.5268641,51.720542],[0.527008,51.7204984],[0.5271618,51.7204512],[0.5272515,51.7204458],[0.5273521,51.7204569],[0.5274687,51.7204687]]}},
{"type":"Feature","properties":{"id":1293,"nach":0.50529822574641559},"geometry":{"type":"LineString","coordinates":[[0.5274549,51.7202432],[0.527227,51.7203216],[0.5270238,51.720403200000014],[0.52682,51.720471],[0.5265777,51.7205266],[0.5262503,51.7205753],[0.5259556,51.720595],[0.5258691,51.7206017]]}},
{"type":"Feature","properties":{"id":1309,"nach":0.50894413344450484},"geometry":{"type":"LineString","coordinates":[[0.5258691,51.7206017],[0.52579,51.7206312],[0.5257333,51.7206725]]}},
{"type":"Feature","properties":{"id":1310,"nach":0.36046449401055103},"geometry":{"type":"LineString","coordinates":[[0.5258691,51.7206017],[0.5257261,51.720601],[0.5254847,51.7206177],[0.5253052,51.72064360000001]]}},
{"type":"Feature","properties":{"id":55419,"nach":0.56271201643468949},"geometry":{"type":"LineString","coordinates":[[0.5257067,51.7216983],[0.5257126,51.7217322]]}},
{"type":"Feature","properties":{"id":1305,"nach":0.51016379078158092},"geometry":{"type":"LineString","coordinates":[[0.5257126,51.7217322],[0.5257697,51.721734]]}},
{"type":"Feature","properties":{"id":55412,"nach":0.52242151853678342},"geometry":{"type":"LineString","coordinates":[[0.5257284,51.7218414],[0.5257241,51.7218115],[0.5257126,51.7217322]]}},
{"type":"Feature","properties":{"id":55418,"nach":0.56655843829320751},"geometry":{"type":"LineString","coordinates":[[0.5257067,51.7216983],[0.5256856,51.7215768]]}},
{"type":"Feature","properties":{"id":64623,"nach":0.334357629090897},"geometry":{"type":"LineString","coordinates":[[0.5255984,51.721701],[0.5257067,51.7216983]]}},
{"type":"Feature","properties":{"id":30037,"nach":0.42141771964623526},"geometry":{"type":"LineString","coordinates":[[0.5257697,51.721734],[0.5257493,51.7215757]]}},
{"type":"Feature","properties":{"id":30035,"nach":0.36876877087064236},"geometry":{"type":"LineString","coordinates":[[0.5257697,51.721734],[0.5266623,51.7217112]]}},
{"type":"Feature","properties":{"id":30040,"nach":0.50756476652136129},"geometry":{"type":"LineString","coordinates":[[0.5258052,51.721870300000013],[0.5257697,51.721734]]}},
{"type":"Feature","properties":{"id":55410,"nach":0.51193134553410236},"geometry":{"type":"LineString","coordinates":[[0.5257284,51.7218414],[0.5257324,51.7218688]]}},
{"type":"Feature","properties":{"id":55411,"nach":0.35086355014407483},"geometry":{"type":"LineString","coordinates":[[0.5257284,51.7218414],[0.525631,51.7218439]]}},
{"type":"Feature","properties":{"id":29998,"nach":0.60750081343536988},"geometry":{"type":"LineString","coordinates":[[0.5257437,51.7212737],[0.5257355,51.7213006]]}},
{"type":"Feature","properties":{"id":30013,"nach":0.59648631024863752},"geometry":{"type":"LineString","coordinates":[[0.5257137,51.7214144],[0.5257355,51.7213006]]}},
{"type":"Feature","properties":{"id":30012,"nach":0.4598609575974153},"geometry":{"type":"LineString","coordinates":[[0.5257994,51.7212996],[0.5257355,51.7213006]]}},
{"type":"Feature","properties":{"id":30000,"nach":0.60584168828505447},"geometry":{"type":"LineString","coordinates":[[0.5257437,51.7212737],[0.5257527,51.721244],[0.5257809,51.7211515]]}},
{"type":"Feature","properties":{"id":30004,"nach":0.50183652457074601},"geometry":{"type":"LineString","coordinates":[[0.5256633,51.7212741],[0.5257437,51.7212737]]}},
{"type":"Feature","properties":{"id":30014,"nach":0.5942239978986863},"geometry":{"type":"LineString","coordinates":[[0.5257137,51.7214144],[0.5257098,51.72143470000001]]}},
{"type":"Feature","properties":{"id":30015,"nach":0.30418685565654213},"geometry":{"type":"LineString","coordinates":[[0.5256279,51.7214161],[0.5257137,51.7214144]]}},
{"type":"Feature","properties":{"id":1331,"nach":0.43012590179290372},"geometry":{"type":"LineString","coordinates":[[0.5257333,51.7206725],[0.525935,51.7206736]]}},
{"type":"Feature","properties":{"id":1332,"nach":0.60900577304162296},"geometry":{"type":"LineString","coordinates":[[0.5257333,51.7206725],[0.5257112,51.7207871],[0.5257195,51.7208259],[0.5257236,51.7208449],[0.5257409,51.7209254],[0.5257467,51.7209486],[0.5257641,51.7210265]]}},
{"type":"Feature","properties":{"id":1335,"nach":0.59336412358046142},"geometry":{"type":"LineString","coordinates":[[0.5253052,51.72064360000001],[0.5254728,51.7206707],[0.5257333,51.7206725]]}},
{"type":"Feature","properties":{"id":18994,"nach":0.5921974540432432},"geometry":{"type":"LineString","coordinates":[[0.5220636,51.7209181],[0.5226229,51.7208471],[0.5233968,51.7207637],[0.5249923,51.7206637],[0.5253052,51.72064360000001]]}},
{"type":"Feature","properties":{"id":1322,"nach":0.30720314916005786},"geometry":{"type":"LineString","coordinates":[[0.5266522,51.7215602],[0.5257493,51.7215757]]}},
{"type":"Feature","properties":{"id":1329,"nach":0.37850553567939671},"geometry":{"type":"LineString","coordinates":[[0.5266715,51.721849],[0.5258052,51.721870300000013]]}},
{"type":"Feature","properties":{"id":30020,"nach":0.36753925351239913},"geometry":{"type":"LineString","coordinates":[[0.52577,51.7214335],[0.5266426,51.7214164]]}},
{"type":"Feature","properties":{"id":1396,"nach":0.5648879984060774},"geometry":{"type":"LineString","coordinates":[[0.5266339,51.721286700000014],[0.5266238,51.7211353]]}},
{"type":"Feature","properties":{"id":1398,"nach":0.46721767359609639},"geometry":{"type":"LineString","coordinates":[[0.5266339,51.721286700000014],[0.5257994,51.7212996]]}},
{"type":"Feature","properties":{"id":1406,"nach":0.48407915804971463},"geometry":{"type":"LineString","coordinates":[[0.5266151,51.7210048],[0.5266238,51.7211353]]}},
{"type":"Feature","properties":{"id":1319,"nach":0.39392863342264839},"geometry":{"type":"LineString","coordinates":[[0.5266238,51.7211353],[0.52731,51.7211221]]}},
{"type":"Feature","properties":{"id":29994,"nach":0.55319507111765986},"geometry":{"type":"LineString","coordinates":[[0.5258362,51.7211505],[0.5266238,51.7211353]]}},
{"type":"Feature","properties":{"id":1405,"nach":0.45165222207574274},"geometry":{"type":"LineString","coordinates":[[0.5266151,51.7210048],[0.5266114,51.72095070000001]]}},
{"type":"Feature","properties":{"id":1407,"nach":0.52819583916067592},"geometry":{"type":"LineString","coordinates":[[0.5266151,51.7210048],[0.52652,51.7210069]]}},
{"type":"Feature","properties":{"id":29954,"nach":0.51567743619431894},"geometry":{"type":"LineString","coordinates":[[0.5267747,51.7210013],[0.5266151,51.7210048]]}},
{"type":"Feature","properties":{"id":30032,"nach":0.44564402781917212},"geometry":{"type":"LineString","coordinates":[[0.5257493,51.7215757],[0.52577,51.7214335]]}},
{"type":"Feature","properties":{"id":30030,"nach":0.31867366454058116},"geometry":{"type":"LineString","coordinates":[[0.5257493,51.7215757],[0.5256856,51.7215768]]}},
{"type":"Feature","properties":{"id":30024,"nach":0.57033407354204024},"geometry":{"type":"LineString","coordinates":[[0.5256883,51.7215609],[0.5256856,51.7215768]]}},
{"type":"Feature","properties":{"id":30026,"nach":0.59306296460420294},"geometry":{"type":"LineString","coordinates":[[0.5256883,51.7215609],[0.5256954,51.7215191],[0.5257098,51.72143470000001]]}},
{"type":"Feature","properties":{"id":30025,"nach":0.56577314496597519},"geometry":{"type":"LineString","coordinates":[[0.5256883,51.7215609],[0.5256104,51.7215625]]}},
{"type":"Feature","properties":{"id":55408,"nach":0.5000704512431472},"geometry":{"type":"LineString","coordinates":[[0.5257558,51.7219864],[0.5257324,51.7218688]]}},
{"type":"Feature","properties":{"id":30038,"nach":0.36450526230727409},"geometry":{"type":"LineString","coordinates":[[0.5258052,51.721870300000013],[0.5257324,51.7218688]]}},
{"type":"Feature","properties":{"id":55409,"nach":0.49115104850535207},"geometry":{"type":"LineString","coordinates":[[0.5257558,51.7219864],[0.5257599,51.7220069]]}},
{"type":"Feature","properties":{"id":64617,"nach":0.3857979553826017},"geometry":{"type":"LineString","coordinates":[[0.5256636,51.7219886],[0.5257558,51.7219864]]}},
{"type":"Feature","properties":{"id":30043,"nach":0.42280571384932458},"geometry":{"type":"LineString","coordinates":[[0.5258421,51.722008],[0.5266806,51.721985899999986]]}},
{"type":"Feature","properties":{"id":30042,"nach":0.49286123783265445},"geometry":{"type":"LineString","coordinates":[[0.5258421,51.722008],[0.5258052,51.721870300000013]]}},
{"type":"Feature","properties":{"id":1409,"nach":0.60813569731673045},"geometry":{"type":"LineString","coordinates":[[0.5257641,51.7210265],[0.5257932,51.7209528],[0.5257994,51.720937],[0.5258061,51.7208414],[0.5258085,51.7208215],[0.5258122,51.7207899],[0.5258131,51.7207826],[0.52584,51.7207458],[0.5258794,51.7207091],[0.525935,51.7206736]]}},
{"type":"Feature","properties":{"id":29980,"nach":0.63453507843370272},"geometry":{"type":"LineString","coordinates":[[0.5257692,51.7210822],[0.5257641,51.7210265]]}},
{"type":"Feature","properties":{"id":29966,"nach":0.56691180450807899},"geometry":{"type":"LineString","coordinates":[[0.5258435,51.7210219],[0.5257641,51.7210265]]}},
{"type":"Feature","properties":{"id":18992,"nach":0.58518067212016089},"geometry":{"type":"LineString","coordinates":[[0.5220636,51.7209181],[0.5219515,51.7209345]]}},
{"type":"Feature","properties":{"id":39694,"nach":0.39027599222461629},"geometry":{"type":"LineString","coordinates":[[0.5225513,51.7237462],[0.5225735,51.7237189],[0.5226164,51.7236724],[0.5225969,51.7234887],[0.5224408,51.7229827],[0.5224053,51.7225159],[0.5223927,51.72213330000001],[0.5224046,51.721719],[0.5223164,51.721418],[0.5222448,51.721085],[0.5220636,51.7209181]]}},
{"type":"Feature","properties":{"id":26449,"nach":0.4969670564773267},"geometry":{"type":"LineString","coordinates":[[0.5266187,51.7208107],[0.5266114,51.72095070000001]]}},
{"type":"Feature","properties":{"id":29925,"nach":0.55454921647235622},"geometry":{"type":"LineString","coordinates":[[0.5265186,51.7209521],[0.5266114,51.72095070000001]]}},
{"type":"Feature","properties":{"id":1459,"nach":0.49394075495921586},"geometry":{"type":"LineString","coordinates":[[0.5267756,51.7209542],[0.5266114,51.72095070000001]]}},
{"type":"Feature","properties":{"id":26452,"nach":0.33204138679237499},"geometry":{"type":"LineString","coordinates":[[0.5264682,51.7208148],[0.5266187,51.7208107]]}},
{"type":"Feature","properties":{"id":36688,"nach":0.46838865416101527},"geometry":{"type":"LineString","coordinates":[[0.5269414,51.720739],[0.5267643,51.7207593],[0.5267719,51.7208054],[0.5266187,51.7208107]]}},
{"type":"Feature","properties":{"id":29926,"nach":0.40676958561102194},"geometry":{"type":"LineString","coordinates":[[0.5265186,51.7209521],[0.5265116,51.7208606]]}},
{"type":"Feature","properties":{"id":29932,"nach":0.56201865742821566},"geometry":{"type":"LineString","coordinates":[[0.5262759,51.720956],[0.5265186,51.7209521]]}},
{"type":"Feature","properties":{"id":29959,"nach":0.28983453335556564},"geometry":{"type":"LineString","coordinates":[[0.52652,51.7210069],[0.5265186,51.7209521]]}},
{"type":"Feature","properties":{"id":30011,"nach":0.47398569997036583},"geometry":{"type":"LineString","coordinates":[[0.5257994,51.7212996],[0.5258362,51.7211505]]}},
{"type":"Feature","properties":{"id":30019,"nach":0.47014450342003167},"geometry":{"type":"LineString","coordinates":[[0.52577,51.7214335],[0.5257994,51.7212996]]}},
{"type":"Feature","properties":{"id":1400,"nach":0.42058591085188707},"geometry":{"type":"LineString","coordinates":[[0.5257098,51.72143470000001],[0.52577,51.7214335]]}},
{"type":"Feature","properties":{"id":29981,"nach":0.61329201405661615},"geometry":{"type":"LineString","coordinates":[[0.5257692,51.7210822],[0.5257809,51.7211515]]}},
{"type":"Feature","properties":{"id":1403,"nach":0.60134593857074592},"geometry":{"type":"LineString","coordinates":[[0.5257809,51.7211515],[0.5258362,51.7211505]]}},
{"type":"Feature","properties":{"id":29982,"nach":0.49025922565422464},"geometry":{"type":"LineString","coordinates":[[0.5257692,51.7210822],[0.5258403,51.7210792]]}},
{"type":"Feature","properties":{"id":29984,"nach":0.57048485251092074},"geometry":{"type":"LineString","coordinates":[[0.5256883,51.7210819],[0.5257692,51.7210822]]}},
{"type":"Feature","properties":{"id":29993,"nach":0.55523701211615761},"geometry":{"type":"LineString","coordinates":[[0.5258362,51.7211505],[0.5258403,51.7210792]]}},
{"type":"Feature","properties":{"id":29958,"nach":0.53593021575596289},"geometry":{"type":"LineString","coordinates":[[0.52652,51.7210069],[0.526276,51.7210123]]}},
{"type":"Feature","properties":{"id":30048,"nach":0.42072337695596224},"geometry":{"type":"LineString","coordinates":[[0.5259039,51.722288],[0.5266994,51.7222678]]}},
{"type":"Feature","properties":{"id":1474,"nach":0.39772235822140589},"geometry":{"type":"LineString","coordinates":[[0.5266903,51.7221315],[0.5258802,51.722152899999983]]}},
{"type":"Feature","properties":{"id":30045,"nach":0.45681582564553652},"geometry":{"type":"LineString","coordinates":[[0.5258802,51.722152899999983],[0.5258421,51.722008]]}},
{"type":"Feature","properties":{"id":30047,"nach":0.41487502662339387},"geometry":{"type":"LineString","coordinates":[[0.5259039,51.722288],[0.5258802,51.722152899999983]]}},
{"type":"Feature","properties":{"id":30046,"nach":0.3627830078674073},"geometry":{"type":"LineString","coordinates":[[0.5258802,51.722152899999983],[0.5257996,51.7221524]]}},
{"type":"Feature","properties":{"id":1476,"nach":0.3531688104692805},"geometry":{"type":"LineString","coordinates":[[0.5257599,51.7220069],[0.5258421,51.722008]]}},
{"type":"Feature","properties":{"id":55402,"nach":0.47148574565745549},"geometry":{"type":"LineString","coordinates":[[0.5257934,51.7221295],[0.5257813,51.7220853],[0.5257599,51.7220069]]}},
{"type":"Feature","properties":{"id":55400,"nach":0.45756422898438953},"geometry":{"type":"LineString","coordinates":[[0.5257934,51.7221295],[0.5257996,51.7221524]]}},
{"type":"Feature","properties":{"id":55401,"nach":0.33654301350693},"geometry":{"type":"LineString","coordinates":[[0.5257934,51.7221295],[0.5256972,51.722132]]}},
{"type":"Feature","properties":{"id":1480,"nach":0.4069321347358823},"geometry":{"type":"LineString","coordinates":[[0.5258336,51.7222847],[0.5257996,51.7221524]]}},
{"type":"Feature","properties":{"id":1481,"nach":0.38704380501702462},"geometry":{"type":"LineString","coordinates":[[0.5258336,51.7222847],[0.5259039,51.722288]]}},
{"type":"Feature","properties":{"id":64611,"nach":0.33262587215668737},"geometry":{"type":"LineString","coordinates":[[0.5257353,51.7222863],[0.5258336,51.7222847]]}},
{"type":"Feature","properties":{"id":25865,"nach":0.45051398541714532},"geometry":{"type":"LineString","coordinates":[[0.5180042,51.7252504],[0.5179958,51.7253259],[0.5179079,51.725638500000017],[0.5178865,51.7258987],[0.5178558,51.7261387],[0.5178359,51.7262567]]}},
{"type":"Feature","properties":{"id":69697,"nach":0.46736203581032754},"geometry":{"type":"LineString","coordinates":[[0.5190976,51.722869899999985],[0.5190019,51.722872400000014]]}},
{"type":"Feature","properties":{"id":26030,"nach":0.50117629577537293},"geometry":{"type":"LineString","coordinates":[[0.5189247,51.7235559],[0.5189598,51.723313800000021],[0.5189632,51.7230674],[0.5190019,51.722872400000014]]}},
{"type":"Feature","properties":{"id":4078,"nach":0.43170816569526094},"geometry":{"type":"LineString","coordinates":[[0.5183916,51.7219607],[0.51857,51.7222834],[0.5187176,51.7225021],[0.5188845,51.722691],[0.5190019,51.722872400000014]]}},
{"type":"Feature","properties":{"id":18996,"nach":0.51096150116403749},"geometry":{"type":"LineString","coordinates":[[0.5209049,51.7210919],[0.5209503,51.7211834],[0.5207968,51.7213036],[0.5203972,51.7217],[0.5199538,51.7220857],[0.5196577,51.7223447],[0.5191988,51.7227742],[0.5190019,51.722872400000014]]}},
{"type":"Feature","properties":{"id":69701,"nach":0.42392881042159986},"geometry":{"type":"LineString","coordinates":[[0.5192212,51.7228642],[0.5191681,51.7228681],[0.5190976,51.722869899999985]]}},
{"type":"Feature","properties":{"id":42170,"nach":0.46470072456503986},"geometry":{"type":"LineString","coordinates":[[0.5183315,51.724614100000011],[0.5185211,51.7242968],[0.5188085,51.72390140000001],[0.5189002,51.7236443],[0.5189247,51.7235559]]}},
{"type":"Feature","properties":{"id":57222,"nach":0.49452490623548534},"geometry":{"type":"LineString","coordinates":[[0.5188028,51.7236233],[0.518833,51.7236006],[0.5189247,51.7235559]]}},
{"type":"Feature","properties":{"id":24964,"nach":0.33564142215206788},"geometry":{"type":"LineString","coordinates":[[0.513108,51.7234052],[0.5133628,51.7233296],[0.5149842,51.7228212],[0.5162127,51.7224591],[0.5165879,51.7223428],[0.517001,51.7222099],[0.5172424,51.72219],[0.5175803,51.7221833],[0.517811,51.72217340000001],[0.5180417,51.7221069],[0.5182509,51.7220138],[0.5183916,51.7219607]]}},
{"type":"Feature","properties":{"id":18995,"nach":0.56181314799879423},"geometry":{"type":"LineString","coordinates":[[0.5209049,51.7210919],[0.5219515,51.7209345]]}},
{"type":"Feature","properties":{"id":59829,"nach":0.35874629077062531},"geometry":{"type":"LineString","coordinates":[[0.5219261,51.7208354],[0.5217838,51.7208707],[0.521462,51.7209488],[0.5211374,51.7210153],[0.5208826,51.7210518],[0.5209049,51.7210919]]}},
{"type":"Feature","properties":{"id":5531,"nach":0.45899557408091907},"geometry":{"type":"LineString","coordinates":[[0.5121536,51.7154957],[0.5122308,51.715471799999989],[0.5126882,51.7154227],[0.5131755,51.7153584]]}},
{"type":"Feature","properties":{"id":4089,"nach":0.4598897792578106},"geometry":{"type":"LineString","coordinates":[[0.5133483,51.7164983],[0.5133457,51.7163322],[0.513433,51.7160696],[0.5133635,51.7158051],[0.5131755,51.7153584]]}},
{"type":"Feature","properties":{"id":4344,"nach":0.48471425698254911},"geometry":{"type":"LineString","coordinates":[[0.5131483,51.7151041],[0.5131559,51.7151435],[0.5131755,51.7153584]]}},
{"type":"Feature","properties":{"id":4093,"nach":0.47346013803932152},"geometry":{"type":"LineString","coordinates":[[0.5154157,51.716326699999989],[0.5152419,51.7163736],[0.5149897,51.7164068],[0.5147484,51.7164035],[0.5145338,51.7163902],[0.5142656,51.7164234],[0.5139705,51.716466600000011],[0.5137345,51.7164965],[0.5135092,51.7164965],[0.5133483,51.7164983]]}},
{"type":"Feature","properties":{"id":67947,"nach":0.56610509443266566},"geometry":{"type":"LineString","coordinates":[[0.5142538,51.7150459],[0.5139746,51.71504310000001],[0.5132123,51.7150957],[0.5131483,51.7151041]]}},
{"type":"Feature","properties":{"id":43664,"nach":0.50571656101734086},"geometry":{"type":"LineString","coordinates":[[0.51531,51.7161422],[0.5153862,51.7162461],[0.5154157,51.716326699999989]]}},
{"type":"Feature","properties":{"id":66606,"nach":0.42006475358965417},"geometry":{"type":"LineString","coordinates":[[0.5148612,51.7157693],[0.5150076,51.7158649],[0.5152705,51.7160884],[0.51531,51.7161422]]}},
{"type":"Feature","properties":{"id":55713,"nach":0.49065680132841644},"geometry":{"type":"LineString","coordinates":[[0.5155073,51.7155745],[0.5155361,51.7159311],[0.515501,51.7160124],[0.5154416,51.7160938],[0.51531,51.7161422]]}},
{"type":"Feature","properties":{"id":67948,"nach":0.0},"geometry":{"type":"LineString","coordinates":[[0.5142538,51.7150459],[0.5143404,51.7152441],[0.5143987,51.7152371]]}},
{"type":"Feature","properties":{"id":67946,"nach":0.56738523605001812},"geometry":{"type":"LineString","coordinates":[[0.5142538,51.7150459],[0.5143077,51.71504370000001]]}},
{"type":"Feature","properties":{"id":22960,"nach":0.4831933670706734},"geometry":{"type":"LineString","coordinates":[[0.5246966,51.7154522],[0.5260898,51.715477399999983],[0.5273379,51.7153798]]}},
{"type":"Feature","properties":{"id":22958,"nach":0.52016340052714305},"geometry":{"type":"LineString","coordinates":[[0.5246966,51.7154522],[0.5247004,51.7154204],[0.5246872,51.7152621],[0.5245937,51.7150809],[0.5245948,51.7150267],[0.5246255,51.714944399999986]]}},
{"type":"Feature","properties":{"id":24601,"nach":0.53627809988812658},"geometry":{"type":"LineString","coordinates":[[0.5230346,51.7153978],[0.5230902,51.7154113],[0.5231821,51.715426],[0.5233759,51.7154398],[0.5239801,51.7154502],[0.5246966,51.7154522]]}},
{"type":"Feature","properties":{"id":67940,"nach":0.57361140607361738},"geometry":{"type":"LineString","coordinates":[[0.5143077,51.71504370000001],[0.5143233,51.7150794]]}},
{"type":"Feature","properties":{"id":61687,"nach":0.51772667124871197},"geometry":{"type":"LineString","coordinates":[[0.5149947,51.7150249],[0.5143233,51.7150794]]}},
{"type":"Feature","properties":{"id":52743,"nach":0.52924997895243486},"geometry":{"type":"LineString","coordinates":[[0.5143987,51.7152371],[0.5143396,51.715109],[0.5143233,51.7150794]]}},
{"type":"Feature","properties":{"id":67942,"nach":0.53874773930686459},"geometry":{"type":"LineString","coordinates":[[0.5143077,51.71504370000001],[0.5142827,51.7149865],[0.5141857,51.7147589],[0.5141217,51.7146196]]}},
{"type":"Feature","properties":{"id":61688,"nach":0.53840649185912814},"geometry":{"type":"LineString","coordinates":[[0.5149947,51.7150249],[0.5151699,51.7150099],[0.5154803,51.714997799999985]]}},
{"type":"Feature","properties":{"id":61692,"nach":0.44936168634035595},"geometry":{"type":"LineString","coordinates":[[0.5136886,51.713236100000017],[0.5138533,51.7132576],[0.5141239,51.7133],[0.5141681,51.7133252],[0.5141805,51.7133666],[0.5142153,51.7138881],[0.5142414,51.7140078],[0.5143709,51.7144177],[0.5145036,51.7148355],[0.5145502,51.7148927],[0.5146052,51.714918699999984],[0.5146658,51.7149193],[0.5148571,51.7148837],[0.5149212,51.7148991],[0.5149723,51.7149418],[0.5149947,51.7150249]]}},
{"type":"Feature","properties":{"id":67943,"nach":0.50653643156587824},"geometry":{"type":"LineString","coordinates":[[0.5144693,51.7152279],[0.5143987,51.7152371]]}},
{"type":"Feature","properties":{"id":66605,"nach":0.43360525797243454},"geometry":{"type":"LineString","coordinates":[[0.5148612,51.7157693],[0.5147913,51.71572350000001],[0.5144642,51.715416400000016],[0.5143987,51.7152371]]}},
{"type":"Feature","properties":{"id":59827,"nach":0.48113473007561131},"geometry":{"type":"LineString","coordinates":[[0.5219261,51.7208354],[0.5219515,51.7209345]]}},
{"type":"Feature","properties":{"id":59828,"nach":0.46755272765487094},"geometry":{"type":"LineString","coordinates":[[0.5219261,51.7208354],[0.5218664,51.7206401],[0.5218492,51.7204951],[0.5218488,51.7202043],[0.5218416,51.7198787],[0.5218528,51.71946710000001],[0.5218805,51.7191868],[0.5219101,51.7187128]]}},
{"type":"Feature","properties":{"id":4823,"nach":0.43189837780474338},"geometry":{"type":"LineString","coordinates":[[0.5227471,51.7132149],[0.5228815,51.713219100000011],[0.5230451,51.7131972],[0.5232302,51.7131822],[0.5233901,51.713163400000013],[0.5235618,51.7131651],[0.5238483,51.713118]]}},
{"type":"Feature","properties":{"id":24474,"nach":0.22974634764598212},"geometry":{"type":"LineString","coordinates":[[0.5222702,51.7082634],[0.5226954,51.7084968],[0.5231927,51.7089093],[0.5236883,51.7093223],[0.5245061,51.7100358],[0.525096,51.710620799999987],[0.5254918,51.711055600000016],[0.5257343,51.7113222],[0.5258952,51.7115457],[0.5258834,51.7115848],[0.5257827,51.7116645],[0.5256195,51.7117655],[0.525312,51.711996800000016],[0.5251655,51.7121164],[0.5248705,51.7122859],[0.5245433,51.7124721],[0.5243501,51.7126117],[0.5241999,51.712767900000024],[0.5240192,51.7129773],[0.5238483,51.713118]]}},
{"type":"Feature","properties":{"id":22999,"nach":0.4103373521074028},"geometry":{"type":"LineString","coordinates":[[0.5240735,51.7136869],[0.5241386,51.713256800000011],[0.5240857,51.7132016],[0.5238483,51.713118]]}},
{"type":"Feature","properties":{"id":22970,"nach":0.50114796436171827},"geometry":{"type":"LineString","coordinates":[[0.5228591,51.713654200000015],[0.5228254,51.71348170000001],[0.5227471,51.7132149]]}},
{"type":"Feature","properties":{"id":26054,"nach":0.47608692644810685},"geometry":{"type":"LineString","coordinates":[[0.5219625,51.7130935],[0.5221737,51.713127],[0.5224966,51.7131563],[0.5227471,51.7132149]]}},
{"type":"Feature","properties":{"id":70735,"nach":0.33371362399956433},"geometry":{"type":"LineString","coordinates":[[0.5241952,51.7136939],[0.5240735,51.7136869]]}},
{"type":"Feature","properties":{"id":70734,"nach":0.33500700230922931},"geometry":{"type":"LineString","coordinates":[[0.5239734,51.7136839],[0.5240735,51.7136869]]}},
{"type":"Feature","properties":{"id":22969,"nach":0.50675223273422576},"geometry":{"type":"LineString","coordinates":[[0.5228591,51.713654200000015],[0.5226403,51.7136598],[0.5225347,51.713689],[0.5225347,51.71403],[0.5225875,51.7140731],[0.5227961,51.7140949]]}},
{"type":"Feature","properties":{"id":26056,"nach":0.35063586329883495},"geometry":{"type":"LineString","coordinates":[[0.5219793,51.7130305],[0.5219625,51.7130935]]}},
{"type":"Feature","properties":{"id":26055,"nach":0.35063586329883495},"geometry":{"type":"LineString","coordinates":[[0.5219489,51.7131585],[0.5219625,51.7130935]]}},
{"type":"Feature","properties":{"id":26066,"nach":0.44575518940577291},"geometry":{"type":"LineString","coordinates":[[0.5217719,51.7130738],[0.5217949,51.7130777],[0.5218248,51.7130853],[0.5219625,51.7130935]]}},
{"type":"Feature","properties":{"id":5784,"nach":0.44709350072679466},"geometry":{"type":"LineString","coordinates":[[0.5143878,51.7201279],[0.5138773,51.7201067],[0.511919,51.7200546],[0.5115046,51.720054]]}},
{"type":"Feature","properties":{"id":5786,"nach":0.38175919428312011},"geometry":{"type":"LineString","coordinates":[[0.5137525,51.7177929],[0.5138876,51.7179259],[0.514385,51.7192854],[0.5144521,51.719478],[0.5144137,51.71972860000001],[0.5143878,51.7201279]]}},
{"type":"Feature","properties":{"id":24609,"nach":0.51346157518271018},"geometry":{"type":"LineString","coordinates":[[0.5225754,51.71481150000001],[0.5227277,51.714416],[0.5227961,51.7140949]]}},
{"type":"Feature","properties":{"id":65721,"nach":0.45943550225914376},"geometry":{"type":"LineString","coordinates":[[0.5225497,51.714882],[0.5225754,51.71481150000001]]}},
{"type":"Feature","properties":{"id":65716,"nach":0.49135935485308463},"geometry":{"type":"LineString","coordinates":[[0.522518,51.7148255],[0.5225754,51.71481150000001]]}},
{"type":"Feature","properties":{"id":65725,"nach":0.40290391770780865},"geometry":{"type":"LineString","coordinates":[[0.5226845,51.7148134],[0.5226371,51.7148114],[0.5225754,51.71481150000001]]}},
{"type":"Feature","properties":{"id":24600,"nach":0.40746993418096961},"geometry":{"type":"LineString","coordinates":[[0.5230346,51.7153978],[0.5230025,51.7154269],[0.5228509,51.7154809],[0.5227224,51.7155892],[0.5225985,51.7158199],[0.5224554,51.7162041],[0.5223499,51.7165092],[0.522235,51.716950300000015],[0.5221366,51.7173663],[0.5219985,51.7181253],[0.5219396,51.718468],[0.5219101,51.7187128]]}},
{"type":"Feature","properties":{"id":61841,"nach":0.41736241236946325},"geometry":{"type":"LineString","coordinates":[[0.5212258,51.7188068],[0.5212301,51.718732],[0.5213247,51.7187102],[0.5219101,51.7187128]]}},
{"type":"Feature","properties":{"id":24602,"nach":0.49170450455086606},"geometry":{"type":"LineString","coordinates":[[0.5230346,51.7153978],[0.5228189,51.7153214],[0.5227033,51.7152374],[0.5226337,51.7151921],[0.5225855,51.715171],[0.52254,51.7151585],[0.5224649,51.7151588]]}},
{"type":"Feature","properties":{"id":64590,"nach":0.51002799380237462},"geometry":{"type":"LineString","coordinates":[[0.5230111,51.7152714],[0.5230346,51.7153978]]}},
{"type":"Feature","properties":{"id":39695,"nach":0.078244743900339558},"geometry":{"type":"LineString","coordinates":[[0.5225513,51.7237462],[0.5226962,51.7238514],[0.52306,51.7241164],[0.5233006,51.7242872],[0.5235697,51.7245248],[0.5238728,51.7247857],[0.5241974,51.72501290000001],[0.5243798,51.7251511],[0.5245327,51.7252558],[0.5246855,51.7253527],[0.5248626,51.7254869],[0.5249699,51.7256045],[0.5253212,51.726032],[0.5255707,51.7263356],[0.525635,51.72644660000001],[0.5256615,51.7265268],[0.5256538,51.7266928],[0.5255952,51.726849],[0.52554,51.7269292],[0.5254783,51.727032],[0.5253552,51.7271917],[0.5251968,51.7274164],[0.5250561,51.7276271],[0.5249284,51.7278477],[0.5242607,51.728876],[0.5240901,51.7291847],[0.5238997,51.7295037],[0.5237141,51.7298471],[0.5236057,51.7300326]]}},
{"type":"Feature","properties":{"id":69702,"nach":0.29245157900744434},"geometry":{"type":"LineString","coordinates":[[0.5192212,51.7228642],[0.519614,51.7228352],[0.5198636,51.7228476],[0.5199947,51.7228613],[0.5203752,51.722911700000012],[0.5208354,51.7230197],[0.521067,51.7230715],[0.5212702,51.7231303],[0.5214137,51.7231729],[0.5216171,51.723254499999989],[0.5218075,51.723335],[0.5219415,51.7233983],[0.5221952,51.7235281],[0.5224835,51.7236942],[0.5225513,51.7237462]]}},
{"type":"Feature","properties":{"id":59846,"nach":0.46895029531413462},"geometry":{"type":"LineString","coordinates":[[0.5154691,51.7150689],[0.5154803,51.714997799999985]]}},
{"type":"Feature","properties":{"id":59837,"nach":0.50511261683053954},"geometry":{"type":"LineString","coordinates":[[0.5169791,51.7151348],[0.5165403,51.71507110000001],[0.5161503,51.7150381],[0.5158108,51.7150114],[0.5154803,51.714997799999985]]}},
{"type":"Feature","properties":{"id":68098,"nach":0.445281470594448},"geometry":{"type":"LineString","coordinates":[[0.5154754,51.7152032],[0.5154641,51.7150971],[0.5154691,51.7150689]]}},
{"type":"Feature","properties":{"id":67944,"nach":0.35679958282638441},"geometry":{"type":"LineString","coordinates":[[0.5144693,51.7152279],[0.5145341,51.7152195],[0.5145485,51.7151124],[0.5147457,51.7150965],[0.5150756,51.71507410000001],[0.5153693,51.7150708],[0.5154691,51.7150689]]}},
{"type":"Feature","properties":{"id":66533,"nach":0.41446615145607268},"geometry":{"type":"LineString","coordinates":[[0.5156717,51.715067],[0.5155128,51.7150683],[0.5154691,51.7150689]]}},
{"type":"Feature","properties":{"id":59838,"nach":0.49468088111805097},"geometry":{"type":"LineString","coordinates":[[0.5169791,51.7151348],[0.5171747,51.7151568],[0.517408,51.7151725],[0.5177623,51.7151723],[0.5182278,51.7151657]]}},
{"type":"Feature","properties":{"id":70725,"nach":0.51752599290883883},"geometry":{"type":"LineString","coordinates":[[0.5202113,51.715124],[0.5201429,51.7151221],[0.5201133,51.71513680000001],[0.5194428,51.7151171],[0.517556,51.7151457],[0.5174176,51.7151412],[0.5171804,51.71513430000001],[0.5169965,51.7151086],[0.5169791,51.7151348]]}},
{"type":"Feature","properties":{"id":66534,"nach":0.51541802767738709},"geometry":{"type":"LineString","coordinates":[[0.5156717,51.715067],[0.5158853,51.7150473],[0.516545,51.715109],[0.5169666,51.7151605],[0.5169791,51.7151348]]}},
{"type":"Feature","properties":{"id":68099,"nach":0.39087409973960829},"geometry":{"type":"LineString","coordinates":[[0.516963,51.7153617],[0.5169607,51.7153176],[0.5169614,51.7152887],[0.516963,51.7152279],[0.5169791,51.7151348]]}},
{"type":"Feature","properties":{"id":22715,"nach":0.46710044666459061},"geometry":{"type":"LineString","coordinates":[[0.5141217,51.7146196],[0.5138083,51.7146294],[0.5135754,51.714622],[0.5134494,51.7145896]]}},
{"type":"Feature","properties":{"id":57195,"nach":0.38165117058029424},"geometry":{"type":"LineString","coordinates":[[0.5131509,51.713846],[0.51355,51.7139465],[0.5135661,51.7139608],[0.5135822,51.7139907],[0.5135868,51.7140206],[0.5135833,51.7140477],[0.5135684,51.7140798],[0.5135207,51.7141434],[0.5134684,51.7142141],[0.5134946,51.7142922],[0.5135683,51.714401100000011],[0.513497,51.7145204],[0.5134494,51.7145896]]}},
{"type":"Feature","properties":{"id":22755,"nach":0.39166711784846747},"geometry":{"type":"LineString","coordinates":[[0.5129836,51.7149975],[0.5131381,51.7147678],[0.5132189,51.7147295],[0.5133853,51.7146765],[0.5134494,51.7145896]]}},
{"type":"Feature","properties":{"id":61691,"nach":0.51815469761770905},"geometry":{"type":"LineString","coordinates":[[0.5136886,51.713236100000017],[0.5137608,51.7135783],[0.5141079,51.7145819],[0.5141217,51.7146196]]}},
{"type":"Feature","properties":{"id":26060,"nach":0.38786567038580888},"geometry":{"type":"LineString","coordinates":[[0.5162521,51.7118869],[0.5161322,51.7126034],[0.516082,51.71282630000001]]}},
{"type":"Feature","properties":{"id":26071,"nach":0.37816385799292501},"geometry":{"type":"LineString","coordinates":[[0.5175261,51.7119534],[0.5172747,51.7119353],[0.5170112,51.7119218],[0.5167483,51.7119102],[0.5164398,51.71189360000001],[0.5162521,51.7118869]]}},
{"type":"Feature","properties":{"id":22962,"nach":0.48033846054050272},"geometry":{"type":"LineString","coordinates":[[0.52533,51.7144132],[0.5252077,51.7144287],[0.5248278,51.7144601]]}},
{"type":"Feature","properties":{"id":70733,"nach":0.4240142001841235},"geometry":{"type":"LineString","coordinates":[[0.5241408,51.7142403],[0.5245182,51.7142518],[0.5246875,51.714319],[0.5247961,51.7144267],[0.5248278,51.7144601]]}},
{"type":"Feature","properties":{"id":22811,"nach":0.50735780391368046},"geometry":{"type":"LineString","coordinates":[[0.5246255,51.714944399999986],[0.5246676,51.7148914],[0.5248267,51.714692900000017],[0.5248423,51.7146481],[0.5248278,51.7144601]]}},
{"type":"Feature","properties":{"id":70732,"nach":0.3465646104207924},"geometry":{"type":"LineString","coordinates":[[0.5241408,51.7142403],[0.5240513,51.7142376],[0.5238424,51.7142011],[0.5235671,51.7141049]]}},
{"type":"Feature","properties":{"id":70731,"nach":0.34866452846841328},"geometry":{"type":"LineString","coordinates":[[0.5241408,51.7142403],[0.5241338,51.714316200000013]]}},
{"type":"Feature","properties":{"id":22971,"nach":0.3594661388863214},"geometry":{"type":"LineString","coordinates":[[0.523995,51.7148793],[0.5243164,51.714882],[0.5246255,51.714944399999986]]}},
{"type":"Feature","properties":{"id":59830,"nach":0.43073842548330177},"geometry":{"type":"LineString","coordinates":[[0.5222177,51.715152],[0.5224649,51.7151588]]}},
{"type":"Feature","properties":{"id":24998,"nach":0.47185051967195984},"geometry":{"type":"LineString","coordinates":[[0.5215349,51.715209100000024],[0.5218869,51.7151921],[0.5222831,51.715165],[0.5224649,51.7151588]]}},
{"type":"Feature","properties":{"id":24606,"nach":0.38324207876058486},"geometry":{"type":"LineString","coordinates":[[0.522507,51.7150023],[0.5224742,51.715122],[0.5224649,51.7151588]]}},
{"type":"Feature","properties":{"id":59832,"nach":0.5027968357907574},"geometry":{"type":"LineString","coordinates":[[0.5222177,51.715152],[0.5223354,51.7151207],[0.5223569,51.715087],[0.5223736,51.7150347],[0.5224181,51.714968500000012]]}},
{"type":"Feature","properties":{"id":59836,"nach":0.52347727827287138},"geometry":{"type":"LineString","coordinates":[[0.5215469,51.7151735],[0.5217275,51.7151655],[0.5222177,51.715152]]}},
{"type":"Feature","properties":{"id":24997,"nach":0.48827115275861427},"geometry":{"type":"LineString","coordinates":[[0.5215349,51.715209100000024],[0.5213375,51.7152134],[0.5207078,51.7152011],[0.5203122,51.7151745]]}},
{"type":"Feature","properties":{"id":59833,"nach":0.39074476473960246},"geometry":{"type":"LineString","coordinates":[[0.5215469,51.7151735],[0.5215349,51.715209100000024]]}},
{"type":"Feature","properties":{"id":65720,"nach":0.48420306397689405},"geometry":{"type":"LineString","coordinates":[[0.5225497,51.714882],[0.522507,51.7150023]]}},
{"type":"Feature","properties":{"id":24618,"nach":0.40692291580274104},"geometry":{"type":"LineString","coordinates":[[0.5224181,51.714968500000012],[0.522507,51.7150023]]}},
{"type":"Feature","properties":{"id":64591,"nach":0.49475193138566348},"geometry":{"type":"LineString","coordinates":[[0.5230111,51.7152714],[0.5229101,51.715264899999987],[0.5228578,51.7152491],[0.52278,51.71519510000001],[0.5227062,51.7151668],[0.5226472,51.7151253],[0.5226003,51.715091199999989],[0.5225641,51.7150355],[0.5225574,51.7150143],[0.522507,51.7150023]]}},
{"type":"Feature","properties":{"id":70729,"nach":0.49013035544595185},"geometry":{"type":"LineString","coordinates":[[0.520206,51.71517020000001],[0.5198561,51.7151561],[0.519313,51.7151491],[0.5182278,51.7151657]]}},
{"type":"Feature","properties":{"id":45799,"nach":0.37492411274654147},"geometry":{"type":"LineString","coordinates":[[0.5186185,51.7162046],[0.5185837,51.7154884],[0.5183208,51.7154851],[0.5182278,51.7151657]]}},
{"type":"Feature","properties":{"id":70727,"nach":0.48875992530902945},"geometry":{"type":"LineString","coordinates":[[0.520206,51.71517020000001],[0.5203122,51.7151745]]}},
{"type":"Feature","properties":{"id":70728,"nach":0.26285024232993109},"geometry":{"type":"LineString","coordinates":[[0.520206,51.71517020000001],[0.5202113,51.715124]]}},
{"type":"Feature","properties":{"id":59842,"nach":0.15566902925266082},"geometry":{"type":"LineString","coordinates":[[0.5203188,51.715127],[0.5203122,51.7151745]]}},
{"type":"Feature","properties":{"id":59844,"nach":0.44557234004504592},"geometry":{"type":"LineString","coordinates":[[0.5203188,51.715127],[0.5204577,51.7139024],[0.5204559,51.713875700000017]]}},
{"type":"Feature","properties":{"id":59845,"nach":0.52104239966492816},"geometry":{"type":"LineString","coordinates":[[0.5203188,51.715127],[0.5203733,51.715127800000012],[0.5206546,51.7151589],[0.5213547,51.7151805],[0.5215469,51.7151735]]}},
{"type":"Feature","properties":{"id":70723,"nach":0.51991248405301604},"geometry":{"type":"LineString","coordinates":[[0.5202113,51.715124],[0.5203188,51.715127]]}},
{"type":"Feature","properties":{"id":65726,"nach":0.3493210251095939},"geometry":{"type":"LineString","coordinates":[[0.5226845,51.7148134],[0.5227882,51.7148177],[0.5228745,51.7148284],[0.5229383,51.7148403],[0.5229824,51.7148661],[0.5229957,51.7149214],[0.5229871,51.7150247],[0.5229785,51.7151184],[0.5230111,51.7152714]]}},
{"type":"Feature","properties":{"id":65722,"nach":0.35721786613755491},"geometry":{"type":"LineString","coordinates":[[0.5225497,51.714882],[0.522518,51.7148255]]}},
{"type":"Feature","properties":{"id":24619,"nach":0.50892410736578264},"geometry":{"type":"LineString","coordinates":[[0.5224181,51.714968500000012],[0.5223698,51.7149493]]}},
{"type":"Feature","properties":{"id":65719,"nach":0.49877112993727513},"geometry":{"type":"LineString","coordinates":[[0.522518,51.7148255],[0.522505,51.7148286],[0.5223698,51.7149493]]}},
{"type":"Feature","properties":{"id":65718,"nach":0.37997065955485709},"geometry":{"type":"LineString","coordinates":[[0.522518,51.7148255],[0.5224323,51.7146844]]}},
{"type":"Feature","properties":{"id":65724,"nach":0.3800831274360853},"geometry":{"type":"LineString","coordinates":[[0.5226845,51.7148134],[0.5227685,51.7146012]]}},
{"type":"Feature","properties":{"id":24616,"nach":0.38514322471637286},"geometry":{"type":"LineString","coordinates":[[0.5217885,51.7149189],[0.5219206,51.7149165],[0.5222968,51.714936699999988],[0.5223698,51.7149493]]}},
{"type":"Feature","properties":{"id":59834,"nach":0.37420443360520378},"geometry":{"type":"LineString","coordinates":[[0.5215469,51.7151735],[0.5215893,51.7149582],[0.5216051,51.7149492],[0.5217885,51.7149189]]}},
{"type":"Feature","properties":{"id":24617,"nach":0.374348225343555},"geometry":{"type":"LineString","coordinates":[[0.5210113,51.7145775],[0.5211669,51.714629],[0.5212795,51.714732100000013],[0.5216359,51.71478530000001],[0.5216953,51.7148122],[0.5217641,51.7148797],[0.5217885,51.7149189]]}},
{"type":"Feature","properties":{"id":42171,"nach":0.47148291110803592},"geometry":{"type":"LineString","coordinates":[[0.5183315,51.724614100000011],[0.5182374,51.7247521],[0.5181968,51.724843],[0.5180884,51.725027],[0.5180463,51.7251328],[0.5180042,51.7252504]]}},
{"type":"Feature","properties":{"id":42228,"nach":0.37195871565218819},"geometry":{"type":"LineString","coordinates":[[0.5160827,51.7263879],[0.516025,51.7262807],[0.5159445,51.7260912],[0.5160057,51.7259412],[0.516143,51.7258786],[0.5164455,51.7257884],[0.5168049,51.7256987],[0.5175917,51.7255387],[0.5176512,51.725503800000013],[0.5179198,51.7253138],[0.5180042,51.7252504]]}},
{"type":"Feature","properties":{"id":42175,"nach":0.31978461718351464},"geometry":{"type":"LineString","coordinates":[[0.5153563,51.7237766],[0.5155833,51.723882],[0.5156627,51.7239163],[0.5157848,51.7239678],[0.5158344,51.7239985],[0.5159524,51.7240351],[0.5161053,51.7240542],[0.5161992,51.7240783],[0.5162904,51.7241049],[0.516395,51.7241356],[0.5164567,51.7241697],[0.516462,51.7241971],[0.5164433,51.7242469],[0.5164485,51.7242702],[0.5164701,51.7243391],[0.5165318,51.7243898],[0.5165921,51.724423],[0.516682,51.7244222],[0.516737,51.7244106],[0.5167933,51.7244039],[0.5169006,51.7244205],[0.5169802,51.7244362],[0.5171134,51.7244129],[0.5172142,51.7243941],[0.5175359,51.724378],[0.5176207,51.724384],[0.517775,51.724433],[0.5178943,51.7244629],[0.5180097,51.7245053],[0.5182712,51.7246041],[0.5183315,51.724614100000011]]}},
{"type":"Feature","properties":{"id":26035,"nach":0.45495686990354645},"geometry":{"type":"LineString","coordinates":[[0.5180924,51.7240973],[0.5182319,51.7241172],[0.5183607,51.7240923],[0.5184653,51.7238905]]}},
{"type":"Feature","properties":{"id":26041,"nach":0.0},"geometry":{"type":"LineString","coordinates":[[0.5174756,51.7240113],[0.5175182,51.7239261],[0.5175989,51.7237932],[0.5176928,51.7237517],[0.5177867,51.7237683],[0.5184653,51.7238905]]}},
{"type":"Feature","properties":{"id":57221,"nach":0.46915141279585465},"geometry":{"type":"LineString","coordinates":[[0.5188028,51.7236233],[0.5186849,51.7237119],[0.5184653,51.7238905]]}},
{"type":"Feature","properties":{"id":26034,"nach":0.33397286528257791},"geometry":{"type":"LineString","coordinates":[[0.5180924,51.7240973],[0.5180173,51.724167],[0.5179342,51.7242667]]}},
{"type":"Feature","properties":{"id":26043,"nach":0.43729767929016422},"geometry":{"type":"LineString","coordinates":[[0.5174756,51.7240113],[0.5175936,51.7240025],[0.5180924,51.7240973]]}},
{"type":"Feature","properties":{"id":26042,"nach":0.42745844850232945},"geometry":{"type":"LineString","coordinates":[[0.5174756,51.7240113],[0.5173412,51.724027600000014],[0.5172497,51.724031],[0.5170311,51.7239986],[0.5169343,51.7239816]]}},
{"type":"Feature","properties":{"id":57223,"nach":0.37193209277613698},"geometry":{"type":"LineString","coordinates":[[0.5188028,51.7236233],[0.5186248,51.7235779],[0.5185238,51.7235728],[0.5184228,51.72357490000001],[0.5183153,51.7236036]]}},
{"type":"Feature","properties":{"id":26073,"nach":0.34247053749393103},"geometry":{"type":"LineString","coordinates":[[0.5159383,51.7128193],[0.516082,51.71282630000001]]}},
{"type":"Feature","properties":{"id":26065,"nach":0.38027549954693129},"geometry":{"type":"LineString","coordinates":[[0.5177185,51.7129964],[0.5175651,51.7130016],[0.5167996,51.7129664],[0.5164575,51.7129399],[0.5161379,51.7128995],[0.516082,51.71282630000001]]}},
{"type":"Feature","properties":{"id":26064,"nach":0.39070932294863786},"geometry":{"type":"LineString","coordinates":[[0.5177185,51.7129964],[0.5177853,51.7128364],[0.5178122,51.712784600000013],[0.5180597,51.7128077]]}},
{"type":"Feature","properties":{"id":26072,"nach":0.34193831643377337},"geometry":{"type":"LineString","coordinates":[[0.5176468,51.7131134],[0.5176844,51.7130785],[0.5177434,51.7130287],[0.5177185,51.7129964]]}},
{"type":"Feature","properties":{"id":26068,"nach":0.43104576297963176},"geometry":{"type":"LineString","coordinates":[[0.5217719,51.7130738],[0.5215897,51.7130637],[0.521179,51.7130282],[0.5207218,51.71299040000001],[0.5203721,51.712957],[0.5199736,51.712924799999989],[0.5196664,51.7129058],[0.5194064,51.7128911],[0.5189993,51.7128676],[0.518528,51.7128419],[0.5180597,51.7128077]]}},
{"type":"Feature","properties":{"id":26070,"nach":0.0},"geometry":{"type":"LineString","coordinates":[[0.5175261,51.7119534],[0.5182396,51.711995],[0.5182852,51.7120016],[0.5183576,51.7119883],[0.5183932,51.7119004],[0.5184173,51.7116893],[0.5184381,51.711479799999985],[0.5184515,51.7113368],[0.5184355,51.71117790000001],[0.5184361,51.7111259],[0.5181779,51.7110925],[0.5180733,51.7110759],[0.5180679,51.711031],[0.5181162,51.7108947],[0.5181705,51.7107437],[0.5182698,51.7106174],[0.518402,51.710474500000011],[0.5184632,51.7104098],[0.5186088,51.7104215],[0.5188459,51.7104534],[0.5189182,51.7105108],[0.5190216,51.710589],[0.5191757,51.710697],[0.519344,51.7107751],[0.5194623,51.7108257],[0.5195532,51.7108651],[0.5196672,51.710901800000016],[0.519796,51.7108785],[0.5199818,51.7108301],[0.5199979,51.710874900000015],[0.5199348,51.7109762],[0.5198698,51.7110988],[0.5198841,51.7111656],[0.5200454,51.7112446],[0.5201916,51.7112802],[0.5204819,51.711318500000012],[0.5207582,51.711356799999983],[0.5211257,51.7114083],[0.5215065,51.7114714],[0.5217613,51.711518],[0.5222227,51.7116044],[0.5225821,51.71167590000001],[0.5228825,51.7117174],[0.5232553,51.71176890000001],[0.523604,51.711818800000017],[0.5239205,51.711857],[0.5242343,51.711881900000016],[0.5243953,51.7119135],[0.5244622,51.7120076],[0.5244221,51.7120997],[0.5242626,51.7122802],[0.5239217,51.7124482],[0.5236693,51.7125724],[0.5234816,51.7126565],[0.523366,51.712695800000013],[0.5231396,51.7126912],[0.5227544,51.7126632],[0.5223709,51.7126217],[0.5220088,51.7125818],[0.5218961,51.7125718],[0.5218478,51.7125901],[0.5218204,51.7127079],[0.5217754,51.7130521],[0.5217719,51.7130738]]}},
{"type":"Feature","properties":{"id":26069,"nach":0.37277056247362278},"geometry":{"type":"LineString","coordinates":[[0.5175261,51.7119534],[0.5180597,51.7128077]]}},
{"type":"Feature","properties":{"id":36682,"nach":0.38365602915457342},"geometry":{"type":"LineString","coordinates":[[0.5258654,51.7208137],[0.5258702,51.720771],[0.5259614,51.7207178],[0.5262759,51.720726],[0.5264294,51.7207072],[0.5264682,51.7208148]]}},
{"type":"Feature","properties":{"id":36680,"nach":0.44527835836784319},"geometry":{"type":"LineString","coordinates":[[0.5258654,51.7208137],[0.5258769,51.7209654]]}},
{"type":"Feature","properties":{"id":29933,"nach":0.40864409567184828},"geometry":{"type":"LineString","coordinates":[[0.5262759,51.720956],[0.5262685,51.7208234]]}},
{"type":"Feature","properties":{"id":29936,"nach":0.56957065767894466},"geometry":{"type":"LineString","coordinates":[[0.5260345,51.7209599],[0.5262759,51.720956]]}},
{"type":"Feature","properties":{"id":29961,"nach":0.20004344443929276},"geometry":{"type":"LineString","coordinates":[[0.526276,51.7210123],[0.5262759,51.720956]]}},
{"type":"Feature","properties":{"id":29937,"nach":0.41051419279336648},"geometry":{"type":"LineString","coordinates":[[0.5260345,51.7209599],[0.5260317,51.7208298]]}},
{"type":"Feature","properties":{"id":29940,"nach":0.57620950439822105},"geometry":{"type":"LineString","coordinates":[[0.5258769,51.7209654],[0.5260345,51.7209599]]}},
{"type":"Feature","properties":{"id":29963,"nach":0.15536908743172437},"geometry":{"type":"LineString","coordinates":[[0.5260335,51.7210177],[0.5260345,51.7209599]]}},
{"type":"Feature","properties":{"id":29943,"nach":0.25458384375601317},"geometry":{"type":"LineString","coordinates":[[0.5255056,51.7209859],[0.5255008,51.7208457]]}},
{"type":"Feature","properties":{"id":64630,"nach":0.36651437548678212},"geometry":{"type":"LineString","coordinates":[[0.5254268,51.7208464],[0.5255008,51.7208457]]}},
{"type":"Feature","properties":{"id":29946,"nach":0.43457362060092503},"geometry":{"type":"LineString","coordinates":[[0.5255652,51.72098660000001],[0.5255544,51.7208445],[0.5255008,51.7208457]]}},
{"type":"Feature","properties":{"id":29942,"nach":0.16882063445554615},"geometry":{"type":"LineString","coordinates":[[0.5255056,51.7209859],[0.5254337,51.7209875]]}},
{"type":"Feature","properties":{"id":29969,"nach":0.41331368723694462},"geometry":{"type":"LineString","coordinates":[[0.5255079,51.7210544],[0.5255056,51.7209859]]}},
{"type":"Feature","properties":{"id":64629,"nach":0.35038032619024301},"geometry":{"type":"LineString","coordinates":[[0.5254268,51.7208464],[0.5254337,51.7209875]]}},
{"type":"Feature","properties":{"id":64631,"nach":0.0},"geometry":{"type":"LineString","coordinates":[[0.5254268,51.7208464],[0.5246479,51.7208539],[0.5246527,51.720945],[0.5246558,51.7210043]]}},
{"type":"Feature","properties":{"id":29971,"nach":0.5261489943113844},"geometry":{"type":"LineString","coordinates":[[0.5255715,51.7210562],[0.5255652,51.72098660000001]]}},
{"type":"Feature","properties":{"id":29986,"nach":0.54262042778516251},"geometry":{"type":"LineString","coordinates":[[0.5256883,51.7210819],[0.5256983,51.720982799999987],[0.5255652,51.72098660000001]]}},
{"type":"Feature","properties":{"id":29960,"nach":0.54162578959373819},"geometry":{"type":"LineString","coordinates":[[0.526276,51.7210123],[0.5260335,51.7210177]]}},
{"type":"Feature","properties":{"id":29965,"nach":0.58632634752593082},"geometry":{"type":"LineString","coordinates":[[0.5258435,51.7210219],[0.5258769,51.7209654]]}},
{"type":"Feature","properties":{"id":29962,"nach":0.54672610904451879},"geometry":{"type":"LineString","coordinates":[[0.5260335,51.7210177],[0.5258435,51.7210219]]}},
{"type":"Feature","properties":{"id":29978,"nach":0.57505454502758946},"geometry":{"type":"LineString","coordinates":[[0.5258403,51.7210792],[0.5258435,51.7210219]]}},
{"type":"Feature","properties":{"id":29948,"nach":0.37850008831690962},"geometry":{"type":"LineString","coordinates":[[0.5254337,51.7209875],[0.5246558,51.7210043]]}},
{"type":"Feature","properties":{"id":29974,"nach":0.45707698009223557},"geometry":{"type":"LineString","coordinates":[[0.5254372,51.7210564],[0.5254337,51.7209875]]}},
{"type":"Feature","properties":{"id":29972,"nach":0.51268536944250676},"geometry":{"type":"LineString","coordinates":[[0.5255715,51.7210562],[0.5255079,51.7210544]]}},
{"type":"Feature","properties":{"id":29976,"nach":0.44359917173648095},"geometry":{"type":"LineString","coordinates":[[0.5254372,51.7210564],[0.5255079,51.7210544]]}},
{"type":"Feature","properties":{"id":29987,"nach":0.47330031519795679},"geometry":{"type":"LineString","coordinates":[[0.5255106,51.7211308],[0.5255079,51.7210544]]}},
{"type":"Feature","properties":{"id":29997,"nach":0.39343260324154394},"geometry":{"type":"LineString","coordinates":[[0.5256686,51.721233],[0.5255808,51.7212345],[0.5255715,51.7210562]]}},
{"type":"Feature","properties":{"id":29996,"nach":0.4782059866637402},"geometry":{"type":"LineString","coordinates":[[0.5256686,51.721233],[0.5256883,51.7210819]]}},
{"type":"Feature","properties":{"id":29989,"nach":0.32447091471121181},"geometry":{"type":"LineString","coordinates":[[0.5246634,51.7211501],[0.5246558,51.7210043]]}},
{"type":"Feature","properties":{"id":64626,"nach":0.4274554053148758},"geometry":{"type":"LineString","coordinates":[[0.525441,51.7211324],[0.5254372,51.7210564]]}},
{"type":"Feature","properties":{"id":29990,"nach":0.39613949317684644},"geometry":{"type":"LineString","coordinates":[[0.5246634,51.7211501],[0.525441,51.7211324]]}},
{"type":"Feature","properties":{"id":30009,"nach":0.39095296849343458},"geometry":{"type":"LineString","coordinates":[[0.524671,51.7212941],[0.5246678,51.7212339],[0.5246634,51.7211501]]}},
{"type":"Feature","properties":{"id":30006,"nach":0.43120410806996468},"geometry":{"type":"LineString","coordinates":[[0.5255155,51.721274800000018],[0.5255106,51.7211308]]}},
{"type":"Feature","properties":{"id":64628,"nach":0.41164779488771408},"geometry":{"type":"LineString","coordinates":[[0.525441,51.7211324],[0.5255106,51.7211308]]}},
{"type":"Feature","properties":{"id":30002,"nach":0.49323657059354931},"geometry":{"type":"LineString","coordinates":[[0.5256633,51.7212741],[0.5256686,51.721233]]}},
{"type":"Feature","properties":{"id":64627,"nach":0.44141897764149129},"geometry":{"type":"LineString","coordinates":[[0.525441,51.7211324],[0.5254504,51.7212765]]}},
{"type":"Feature","properties":{"id":30007,"nach":0.52091189913434288},"geometry":{"type":"LineString","coordinates":[[0.5255155,51.721274800000018],[0.5256633,51.7212741]]}},
{"type":"Feature","properties":{"id":30005,"nach":0.49487813074322473},"geometry":{"type":"LineString","coordinates":[[0.5255155,51.721274800000018],[0.5254504,51.7212765]]}},
{"type":"Feature","properties":{"id":30021,"nach":0.43060523356957642},"geometry":{"type":"LineString","coordinates":[[0.5246784,51.7214354],[0.524671,51.7212941]]}},
{"type":"Feature","properties":{"id":64624,"nach":0.40620574345043703},"geometry":{"type":"LineString","coordinates":[[0.5254504,51.7212765],[0.524671,51.7212941]]}},
{"type":"Feature","properties":{"id":30017,"nach":0.49743394997739054},"geometry":{"type":"LineString","coordinates":[[0.5256279,51.7214161],[0.5256633,51.7212741]]}},
{"type":"Feature","properties":{"id":30029,"nach":0.47580201399175687},"geometry":{"type":"LineString","coordinates":[[0.5256104,51.7215625],[0.5256279,51.7214161]]}},
{"type":"Feature","properties":{"id":30022,"nach":0.37941570673921199},"geometry":{"type":"LineString","coordinates":[[0.5246784,51.7214354],[0.5256279,51.7214161]]}},
{"type":"Feature","properties":{"id":30034,"nach":0.43622163730837543},"geometry":{"type":"LineString","coordinates":[[0.5246861,51.7215809],[0.524683,51.7215218],[0.5246784,51.7214354]]}},
{"type":"Feature","properties":{"id":30027,"nach":0.44062651098496758},"geometry":{"type":"LineString","coordinates":[[0.5256104,51.7215625],[0.5246861,51.7215809]]}},
{"type":"Feature","properties":{"id":64622,"nach":0.53286728860377586},"geometry":{"type":"LineString","coordinates":[[0.5255984,51.721701],[0.5256104,51.7215625]]}},
{"type":"Feature","properties":{"id":55417,"nach":0.37900978463649621},"geometry":{"type":"LineString","coordinates":[[0.5246928,51.7217233],[0.5246876,51.7216092],[0.5246861,51.7215809]]}},
{"type":"Feature","properties":{"id":55415,"nach":0.48862608199736091},"geometry":{"type":"LineString","coordinates":[[0.5246928,51.7217233],[0.5255984,51.721701]]}},
{"type":"Feature","properties":{"id":64621,"nach":0.47998072025021848},"geometry":{"type":"LineString","coordinates":[[0.5255984,51.721701],[0.525631,51.7218439]]}},
{"type":"Feature","properties":{"id":55416,"nach":0.47498928596758222},"geometry":{"type":"LineString","coordinates":[[0.5246928,51.7217233],[0.5246966,51.721805700000012],[0.5246994,51.7218678]]}},
{"type":"Feature","properties":{"id":35835,"nach":0.0},"geometry":{"type":"LineString","coordinates":[[0.520763,51.7137977],[0.5207884,51.7137805],[0.5208301,51.713763],[0.520872,51.7137538],[0.5209189,51.7137604],[0.5209386,51.7137683],[0.5209583,51.713779599999981],[0.520973,51.7137979],[0.5209789,51.713811800000016],[0.5209767,51.7138273],[0.520975,51.713845],[0.5209612,51.7138637],[0.5209237,51.7138782],[0.5208738,51.713885500000018],[0.5208335,51.7138793],[0.5208036,51.7138616],[0.5207757,51.7138432],[0.5207629,51.71382160000001],[0.520763,51.7137977]]}},
{"type":"Feature","properties":{"id":35840,"nach":0.36882771595737429},"geometry":{"type":"LineString","coordinates":[[0.5204559,51.713875700000017],[0.5206005,51.7138151],[0.520763,51.7137977]]}},
{"type":"Feature","properties":{"id":35838,"nach":0.36570447442439141},"geometry":{"type":"LineString","coordinates":[[0.5204559,51.713875700000017],[0.5204131,51.7138507],[0.5203108,51.7138317],[0.5197797,51.7138051]]}},
{"type":"Feature","properties":{"id":66607,"nach":0.32141552337188223},"geometry":{"type":"LineString","coordinates":[[0.5148612,51.7157693],[0.5150134,51.7157089],[0.5153018,51.7155764]]}},
{"type":"Feature","properties":{"id":68112,"nach":0.47379713877083329},"geometry":{"type":"LineString","coordinates":[[0.5155018,51.715501400000015],[0.5155073,51.7155745]]}},
{"type":"Feature","properties":{"id":55714,"nach":0.41945230247253296},"geometry":{"type":"LineString","coordinates":[[0.5153018,51.7155764],[0.5155073,51.7155745]]}},
{"type":"Feature","properties":{"id":68110,"nach":0.49013265819498536},"geometry":{"type":"LineString","coordinates":[[0.5152742,51.7155214],[0.5152198,51.7155278],[0.5151289,51.7155496],[0.514928,51.7156749],[0.5147506,51.7155529],[0.5145876,51.715378300000012],[0.5144693,51.7152279]]}},
{"type":"Feature","properties":{"id":55403,"nach":0.38367572294534358},"geometry":{"type":"LineString","coordinates":[[0.5247188,51.7221572],[0.5247289,51.7223032]]}},
{"type":"Feature","properties":{"id":55399,"nach":0.27731429455934065},"geometry":{"type":"LineString","coordinates":[[0.5247289,51.7223032],[0.5257353,51.7222863]]}},
{"type":"Feature","properties":{"id":55406,"nach":0.43103415986401039},"geometry":{"type":"LineString","coordinates":[[0.5247088,51.7220114],[0.5247147,51.7220975],[0.5247188,51.7221572]]}},
{"type":"Feature","properties":{"id":64614,"nach":0.28975197459240737},"geometry":{"type":"LineString","coordinates":[[0.5256972,51.722132],[0.5247188,51.7221572]]}},
{"type":"Feature","properties":{"id":64612,"nach":0.3853014885190556},"geometry":{"type":"LineString","coordinates":[[0.5256972,51.722132],[0.5257353,51.7222863]]}},
{"type":"Feature","properties":{"id":64615,"nach":0.43333561542878724},"geometry":{"type":"LineString","coordinates":[[0.5256636,51.7219886],[0.5256972,51.722132]]}},
{"type":"Feature","properties":{"id":55405,"nach":0.30597228801681992},"geometry":{"type":"LineString","coordinates":[[0.5247088,51.7220114],[0.5256636,51.7219886]]}},
{"type":"Feature","properties":{"id":55413,"nach":0.45783561696655184},"geometry":{"type":"LineString","coordinates":[[0.5246994,51.7218678],[0.5247004,51.7218906],[0.5247088,51.7220114]]}},
{"type":"Feature","properties":{"id":64618,"nach":0.46276464216131219},"geometry":{"type":"LineString","coordinates":[[0.525631,51.7218439],[0.5256636,51.7219886]]}},
{"type":"Feature","properties":{"id":64620,"nach":0.33270137364014513},"geometry":{"type":"LineString","coordinates":[[0.525631,51.7218439],[0.5246994,51.7218678]]}},
{"type":"Feature","properties":{"id":68113,"nach":0.50125187571218244},"geometry":{"type":"LineString","coordinates":[[0.5155018,51.715501400000015],[0.5154754,51.7152032]]}},
{"type":"Feature","properties":{"id":68114,"nach":0.41054330585658222},"geometry":{"type":"LineString","coordinates":[[0.5155018,51.715501400000015],[0.5155995,51.7154968]]}},
{"type":"Feature","properties":{"id":68115,"nach":0.47407675019503948},"geometry":{"type":"LineString","coordinates":[[0.5155018,51.715501400000015],[0.5154041,51.715506],[0.5152742,51.7155214]]}},
{"type":"Feature","properties":{"id":68109,"nach":0.45504868686192024},"geometry":{"type":"LineString","coordinates":[[0.5152742,51.7155214],[0.5153018,51.7155764]]}},
{"type":"Feature","properties":{"id":68108,"nach":0.46753843181312082},"geometry":{"type":"LineString","coordinates":[[0.5152742,51.7155214],[0.5152498,51.7154728]]}},
{"type":"Feature","properties":{"id":55718,"nach":0.39033572600999145},"geometry":{"type":"LineString","coordinates":[[0.5152498,51.7154728],[0.5152375,51.7151827]]}},
{"type":"Feature","properties":{"id":55721,"nach":0.38639551768631242},"geometry":{"type":"LineString","coordinates":[[0.5149604,51.7151803],[0.5149711,51.7154788],[0.5152498,51.7154728]]}},
{"type":"Feature","properties":{"id":68105,"nach":0.39249432061093481},"geometry":{"type":"LineString","coordinates":[[0.5155186,51.7152009],[0.5156501,51.7151939],[0.5156689,51.7153883]]}},
{"type":"Feature","properties":{"id":68106,"nach":0.50305873794362399},"geometry":{"type":"LineString","coordinates":[[0.5155186,51.7152009],[0.5155112,51.7151536],[0.5156134,51.7151492],[0.5156222,51.7150999],[0.5156665,51.7150974],[0.5156717,51.715067]]}},
{"type":"Feature","properties":{"id":68104,"nach":0.50958554035952852},"geometry":{"type":"LineString","coordinates":[[0.5155186,51.7152009],[0.5154754,51.7152032]]}},
{"type":"Feature","properties":{"id":68107,"nach":0.3580535561119621},"geometry":{"type":"LineString","coordinates":[[0.5155186,51.7152009],[0.515551,51.7154078],[0.5155995,51.7154968]]}},
{"type":"Feature","properties":{"id":70726,"nach":0.37902427274921241},"geometry":{"type":"LineString","coordinates":[[0.5202113,51.715124],[0.5202052,51.7150812],[0.5201855,51.7150596],[0.5198708,51.7150491],[0.5197662,51.7150015],[0.5192718,51.714992100000011]]}},
{"type":"Feature","properties":{"id":68103,"nach":0.38308372616626929},"geometry":{"type":"LineString","coordinates":[[0.5155995,51.7154968],[0.5156168,51.715862400000013],[0.5156254,51.7159579],[0.5155925,51.7160222],[0.5155631,51.7160555],[0.5155112,51.7160866],[0.5154454,51.716123]]}}
]
}
