{
"type": "FeatureCollection",
"name": "5f0a009840f1_visibility",
"crs": { "type": "name", "properties": { "name": "urn:ogc:def:crs:OGC:1.3:CRS84" } },
"features": [
{ "type": "Feature", "properties": { "visible_points": 0, "total_points": 71, "visibility_pct": 0.0 }, "geometry": { "type": "Point", "coordinates": [ 0.131412152842594, 52.130462268797523 ] } },
{ "type": "Feature", "properties": { "visible_points": 0, "total_points": 74, "visibility_pct": 0.0 }, "geometry": { "type": "Point", "coordinates": [ 0.131614435272863, 52.130458611912516 ] } },
{ "type": "Feature", "properties": { "visible_points": 0, "total_points": 75, "visibility_pct": 0.0 }, "geometry": { "type": "Point", "coordinates": [ 0.131816718103783, 52.130454954828878 ] } },
{ "type": "Feature", "properties": { "visible_points": 0, "total_points": 73, "visibility_pct": 0.0 }, "geometry": { "type": "Point", "coordinates": [ 0.132019001290491, 52.130451297519151 ] } },
{ "type": "Feature", "properties": { "visible_points": 0, "total_points": 72, "visibility_pct": 0.0 }, "geometry": { "type": "Point", "coordinates": [ 0.131113875102676, 52.130575565926463 ] } },
{ "type": "Feature", "properties": { "visible_points": 34, "total_points": 79, "visibility_pct": 43.037974683544306 }, "geometry": { "type": "Point", "coordinates": [ 0.131316158043011, 52.13057190953986 ] } },
{ "type": "Feature", "properties": { "visible_points": 36, "total_points": 84, "visibility_pct": 42.857142857142854 }, "geometry": { "type": "Point", "coordinates": [ 0.131518440940786, 52.130568252806583 ] } },
{ "type": "Feature", "properties": { "visible_points": 35, "total_points": 86, "visibility_pct": 40.697674418604649 }, "geometry": { "type": "Point", "coordinates": [ 0.131720724039927, 52.130564595778637 ] } },
{ "type": "Feature", "properties": { "visible_points": 28, "total_points": 86, "visibility_pct": 32.558139534883722 }, "geometry": { "type": "Point", "coordinates": [ 0.131923007569791, 52.130560938600013 ] } },
{ "type": "Feature", "properties": { "visible_points": 29, "total_points": 83, "visibility_pct": 34.939759036144579 }, "geometry": { "type": "Point", "coordinates": [ 0.132125291208965, 52.130557281098156 ] } },
{ "type": "Feature", "properties": { "visible_points": 0, "total_points": 78, "visibility_pct": 0.0 }, "geometry": { "type": "Point", "coordinates": [ 0.132327574805884, 52.130553623249817 ] } },
{ "type": "Feature", "properties": { "visible_points": 0, "total_points": 76, "visibility_pct": 0.0 }, "geometry": { "type": "Point", "coordinates": [ 0.131017879346554, 52.130685206438564 ] } },
{ "type": "Feature", "properties": { "visible_points": 37, "total_points": 85, "visibility_pct": 43.529411764705884 }, "geometry": { "type": "Point", "coordinates": [ 0.131220162786442, 52.130681550209211 ] } },
{ "type": "Feature", "properties": { "visible_points": 43, "total_points": 92, "visibility_pct": 46.739130434782609 }, "geometry": { "type": "Point", "coordinates": [ 0.13142244618377, 52.130677893633155 ] } },
{ "type": "Feature", "properties": { "visible_points": 37, "total_points": 97, "visibility_pct": 38.144329896907216 }, "geometry": { "type": "Point", "coordinates": [ 0.13162472958963, 52.13067423671869 ] } },
{ "type": "Feature", "properties": { "visible_points": 35, "total_points": 98, "visibility_pct": 35.714285714285715 }, "geometry": { "type": "Point", "coordinates": [ 0.131827013396629, 52.130670579610552 ] } },
{ "type": "Feature", "properties": { "visible_points": 32, "total_points": 96, "visibility_pct": 33.333333333333329 }, "geometry": { "type": "Point", "coordinates": [ 0.132029297530528, 52.130666922263075 ] } },
{ "type": "Feature", "properties": { "visible_points": 33, "total_points": 91, "visibility_pct": 36.263736263736263 }, "geometry": { "type": "Point", "coordinates": [ 0.132231581622174, 52.130663264569087 ] } },
{ "type": "Feature", "properties": { "visible_points": 0, "total_points": 83, "visibility_pct": 0.0 }, "geometry": { "type": "Point", "coordinates": [ 0.132433865671566, 52.130659606528596 ] } },
{ "type": "Feature", "properties": { "visible_points": 0, "total_points": 73, "visibility_pct": 0.0 }, "geometry": { "type": "Point", "coordinates": [ 0.132636149678696, 52.13065594814163 ] } },
{ "type": "Feature", "properties": { "visible_points": 0, "total_points": 79, "visibility_pct": 0.0 }, "geometry": { "type": "Point", "coordinates": [ 0.13092188313344, 52.130794846877677 ] } },
{ "type": "Feature", "properties": { "visible_points": 32, "total_points": 89, "visibility_pct": 35.955056179775283 }, "geometry": { "type": "Point", "coordinates": [ 0.131124167072877, 52.130791190805553 ] } },
{ "type": "Feature", "properties": { "visible_points": 40, "total_points": 98, "visibility_pct": 40.816326530612244 }, "geometry": { "type": "Point", "coordinates": [ 0.131326450969772, 52.130787534386755 ] } },
{ "type": "Feature", "properties": { "visible_points": 42, "total_points": 105, "visibility_pct": 40.0 }, "geometry": { "type": "Point", "coordinates": [ 0.131528734824099, 52.130783877621255 ] } },
{ "type": "Feature", "properties": { "visible_points": 37, "total_points": 109, "visibility_pct": 33.944954128440372 }, "geometry": { "type": "Point", "coordinates": [ 0.131731018901619, 52.130780220570685 ] } },
{ "type": "Feature", "properties": { "visible_points": 40, "total_points": 108, "visibility_pct": 37.037037037037038 }, "geometry": { "type": "Point", "coordinates": [ 0.131933303399626, 52.130776563357635 ] } },
{ "type": "Feature", "properties": { "visible_points": 38, "total_points": 104, "visibility_pct": 36.538461538461533 }, "geometry": { "type": "Point", "coordinates": [ 0.132135587986001, 52.130772905818013 ] } },
{ "type": "Feature", "properties": { "visible_points": 35, "total_points": 96, "visibility_pct": 36.458333333333329 }, "geometry": { "type": "Point", "coordinates": [ 0.132337872530126, 52.130769247931916 ] } },
{ "type": "Feature", "properties": { "visible_points": 21, "total_points": 85, "visibility_pct": 24.705882352941178 }, "geometry": { "type": "Point", "coordinates": [ 0.132540157031986, 52.130765589699308 ] } },
{ "type": "Feature", "properties": { "visible_points": 0, "total_points": 73, "visibility_pct": 0.0 }, "geometry": { "type": "Point", "coordinates": [ 0.132742441491588, 52.130761931120198 ] } },
{ "type": "Feature", "properties": { "visible_points": 2, "total_points": 61, "visibility_pct": 3.278688524590164 }, "geometry": { "type": "Point", "coordinates": [ 0.13294472590892, 52.130758272194598 ] } },
{ "type": "Feature", "properties": { "visible_points": 8, "total_points": 80, "visibility_pct": 10.0 }, "geometry": { "type": "Point", "coordinates": [ 0.13082588646333, 52.130904487243804 ] } },
{ "type": "Feature", "properties": { "visible_points": 28, "total_points": 91, "visibility_pct": 30.76923076923077 }, "geometry": { "type": "Point", "coordinates": [ 0.131028170902326, 52.130900831328908 ] } },
{ "type": "Feature", "properties": { "visible_points": 36, "total_points": 101, "visibility_pct": 35.64356435643564 }, "geometry": { "type": "Point", "coordinates": [ 0.131230455298773, 52.130897175067332 ] } },
{ "type": "Feature", "properties": { "visible_points": 36, "total_points": 110, "visibility_pct": 32.727272727272727 }, "geometry": { "type": "Point", "coordinates": [ 0.131432739652665, 52.130893518459054 ] } },
{ "type": "Feature", "properties": { "visible_points": 37, "total_points": 118, "visibility_pct": 31.35593220338983 }, "geometry": { "type": "Point", "coordinates": [ 0.131635024033706, 52.13088986151498 ] } },
{ "type": "Feature", "properties": { "visible_points": 41, "total_points": 118, "visibility_pct": 34.745762711864408 }, "geometry": { "type": "Point", "coordinates": [ 0.131837308816253, 52.130886204381881 ] } },
{ "type": "Feature", "properties": { "visible_points": 44, "total_points": 115, "visibility_pct": 38.260869565217391 }, "geometry": { "type": "Point", "coordinates": [ 0.132039593897366, 52.130882546996645 ] } },
{ "type": "Feature", "properties": { "visible_points": 42, "total_points": 108, "visibility_pct": 38.888888888888893 }, "geometry": { "type": "Point", "coordinates": [ 0.132241878936218, 52.130878889264892 ] } },
{ "type": "Feature", "properties": { "visible_points": 30, "total_points": 96, "visibility_pct": 31.25 }, "geometry": { "type": "Point", "coordinates": [ 0.132444163932819, 52.130875231186657 ] } },
{ "type": "Feature", "properties": { "visible_points": 16, "total_points": 83, "visibility_pct": 19.277108433734941 }, "geometry": { "type": "Point", "coordinates": [ 0.132646448887154, 52.130871572761912 ] } },
{ "type": "Feature", "properties": { "visible_points": 0, "total_points": 71, "visibility_pct": 0.0 }, "geometry": { "type": "Point", "coordinates": [ 0.132848733799224, 52.13086791399067 ] } },
{ "type": "Feature", "properties": { "visible_points": 4, "total_points": 59, "visibility_pct": 6.7796610169491522 }, "geometry": { "type": "Point", "coordinates": [ 0.133051018669028, 52.130864254872954 ] } },
{ "type": "Feature", "properties": { "visible_points": 0, "total_points": 81, "visibility_pct": 0.0 }, "geometry": { "type": "Point", "coordinates": [ 0.130729889336212, 52.131014127536922 ] } },
{ "type": "Feature", "properties": { "visible_points": 25, "total_points": 92, "visibility_pct": 27.173913043478258 }, "geometry": { "type": "Point", "coordinates": [ 0.130932174274775, 52.131010471779248 ] } },
{ "type": "Feature", "properties": { "visible_points": 33, "total_points": 102, "visibility_pct": 32.352941176470587 }, "geometry": { "type": "Point", "coordinates": [ 0.131134459170781, 52.131006815674908 ] } },
{ "type": "Feature", "properties": { "visible_points": 37, "total_points": 111, "visibility_pct": 33.333333333333329 }, "geometry": { "type": "Point", "coordinates": [ 0.131336744024236, 52.131003159223873 ] } },
{ "type": "Feature", "properties": { "visible_points": 35, "total_points": 119, "visibility_pct": 29.411764705882355 }, "geometry": { "type": "Point", "coordinates": [ 0.131539028835133, 52.130999502426164 ] } },
{ "type": "Feature", "properties": { "visible_points": 34, "total_points": 120, "visibility_pct": 28.333333333333332 }, "geometry": { "type": "Point", "coordinates": [ 0.131741313890511, 52.130995845352565 ] } },
{ "type": "Feature", "properties": { "visible_points": 38, "total_points": 120, "visibility_pct": 31.666666666666664 }, "geometry": { "type": "Point", "coordinates": [ 0.131943599356255, 52.130992188104933 ] } },
{ "type": "Feature", "properties": { "visible_points": 46, "total_points": 118, "visibility_pct": 38.983050847457626 }, "geometry": { "type": "Point", "coordinates": [ 0.132145884889844, 52.130988530527567 ] } },
{ "type": "Feature", "properties": { "visible_points": 46, "total_points": 106, "visibility_pct": 43.39622641509434 }, "geometry": { "type": "Point", "coordinates": [ 0.132348170381184, 52.130984872603698 ] } },
{ "type": "Feature", "properties": { "visible_points": 28, "total_points": 93, "visibility_pct": 30.107526881720432 }, "geometry": { "type": "Point", "coordinates": [ 0.132550455830256, 52.130981214333318 ] } },
{ "type": "Feature", "properties": { "visible_points": 0, "total_points": 80, "visibility_pct": 0.0 }, "geometry": { "type": "Point", "coordinates": [ 0.13275274123707, 52.130977555716449 ] } },
{ "type": "Feature", "properties": { "visible_points": 3, "total_points": 67, "visibility_pct": 4.4776119402985071 }, "geometry": { "type": "Point", "coordinates": [ 0.132955026601614, 52.130973896753083 ] } },
{ "type": "Feature", "properties": { "visible_points": 0, "total_points": 82, "visibility_pct": 0.0 }, "geometry": { "type": "Point", "coordinates": [ 0.130633891752095, 52.131123767757025 ] } },
{ "type": "Feature", "properties": { "visible_points": 22, "total_points": 92, "visibility_pct": 23.913043478260871 }, "geometry": { "type": "Point", "coordinates": [ 0.130836177190215, 52.131120112156609 ] } },
{ "type": "Feature", "properties": { "visible_points": 37, "total_points": 102, "visibility_pct": 36.274509803921568 }, "geometry": { "type": "Point", "coordinates": [ 0.131038462585789, 52.131116456209504 ] } },
{ "type": "Feature", "properties": { "visible_points": 42, "total_points": 111, "visibility_pct": 37.837837837837839 }, "geometry": { "type": "Point", "coordinates": [ 0.131240747938813, 52.131112799915698 ] } },
{ "type": "Feature", "properties": { "visible_points": 33, "total_points": 118, "visibility_pct": 27.966101694915253 }, "geometry": { "type": "Point", "coordinates": [ 0.131443033249276, 52.131109143275211 ] } },
{ "type": "Feature", "properties": { "visible_points": 30, "total_points": 120, "visibility_pct": 25.0 }, "geometry": { "type": "Point", "coordinates": [ 0.131645318605092, 52.131105486301415 ] } },
{ "type": "Feature", "properties": { "visible_points": 32, "total_points": 120, "visibility_pct": 26.666666666666668 }, "geometry": { "type": "Point", "coordinates": [ 0.131847604362669, 52.131101829142906 ] } },
{ "type": "Feature", "properties": { "visible_points": 37, "total_points": 120, "visibility_pct": 30.833333333333336 }, "geometry": { "type": "Point", "coordinates": [ 0.132049890391004, 52.13109817171992 ] } },
{ "type": "Feature", "properties": { "visible_points": 39, "total_points": 114, "visibility_pct": 34.210526315789473 }, "geometry": { "type": "Point", "coordinates": [ 0.132252176377071, 52.131094513950423 ] } },
{ "type": "Feature", "properties": { "visible_points": 39, "total_points": 102, "visibility_pct": 38.235294117647058 }, "geometry": { "type": "Point", "coordinates": [ 0.132454462320894, 52.131090855834408 ] } },
{ "type": "Feature", "properties": { "visible_points": 27, "total_points": 89, "visibility_pct": 30.337078651685395 }, "geometry": { "type": "Point", "coordinates": [ 0.13265674822245, 52.131087197371919 ] } },
{ "type": "Feature", "properties": { "visible_points": 2, "total_points": 76, "visibility_pct": 2.6315789473684208 }, "geometry": { "type": "Point", "coordinates": [ 0.132859034081736, 52.131083538562905 ] } },
{ "type": "Feature", "properties": { "visible_points": 21, "total_points": 92, "visibility_pct": 22.826086956521738 }, "geometry": { "type": "Point", "coordinates": [ 0.130740179648652, 52.131229752460946 ] } },
{ "type": "Feature", "properties": { "visible_points": 37, "total_points": 101, "visibility_pct": 36.633663366336634 }, "geometry": { "type": "Point", "coordinates": [ 0.130942465543792, 52.131226096671078 ] } },
{ "type": "Feature", "properties": { "visible_points": 44, "total_points": 110, "visibility_pct": 40.0 }, "geometry": { "type": "Point", "coordinates": [ 0.131144751396382, 52.131222440534529 ] } },
{ "type": "Feature", "properties": { "visible_points": 46, "total_points": 117, "visibility_pct": 39.316239316239319 }, "geometry": { "type": "Point", "coordinates": [ 0.131347037206419, 52.131218784051264 ] } },
{ "type": "Feature", "properties": { "visible_points": 38, "total_points": 120, "visibility_pct": 31.666666666666664 }, "geometry": { "type": "Point", "coordinates": [ 0.131549322973892, 52.131215127221324 ] } },
{ "type": "Feature", "properties": { "visible_points": 43, "total_points": 120, "visibility_pct": 35.833333333333336 }, "geometry": { "type": "Point", "coordinates": [ 0.131751609006602, 52.131211470124221 ] } },
{ "type": "Feature", "properties": { "visible_points": 45, "total_points": 120, "visibility_pct": 37.5 }, "geometry": { "type": "Point", "coordinates": [ 0.131953895439679, 52.131207812841929 ] } },
{ "type": "Feature", "properties": { "visible_points": 41, "total_points": 116, "visibility_pct": 35.344827586206897 }, "geometry": { "type": "Point", "coordinates": [ 0.132156181920495, 52.131204155226811 ] } },
{ "type": "Feature", "properties": { "visible_points": 31, "total_points": 108, "visibility_pct": 28.703703703703702 }, "geometry": { "type": "Point", "coordinates": [ 0.132358468359055, 52.131200497265176 ] } },
{ "type": "Feature", "properties": { "visible_points": 22, "total_points": 96, "visibility_pct": 22.916666666666664 }, "geometry": { "type": "Point", "coordinates": [ 0.132560754755359, 52.131196838957031 ] } },
{ "type": "Feature", "properties": { "visible_points": 0, "total_points": 83, "visibility_pct": 0.0 }, "geometry": { "type": "Point", "coordinates": [ 0.132763041109394, 52.13119318030239 ] } },
{ "type": "Feature", "properties": { "visible_points": 9, "total_points": 92, "visibility_pct": 9.7826086956521738 }, "geometry": { "type": "Point", "coordinates": [ 0.130644181650079, 52.13133939269229 ] } },
{ "type": "Feature", "properties": { "visible_points": 39, "total_points": 101, "visibility_pct": 38.613861386138616 }, "geometry": { "type": "Point", "coordinates": [ 0.130846468044788, 52.131335737059672 ] } },
{ "type": "Feature", "properties": { "visible_points": 43, "total_points": 109, "visibility_pct": 39.449541284403672 }, "geometry": { "type": "Point", "coordinates": [ 0.131048754396949, 52.131332081080345 ] } },
{ "type": "Feature", "properties": { "visible_points": 45, "total_points": 116, "visibility_pct": 38.793103448275865 }, "geometry": { "type": "Point", "coordinates": [ 0.131251040706552, 52.131328424754315 ] } },
{ "type": "Feature", "properties": { "visible_points": 41, "total_points": 120, "visibility_pct": 34.166666666666664 }, "geometry": { "type": "Point", "coordinates": [ 0.131453326973604, 52.131324768081605 ] } },
{ "type": "Feature", "properties": { "visible_points": 38, "total_points": 120, "visibility_pct": 31.666666666666664 }, "geometry": { "type": "Point", "coordinates": [ 0.131655613303797, 52.131321111077966 ] } },
{ "type": "Feature", "properties": { "visible_points": 46, "total_points": 120, "visibility_pct": 38.333333333333336 }, "geometry": { "type": "Point", "coordinates": [ 0.131857900035876, 52.131317453893622 ] } },
{ "type": "Feature", "properties": { "visible_points": 48, "total_points": 117, "visibility_pct": 41.025641025641022 }, "geometry": { "type": "Point", "coordinates": [ 0.132060187011441, 52.131313796432856 ] } },
{ "type": "Feature", "properties": { "visible_points": 38, "total_points": 110, "visibility_pct": 34.545454545454547 }, "geometry": { "type": "Point", "coordinates": [ 0.13226247394474, 52.131310138625601 ] } },
{ "type": "Feature", "properties": { "visible_points": 27, "total_points": 100, "visibility_pct": 27.0 }, "geometry": { "type": "Point", "coordinates": [ 0.132464760835797, 52.131306480471835 ] } },
{ "type": "Feature", "properties": { "visible_points": 1, "total_points": 88, "visibility_pct": 1.1363636363636365 }, "geometry": { "type": "Point", "coordinates": [ 0.132667047684579, 52.13130282197158 ] } },
{ "type": "Feature", "properties": { "visible_points": 0, "total_points": 93, "visibility_pct": 0.0 }, "geometry": { "type": "Point", "coordinates": [ 0.130548183194489, 52.131449032850647 ] } },
{ "type": "Feature", "properties": { "visible_points": 24, "total_points": 101, "visibility_pct": 23.762376237623762 }, "geometry": { "type": "Point", "coordinates": [ 0.130750470088769, 52.131445377375236 ] } },
{ "type": "Feature", "properties": { "visible_points": 41, "total_points": 109, "visibility_pct": 37.61467889908257 }, "geometry": { "type": "Point", "coordinates": [ 0.130952756940505, 52.131441721553173 ] } },
{ "type": "Feature", "properties": { "visible_points": 42, "total_points": 115, "visibility_pct": 36.521739130434781 }, "geometry": { "type": "Point", "coordinates": [ 0.131155043749684, 52.13143806538438 ] } },
{ "type": "Feature", "properties": { "visible_points": 40, "total_points": 120, "visibility_pct": 33.333333333333329 }, "geometry": { "type": "Point", "coordinates": [ 0.131357330516313, 52.131434408868905 ] } },
{ "type": "Feature", "properties": { "visible_points": 39, "total_points": 120, "visibility_pct": 32.5 }, "geometry": { "type": "Point", "coordinates": [ 0.131559617240381, 52.131430752006729 ] } },
{ "type": "Feature", "properties": { "visible_points": 42, "total_points": 120, "visibility_pct": 35.0 }, "geometry": { "type": "Point", "coordinates": [ 0.131761904249893, 52.131427094885701 ] } },
{ "type": "Feature", "properties": { "visible_points": 41, "total_points": 118, "visibility_pct": 34.745762711864408 }, "geometry": { "type": "Point", "coordinates": [ 0.131964191649899, 52.1314234375686 ] } },
{ "type": "Feature", "properties": { "visible_points": 36, "total_points": 111, "visibility_pct": 32.432432432432435 }, "geometry": { "type": "Point", "coordinates": [ 0.132166479077957, 52.131419779915717 ] } },
{ "type": "Feature", "properties": { "visible_points": 33, "total_points": 102, "visibility_pct": 32.352941176470587 }, "geometry": { "type": "Point", "coordinates": [ 0.132368766463753, 52.131416121916317 ] } },
{ "type": "Feature", "properties": { "visible_points": 19, "total_points": 91, "visibility_pct": 20.87912087912088 }, "geometry": { "type": "Point", "coordinates": [ 0.132571053807291, 52.131412463570427 ] } },
{ "type": "Feature", "properties": { "visible_points": 0, "total_points": 94, "visibility_pct": 0.0 }, "geometry": { "type": "Point", "coordinates": [ 0.130452184281883, 52.131558672935967 ] } },
{ "type": "Feature", "properties": { "visible_points": 20, "total_points": 102, "visibility_pct": 19.607843137254903 }, "geometry": { "type": "Point", "coordinates": [ 0.130654471675738, 52.131555017617814 ] } },
{ "type": "Feature", "properties": { "visible_points": 23, "total_points": 109, "visibility_pct": 21.100917431192663 }, "geometry": { "type": "Point", "coordinates": [ 0.130856759027043, 52.13155136195298 ] } },
{ "type": "Feature", "properties": { "visible_points": 31, "total_points": 115, "visibility_pct": 26.956521739130434 }, "geometry": { "type": "Point", "coordinates": [ 0.131059046335804, 52.131547705941436 ] } },
{ "type": "Feature", "properties": { "visible_points": 34, "total_points": 120, "visibility_pct": 28.333333333333332 }, "geometry": { "type": "Point", "coordinates": [ 0.13126133360201, 52.131544049583205 ] } },
{ "type": "Feature", "properties": { "visible_points": 36, "total_points": 120, "visibility_pct": 30.0 }, "geometry": { "type": "Point", "coordinates": [ 0.131463620825656, 52.131540392878257 ] } },
{ "type": "Feature", "properties": { "visible_points": 32, "total_points": 120, "visibility_pct": 26.666666666666668 }, "geometry": { "type": "Point", "coordinates": [ 0.131665908129811, 52.131536735844655 ] } },
{ "type": "Feature", "properties": { "visible_points": 38, "total_points": 119, "visibility_pct": 31.932773109243694 }, "geometry": { "type": "Point", "coordinates": [ 0.131868195835877, 52.131533078634007 ] } },
{ "type": "Feature", "properties": { "visible_points": 35, "total_points": 112, "visibility_pct": 31.25 }, "geometry": { "type": "Point", "coordinates": [ 0.132070483758679, 52.131529421135504 ] } },
{ "type": "Feature", "properties": { "visible_points": 31, "total_points": 103, "visibility_pct": 30.097087378640776 }, "geometry": { "type": "Point", "coordinates": [ 0.132272771639233, 52.131525763290483 ] } },
{ "type": "Feature", "properties": { "visible_points": 17, "total_points": 93, "visibility_pct": 18.27956989247312 }, "geometry": { "type": "Point", "coordinates": [ 0.132475059477523, 52.131522105098959 ] } },
{ "type": "Feature", "properties": { "visible_points": 5, "total_points": 81, "visibility_pct": 6.1728395061728394 }, "geometry": { "type": "Point", "coordinates": [ 0.132677347273552, 52.131518446560918 ] } },
{ "type": "Feature", "properties": { "visible_points": 10, "total_points": 96, "visibility_pct": 10.416666666666668 }, "geometry": { "type": "Point", "coordinates": [ 0.130356184912251, 52.131668312948314 ] } },
{ "type": "Feature", "properties": { "visible_points": 13, "total_points": 104, "visibility_pct": 12.5 }, "geometry": { "type": "Point", "coordinates": [ 0.13055847280568, 52.13166465778739 ] } },
{ "type": "Feature", "properties": { "visible_points": 22, "total_points": 110, "visibility_pct": 20.0 }, "geometry": { "type": "Point", "coordinates": [ 0.130760760656569, 52.131661002279778 ] } },
{ "type": "Feature", "properties": { "visible_points": 0, "total_points": 116, "visibility_pct": 0.0 }, "geometry": { "type": "Point", "coordinates": [ 0.130963048464906, 52.131657346425484 ] } },
{ "type": "Feature", "properties": { "visible_points": 20, "total_points": 120, "visibility_pct": 16.666666666666664 }, "geometry": { "type": "Point", "coordinates": [ 0.131165336230692, 52.131653690224482 ] } },
{ "type": "Feature", "properties": { "visible_points": 27, "total_points": 120, "visibility_pct": 22.5 }, "geometry": { "type": "Point", "coordinates": [ 0.131367623953923, 52.131650033676785 ] } },
{ "type": "Feature", "properties": { "visible_points": 27, "total_points": 120, "visibility_pct": 22.5 }, "geometry": { "type": "Point", "coordinates": [ 0.131569911634596, 52.131646376782385 ] } },
{ "type": "Feature", "properties": { "visible_points": 30, "total_points": 120, "visibility_pct": 25.0 }, "geometry": { "type": "Point", "coordinates": [ 0.131772199620396, 52.131642719636979 ] } },
{ "type": "Feature", "properties": { "visible_points": 29, "total_points": 113, "visibility_pct": 25.663716814159294 }, "geometry": { "type": "Point", "coordinates": [ 0.131974487986918, 52.131639062284954 ] } },
{ "type": "Feature", "properties": { "visible_points": 26, "total_points": 104, "visibility_pct": 25.0 }, "geometry": { "type": "Point", "coordinates": [ 0.132176776362229, 52.13163540459432 ] } },
{ "type": "Feature", "properties": { "visible_points": 19, "total_points": 94, "visibility_pct": 20.212765957446805 }, "geometry": { "type": "Point", "coordinates": [ 0.132379064695274, 52.131631746557161 ] } },
{ "type": "Feature", "properties": { "visible_points": 4, "total_points": 83, "visibility_pct": 4.8192771084337354 }, "geometry": { "type": "Point", "coordinates": [ 0.132581352986058, 52.1316280881735 ] } },
{ "type": "Feature", "properties": { "visible_points": 0, "total_points": 79, "visibility_pct": 0.0 }, "geometry": { "type": "Point", "coordinates": [ 0.129855608171968, 52.131785261854851 ] } },
{ "type": "Feature", "properties": { "visible_points": 0, "total_points": 89, "visibility_pct": 0.0 }, "geometry": { "type": "Point", "coordinates": [ 0.130057896650048, 52.131781607544596 ] } },
{ "type": "Feature", "properties": { "visible_points": 10, "total_points": 98, "visibility_pct": 10.204081632653061 }, "geometry": { "type": "Point", "coordinates": [ 0.130260185085595, 52.131777952887639 ] } },
{ "type": "Feature", "properties": { "visible_points": 12, "total_points": 106, "visibility_pct": 11.320754716981133 }, "geometry": { "type": "Point", "coordinates": [ 0.130462473478602, 52.131774297883958 ] } },
{ "type": "Feature", "properties": { "visible_points": 16, "total_points": 112, "visibility_pct": 14.285714285714285 }, "geometry": { "type": "Point", "coordinates": [ 0.13066476182907, 52.131770642533581 ] } },
{ "type": "Feature", "properties": { "visible_points": 15, "total_points": 117, "visibility_pct": 12.820512820512819 }, "geometry": { "type": "Point", "coordinates": [ 0.130867050136988, 52.131766986836539 ] } },
{ "type": "Feature", "properties": { "visible_points": 0, "total_points": 120, "visibility_pct": 0.0 }, "geometry": { "type": "Point", "coordinates": [ 0.131069338402359, 52.131763330792772 ] } },
{ "type": "Feature", "properties": { "visible_points": 0, "total_points": 120, "visibility_pct": 0.0 }, "geometry": { "type": "Point", "coordinates": [ 0.131271626625176, 52.131759674402304 ] } },
{ "type": "Feature", "properties": { "visible_points": 22, "total_points": 120, "visibility_pct": 18.333333333333332 }, "geometry": { "type": "Point", "coordinates": [ 0.13147391480543, 52.131756017665161 ] } },
{ "type": "Feature", "properties": { "visible_points": 26, "total_points": 120, "visibility_pct": 21.666666666666668 }, "geometry": { "type": "Point", "coordinates": [ 0.131676203083145, 52.131752360601467 ] } },
{ "type": "Feature", "properties": { "visible_points": 26, "total_points": 114, "visibility_pct": 22.807017543859647 }, "geometry": { "type": "Point", "coordinates": [ 0.131878491762667, 52.131748703364103 ] } },
{ "type": "Feature", "properties": { "visible_points": 24, "total_points": 105, "visibility_pct": 22.857142857142858 }, "geometry": { "type": "Point", "coordinates": [ 0.13208078063273, 52.13174504582782 ] } },
{ "type": "Feature", "properties": { "visible_points": 18, "total_points": 95, "visibility_pct": 18.947368421052634 }, "geometry": { "type": "Point", "coordinates": [ 0.132283069460538, 52.131741387945041 ] } },
{ "type": "Feature", "properties": { "visible_points": 1, "total_points": 84, "visibility_pct": 1.1904761904761905 }, "geometry": { "type": "Point", "coordinates": [ 0.132485358246086, 52.131737729715759 ] } },
{ "type": "Feature", "properties": { "visible_points": 0, "total_points": 81, "visibility_pct": 0.0 }, "geometry": { "type": "Point", "coordinates": [ 0.129759606889124, 52.131894901406675 ] } },
{ "type": "Feature", "properties": { "visible_points": 2, "total_points": 91, "visibility_pct": 2.197802197802198 }, "geometry": { "type": "Point", "coordinates": [ 0.12996189586678, 52.131891247253662 ] } },
{ "type": "Feature", "properties": { "visible_points": 0, "total_points": 100, "visibility_pct": 0.0 }, "geometry": { "type": "Point", "coordinates": [ 0.130164184801905, 52.131887592753948 ] } },
{ "type": "Feature", "properties": { "visible_points": 11, "total_points": 108, "visibility_pct": 10.185185185185185 }, "geometry": { "type": "Point", "coordinates": [ 0.130366473694494, 52.131883937907524 ] } },
{ "type": "Feature", "properties": { "visible_points": 14, "total_points": 114, "visibility_pct": 12.280701754385964 }, "geometry": { "type": "Point", "coordinates": [ 0.130568762544544, 52.131880282714398 ] } },
{ "type": "Feature", "properties": { "visible_points": 16, "total_points": 118, "visibility_pct": 13.559322033898304 }, "geometry": { "type": "Point", "coordinates": [ 0.130771051352048, 52.131876627174577 ] } },
{ "type": "Feature", "properties": { "visible_points": 0, "total_points": 120, "visibility_pct": 0.0 }, "geometry": { "type": "Point", "coordinates": [ 0.130973340117005, 52.131872971288061 ] } },
{ "type": "Feature", "properties": { "visible_points": 0, "total_points": 120, "visibility_pct": 0.0 }, "geometry": { "type": "Point", "coordinates": [ 0.131175628839406, 52.131869315054843 ] } },
{ "type": "Feature", "properties": { "visible_points": 0, "total_points": 120, "visibility_pct": 0.0 }, "geometry": { "type": "Point", "coordinates": [ 0.131377917519255, 52.131865658474922 ] } },
{ "type": "Feature", "properties": { "visible_points": 16, "total_points": 120, "visibility_pct": 13.333333333333334 }, "geometry": { "type": "Point", "coordinates": [ 0.131580206156539, 52.131862001548306 ] } },
{ "type": "Feature", "properties": { "visible_points": 22, "total_points": 115, "visibility_pct": 19.130434782608695 }, "geometry": { "type": "Point", "coordinates": [ 0.1317824951181, 52.131858344378074 ] } },
{ "type": "Feature", "properties": { "visible_points": 18, "total_points": 107, "visibility_pct": 16.822429906542055 }, "geometry": { "type": "Point", "coordinates": [ 0.131984784450743, 52.131854686991012 ] } },
{ "type": "Feature", "properties": { "visible_points": 18, "total_points": 97, "visibility_pct": 18.556701030927837 }, "geometry": { "type": "Point", "coordinates": [ 0.132187073773308, 52.131851029262592 ] } },
{ "type": "Feature", "properties": { "visible_points": 0, "total_points": 86, "visibility_pct": 0.0 }, "geometry": { "type": "Point", "coordinates": [ 0.13238936305362, 52.131847371187689 ] } },
{ "type": "Feature", "properties": { "visible_points": 0, "total_points": 83, "visibility_pct": 0.0 }, "geometry": { "type": "Point", "coordinates": [ 0.129663605149239, 52.132004540885504 ] } },
{ "type": "Feature", "properties": { "visible_points": 2, "total_points": 93, "visibility_pct": 2.1505376344086025 }, "geometry": { "type": "Point", "coordinates": [ 0.129865894626477, 52.132000886889728 ] } },
{ "type": "Feature", "properties": { "visible_points": 0, "total_points": 102, "visibility_pct": 0.0 }, "geometry": { "type": "Point", "coordinates": [ 0.130068184061181, 52.131997232547249 ] } },
{ "type": "Feature", "properties": { "visible_points": 7, "total_points": 110, "visibility_pct": 6.3636363636363633 }, "geometry": { "type": "Point", "coordinates": [ 0.130270473453356, 52.131993577858076 ] } },
{ "type": "Feature", "properties": { "visible_points": 13, "total_points": 116, "visibility_pct": 11.206896551724139 }, "geometry": { "type": "Point", "coordinates": [ 0.130472762802986, 52.131989922822193 ] } },
{ "type": "Feature", "properties": { "visible_points": 15, "total_points": 119, "visibility_pct": 12.605042016806722 }, "geometry": { "type": "Point", "coordinates": [ 0.130675052110079, 52.131986267439615 ] } },
{ "type": "Feature", "properties": { "visible_points": 12, "total_points": 120, "visibility_pct": 10.0 }, "geometry": { "type": "Point", "coordinates": [ 0.130877341374623, 52.131982611710349 ] } },
{ "type": "Feature", "properties": { "visible_points": 2, "total_points": 120, "visibility_pct": 1.6666666666666667 }, "geometry": { "type": "Point", "coordinates": [ 0.131079630596618, 52.131978955634374 ] } },
{ "type": "Feature", "properties": { "visible_points": 0, "total_points": 120, "visibility_pct": 0.0 }, "geometry": { "type": "Point", "coordinates": [ 0.13128191977605, 52.131975299211675 ] } },
{ "type": "Feature", "properties": { "visible_points": 0, "total_points": 120, "visibility_pct": 0.0 }, "geometry": { "type": "Point", "coordinates": [ 0.131484208912936, 52.131971642442302 ] } },
{ "type": "Feature", "properties": { "visible_points": 0, "total_points": 116, "visibility_pct": 0.0 }, "geometry": { "type": "Point", "coordinates": [ 0.131686498163802, 52.13196798534841 ] } },
{ "type": "Feature", "properties": { "visible_points": 6, "total_points": 109, "visibility_pct": 5.5045871559633035 }, "geometry": { "type": "Point", "coordinates": [ 0.131888787816256, 52.131964328083875 ] } },
{ "type": "Feature", "properties": { "visible_points": 14, "total_points": 99, "visibility_pct": 14.14141414141414 }, "geometry": { "type": "Point", "coordinates": [ 0.132091077633589, 52.131960670509848 ] } },
{ "type": "Feature", "properties": { "visible_points": 16, "total_points": 88, "visibility_pct": 18.181818181818183 }, "geometry": { "type": "Point", "coordinates": [ 0.132293367408662, 52.131957012589289 ] } },
{ "type": "Feature", "properties": { "visible_points": 0, "total_points": 83, "visibility_pct": 0.0 }, "geometry": { "type": "Point", "coordinates": [ 0.129567602952308, 52.132114180291289 ] } },
{ "type": "Feature", "properties": { "visible_points": 2, "total_points": 95, "visibility_pct": 2.1052631578947367 }, "geometry": { "type": "Point", "coordinates": [ 0.12976989292913, 52.132110526452763 ] } },
{ "type": "Feature", "properties": { "visible_points": 3, "total_points": 104, "visibility_pct": 2.8846153846153846 }, "geometry": { "type": "Point", "coordinates": [ 0.129972182863419, 52.132106872267563 ] } },
{ "type": "Feature", "properties": { "visible_points": 0, "total_points": 112, "visibility_pct": 0.0 }, "geometry": { "type": "Point", "coordinates": [ 0.130174472755179, 52.132103217735612 ] } },
{ "type": "Feature", "properties": { "visible_points": 11, "total_points": 118, "visibility_pct": 9.3220338983050848 }, "geometry": { "type": "Point", "coordinates": [ 0.130376762604398, 52.132099562857007 ] } },
{ "type": "Feature", "properties": { "visible_points": 13, "total_points": 120, "visibility_pct": 10.833333333333334 }, "geometry": { "type": "Point", "coordinates": [ 0.130579052411078, 52.132095907631665 ] } },
{ "type": "Feature", "properties": { "visible_points": 14, "total_points": 120, "visibility_pct": 11.666666666666666 }, "geometry": { "type": "Point", "coordinates": [ 0.130781342175211, 52.132092252059614 ] } },
{ "type": "Feature", "properties": { "visible_points": 10, "total_points": 120, "visibility_pct": 8.3333333333333321 }, "geometry": { "type": "Point", "coordinates": [ 0.130983631896798, 52.132088596140882 ] } },
{ "type": "Feature", "properties": { "visible_points": 2, "total_points": 120, "visibility_pct": 1.6666666666666667 }, "geometry": { "type": "Point", "coordinates": [ 0.131185921575829, 52.132084939875448 ] } },
{ "type": "Feature", "properties": { "visible_points": 0, "total_points": 120, "visibility_pct": 0.0 }, "geometry": { "type": "Point", "coordinates": [ 0.131388211212305, 52.132081283263311 ] } },
{ "type": "Feature", "properties": { "visible_points": 0, "total_points": 117, "visibility_pct": 0.0 }, "geometry": { "type": "Point", "coordinates": [ 0.13159050080622, 52.132077626304458 ] } },
{ "type": "Feature", "properties": { "visible_points": 0, "total_points": 110, "visibility_pct": 0.0 }, "geometry": { "type": "Point", "coordinates": [ 0.131792790743015, 52.132073969108966 ] } },
{ "type": "Feature", "properties": { "visible_points": 0, "total_points": 101, "visibility_pct": 0.0 }, "geometry": { "type": "Point", "coordinates": [ 0.131995081041367, 52.132070311686746 ] } },
{ "type": "Feature", "properties": { "visible_points": 6, "total_points": 90, "visibility_pct": 6.666666666666667 }, "geometry": { "type": "Point", "coordinates": [ 0.132197371311208, 52.132066653920582 ] } },
{ "type": "Feature", "properties": { "visible_points": 3, "total_points": 78, "visibility_pct": 3.8461538461538463 }, "geometry": { "type": "Point", "coordinates": [ 0.132399661538792, 52.132062995807892 ] } },
{ "type": "Feature", "properties": { "visible_points": 1, "total_points": 83, "visibility_pct": 1.2048192771084338 }, "geometry": { "type": "Point", "coordinates": [ 0.129471600298332, 52.132223819624073 ] } },
{ "type": "Feature", "properties": { "visible_points": 0, "total_points": 95, "visibility_pct": 0.0 }, "geometry": { "type": "Point", "coordinates": [ 0.129673890774737, 52.132220165942819 ] } },
{ "type": "Feature", "properties": { "visible_points": 0, "total_points": 106, "visibility_pct": 0.0 }, "geometry": { "type": "Point", "coordinates": [ 0.129876181208614, 52.132216511914848 ] } },
{ "type": "Feature", "properties": { "visible_points": 1, "total_points": 114, "visibility_pct": 0.8771929824561403 }, "geometry": { "type": "Point", "coordinates": [ 0.130078471599962, 52.132212857540154 ] } },
{ "type": "Feature", "properties": { "visible_points": 0, "total_points": 120, "visibility_pct": 0.0 }, "geometry": { "type": "Point", "coordinates": [ 0.130280761948769, 52.132209202818778 ] } },
{ "type": "Feature", "properties": { "visible_points": 0, "total_points": 120, "visibility_pct": 0.0 }, "geometry": { "type": "Point", "coordinates": [ 0.130483052255042, 52.132205547750679 ] } },
{ "type": "Feature", "properties": { "visible_points": 0, "total_points": 120, "visibility_pct": 0.0 }, "geometry": { "type": "Point", "coordinates": [ 0.130685342518767, 52.1322018923359 ] } },
{ "type": "Feature", "properties": { "visible_points": 1, "total_points": 120, "visibility_pct": 0.83333333333333337 }, "geometry": { "type": "Point", "coordinates": [ 0.130887632739949, 52.132198236574418 ] } },
{ "type": "Feature", "properties": { "visible_points": 0, "total_points": 120, "visibility_pct": 0.0 }, "geometry": { "type": "Point", "coordinates": [ 0.131089922918574, 52.132194580466205 ] } },
{ "type": "Feature", "properties": { "visible_points": 8, "total_points": 120, "visibility_pct": 6.666666666666667 }, "geometry": { "type": "Point", "coordinates": [ 0.131292213054651, 52.132190924011297 ] } },
{ "type": "Feature", "properties": { "visible_points": 2, "total_points": 118, "visibility_pct": 1.6949152542372881 }, "geometry": { "type": "Point", "coordinates": [ 0.13149450314816, 52.132187267209716 ] } },
{ "type": "Feature", "properties": { "visible_points": 0, "total_points": 111, "visibility_pct": 0.0 }, "geometry": { "type": "Point", "coordinates": [ 0.131696793372045, 52.132183610085868 ] } },
{ "type": "Feature", "properties": { "visible_points": 0, "total_points": 102, "visibility_pct": 0.0 }, "geometry": { "type": "Point", "coordinates": [ 0.131899083996643, 52.132179952793322 ] } },
{ "type": "Feature", "properties": { "visible_points": 0, "total_points": 92, "visibility_pct": 0.0 }, "geometry": { "type": "Point", "coordinates": [ 0.132101374761255, 52.132176295181544 ] } },
{ "type": "Feature", "properties": { "visible_points": 0, "total_points": 80, "visibility_pct": 0.0 }, "geometry": { "type": "Point", "coordinates": [ 0.132303665483611, 52.132172637223228 ] } },
{ "type": "Feature", "properties": { "visible_points": 4, "total_points": 82, "visibility_pct": 4.8780487804878048 }, "geometry": { "type": "Point", "coordinates": [ 0.129375597187305, 52.132333458883856 ] } },
{ "type": "Feature", "properties": { "visible_points": 3, "total_points": 94, "visibility_pct": 3.1914893617021276 }, "geometry": { "type": "Point", "coordinates": [ 0.129577888163298, 52.132329805359845 ] } },
{ "type": "Feature", "properties": { "visible_points": 0, "total_points": 105, "visibility_pct": 0.0 }, "geometry": { "type": "Point", "coordinates": [ 0.129780179096765, 52.13232615148911 ] } },
{ "type": "Feature", "properties": { "visible_points": 0, "total_points": 115, "visibility_pct": 0.0 }, "geometry": { "type": "Point", "coordinates": [ 0.129982469987697, 52.132322497271694 ] } },
{ "type": "Feature", "properties": { "visible_points": 0, "total_points": 120, "visibility_pct": 0.0 }, "geometry": { "type": "Point", "coordinates": [ 0.130184760836101, 52.132318842707555 ] } },
{ "type": "Feature", "properties": { "visible_points": 0, "total_points": 120, "visibility_pct": 0.0 }, "geometry": { "type": "Point", "coordinates": [ 0.130387051641964, 52.132315187796713 ] } },
{ "type": "Feature", "properties": { "visible_points": 0, "total_points": 120, "visibility_pct": 0.0 }, "geometry": { "type": "Point", "coordinates": [ 0.130589342405286, 52.132311532539163 ] } },
{ "type": "Feature", "properties": { "visible_points": 0, "total_points": 120, "visibility_pct": 0.0 }, "geometry": { "type": "Point", "coordinates": [ 0.130791633126065, 52.132307876934917 ] } },
{ "type": "Feature", "properties": { "visible_points": 21, "total_points": 120, "visibility_pct": 17.5 }, "geometry": { "type": "Point", "coordinates": [ 0.130993923804288, 52.132304220983954 ] } },
{ "type": "Feature", "properties": { "visible_points": 17, "total_points": 120, "visibility_pct": 14.166666666666666 }, "geometry": { "type": "Point", "coordinates": [ 0.131196214439966, 52.132300564686297 ] } },
{ "type": "Feature", "properties": { "visible_points": 0, "total_points": 119, "visibility_pct": 0.0 }, "geometry": { "type": "Point", "coordinates": [ 0.131398505033075, 52.132296908041937 ] } },
{ "type": "Feature", "properties": { "visible_points": 4, "total_points": 112, "visibility_pct": 3.5714285714285712 }, "geometry": { "type": "Point", "coordinates": [ 0.131600795589247, 52.13229325105231 ] } },
{ "type": "Feature", "properties": { "visible_points": 4, "total_points": 103, "visibility_pct": 3.8834951456310676 }, "geometry": { "type": "Point", "coordinates": [ 0.131803086499415, 52.132289593829583 ] } },
{ "type": "Feature", "properties": { "visible_points": 4, "total_points": 93, "visibility_pct": 4.3010752688172049 }, "geometry": { "type": "Point", "coordinates": [ 0.132005377758796, 52.132285936372156 ] } },
{ "type": "Feature", "properties": { "visible_points": 0, "total_points": 82, "visibility_pct": 0.0 }, "geometry": { "type": "Point", "coordinates": [ 0.132207668975928, 52.132282278568233 ] } },
{ "type": "Feature", "properties": { "visible_points": 3, "total_points": 80, "visibility_pct": 3.75 }, "geometry": { "type": "Point", "coordinates": [ 0.12927959361922, 52.132443098070624 ] } },
{ "type": "Feature", "properties": { "visible_points": 0, "total_points": 92, "visibility_pct": 0.0 }, "geometry": { "type": "Point", "coordinates": [ 0.129481885094804, 52.132439444703856 ] } },
{ "type": "Feature", "properties": { "visible_points": 1, "total_points": 103, "visibility_pct": 0.97087378640776689 }, "geometry": { "type": "Point", "coordinates": [ 0.129684176527859, 52.132435790990385 ] } },
{ "type": "Feature", "properties": { "visible_points": 0, "total_points": 113, "visibility_pct": 0.0 }, "geometry": { "type": "Point", "coordinates": [ 0.129886467918388, 52.132432136930206 ] } },
{ "type": "Feature", "properties": { "visible_points": 0, "total_points": 120, "visibility_pct": 0.0 }, "geometry": { "type": "Point", "coordinates": [ 0.130088759266384, 52.132428482523316 ] } },
{ "type": "Feature", "properties": { "visible_points": 0, "total_points": 120, "visibility_pct": 0.0 }, "geometry": { "type": "Point", "coordinates": [ 0.130291050571844, 52.132424827769725 ] } },
{ "type": "Feature", "properties": { "visible_points": 0, "total_points": 120, "visibility_pct": 0.0 }, "geometry": { "type": "Point", "coordinates": [ 0.130493341834763, 52.132421172669432 ] } },
{ "type": "Feature", "properties": { "visible_points": 1, "total_points": 120, "visibility_pct": 0.83333333333333337 }, "geometry": { "type": "Point", "coordinates": [ 0.13069563305514, 52.132417517222429 ] } },
{ "type": "Feature", "properties": { "visible_points": 23, "total_points": 120, "visibility_pct": 19.166666666666668 }, "geometry": { "type": "Point", "coordinates": [ 0.130897924232969, 52.132413861428724 ] } },
{ "type": "Feature", "properties": { "visible_points": 22, "total_points": 120, "visibility_pct": 18.333333333333332 }, "geometry": { "type": "Point", "coordinates": [ 0.131100215368241, 52.132410205288295 ] } },
{ "type": "Feature", "properties": { "visible_points": 0, "total_points": 120, "visibility_pct": 0.0 }, "geometry": { "type": "Point", "coordinates": [ 0.131302506460963, 52.132406548801171 ] } },
{ "type": "Feature", "properties": { "visible_points": 0, "total_points": 113, "visibility_pct": 0.0 }, "geometry": { "type": "Point", "coordinates": [ 0.13150479751112, 52.132402891967345 ] } },
{ "type": "Feature", "properties": { "visible_points": 2, "total_points": 104, "visibility_pct": 1.9230769230769231 }, "geometry": { "type": "Point", "coordinates": [ 0.131707088710749, 52.132399234817832 ] } },
{ "type": "Feature", "properties": { "visible_points": 3, "total_points": 94, "visibility_pct": 3.1914893617021276 }, "geometry": { "type": "Point", "coordinates": [ 0.131909380303833, 52.132395577492474 ] } },
{ "type": "Feature", "properties": { "visible_points": 0, "total_points": 83, "visibility_pct": 0.0 }, "geometry": { "type": "Point", "coordinates": [ 0.132111672015736, 52.132391919842931 ] } },
{ "type": "Feature", "properties": { "visible_points": 16, "total_points": 90, "visibility_pct": 17.777777777777779 }, "geometry": { "type": "Point", "coordinates": [ 0.129385881569254, 52.132549083974865 ] } },
{ "type": "Feature", "properties": { "visible_points": 16, "total_points": 101, "visibility_pct": 15.841584158415841 }, "geometry": { "type": "Point", "coordinates": [ 0.1295881735019, 52.132545430418645 ] } },
{ "type": "Feature", "properties": { "visible_points": 0, "total_points": 111, "visibility_pct": 0.0 }, "geometry": { "type": "Point", "coordinates": [ 0.129790465392023, 52.132541776515708 ] } },
{ "type": "Feature", "properties": { "visible_points": 0, "total_points": 119, "visibility_pct": 0.0 }, "geometry": { "type": "Point", "coordinates": [ 0.129992757239617, 52.132538122266084 ] } },
{ "type": "Feature", "properties": { "visible_points": 0, "total_points": 120, "visibility_pct": 0.0 }, "geometry": { "type": "Point", "coordinates": [ 0.130195049044675, 52.132534467669743 ] } },
{ "type": "Feature", "properties": { "visible_points": 0, "total_points": 120, "visibility_pct": 0.0 }, "geometry": { "type": "Point", "coordinates": [ 0.130397340807194, 52.132530812726692 ] } },
{ "type": "Feature", "properties": { "visible_points": 0, "total_points": 120, "visibility_pct": 0.0 }, "geometry": { "type": "Point", "coordinates": [ 0.130599632527175, 52.13252715743694 ] } },
{ "type": "Feature", "properties": { "visible_points": 23, "total_points": 120, "visibility_pct": 19.166666666666668 }, "geometry": { "type": "Point", "coordinates": [ 0.130801924204602, 52.13252350180047 ] } },
{ "type": "Feature", "properties": { "visible_points": 22, "total_points": 120, "visibility_pct": 18.333333333333332 }, "geometry": { "type": "Point", "coordinates": [ 0.131004215839486, 52.132519845817299 ] } },
{ "type": "Feature", "properties": { "visible_points": 21, "total_points": 120, "visibility_pct": 17.5 }, "geometry": { "type": "Point", "coordinates": [ 0.131206507431809, 52.132516189487411 ] } },
{ "type": "Feature", "properties": { "visible_points": 0, "total_points": 114, "visibility_pct": 0.0 }, "geometry": { "type": "Point", "coordinates": [ 0.131408798981578, 52.132512532810821 ] } },
{ "type": "Feature", "properties": { "visible_points": 0, "total_points": 105, "visibility_pct": 0.0 }, "geometry": { "type": "Point", "coordinates": [ 0.131611090511937, 52.132508875791281 ] } },
{ "type": "Feature", "properties": { "visible_points": 0, "total_points": 95, "visibility_pct": 0.0 }, "geometry": { "type": "Point", "coordinates": [ 0.131813382396353, 52.132505218542448 ] } },
{ "type": "Feature", "properties": { "visible_points": 0, "total_points": 84, "visibility_pct": 0.0 }, "geometry": { "type": "Point", "coordinates": [ 0.132015674603038, 52.13250156104727 ] } },
{ "type": "Feature", "properties": { "visible_points": 15, "total_points": 87, "visibility_pct": 17.241379310344829 }, "geometry": { "type": "Point", "coordinates": [ 0.129289877586635, 52.132658723172838 ] } },
{ "type": "Feature", "properties": { "visible_points": 17, "total_points": 99, "visibility_pct": 17.171717171717169 }, "geometry": { "type": "Point", "coordinates": [ 0.129492170018882, 52.132655069773882 ] } },
{ "type": "Feature", "properties": { "visible_points": 16, "total_points": 109, "visibility_pct": 14.678899082568808 }, "geometry": { "type": "Point", "coordinates": [ 0.129694462408608, 52.132651416028217 ] } },
{ "type": "Feature", "properties": { "visible_points": 11, "total_points": 117, "visibility_pct": 9.4017094017094021 }, "geometry": { "type": "Point", "coordinates": [ 0.129896754755793, 52.132647761935822 ] } },
{ "type": "Feature", "properties": { "visible_points": 0, "total_points": 120, "visibility_pct": 0.0 }, "geometry": { "type": "Point", "coordinates": [ 0.130099047060456, 52.132644107496731 ] } },
{ "type": "Feature", "properties": { "visible_points": 0, "total_points": 120, "visibility_pct": 0.0 }, "geometry": { "type": "Point", "coordinates": [ 0.130301339322575, 52.132640452710937 ] } },
{ "type": "Feature", "properties": { "visible_points": 0, "total_points": 120, "visibility_pct": 0.0 }, "geometry": { "type": "Point", "coordinates": [ 0.130503631542159, 52.132636797578428 ] } },
{ "type": "Feature", "properties": { "visible_points": 23, "total_points": 120, "visibility_pct": 19.166666666666668 }, "geometry": { "type": "Point", "coordinates": [ 0.130705923719196, 52.132633142099209 ] } },
{ "type": "Feature", "properties": { "visible_points": 24, "total_points": 120, "visibility_pct": 20.0 }, "geometry": { "type": "Point", "coordinates": [ 0.130908215853682, 52.132629486273281 ] } },
{ "type": "Feature", "properties": { "visible_points": 21, "total_points": 120, "visibility_pct": 17.5 }, "geometry": { "type": "Point", "coordinates": [ 0.131110507945617, 52.13262583010065 ] } },
{ "type": "Feature", "properties": { "visible_points": 17, "total_points": 115, "visibility_pct": 14.782608695652174 }, "geometry": { "type": "Point", "coordinates": [ 0.131312799994993, 52.132622173581296 ] } },
{ "type": "Feature", "properties": { "visible_points": 0, "total_points": 106, "visibility_pct": 0.0 }, "geometry": { "type": "Point", "coordinates": [ 0.131515092001815, 52.132618516715233 ] } },
{ "type": "Feature", "properties": { "visible_points": 0, "total_points": 96, "visibility_pct": 0.0 }, "geometry": { "type": "Point", "coordinates": [ 0.131717384177993, 52.13261485954154 ] } },
{ "type": "Feature", "properties": { "visible_points": 0, "total_points": 85, "visibility_pct": 0.0 }, "geometry": { "type": "Point", "coordinates": [ 0.131919676737826, 52.132611202181288 ] } },
{ "type": "Feature", "properties": { "visible_points": 9, "total_points": 84, "visibility_pct": 10.714285714285714 }, "geometry": { "type": "Point", "coordinates": [ 0.129193873146961, 52.13276836229781 ] } },
{ "type": "Feature", "properties": { "visible_points": 15, "total_points": 96, "visibility_pct": 15.625 }, "geometry": { "type": "Point", "coordinates": [ 0.129396166078804, 52.132764709056097 ] } },
{ "type": "Feature", "properties": { "visible_points": 21, "total_points": 107, "visibility_pct": 19.626168224299064 }, "geometry": { "type": "Point", "coordinates": [ 0.129598458968121, 52.132761055467675 ] } },
{ "type": "Feature", "properties": { "visible_points": 18, "total_points": 115, "visibility_pct": 15.65217391304348 }, "geometry": { "type": "Point", "coordinates": [ 0.129800751814916, 52.132757401532565 ] } },
{ "type": "Feature", "properties": { "visible_points": 0, "total_points": 119, "visibility_pct": 0.0 }, "geometry": { "type": "Point", "coordinates": [ 0.13000304461918, 52.132753747250732 ] } },
{ "type": "Feature", "properties": { "visible_points": 0, "total_points": 120, "visibility_pct": 0.0 }, "geometry": { "type": "Point", "coordinates": [ 0.130205337380905, 52.132750092622167 ] } },
{ "type": "Feature", "properties": { "visible_points": 7, "total_points": 120, "visibility_pct": 5.833333333333333 }, "geometry": { "type": "Point", "coordinates": [ 0.13040763010009, 52.132746437646922 ] } },
{ "type": "Feature", "properties": { "visible_points": 22, "total_points": 120, "visibility_pct": 18.333333333333332 }, "geometry": { "type": "Point", "coordinates": [ 0.130609922776739, 52.132742782324947 ] } },
{ "type": "Feature", "properties": { "visible_points": 22, "total_points": 120, "visibility_pct": 18.333333333333332 }, "geometry": { "type": "Point", "coordinates": [ 0.130812215410836, 52.132739126656269 ] } },
{ "type": "Feature", "properties": { "visible_points": 20, "total_points": 120, "visibility_pct": 16.666666666666664 }, "geometry": { "type": "Point", "coordinates": [ 0.131014508002378, 52.132735470640874 ] } },
{ "type": "Feature", "properties": { "visible_points": 20, "total_points": 115, "visibility_pct": 17.391304347826086 }, "geometry": { "type": "Point", "coordinates": [ 0.131216800551372, 52.13273181427877 ] } },
{ "type": "Feature", "properties": { "visible_points": 15, "total_points": 107, "visibility_pct": 14.018691588785046 }, "geometry": { "type": "Point", "coordinates": [ 0.131419093057805, 52.13272815756995 ] } },
{ "type": "Feature", "properties": { "visible_points": 6, "total_points": 97, "visibility_pct": 6.1855670103092786 }, "geometry": { "type": "Point", "coordinates": [ 0.131621385561945, 52.132724500520375 ] } },
{ "type": "Feature", "properties": { "visible_points": 0, "total_points": 86, "visibility_pct": 0.0 }, "geometry": { "type": "Point", "coordinates": [ 0.131823678420093, 52.132720843244982 ] } },
{ "type": "Feature", "properties": { "visible_points": 0, "total_points": 91, "visibility_pct": 0.0 }, "geometry": { "type": "Point", "coordinates": [ 0.129300161681655, 52.132874348265311 ] } },
{ "type": "Feature", "properties": { "visible_points": 17, "total_points": 104, "visibility_pct": 16.346153846153847 }, "geometry": { "type": "Point", "coordinates": [ 0.129502455070576, 52.132870694834153 ] } },
{ "type": "Feature", "properties": { "visible_points": 18, "total_points": 113, "visibility_pct": 15.929203539823009 }, "geometry": { "type": "Point", "coordinates": [ 0.129704748416974, 52.132867041056279 ] } },
{ "type": "Feature", "properties": { "visible_points": 17, "total_points": 118, "visibility_pct": 14.40677966101695 }, "geometry": { "type": "Point", "coordinates": [ 0.129907041720843, 52.132863386931696 ] } },
{ "type": "Feature", "properties": { "visible_points": 0, "total_points": 120, "visibility_pct": 0.0 }, "geometry": { "type": "Point", "coordinates": [ 0.130109334982178, 52.13285973246041 ] } },
{ "type": "Feature", "properties": { "visible_points": 0, "total_points": 120, "visibility_pct": 0.0 }, "geometry": { "type": "Point", "coordinates": [ 0.13031162820097, 52.132856077642387 ] } },
{ "type": "Feature", "properties": { "visible_points": 21, "total_points": 120, "visibility_pct": 17.5 }, "geometry": { "type": "Point", "coordinates": [ 0.130513921377228, 52.132852422477676 ] } },
{ "type": "Feature", "properties": { "visible_points": 20, "total_points": 120, "visibility_pct": 16.666666666666664 }, "geometry": { "type": "Point", "coordinates": [ 0.130716214510936, 52.132848766966234 ] } },
{ "type": "Feature", "properties": { "visible_points": 19, "total_points": 120, "visibility_pct": 15.833333333333332 }, "geometry": { "type": "Point", "coordinates": [ 0.130918507602094, 52.132845111108097 ] } },
{ "type": "Feature", "properties": { "visible_points": 22, "total_points": 115, "visibility_pct": 19.130434782608695 }, "geometry": { "type": "Point", "coordinates": [ 0.131120800650703, 52.132841454903236 ] } },
{ "type": "Feature", "properties": { "visible_points": 21, "total_points": 107, "visibility_pct": 19.626168224299064 }, "geometry": { "type": "Point", "coordinates": [ 0.131323093656751, 52.132837798351659 ] } },
{ "type": "Feature", "properties": { "visible_points": 17, "total_points": 98, "visibility_pct": 17.346938775510203 }, "geometry": { "type": "Point", "coordinates": [ 0.131525386620236, 52.132834141453387 ] } },
{ "type": "Feature", "properties": { "visible_points": 14, "total_points": 87, "visibility_pct": 16.091954022988507 }, "geometry": { "type": "Point", "coordinates": [ 0.131727679772452, 52.132830484255045 ] } },
{ "type": "Feature", "properties": { "visible_points": 11, "total_points": 83, "visibility_pct": 13.253012048192772 }, "geometry": { "type": "Point", "coordinates": [ 0.129204156827434, 52.132983987401509 ] } },
{ "type": "Feature", "properties": { "visible_points": 14, "total_points": 96, "visibility_pct": 14.583333333333334 }, "geometry": { "type": "Point", "coordinates": [ 0.129406450715963, 52.132980334127616 ] } },
{ "type": "Feature", "properties": { "visible_points": 19, "total_points": 108, "visibility_pct": 17.592592592592592 }, "geometry": { "type": "Point", "coordinates": [ 0.129608744561964, 52.132976680506992 ] } },
{ "type": "Feature", "properties": { "visible_points": 17, "total_points": 117, "visibility_pct": 14.529914529914532 }, "geometry": { "type": "Point", "coordinates": [ 0.129811038365441, 52.132973026539652 ] } },
{ "type": "Feature", "properties": { "visible_points": 0, "total_points": 120, "visibility_pct": 0.0 }, "geometry": { "type": "Point", "coordinates": [ 0.130013332126384, 52.132969372225624 ] } },
{ "type": "Feature", "properties": { "visible_points": 0, "total_points": 120, "visibility_pct": 0.0 }, "geometry": { "type": "Point", "coordinates": [ 0.130215625844793, 52.132965717564872 ] } },
{ "type": "Feature", "properties": { "visible_points": 11, "total_points": 120, "visibility_pct": 9.1666666666666661 }, "geometry": { "type": "Point", "coordinates": [ 0.130417919520658, 52.13296206255739 ] } },
{ "type": "Feature", "properties": { "visible_points": 19, "total_points": 120, "visibility_pct": 15.833333333333332 }, "geometry": { "type": "Point", "coordinates": [ 0.130620213153985, 52.132958407203205 ] } },
{ "type": "Feature", "properties": { "visible_points": 0, "total_points": 120, "visibility_pct": 0.0 }, "geometry": { "type": "Point", "coordinates": [ 0.130822506744759, 52.132954751502318 ] } },
{ "type": "Feature", "properties": { "visible_points": 0, "total_points": 115, "visibility_pct": 0.0 }, "geometry": { "type": "Point", "coordinates": [ 0.131024800292982, 52.1329510954547 ] } },
{ "type": "Feature", "properties": { "visible_points": 19, "total_points": 107, "visibility_pct": 17.75700934579439 }, "geometry": { "type": "Point", "coordinates": [ 0.131227093798651, 52.132947439060381 ] } },
{ "type": "Feature", "properties": { "visible_points": 17, "total_points": 98, "visibility_pct": 17.346938775510203 }, "geometry": { "type": "Point", "coordinates": [ 0.131429387261758, 52.132943782319344 ] } },
{ "type": "Feature", "properties": { "visible_points": 15, "total_points": 88, "visibility_pct": 17.045454545454543 }, "geometry": { "type": "Point", "coordinates": [ 0.131631680739279, 52.132940125239593 ] } },
{ "type": "Feature", "properties": { "visible_points": 9, "total_points": 76, "visibility_pct": 11.842105263157894 }, "geometry": { "type": "Point", "coordinates": [ 0.131833974570631, 52.132936467937206 ] } },
{ "type": "Feature", "properties": { "visible_points": 3, "total_points": 73, "visibility_pct": 4.10958904109589 }, "geometry": { "type": "Point", "coordinates": [ 0.129108151516142, 52.133093626464685 ] } },
{ "type": "Feature", "properties": { "visible_points": 15, "total_points": 86, "visibility_pct": 17.441860465116278 }, "geometry": { "type": "Point", "coordinates": [ 0.129310445904272, 52.133089973348042 ] } },
{ "type": "Feature", "properties": { "visible_points": 16, "total_points": 98, "visibility_pct": 16.326530612244898 }, "geometry": { "type": "Point", "coordinates": [ 0.129512740249887, 52.133086319884683 ] } },
{ "type": "Feature", "properties": { "visible_points": 18, "total_points": 110, "visibility_pct": 16.363636363636363 }, "geometry": { "type": "Point", "coordinates": [ 0.129715034552973, 52.1330826660746 ] } },
{ "type": "Feature", "properties": { "visible_points": 16, "total_points": 118, "visibility_pct": 13.559322033898304 }, "geometry": { "type": "Point", "coordinates": [ 0.129917328813529, 52.133079011917815 ] } },
{ "type": "Feature", "properties": { "visible_points": 0, "total_points": 120, "visibility_pct": 0.0 }, "geometry": { "type": "Point", "coordinates": [ 0.130119623031548, 52.133075357414327 ] } },
{ "type": "Feature", "properties": { "visible_points": 0, "total_points": 120, "visibility_pct": 0.0 }, "geometry": { "type": "Point", "coordinates": [ 0.13032191720703, 52.133071702564102 ] } },
{ "type": "Feature", "properties": { "visible_points": 13, "total_points": 120, "visibility_pct": 10.833333333333334 }, "geometry": { "type": "Point", "coordinates": [ 0.13052421133997, 52.133068047367168 ] } },
{ "type": "Feature", "properties": { "visible_points": 10, "total_points": 120, "visibility_pct": 8.3333333333333321 }, "geometry": { "type": "Point", "coordinates": [ 0.130726505430367, 52.133064391823517 ] } },
{ "type": "Feature", "properties": { "visible_points": 0, "total_points": 115, "visibility_pct": 0.0 }, "geometry": { "type": "Point", "coordinates": [ 0.130928799478209, 52.133060735933149 ] } },
{ "type": "Feature", "properties": { "visible_points": 0, "total_points": 107, "visibility_pct": 0.0 }, "geometry": { "type": "Point", "coordinates": [ 0.131131093483498, 52.133057079696073 ] } },
{ "type": "Feature", "properties": { "visible_points": 0, "total_points": 98, "visibility_pct": 0.0 }, "geometry": { "type": "Point", "coordinates": [ 0.131333387446231, 52.133053423112287 ] } },
{ "type": "Feature", "properties": { "visible_points": 16, "total_points": 88, "visibility_pct": 18.181818181818183 }, "geometry": { "type": "Point", "coordinates": [ 0.131535681366397, 52.133049766181777 ] } },
{ "type": "Feature", "properties": { "visible_points": 9, "total_points": 77, "visibility_pct": 11.688311688311687 }, "geometry": { "type": "Point", "coordinates": [ 0.131737975494123, 52.133046108958354 ] } },
{ "type": "Feature", "properties": { "visible_points": 0, "total_points": 63, "visibility_pct": 0.0 }, "geometry": { "type": "Point", "coordinates": [ 0.129012145747766, 52.133203265454839 ] } },
{ "type": "Feature", "properties": { "visible_points": 0, "total_points": 75, "visibility_pct": 0.0 }, "geometry": { "type": "Point", "coordinates": [ 0.129214440635511, 52.133199612495453 ] } },
{ "type": "Feature", "properties": { "visible_points": 0, "total_points": 87, "visibility_pct": 0.0 }, "geometry": { "type": "Point", "coordinates": [ 0.129416735480736, 52.133195959189365 ] } },
{ "type": "Feature", "properties": { "visible_points": 15, "total_points": 99, "visibility_pct": 15.151515151515152 }, "geometry": { "type": "Point", "coordinates": [ 0.12961903028343, 52.133192305536546 ] } },
{ "type": "Feature", "properties": { "visible_points": 0, "total_points": 111, "visibility_pct": 0.0 }, "geometry": { "type": "Point", "coordinates": [ 0.129821325043601, 52.133188651537012 ] } },
{ "type": "Feature", "properties": { "visible_points": 6, "total_points": 115, "visibility_pct": 5.2173913043478262 }, "geometry": { "type": "Point", "coordinates": [ 0.130023619761238, 52.133184997190767 ] } },
{ "type": "Feature", "properties": { "visible_points": 0, "total_points": 118, "visibility_pct": 0.0 }, "geometry": { "type": "Point", "coordinates": [ 0.130225914436335, 52.133181342497814 ] } },
{ "type": "Feature", "properties": { "visible_points": 0, "total_points": 120, "visibility_pct": 0.0 }, "geometry": { "type": "Point", "coordinates": [ 0.130428209068897, 52.133177687458115 ] } },
{ "type": "Feature", "properties": { "visible_points": 0, "total_points": 120, "visibility_pct": 0.0 }, "geometry": { "type": "Point", "coordinates": [ 0.130630503658913, 52.133174032071722 ] } },
{ "type": "Feature", "properties": { "visible_points": 5, "total_points": 115, "visibility_pct": 4.3478260869565215 }, "geometry": { "type": "Point", "coordinates": [ 0.130832798206377, 52.133170376338619 ] } },
{ "type": "Feature", "properties": { "visible_points": 0, "total_points": 107, "visibility_pct": 0.0 }, "geometry": { "type": "Point", "coordinates": [ 0.131035092711291, 52.133166720258778 ] } },
{ "type": "Feature", "properties": { "visible_points": 0, "total_points": 98, "visibility_pct": 0.0 }, "geometry": { "type": "Point", "coordinates": [ 0.131237387173649, 52.133163063832235 ] } },
{ "type": "Feature", "properties": { "visible_points": 0, "total_points": 88, "visibility_pct": 0.0 }, "geometry": { "type": "Point", "coordinates": [ 0.131439681593446, 52.133159407058976 ] } },
{ "type": "Feature", "properties": { "visible_points": 8, "total_points": 77, "visibility_pct": 10.38961038961039 }, "geometry": { "type": "Point", "coordinates": [ 0.131641976043939, 52.133155749948955 ] } },
{ "type": "Feature", "properties": { "visible_points": 1, "total_points": 64, "visibility_pct": 1.5625 }, "geometry": { "type": "Point", "coordinates": [ 0.129118434909663, 52.133309251569855 ] } },
{ "type": "Feature", "properties": { "visible_points": 0, "total_points": 76, "visibility_pct": 0.0 }, "geometry": { "type": "Point", "coordinates": [ 0.129320730254503, 52.133305598421032 ] } },
{ "type": "Feature", "properties": { "visible_points": 0, "total_points": 88, "visibility_pct": 0.0 }, "geometry": { "type": "Point", "coordinates": [ 0.129523025556814, 52.133301944925464 ] } },
{ "type": "Feature", "properties": { "visible_points": 0, "total_points": 99, "visibility_pct": 0.0 }, "geometry": { "type": "Point", "coordinates": [ 0.129725320816599, 52.133298291083193 ] } },
{ "type": "Feature", "properties": { "visible_points": 0, "total_points": 106, "visibility_pct": 0.0 }, "geometry": { "type": "Point", "coordinates": [ 0.129927616033856, 52.133294636894199 ] } },
{ "type": "Feature", "properties": { "visible_points": 9, "total_points": 111, "visibility_pct": 8.1081081081081088 }, "geometry": { "type": "Point", "coordinates": [ 0.130129911208577, 52.133290982358488 ] } },
{ "type": "Feature", "properties": { "visible_points": 7, "total_points": 115, "visibility_pct": 6.0869565217391308 }, "geometry": { "type": "Point", "coordinates": [ 0.130332206340756, 52.133287327476076 ] } },
{ "type": "Feature", "properties": { "visible_points": 0, "total_points": 118, "visibility_pct": 0.0 }, "geometry": { "type": "Point", "coordinates": [ 0.130534501430393, 52.133283672246918 ] } },
{ "type": "Feature", "properties": { "visible_points": 0, "total_points": 115, "visibility_pct": 0.0 }, "geometry": { "type": "Point", "coordinates": [ 0.130736796477484, 52.133280016671051 ] } },
{ "type": "Feature", "properties": { "visible_points": 0, "total_points": 107, "visibility_pct": 0.0 }, "geometry": { "type": "Point", "coordinates": [ 0.130939091482023, 52.133276360748468 ] } },
{ "type": "Feature", "properties": { "visible_points": 0, "total_points": 98, "visibility_pct": 0.0 }, "geometry": { "type": "Point", "coordinates": [ 0.13114138644401, 52.133272704479161 ] } },
{ "type": "Feature", "properties": { "visible_points": 0, "total_points": 88, "visibility_pct": 0.0 }, "geometry": { "type": "Point", "coordinates": [ 0.131343681363438, 52.133269047863159 ] } },
{ "type": "Feature", "properties": { "visible_points": 0, "total_points": 76, "visibility_pct": 0.0 }, "geometry": { "type": "Point", "coordinates": [ 0.129427020373117, 52.133411584241379 ] } },
{ "type": "Feature", "properties": { "visible_points": 0, "total_points": 87, "visibility_pct": 0.0 }, "geometry": { "type": "Point", "coordinates": [ 0.129629316132525, 52.133407930556352 ] } },
{ "type": "Feature", "properties": { "visible_points": 7, "total_points": 95, "visibility_pct": 7.3684210526315779 }, "geometry": { "type": "Point", "coordinates": [ 0.129831611849398, 52.133404276524615 ] } },
{ "type": "Feature", "properties": { "visible_points": 6, "total_points": 100, "visibility_pct": 6.0 }, "geometry": { "type": "Point", "coordinates": [ 0.130033907523737, 52.133400622146162 ] } },
{ "type": "Feature", "properties": { "visible_points": 7, "total_points": 105, "visibility_pct": 6.666666666666667 }, "geometry": { "type": "Point", "coordinates": [ 0.130236203155546, 52.133396967420992 ] } },
{ "type": "Feature", "properties": { "visible_points": 7, "total_points": 109, "visibility_pct": 6.4220183486238538 }, "geometry": { "type": "Point", "coordinates": [ 0.130438498744807, 52.133393312349106 ] } },
{ "type": "Feature", "properties": { "visible_points": 0, "total_points": 107, "visibility_pct": 0.0 }, "geometry": { "type": "Point", "coordinates": [ 0.130640794291527, 52.133389656930483 ] } },
{ "type": "Feature", "properties": { "visible_points": 0, "total_points": 102, "visibility_pct": 0.0 }, "geometry": { "type": "Point", "coordinates": [ 0.130843089795695, 52.133386001165164 ] } },
{ "type": "Feature", "properties": { "visible_points": 0, "total_points": 95, "visibility_pct": 0.0 }, "geometry": { "type": "Point", "coordinates": [ 0.13104538525731, 52.133382345053114 ] } },
{ "type": "Feature", "properties": { "visible_points": 0, "total_points": 86, "visibility_pct": 0.0 }, "geometry": { "type": "Point", "coordinates": [ 0.131247680676367, 52.133378688594334 ] } },
{ "type": "Feature", "properties": { "visible_points": 4, "total_points": 82, "visibility_pct": 4.8780487804878048 }, "geometry": { "type": "Point", "coordinates": [ 0.129735607207862, 52.133513916082023 ] } },
{ "type": "Feature", "properties": { "visible_points": 4, "total_points": 88, "visibility_pct": 4.5454545454545459 }, "geometry": { "type": "Point", "coordinates": [ 0.129937903381827, 52.133510261860835 ] } },
{ "type": "Feature", "properties": { "visible_points": 8, "total_points": 93, "visibility_pct": 8.6021505376344098 }, "geometry": { "type": "Point", "coordinates": [ 0.130140199513257, 52.133506607292908 ] } },
{ "type": "Feature", "properties": { "visible_points": 7, "total_points": 97, "visibility_pct": 7.216494845360824 }, "geometry": { "type": "Point", "coordinates": [ 0.13034249560215, 52.133502952378258 ] } },
{ "type": "Feature", "properties": { "visible_points": 0, "total_points": 97, "visibility_pct": 0.0 }, "geometry": { "type": "Point", "coordinates": [ 0.130544791648496, 52.13349929711692 ] } },
{ "type": "Feature", "properties": { "visible_points": 1, "total_points": 94, "visibility_pct": 1.0638297872340425 }, "geometry": { "type": "Point", "coordinates": [ 0.130747087652298, 52.133495641508844 ] } },
{ "type": "Feature", "properties": { "visible_points": 0, "total_points": 89, "visibility_pct": 0.0 }, "geometry": { "type": "Point", "coordinates": [ 0.130949383613545, 52.133491985554038 ] } },
{ "type": "Feature", "properties": { "visible_points": 0, "total_points": 82, "visibility_pct": 0.0 }, "geometry": { "type": "Point", "coordinates": [ 0.131151679532237, 52.133488329252522 ] } },
{ "type": "Feature", "properties": { "visible_points": 0, "total_points": 80, "visibility_pct": 0.0 }, "geometry": { "type": "Point", "coordinates": [ 0.130044195413888, 52.133616247091823 ] } },
{ "type": "Feature", "properties": { "visible_points": 5, "total_points": 85, "visibility_pct": 5.8823529411764701 }, "geometry": { "type": "Point", "coordinates": [ 0.130246492002416, 52.13361259233443 ] } },
{ "type": "Feature", "properties": { "visible_points": 0, "total_points": 86, "visibility_pct": 0.0 }, "geometry": { "type": "Point", "coordinates": [ 0.130448788548394, 52.133608937230328 ] } },
{ "type": "Feature", "properties": { "visible_points": 1, "total_points": 84, "visibility_pct": 1.1904761904761905 }, "geometry": { "type": "Point", "coordinates": [ 0.130651085051826, 52.133605281779502 ] } },
{ "type": "Feature", "properties": { "visible_points": 0, "total_points": 81, "visibility_pct": 0.0 }, "geometry": { "type": "Point", "coordinates": [ 0.13085338151271, 52.13360162598196 ] } },
{ "type": "Feature", "properties": { "visible_points": 0, "total_points": 76, "visibility_pct": 0.0 }, "geometry": { "type": "Point", "coordinates": [ 0.131055677931041, 52.13359796983768 ] } },
{ "type": "Feature", "properties": { "visible_points": 0, "total_points": 74, "visibility_pct": 0.0 }, "geometry": { "type": "Point", "coordinates": [ 0.130352784992193, 52.133718577271601 ] } },
{ "type": "Feature", "properties": { "visible_points": 0, "total_points": 74, "visibility_pct": 0.0 }, "geometry": { "type": "Point", "coordinates": [ 0.13055508199428, 52.133714921977166 ] } },
{ "type": "Feature", "properties": { "visible_points": 1, "total_points": 72, "visibility_pct": 1.3888888888888888 }, "geometry": { "type": "Point", "coordinates": [ 0.130757378954802, 52.133711266336881 ] } },
{ "type": "Feature", "properties": { "visible_points": 0, "total_points": 68, "visibility_pct": 0.0 }, "geometry": { "type": "Point", "coordinates": [ 0.130959675872772, 52.133707610349845 ] } },
{ "type": "Feature", "properties": { "visible_points": 1, "total_points": 62, "visibility_pct": 1.6129032258064515 }, "geometry": { "type": "Point", "coordinates": [ 0.130661376123211, 52.13382090665506 ] } },
{ "type": "Feature", "properties": { "visible_points": 0, "total_points": 60, "visibility_pct": 0.0 }, "geometry": { "type": "Point", "coordinates": [ 0.130863673535482, 52.133817250823697 ] } }
]
}
