{
"type": "FeatureCollection",
"name": "fca020ea1918_foliage",
"crs": { "type": "name", "properties": { "name": "urn:ogc:def:crs:OGC:1.3:CRS84" } },
"features": [
{ "type": "Feature", "properties": { "max_height": 5.6399993896484375, "mean_height": 2.7747552394866943, "std_height": 1.6492516994476318, "count_pixels": 41, "percent_cover": 0.51787293166603521, "percent_above_0.1m": 100.0, "low_level_<0.5": 14.634146341463413, "mid_level_0.5-2": 21.951219512195124, "tall_2+": 63.414634146341463 }, "geometry": { "type": "Point", "coordinates": [ 1.078143065562215, 52.09929688568343 ] } },
{ "type": "Feature", "properties": { "max_height": 7.49749755859375, "mean_height": 1.7617253065109253, "std_height": 1.9668805599212646, "count_pixels": 42, "percent_cover": 0.53050397877984079, "percent_above_0.1m": 66.666666666666657, "low_level_<0.5": 7.1428571428571423, "mid_level_0.5-2": 21.428571428571427, "tall_2+": 38.095238095238095 }, "geometry": { "type": "Point", "coordinates": [ 1.078345052803193, 52.099291607875145 ] } },
{ "type": "Feature", "properties": { "max_height": 11.762496948242188, "mean_height": 8.2713699340820312, "std_height": 2.1223738193511963, "count_pixels": 42, "percent_cover": 0.53050397877984079, "percent_above_0.1m": 100.0, "low_level_<0.5": 0.0, "mid_level_0.5-2": 0.0, "tall_2+": 100.0 }, "geometry": { "type": "Point", "coordinates": [ 1.078251482847358, 52.099401979170153 ] } },
{ "type": "Feature", "properties": { "max_height": 11.294998168945312, "mean_height": 2.2441456317901611, "std_height": 3.5225710868835449, "count_pixels": 41, "percent_cover": 0.51787293166603521, "percent_above_0.1m": 43.902439024390247, "low_level_<0.5": 7.3170731707317067, "mid_level_0.5-2": 2.4390243902439024, "tall_2+": 34.146341463414636 }, "geometry": { "type": "Point", "coordinates": [ 1.078453470529712, 52.099396701169788 ] } },
{ "type": "Feature", "properties": { "max_height": 5.407501220703125, "mean_height": 0.49694982171058655, "std_height": 1.2374445199966431, "count_pixels": 41, "percent_cover": 0.51787293166603521, "percent_above_0.1m": 26.829268292682929, "low_level_<0.5": 2.4390243902439024, "mid_level_0.5-2": 9.7560975609756095, "tall_2+": 9.7560975609756095 }, "geometry": { "type": "Point", "coordinates": [ 1.078655458151179, 52.099391422823565 ] } },
{ "type": "Feature", "properties": { "max_height": 10.784999847412109, "mean_height": 4.4989275932312012, "std_height": 2.2943155765533447, "count_pixels": 42, "percent_cover": 0.53050397877984079, "percent_above_0.1m": 100.0, "low_level_<0.5": 7.1428571428571423, "mid_level_0.5-2": 4.7619047619047619, "tall_2+": 88.095238095238088 }, "geometry": { "type": "Point", "coordinates": [ 1.078359900634777, 52.099507072548626 ] } },
{ "type": "Feature", "properties": { "max_height": 0.022502899169921875, "mean_height": 0.00052234739996492863, "std_height": 0.0037576528266072273, "count_pixels": 43, "percent_cover": 0.54313502589364659, "percent_above_0.1m": 0.0, "low_level_<0.5": 0.0, "mid_level_0.5-2": 0.0, "tall_2+": 0.0 }, "geometry": { "type": "Point", "coordinates": [ 1.078561888758509, 52.099501794356136 ] } },
{ "type": "Feature", "properties": { "max_height": 3.1774978637695312, "mean_height": 0.15660649538040161, "std_height": 0.65663796663284302, "count_pixels": 42, "percent_cover": 0.53050397877984079, "percent_above_0.1m": 7.1428571428571423, "low_level_<0.5": 2.3809523809523809, "mid_level_0.5-2": 0.0, "tall_2+": 4.7619047619047619 }, "geometry": { "type": "Point", "coordinates": [ 1.078763876821349, 52.099496515817826 ] } },
{ "type": "Feature", "properties": { "max_height": 8.5624961853027344, "mean_height": 4.2028045654296875, "std_height": 2.9070866107940674, "count_pixels": 41, "percent_cover": 0.51787293166603521, "percent_above_0.1m": 80.487804878048792, "low_level_<0.5": 2.4390243902439024, "mid_level_0.5-2": 4.8780487804878048, "tall_2+": 73.170731707317074 }, "geometry": { "type": "Point", "coordinates": [ 1.078468318924474, 52.099612165818804 ] } },
{ "type": "Feature", "properties": { "max_height": 0.00250244140625, "mean_height": -0.00085439917165786028, "std_height": 0.0022504886146634817, "count_pixels": 41, "percent_cover": 0.51787293166603521, "percent_above_0.1m": 0.0, "low_level_<0.5": 0.0, "mid_level_0.5-2": 0.0, "tall_2+": 0.0 }, "geometry": { "type": "Point", "coordinates": [ 1.078670307489588, 52.099606887434206 ] } },
{ "type": "Feature", "properties": { "max_height": 3.1299972534179688, "mean_height": 0.10458237677812576, "std_height": 0.50097072124481201, "count_pixels": 42, "percent_cover": 0.53050397877984079, "percent_above_0.1m": 7.1428571428571423, "low_level_<0.5": 0.0, "mid_level_0.5-2": 2.3809523809523809, "tall_2+": 2.3809523809523809 }, "geometry": { "type": "Point", "coordinates": [ 1.078872295993804, 52.099601608703772 ] } },
{ "type": "Feature", "properties": { "max_height": 9.3949966430664062, "mean_height": 2.9495341777801514, "std_height": 3.0952248573303223, "count_pixels": 43, "percent_cover": 0.54313502589364659, "percent_above_0.1m": 65.116279069767444, "low_level_<0.5": 4.6511627906976747, "mid_level_0.5-2": 11.627906976744185, "tall_2+": 48.837209302325576 }, "geometry": { "type": "Point", "coordinates": [ 1.078576737716451, 52.099717258980689 ] } },
{ "type": "Feature", "properties": { "max_height": 0.0, "mean_height": -0.00023887271527200937, "std_height": 0.0007337816059589386, "count_pixels": 42, "percent_cover": 0.53050397877984079, "percent_above_0.1m": 0.0, "low_level_<0.5": 0.0, "mid_level_0.5-2": 0.0, "tall_2+": 0.0 }, "geometry": { "type": "Point", "coordinates": [ 1.078778726722946, 52.099711980403988 ] } },
{ "type": "Feature", "properties": { "max_height": 0.00250244140625, "mean_height": -0.00026411758153699338, "std_height": 0.001494274940341711, "count_pixels": 38, "percent_cover": 0.47997979032461791, "percent_above_0.1m": 0.0, "low_level_<0.5": 0.0, "mid_level_0.5-2": 0.0, "tall_2+": 0.0 }, "geometry": { "type": "Point", "coordinates": [ 1.078980715668541, 52.099706701481466 ] } },
{ "type": "Feature", "properties": { "max_height": 9.8524971008300781, "mean_height": 1.077558159828186, "std_height": 2.4059009552001953, "count_pixels": 42, "percent_cover": 0.53050397877984079, "percent_above_0.1m": 23.809523809523807, "low_level_<0.5": 2.3809523809523809, "mid_level_0.5-2": 4.7619047619047619, "tall_2+": 16.666666666666664 }, "geometry": { "type": "Point", "coordinates": [ 1.079182704553241, 52.099701422213101 ] } },
{ "type": "Feature", "properties": { "max_height": 15.587497711181641, "mean_height": 9.6537790298461914, "std_height": 3.1286706924438477, "count_pixels": 41, "percent_cover": 0.51787293166603521, "percent_above_0.1m": 100.0, "low_level_<0.5": 0.0, "mid_level_0.5-2": 0.0, "tall_2+": 100.0 }, "geometry": { "type": "Point", "coordinates": [ 1.078483167501938, 52.099827630457256 ] } },
{ "type": "Feature", "properties": { "max_height": 7.5, "mean_height": 0.73573088645935059, "std_height": 1.4724500179290771, "count_pixels": 41, "percent_cover": 0.51787293166603521, "percent_above_0.1m": 36.585365853658537, "low_level_<0.5": 4.8780487804878048, "mid_level_0.5-2": 21.951219512195124, "tall_2+": 9.7560975609756095 }, "geometry": { "type": "Point", "coordinates": [ 1.078685157010716, 52.099822352034295 ] } },
{ "type": "Feature", "properties": { "max_height": 0.0, "mean_height": -0.00035785493673756719, "std_height": 0.0013981428928673267, "count_pixels": 42, "percent_cover": 0.53050397877984079, "percent_above_0.1m": 0.0, "low_level_<0.5": 0.0, "mid_level_0.5-2": 0.0, "tall_2+": 0.0 }, "geometry": { "type": "Point", "coordinates": [ 1.078887146458591, 52.099817073265505 ] } },
{ "type": "Feature", "properties": { "max_height": 0.00749969482421875, "mean_height": -0.00011952718341490254, "std_height": 0.0017208606004714966, "count_pixels": 42, "percent_cover": 0.53050397877984079, "percent_above_0.1m": 0.0, "low_level_<0.5": 0.0, "mid_level_0.5-2": 0.0, "tall_2+": 0.0 }, "geometry": { "type": "Point", "coordinates": [ 1.079089135845569, 52.099811794150838 ] } },
{ "type": "Feature", "properties": { "max_height": 0.002498626708984375, "mean_height": -6.1593404097948223e-05, "std_height": 0.00067341554677113891, "count_pixels": 41, "percent_cover": 0.51787293166603521, "percent_above_0.1m": 0.0, "low_level_<0.5": 0.0, "mid_level_0.5-2": 0.0, "tall_2+": 0.0 }, "geometry": { "type": "Point", "coordinates": [ 1.079291125171643, 52.099806514690378 ] } },
{ "type": "Feature", "properties": { "max_height": 5.9439964294433594, "mean_height": 0.48070657253265381, "std_height": 1.3520454168319702, "count_pixels": 41, "percent_cover": 0.51787293166603521, "percent_above_0.1m": 14.634146341463413, "low_level_<0.5": 0.0, "mid_level_0.5-2": 4.8780487804878048, "tall_2+": 9.7560975609756095 }, "geometry": { "type": "Point", "coordinates": [ 1.079493114436812, 52.099801234884062 ] } },
{ "type": "Feature", "properties": { "max_height": 16.770000457763672, "mean_height": 7.3170342445373535, "std_height": 5.1011137962341309, "count_pixels": 43, "percent_cover": 0.54313502589364659, "percent_above_0.1m": 100.0, "low_level_<0.5": 0.0, "mid_level_0.5-2": 11.627906976744185, "tall_2+": 88.372093023255815 }, "geometry": { "type": "Point", "coordinates": [ 1.078591586857105, 52.099932723594691 ] } },
{ "type": "Feature", "properties": { "max_height": 0.0, "mean_height": -0.00071516493335366249, "std_height": 0.0018326998688280582, "count_pixels": 42, "percent_cover": 0.53050397877984079, "percent_above_0.1m": 0.0, "low_level_<0.5": 0.0, "mid_level_0.5-2": 0.0, "tall_2+": 0.0 }, "geometry": { "type": "Point", "coordinates": [ 1.078793576807265, 52.099927444979606 ] } },
{ "type": "Feature", "properties": { "max_height": 0.0, "mean_height": -0.00065893877763301134, "std_height": 0.0021217023022472858, "count_pixels": 38, "percent_cover": 0.47997979032461791, "percent_above_0.1m": 0.0, "low_level_<0.5": 0.0, "mid_level_0.5-2": 0.0, "tall_2+": 0.0 }, "geometry": { "type": "Point", "coordinates": [ 1.078995566696527, 52.099922166018708 ] } },
{ "type": "Feature", "properties": { "max_height": 0.0, "mean_height": -0.00011970883497269824, "std_height": 0.00053194421343505383, "count_pixels": 42, "percent_cover": 0.53050397877984079, "percent_above_0.1m": 0.0, "low_level_<0.5": 0.0, "mid_level_0.5-2": 0.0, "tall_2+": 0.0 }, "geometry": { "type": "Point", "coordinates": [ 1.079197556524892, 52.099916886711938 ] } },
{ "type": "Feature", "properties": { "max_height": 0.0, "mean_height": -0.00017503250273875892, "std_height": 0.00083465105853974819, "count_pixels": 43, "percent_cover": 0.54313502589364659, "percent_above_0.1m": 0.0, "low_level_<0.5": 0.0, "mid_level_0.5-2": 0.0, "tall_2+": 0.0 }, "geometry": { "type": "Point", "coordinates": [ 1.079399546292342, 52.099911607059369 ] } },
{ "type": "Feature", "properties": { "max_height": 0.0, "mean_height": -5.9763591707451269e-05, "std_height": 0.00038148299790918827, "count_pixels": 42, "percent_cover": 0.53050397877984079, "percent_above_0.1m": 0.0, "low_level_<0.5": 0.0, "mid_level_0.5-2": 0.0, "tall_2+": 0.0 }, "geometry": { "type": "Point", "coordinates": [ 1.079601535998891, 52.099906327060935 ] } },
{ "type": "Feature", "properties": { "max_height": 8.2949981689453125, "mean_height": 0.45946329832077026, "std_height": 1.4647656679153442, "count_pixels": 42, "percent_cover": 0.53050397877984079, "percent_above_0.1m": 19.047619047619047, "low_level_<0.5": 4.7619047619047619, "mid_level_0.5-2": 9.5238095238095237, "tall_2+": 4.7619047619047619 }, "geometry": { "type": "Point", "coordinates": [ 1.079803525644519, 52.09990104671666 ] } },
{ "type": "Feature", "properties": { "max_height": 9.9824981689453125, "mean_height": 2.8897552490234375, "std_height": 3.2393872737884521, "count_pixels": 41, "percent_cover": 0.51787293166603521, "percent_above_0.1m": 65.853658536585371, "low_level_<0.5": 2.4390243902439024, "mid_level_0.5-2": 19.512195121951219, "tall_2+": 43.902439024390247 }, "geometry": { "type": "Point", "coordinates": [ 1.07870000671456, 52.100037816623853 ] } },
{ "type": "Feature", "properties": { "max_height": 0.002498626708984375, "mean_height": -0.0001794724230421707, "std_height": 0.0013789685908704996, "count_pixels": 42, "percent_cover": 0.53050397877984079, "percent_above_0.1m": 0.0, "low_level_<0.5": 0.0, "mid_level_0.5-2": 0.0, "tall_2+": 0.0 }, "geometry": { "type": "Point", "coordinates": [ 1.078901997106111, 52.100032537816652 ] } },
{ "type": "Feature", "properties": { "max_height": 0.0, "mean_height": -0.00071516493335366249, "std_height": 0.0019126818515360355, "count_pixels": 42, "percent_cover": 0.53050397877984079, "percent_above_0.1m": 0.0, "low_level_<0.5": 0.0, "mid_level_0.5-2": 0.0, "tall_2+": 0.0 }, "geometry": { "type": "Point", "coordinates": [ 1.079103987436762, 52.100027258663616 ] } },
{ "type": "Feature", "properties": { "max_height": 0.0149993896484375, "mean_height": 0.00018189592810813338, "std_height": 0.0033762967213988304, "count_pixels": 41, "percent_cover": 0.51787293166603521, "percent_above_0.1m": 0.0, "low_level_<0.5": 0.0, "mid_level_0.5-2": 0.0, "tall_2+": 0.0 }, "geometry": { "type": "Point", "coordinates": [ 1.079305977706505, 52.100021979164758 ] } },
{ "type": "Feature", "properties": { "max_height": 0.002498626708984375, "mean_height": -0.00030573402182199061, "std_height": 0.0013745242031291127, "count_pixels": 41, "percent_cover": 0.51787293166603521, "percent_above_0.1m": 0.0, "low_level_<0.5": 0.0, "mid_level_0.5-2": 0.0, "tall_2+": 0.0 }, "geometry": { "type": "Point", "coordinates": [ 1.079507967915338, 52.100016699320051 ] } },
{ "type": "Feature", "properties": { "max_height": 0.005001068115234375, "mean_height": 5.8855330280493945e-05, "std_height": 0.0012782469857484102, "count_pixels": 42, "percent_cover": 0.53050397877984079, "percent_above_0.1m": 0.0, "low_level_<0.5": 0.0, "mid_level_0.5-2": 0.0, "tall_2+": 0.0 }, "geometry": { "type": "Point", "coordinates": [ 1.079709958063269, 52.100011419129508 ] } },
{ "type": "Feature", "properties": { "max_height": 0.0449981689453125, "mean_height": 0.00089145841775462031, "std_height": 0.0069182738661766052, "count_pixels": 42, "percent_cover": 0.53050397877984079, "percent_above_0.1m": 0.0, "low_level_<0.5": 0.0, "mid_level_0.5-2": 0.0, "tall_2+": 0.0 }, "geometry": { "type": "Point", "coordinates": [ 1.079911948150273, 52.100006138593145 ] } },
{ "type": "Feature", "properties": { "max_height": 10.482498168945312, "mean_height": 1.8461042642593384, "std_height": 3.0034151077270508, "count_pixels": 43, "percent_cover": 0.54313502589364659, "percent_above_0.1m": 39.534883720930232, "low_level_<0.5": 2.3255813953488373, "mid_level_0.5-2": 6.9767441860465116, "tall_2+": 30.232558139534881 }, "geometry": { "type": "Point", "coordinates": [ 1.080113938176364, 52.100000857710924 ] } },
{ "type": "Feature", "properties": { "max_height": 7.7099990844726562, "mean_height": 3.7537200450897217, "std_height": 1.7722183465957642, "count_pixels": 43, "percent_cover": 0.54313502589364659, "percent_above_0.1m": 97.674418604651152, "low_level_<0.5": 2.3255813953488373, "mid_level_0.5-2": 11.627906976744185, "tall_2+": 83.720930232558146 }, "geometry": { "type": "Point", "coordinates": [ 1.078606436180472, 52.100148188198141 ] } },
{ "type": "Feature", "properties": { "max_height": 3.842498779296875, "mean_height": 0.24571382999420166, "std_height": 0.78095370531082153, "count_pixels": 42, "percent_cover": 0.53050397877984079, "percent_above_0.1m": 14.285714285714285, "low_level_<0.5": 0.0, "mid_level_0.5-2": 7.1428571428571423, "tall_2+": 4.7619047619047619 }, "geometry": { "type": "Point", "coordinates": [ 1.078808427074313, 52.100142909544687 ] } },
{ "type": "Feature", "properties": { "max_height": 0.00749969482421875, "mean_height": 0.00013030202535446733, "std_height": 0.0015119988238438964, "count_pixels": 38, "percent_cover": 0.47997979032461791, "percent_above_0.1m": 0.0, "low_level_<0.5": 0.0, "mid_level_0.5-2": 0.0, "tall_2+": 0.0 }, "geometry": { "type": "Point", "coordinates": [ 1.079010417907252, 52.10013763054539 ] } },
{ "type": "Feature", "properties": { "max_height": 0.0149993896484375, "mean_height": 0.00053478422341868281, "std_height": 0.0030148227233439684, "count_pixels": 42, "percent_cover": 0.53050397877984079, "percent_above_0.1m": 0.0, "low_level_<0.5": 0.0, "mid_level_0.5-2": 0.0, "tall_2+": 0.0 }, "geometry": { "type": "Point", "coordinates": [ 1.079212408679295, 52.100132351200259 ] } },
{ "type": "Feature", "properties": { "max_height": 0.002498626708984375, "mean_height": 5.7131746871164069e-05, "std_height": 0.00037673453334718943, "count_pixels": 43, "percent_cover": 0.54313502589364659, "percent_above_0.1m": 0.0, "low_level_<0.5": 0.0, "mid_level_0.5-2": 0.0, "tall_2+": 0.0 }, "geometry": { "type": "Point", "coordinates": [ 1.07941439939042, 52.100127071509277 ] } },
{ "type": "Feature", "properties": { "max_height": 0.002498626708984375, "mean_height": -1.0899135531872162e-06, "std_height": 0.00054524774895980954, "count_pixels": 42, "percent_cover": 0.53050397877984079, "percent_above_0.1m": 0.0, "low_level_<0.5": 0.0, "mid_level_0.5-2": 0.0, "tall_2+": 0.0 }, "geometry": { "type": "Point", "coordinates": [ 1.079616390040642, 52.100121791472461 ] } },
{ "type": "Feature", "properties": { "max_height": 0.0, "mean_height": -1.2715657931039459e-06, "std_height": 1.7982654298975831e-06, "count_pixels": 42, "percent_cover": 0.53050397877984079, "percent_above_0.1m": 0.0, "low_level_<0.5": 0.0, "mid_level_0.5-2": 0.0, "tall_2+": 0.0 }, "geometry": { "type": "Point", "coordinates": [ 1.079818380629947, 52.100116511089809 ] } },
{ "type": "Feature", "properties": { "max_height": 6.5725021362304688, "mean_height": 0.59676754474639893, "std_height": 1.4610106945037842, "count_pixels": 41, "percent_cover": 0.51787293166603521, "percent_above_0.1m": 24.390243902439025, "low_level_<0.5": 4.8780487804878048, "mid_level_0.5-2": 7.3170731707317067, "tall_2+": 12.195121951219512 }, "geometry": { "type": "Point", "coordinates": [ 1.08002037115833, 52.100111230361314 ] } },
{ "type": "Feature", "properties": { "max_height": 10.174999237060547, "mean_height": 1.0932919979095459, "std_height": 2.4622039794921875, "count_pixels": 41, "percent_cover": 0.51787293166603521, "percent_above_0.1m": 31.707317073170731, "low_level_<0.5": 4.8780487804878048, "mid_level_0.5-2": 2.4390243902439024, "tall_2+": 17.073170731707318 }, "geometry": { "type": "Point", "coordinates": [ 1.080222361625797, 52.100105949286984 ] } },
{ "type": "Feature", "properties": { "max_height": 13.982500076293945, "mean_height": 2.6557917594909668, "std_height": 3.7134568691253662, "count_pixels": 41, "percent_cover": 0.51787293166603521, "percent_above_0.1m": 70.731707317073173, "low_level_<0.5": 12.195121951219512, "mid_level_0.5-2": 19.512195121951219, "tall_2+": 36.585365853658537 }, "geometry": { "type": "Point", "coordinates": [ 1.07871485660113, 52.100253281202818 ] } },
{ "type": "Feature", "properties": { "max_height": 0.039997100830078125, "mean_height": 0.0021509442012757063, "std_height": 0.0073594315908849239, "count_pixels": 42, "percent_cover": 0.53050397877984079, "percent_above_0.1m": 0.0, "low_level_<0.5": 0.0, "mid_level_0.5-2": 0.0, "tall_2+": 0.0 }, "geometry": { "type": "Point", "coordinates": [ 1.078916847936364, 52.100248002357255 ] } },
{ "type": "Feature", "properties": { "max_height": 0.0, "mean_height": -0.00023923601838760078, "std_height": 0.00091408711159601808, "count_pixels": 42, "percent_cover": 0.53050397877984079, "percent_above_0.1m": 0.0, "low_level_<0.5": 0.0, "mid_level_0.5-2": 0.0, "tall_2+": 0.0 }, "geometry": { "type": "Point", "coordinates": [ 1.079118839210698, 52.100242723165842 ] } },
{ "type": "Feature", "properties": { "max_height": 0.0, "mean_height": -0.00012290768790990114, "std_height": 0.0005384290125221014, "count_pixels": 41, "percent_cover": 0.51787293166603521, "percent_above_0.1m": 0.0, "low_level_<0.5": 0.0, "mid_level_0.5-2": 0.0, "tall_2+": 0.0 }, "geometry": { "type": "Point", "coordinates": [ 1.079320830424124, 52.100237443628608 ] } },
{ "type": "Feature", "properties": { "max_height": 0.0, "mean_height": -0.0002453501510899514, "std_height": 0.00074212905019521713, "count_pixels": 41, "percent_cover": 0.51787293166603521, "percent_above_0.1m": 0.0, "low_level_<0.5": 0.0, "mid_level_0.5-2": 0.0, "tall_2+": 0.0 }, "geometry": { "type": "Point", "coordinates": [ 1.079522821576643, 52.10023216374551 ] } },
{ "type": "Feature", "properties": { "max_height": 2.8274955749511719, "mean_height": 0.20398694276809692, "std_height": 0.59457403421401978, "count_pixels": 42, "percent_cover": 0.53050397877984079, "percent_above_0.1m": 19.047619047619047, "low_level_<0.5": 11.904761904761903, "mid_level_0.5-2": 2.3809523809523809, "tall_2+": 4.7619047619047619 }, "geometry": { "type": "Point", "coordinates": [ 1.079724812668247, 52.100226883516569 ] } },
{ "type": "Feature", "properties": { "max_height": 7.4350013732910156, "mean_height": 2.1566059589385986, "std_height": 2.3176760673522949, "count_pixels": 42, "percent_cover": 0.53050397877984079, "percent_above_0.1m": 69.047619047619051, "low_level_<0.5": 9.5238095238095237, "mid_level_0.5-2": 21.428571428571427, "tall_2+": 38.095238095238095 }, "geometry": { "type": "Point", "coordinates": [ 1.079926803698932, 52.100221602941801 ] } },
{ "type": "Feature", "properties": { "max_height": 12.272499084472656, "mean_height": 6.6548242568969727, "std_height": 3.5794272422790527, "count_pixels": 43, "percent_cover": 0.54313502589364659, "percent_above_0.1m": 93.023255813953483, "low_level_<0.5": 2.3255813953488373, "mid_level_0.5-2": 6.9767441860465116, "tall_2+": 81.395348837209298 }, "geometry": { "type": "Point", "coordinates": [ 1.080128794668699, 52.100216322021183 ] } },
{ "type": "Feature", "properties": { "max_height": 14.807498931884766, "mean_height": 11.382379531860352, "std_height": 1.4860669374465942, "count_pixels": 42, "percent_cover": 0.53050397877984079, "percent_above_0.1m": 100.0, "low_level_<0.5": 0.0, "mid_level_0.5-2": 0.0, "tall_2+": 100.0 }, "geometry": { "type": "Point", "coordinates": [ 1.08033078557754, 52.100211040754743 ] } },
{ "type": "Feature", "properties": { "max_height": 0.3249969482421875, "mean_height": 0.0168438870459795, "std_height": 0.061711359769105911, "count_pixels": 42, "percent_cover": 0.53050397877984079, "percent_above_0.1m": 4.7619047619047619, "low_level_<0.5": 4.7619047619047619, "mid_level_0.5-2": 0.0, "tall_2+": 0.0 }, "geometry": { "type": "Point", "coordinates": [ 1.078823277524095, 52.100358374099208 ] } },
{ "type": "Feature", "properties": { "max_height": 0.0, "mean_height": -1.1042544656447717e-06, "std_height": 1.7300342278758762e-06, "count_pixels": 38, "percent_cover": 0.47997979032461791, "percent_above_0.1m": 0.0, "low_level_<0.5": 0.0, "mid_level_0.5-2": 0.0, "tall_2+": 0.0 }, "geometry": { "type": "Point", "coordinates": [ 1.079025269300721, 52.100353095061529 ] } },
{ "type": "Feature", "properties": { "max_height": 0.0, "mean_height": -6.0671853134408593e-05, "std_height": 0.00038134510396048427, "count_pixels": 42, "percent_cover": 0.53050397877984079, "percent_above_0.1m": 0.0, "low_level_<0.5": 0.0, "mid_level_0.5-2": 0.0, "tall_2+": 0.0 }, "geometry": { "type": "Point", "coordinates": [ 1.079227261016446, 52.100347815678013 ] } },
{ "type": "Feature", "properties": { "max_height": 0.0, "mean_height": -8.8713892409941764e-07, "std_height": 1.6115679954964435e-06, "count_pixels": 43, "percent_cover": 0.54313502589364659, "percent_above_0.1m": 0.0, "low_level_<0.5": 0.0, "mid_level_0.5-2": 0.0, "tall_2+": 0.0 }, "geometry": { "type": "Point", "coordinates": [ 1.079429252671266, 52.100342535948663 ] } },
{ "type": "Feature", "properties": { "max_height": 9.2099990844726562, "mean_height": 3.1262490749359131, "std_height": 3.3950667381286621, "count_pixels": 42, "percent_cover": 0.53050397877984079, "percent_above_0.1m": 66.666666666666657, "low_level_<0.5": 7.1428571428571423, "mid_level_0.5-2": 14.285714285714285, "tall_2+": 45.238095238095241 }, "geometry": { "type": "Point", "coordinates": [ 1.079631244265172, 52.100337255873448 ] } },
{ "type": "Feature", "properties": { "max_height": 12.882499694824219, "mean_height": 7.1608319282531738, "std_height": 2.5084908008575439, "count_pixels": 42, "percent_cover": 0.53050397877984079, "percent_above_0.1m": 100.0, "low_level_<0.5": 0.0, "mid_level_0.5-2": 0.0, "tall_2+": 100.0 }, "geometry": { "type": "Point", "coordinates": [ 1.079833235798163, 52.100331975452391 ] } },
{ "type": "Feature", "properties": { "max_height": 12.712497711181641, "mean_height": 9.0504865646362305, "std_height": 2.8364965915679932, "count_pixels": 41, "percent_cover": 0.51787293166603521, "percent_above_0.1m": 100.0, "low_level_<0.5": 0.0, "mid_level_0.5-2": 2.4390243902439024, "tall_2+": 97.560975609756099 }, "geometry": { "type": "Point", "coordinates": [ 1.080035227270234, 52.100326694685499 ] } },
{ "type": "Feature", "properties": { "max_height": 8.5550003051757812, "mean_height": 1.8267673254013062, "std_height": 2.4719195365905762, "count_pixels": 41, "percent_cover": 0.51787293166603521, "percent_above_0.1m": 51.219512195121951, "low_level_<0.5": 2.4390243902439024, "mid_level_0.5-2": 9.7560975609756095, "tall_2+": 36.585365853658537 }, "geometry": { "type": "Point", "coordinates": [ 1.07953767539973, 52.100447628152061 ] } }
]
}
