{
"type": "FeatureCollection",
"name": "EASSU_276_NACH",
"crs": { "type": "name", "properties": { "name": "urn:ogc:def:crs:OGC:1.3:CRS84" } },
"features": [
{"type":"Feature","properties":{"id":109539,"nach":0.4797116903857484},"geometry":{"type":"LineString","coordinates":[[1.4721536,52.0733197],[1.4721193,52.0732971]]}},
{"type":"Feature","properties":{"id":109545,"nach":0.48364175741239646},"geometry":{"type":"LineString","coordinates":[[1.4717231,52.0730859],[1.4718353,52.0731362],[1.4721193,52.0732971]]}},
{"type":"Feature","properties":{"id":109542,"nach":0.32892404405451181},"geometry":{"type":"LineString","coordinates":[[1.47194,52.0734197],[1.4720526,52.0733422],[1.4721193,52.0732971]]}},
{"type":"Feature","properties":{"id":109541,"nach":0.32905802833864012},"geometry":{"type":"LineString","coordinates":[[1.4721536,52.0733197],[1.472341,52.0731996]]}},
{"type":"Feature","properties":{"id":109552,"nach":0.47504787085594985},"geometry":{"type":"LineString","coordinates":[[1.4723605,52.0734432],[1.4721536,52.0733197]]}},
{"type":"Feature","properties":{"id":109546,"nach":0.32813265864441654},"geometry":{"type":"LineString","coordinates":[[1.4717231,52.0730859],[1.4715914,52.07318930000001],[1.4715772,52.0732004],[1.4714639,52.0731769]]}},
{"type":"Feature","properties":{"id":109717,"nach":0.48711091986265476},"geometry":{"type":"LineString","coordinates":[[1.47147,52.072976],[1.4717231,52.0730859]]}},
{"type":"Feature","properties":{"id":101817,"nach":0.4706773559552776},"geometry":{"type":"LineString","coordinates":[[1.463759,52.07036440000001],[1.463428,52.0703329]]}},
{"type":"Feature","properties":{"id":109823,"nach":0.35895552344198356},"geometry":{"type":"LineString","coordinates":[[1.4625892,52.0714188],[1.463428,52.0703329]]}},
{"type":"Feature","properties":{"id":109827,"nach":0.45465663410819451},"geometry":{"type":"LineString","coordinates":[[1.4612673,52.0698181],[1.4616719,52.0700172],[1.4623349,52.0701989],[1.463428,52.0703329]]}},
{"type":"Feature","properties":{"id":109517,"nach":0.47597122585312907},"geometry":{"type":"LineString","coordinates":[[1.4643469,52.0704272],[1.463759,52.07036440000001]]}},
{"type":"Feature","properties":{"id":109529,"nach":0.32272330894890117},"geometry":{"type":"LineString","coordinates":[[1.4650859,52.0689872],[1.4644513,52.0690688],[1.4641012,52.0697258],[1.4640756,52.0697521],[1.463759,52.07036440000001]]}},
{"type":"Feature","properties":{"id":109473,"nach":0.46862491851063298},"geometry":{"type":"LineString","coordinates":[[1.4684605,52.071391400000017],[1.4682443,52.071552]]}},
{"type":"Feature","properties":{"id":109482,"nach":0.51678492674195564},"geometry":{"type":"LineString","coordinates":[[1.467724,52.07136950000001],[1.4682443,52.071552]]}},
{"type":"Feature","properties":{"id":109631,"nach":0.51071025251209201},"geometry":{"type":"LineString","coordinates":[[1.4688805,52.07181150000001],[1.4686641,52.0717145],[1.4686326,52.0717004],[1.4682443,52.071552]]}},
{"type":"Feature","properties":{"id":109474,"nach":0.45592225606704651},"geometry":{"type":"LineString","coordinates":[[1.4684605,52.071391400000017],[1.4689109,52.0710985]]}},
{"type":"Feature","properties":{"id":109475,"nach":0.33518826403682511},"geometry":{"type":"LineString","coordinates":[[1.4684605,52.071391400000017],[1.4684658,52.0713339],[1.4684437,52.0712509]]}},
{"type":"Feature","properties":{"id":109481,"nach":0.51827867644841663},"geometry":{"type":"LineString","coordinates":[[1.467724,52.07136950000001],[1.4675626,52.0713138]]}},
{"type":"Feature","properties":{"id":109483,"nach":0.40355435310055249},"geometry":{"type":"LineString","coordinates":[[1.467724,52.07136950000001],[1.4678296,52.0713045]]}},
{"type":"Feature","properties":{"id":109729,"nach":0.50351415689733348},"geometry":{"type":"LineString","coordinates":[[1.4696999,52.0721786],[1.4688805,52.07181150000001]]}},
{"type":"Feature","properties":{"id":113063,"nach":0.43143018975640107},"geometry":{"type":"LineString","coordinates":[[1.4688465,52.0718379],[1.4688805,52.07181150000001]]}},
{"type":"Feature","properties":{"id":109526,"nach":0.4146652359921294},"geometry":{"type":"LineString","coordinates":[[1.4692653,52.0708681],[1.469871,52.0705107]]}},
{"type":"Feature","properties":{"id":109528,"nach":0.32933509221061397},"geometry":{"type":"LineString","coordinates":[[1.47021,52.070681300000011],[1.469871,52.0705107]]}},
{"type":"Feature","properties":{"id":77259,"nach":0.37983081789563006},"geometry":{"type":"LineString","coordinates":[[1.4711922,52.069489700000013],[1.4708209,52.0698337],[1.4705036,52.070074],[1.4701858,52.0703235],[1.469871,52.0705107]]}},
{"type":"Feature","properties":{"id":109525,"nach":0.43681362320847705},"geometry":{"type":"LineString","coordinates":[[1.4692653,52.0708681],[1.4692143,52.0709043]]}},
{"type":"Feature","properties":{"id":109527,"nach":0.32984438028038432},"geometry":{"type":"LineString","coordinates":[[1.4692653,52.0708681],[1.46918,52.0708033],[1.4691599,52.070739],[1.4692873,52.0706879]]}},
{"type":"Feature","properties":{"id":106707,"nach":0.35352154407054021},"geometry":{"type":"LineString","coordinates":[[1.4718327,52.0676071],[1.4718009,52.0676741],[1.471777,52.0681747],[1.4716992,52.068434100000012],[1.4714848,52.0689162],[1.4711922,52.069489700000013]]}},
{"type":"Feature","properties":{"id":77262,"nach":0.19718246303199213},"geometry":{"type":"LineString","coordinates":[[1.4678617,52.067816600000022],[1.4690257,52.0683737],[1.4700779,52.0689072],[1.4711922,52.069489700000013]]}},
{"type":"Feature","properties":{"id":106708,"nach":0.30631858043521221},"geometry":{"type":"LineString","coordinates":[[1.4718327,52.0676071],[1.4719597,52.0675482],[1.472124,52.0674984],[1.4725435,52.0674208],[1.4730033,52.067327900000016],[1.4735359,52.0672254],[1.4740768,52.0671058],[1.4747889,52.0668777],[1.4756949,52.0666095],[1.4759231,52.0665003],[1.4760203,52.0664101]]}},
{"type":"Feature","properties":{"id":106706,"nach":0.31523951758443325},"geometry":{"type":"LineString","coordinates":[[1.4718327,52.0676071],[1.4715832,52.0675205]]}},
{"type":"Feature","properties":{"id":77263,"nach":0.1613028249484042},"geometry":{"type":"LineString","coordinates":[[1.4678617,52.067816600000022],[1.4668636,52.0674568],[1.4659976,52.0671584],[1.4650996,52.0668164],[1.4644845,52.0665783],[1.4638027,52.066315],[1.4632544,52.0661239],[1.4624326,52.0658137]]}},
{"type":"Feature","properties":{"id":106427,"nach":0.30954005418092223},"geometry":{"type":"LineString","coordinates":[[1.4664939,52.0701396],[1.4666516,52.0699191],[1.4667943,52.0697437],[1.4670283,52.0694833],[1.4672496,52.0690935],[1.4674364,52.0687035],[1.4677508,52.06804060000001],[1.4677202,52.0679855],[1.4678449,52.0678911],[1.4678617,52.067816600000022]]}},
{"type":"Feature","properties":{"id":109730,"nach":0.50071532732170665},"geometry":{"type":"LineString","coordinates":[[1.4696999,52.0721786],[1.4698836,52.0722685]]}},
{"type":"Feature","properties":{"id":109720,"nach":0.49388464297341639},"geometry":{"type":"LineString","coordinates":[[1.4709664,52.07274970000001],[1.4698836,52.0722685]]}},
{"type":"Feature","properties":{"id":109726,"nach":0.40319839483351677},"geometry":{"type":"LineString","coordinates":[[1.4698237,52.0723151],[1.4698836,52.0722685]]}},
{"type":"Feature","properties":{"id":109731,"nach":0.33592718129192178},"geometry":{"type":"LineString","coordinates":[[1.4696999,52.0721786],[1.469475,52.07234480000001]]}},
{"type":"Feature","properties":{"id":109721,"nach":0.49053126499825433},"geometry":{"type":"LineString","coordinates":[[1.4709664,52.07274970000001],[1.47147,52.072976]]}},
{"type":"Feature","properties":{"id":109722,"nach":0.32880806080207986},"geometry":{"type":"LineString","coordinates":[[1.4709664,52.07274970000001],[1.4705372,52.073128700000012]]}},
{"type":"Feature","properties":{"id":109725,"nach":0.33563234882438714},"geometry":{"type":"LineString","coordinates":[[1.4698237,52.0723151],[1.4697298,52.0723835]]}},
{"type":"Feature","properties":{"id":109727,"nach":0.33563234882438714},"geometry":{"type":"LineString","coordinates":[[1.4698237,52.0723151],[1.4698237,52.0723514],[1.4698867,52.0724544]]}},
{"type":"Feature","properties":{"id":106433,"nach":0.3737224628384585},"geometry":{"type":"LineString","coordinates":[[1.4660767,52.0707886],[1.4664939,52.0701396]]}},
{"type":"Feature","properties":{"id":109513,"nach":0.34558826521488695},"geometry":{"type":"LineString","coordinates":[[1.4657699,52.0700159],[1.466435,52.0701403],[1.4664939,52.0701396]]}},
{"type":"Feature","properties":{"id":127648,"nach":0.40657217209310514},"geometry":{"type":"LineString","coordinates":[[1.4661833,52.0708268],[1.4659182,52.0711358],[1.4658508,52.071224],[1.4657868,52.0713236],[1.4657154,52.0713863],[1.4656871,52.0714819],[1.465626,52.0715627],[1.4655281,52.0716424],[1.465267,52.071741900000013],[1.4651224,52.0717699],[1.4649938,52.0717253],[1.4648405,52.0717334],[1.4646959,52.0717568],[1.464538,52.0717975],[1.4643985,52.0718255],[1.464255,52.071834],[1.4641386,52.0718308],[1.4639346,52.0718152],[1.4637841,52.0718114],[1.4636297,52.07178050000001],[1.4633058,52.0715687],[1.4631341,52.0715659],[1.4629981,52.0715233],[1.4628713,52.07145890000001],[1.4627531,52.0714093],[1.462555,52.071463]]}},
{"type":"Feature","properties":{"id":109486,"nach":0.51823390692521587},"geometry":{"type":"LineString","coordinates":[[1.467334,52.0712253],[1.4675626,52.0713138]]}},
{"type":"Feature","properties":{"id":78556,"nach":0.38544403418128437},"geometry":{"type":"LineString","coordinates":[[1.4677859,52.0725062],[1.4677182,52.0724445],[1.4669906,52.072108],[1.4669436,52.072047],[1.4669275,52.0719679],[1.4669543,52.0719019],[1.4672762,52.0716348],[1.4674433,52.0714875],[1.4675626,52.0713138]]}},
{"type":"Feature","properties":{"id":109487,"nach":0.33635273731024878},"geometry":{"type":"LineString","coordinates":[[1.467334,52.0712253],[1.4675043,52.0710699]]}},
{"type":"Feature","properties":{"id":109490,"nach":0.5183884378792778},"geometry":{"type":"LineString","coordinates":[[1.4672623,52.0711993],[1.467334,52.0712253]]}},
{"type":"Feature","properties":{"id":103491,"nach":0.323745246317931},"geometry":{"type":"LineString","coordinates":[[1.4670593,52.073042],[1.467163,52.072968],[1.4673319,52.0728641],[1.467764,52.0725456],[1.4677859,52.0725062]]}},
{"type":"Feature","properties":{"id":109555,"nach":0.30164305303707217},"geometry":{"type":"LineString","coordinates":[[1.4704969,52.0743709],[1.470226,52.07420110000001],[1.4698854,52.073996699999988],[1.4696038,52.0738417],[1.4693812,52.0737445],[1.4691907,52.0736901],[1.4690244,52.0736324],[1.4689305,52.0735813],[1.4687991,52.0734148],[1.4686865,52.0731807],[1.4685604,52.0730323],[1.4683753,52.0729597],[1.4683378,52.072937600000017],[1.4681105,52.0728037],[1.4680371,52.0727507],[1.4679279,52.072662200000011],[1.4678476,52.0725788],[1.4677859,52.0725062]]}},
{"type":"Feature","properties":{"id":127646,"nach":0.49464170987505163},"geometry":{"type":"LineString","coordinates":[[1.4661833,52.0708268],[1.4660767,52.0707886]]}},
{"type":"Feature","properties":{"id":127647,"nach":0.50987031533188754},"geometry":{"type":"LineString","coordinates":[[1.4661833,52.0708268],[1.4662555,52.07085270000001],[1.4663716,52.0708949]]}},
{"type":"Feature","properties":{"id":109519,"nach":0.48141251407321289},"geometry":{"type":"LineString","coordinates":[[1.4643469,52.0704272],[1.464501,52.0704426],[1.4649472,52.070510300000016]]}},
{"type":"Feature","properties":{"id":109518,"nach":0.3371282939507374},"geometry":{"type":"LineString","coordinates":[[1.4643469,52.0704272],[1.4645062,52.0700333]]}},
{"type":"Feature","properties":{"id":106436,"nach":0.48222506265509218},"geometry":{"type":"LineString","coordinates":[[1.4652755,52.0705743],[1.4659127,52.070736199999985],[1.4660767,52.0707886]]}},
{"type":"Feature","properties":{"id":109514,"nach":0.0},"geometry":{"type":"LineString","coordinates":[[1.4657699,52.0700159],[1.4651241,52.0698952],[1.4650725,52.0699946],[1.4651299,52.0700922],[1.4649472,52.070510300000016]]}},
{"type":"Feature","properties":{"id":109515,"nach":0.31889681729739727},"geometry":{"type":"LineString","coordinates":[[1.4657699,52.0700159],[1.4657052,52.0701446],[1.4656073,52.0702641],[1.4655,52.0703311],[1.4652755,52.0705743]]}},
{"type":"Feature","properties":{"id":106435,"nach":0.48409644270965285},"geometry":{"type":"LineString","coordinates":[[1.4652755,52.0705743],[1.4652035,52.070556],[1.4649472,52.070510300000016]]}},
{"type":"Feature","properties":{"id":109521,"nach":0.45250149127992761},"geometry":{"type":"LineString","coordinates":[[1.4692143,52.0709043],[1.4689109,52.0710985]]}},
{"type":"Feature","properties":{"id":109504,"nach":0.28187701030234624},"geometry":{"type":"LineString","coordinates":[[1.4675948,52.0705007],[1.4680853,52.0707383],[1.4688772,52.071086],[1.4689109,52.0710985]]}},
{"type":"Feature","properties":{"id":109523,"nach":0.33034744969542584},"geometry":{"type":"LineString","coordinates":[[1.4692143,52.0709043],[1.4693691,52.070983]]}},
{"type":"Feature","properties":{"id":109503,"nach":0.33548079502659139},"geometry":{"type":"LineString","coordinates":[[1.4675948,52.0705007],[1.4676431,52.0704282]]}},
{"type":"Feature","properties":{"id":109509,"nach":0.37719115778220724},"geometry":{"type":"LineString","coordinates":[[1.4671724,52.0709228],[1.4672336,52.0708827],[1.4672568,52.0708676],[1.4675948,52.0705007]]}},
{"type":"Feature","properties":{"id":109479,"nach":0.33533533126561182},"geometry":{"type":"LineString","coordinates":[[1.4678296,52.0713045],[1.4679757,52.0713119],[1.468095,52.0711849]]}},
{"type":"Feature","properties":{"id":109480,"nach":0.33592644639707536},"geometry":{"type":"LineString","coordinates":[[1.4678764,52.0712459],[1.4678296,52.0713045]]}},
{"type":"Feature","properties":{"id":109491,"nach":0.33649714566154015},"geometry":{"type":"LineString","coordinates":[[1.4672623,52.0711993],[1.467405,52.071036500000019]]}},
{"type":"Feature","properties":{"id":109558,"nach":0.51829297314356271},"geometry":{"type":"LineString","coordinates":[[1.4670721,52.0711329],[1.4672623,52.0711993]]}},
{"type":"Feature","properties":{"id":109557,"nach":0.51794019846488948},"geometry":{"type":"LineString","coordinates":[[1.4670721,52.0711329],[1.4669742,52.0711009]]}},
{"type":"Feature","properties":{"id":109559,"nach":0.33665077197560717},"geometry":{"type":"LineString","coordinates":[[1.4670721,52.0711329],[1.467049,52.0711965],[1.4670463,52.0713795]]}},
{"type":"Feature","properties":{"id":109495,"nach":0.33802340621835053},"geometry":{"type":"LineString","coordinates":[[1.4663716,52.0708949],[1.4664294,52.0708346],[1.4665279,52.0707847]]}},
{"type":"Feature","properties":{"id":109561,"nach":0.51217948212523201},"geometry":{"type":"LineString","coordinates":[[1.4666803,52.0709967],[1.4663716,52.0708949]]}},
{"type":"Feature","properties":{"id":109562,"nach":0.51410524087873788},"geometry":{"type":"LineString","coordinates":[[1.4666803,52.0709967],[1.4667899,52.0710361]]}},
{"type":"Feature","properties":{"id":109563,"nach":0.33786293476658064},"geometry":{"type":"LineString","coordinates":[[1.4666803,52.0709967],[1.4665581,52.0711231],[1.4664414,52.0711672]]}},
{"type":"Feature","properties":{"id":109508,"nach":0.41429813270011412},"geometry":{"type":"LineString","coordinates":[[1.4671724,52.0709228],[1.467045,52.0710313]]}},
{"type":"Feature","properties":{"id":109512,"nach":0.39413751763083155},"geometry":{"type":"LineString","coordinates":[[1.4669742,52.0711009],[1.467045,52.0710313]]}},
{"type":"Feature","properties":{"id":109501,"nach":0.37627003171081724},"geometry":{"type":"LineString","coordinates":[[1.4667899,52.0710361],[1.466882,52.0709665],[1.467045,52.0710313]]}},
{"type":"Feature","properties":{"id":109507,"nach":0.3368141545046246},"geometry":{"type":"LineString","coordinates":[[1.4671724,52.0709228],[1.4670262,52.0708643]]}},
{"type":"Feature","properties":{"id":109566,"nach":0.50913801849924234},"geometry":{"type":"LineString","coordinates":[[1.4669192,52.0710834],[1.4669742,52.0711009]]}},
{"type":"Feature","properties":{"id":109565,"nach":0.50747618806847283},"geometry":{"type":"LineString","coordinates":[[1.4669192,52.0710834],[1.4667899,52.0710361]]}},
{"type":"Feature","properties":{"id":109567,"nach":0.33695839825926616},"geometry":{"type":"LineString","coordinates":[[1.4669192,52.0710834],[1.4667318,52.0713243]]}},
{"type":"Feature","properties":{"id":109533,"nach":0.33064645727479691},"geometry":{"type":"LineString","coordinates":[[1.4724776,52.0735328],[1.4726373,52.0734967]]}},
{"type":"Feature","properties":{"id":109553,"nach":0.46250988093994477},"geometry":{"type":"LineString","coordinates":[[1.4723605,52.0734432],[1.4724776,52.0735328]]}},
{"type":"Feature","properties":{"id":109535,"nach":0.45432292039257954},"geometry":{"type":"LineString","coordinates":[[1.4727684,52.0737171],[1.4724776,52.0735328]]}},
{"type":"Feature","properties":{"id":109554,"nach":0.3969560867018882},"geometry":{"type":"LineString","coordinates":[[1.4723605,52.0734432],[1.4722254,52.073544500000011]]}},
{"type":"Feature","properties":{"id":109537,"nach":0.33079454961584781},"geometry":{"type":"LineString","coordinates":[[1.4727684,52.0737171],[1.4728412,52.0736888],[1.4729284,52.0737478]]}},
{"type":"Feature","properties":{"id":109770,"nach":0.44409242583076081},"geometry":{"type":"LineString","coordinates":[[1.4749153,52.0750894],[1.4727684,52.0737171]]}},
{"type":"Feature","properties":{"id":109718,"nach":0.32931763967794092},"geometry":{"type":"LineString","coordinates":[[1.47147,52.072976],[1.4713922,52.0730152],[1.4712051,52.072932100000017]]}},
{"type":"Feature","properties":{"id":109548,"nach":0.32905495704590099},"geometry":{"type":"LineString","coordinates":[[1.4722254,52.073544500000011],[1.4723322,52.073610500000015]]}},
{"type":"Feature","properties":{"id":109551,"nach":0.32905495704590099},"geometry":{"type":"LineString","coordinates":[[1.4720064,52.0736798],[1.4722254,52.073544500000011]]}},
{"type":"Feature","properties":{"id":109627,"nach":0.32762516539878839},"geometry":{"type":"LineString","coordinates":[[1.4684008,52.0721832],[1.4680494,52.0724462],[1.4680468,52.0724825],[1.4682747,52.0725731]]}},
{"type":"Feature","properties":{"id":109626,"nach":0.33214683060964617},"geometry":{"type":"LineString","coordinates":[[1.4684008,52.0721832],[1.4682439,52.0721164]]}},
{"type":"Feature","properties":{"id":113064,"nach":0.3985852443067131},"geometry":{"type":"LineString","coordinates":[[1.4688465,52.0718379],[1.4688225,52.0718564],[1.4684008,52.0721832]]}},
{"type":"Feature","properties":{"id":113065,"nach":0.33352811146946254},"geometry":{"type":"LineString","coordinates":[[1.4688465,52.0718379],[1.4687052,52.0718683],[1.4683311,52.0718873],[1.4682524,52.071931]]}}
]
}
