{
"type": "FeatureCollection",
"name": "EASSU_29_NACH_800m",
"crs": { "type": "name", "properties": { "name": "urn:ogc:def:crs:OGC:1.3:CRS84" } },
"features": [
{ "type": "Feature", "properties": { "id": 90809, "nach": 0.30181274450476553 }, "geometry": { "type": "LineString", "coordinates": [ [ 1.3757482, 52.1824637 ], [ 1.3754172, 52.182663399999988 ] ] } },
{ "type": "Feature", "properties": { "id": 44249, "nach": 0.14082905496340856 }, "geometry": { "type": "LineString", "coordinates": [ [ 1.3724414, 52.1878197 ], [ 1.37244, 52.1875262 ], [ 1.37247, 52.1872888 ], [ 1.3725373, 52.1870936 ], [ 1.372646, 52.1869022 ], [ 1.3729638, 52.1864913 ], [ 1.3732399, 52.1861142 ], [ 1.3736477, 52.1853393 ], [ 1.3737957, 52.185043 ], [ 1.3741828, 52.1839227 ], [ 1.3742994, 52.1836755 ], [ 1.3744455, 52.1834491 ], [ 1.3746079, 52.1832735 ], [ 1.3748648, 52.1830581 ], [ 1.3754172, 52.182663399999988 ] ] } },
{ "type": "Feature", "properties": { "id": 80951, "nach": 0.29444479916240995 }, "geometry": { "type": "LineString", "coordinates": [ [ 1.3698848, 52.1815564 ], [ 1.3701037, 52.1815378 ], [ 1.3707303, 52.1815641 ], [ 1.3719925, 52.1818105 ], [ 1.3754172, 52.182663399999988 ] ] } },
{ "type": "Feature", "properties": { "id": 90812, "nach": 0.26935627297279369 }, "geometry": { "type": "LineString", "coordinates": [ [ 1.3760992, 52.182722 ], [ 1.3757482, 52.1824637 ] ] } },
{ "type": "Feature", "properties": { "id": 118329, "nach": 0.30294211758724965 }, "geometry": { "type": "LineString", "coordinates": [ [ 1.3771745, 52.1808136 ], [ 1.3770542, 52.1810097 ], [ 1.3766948, 52.1814789 ], [ 1.376359, 52.1819075 ], [ 1.3761283, 52.1821629 ], [ 1.3759196, 52.182354 ], [ 1.3757482, 52.1824637 ] ] } },
{ "type": "Feature", "properties": { "id": 80953, "nach": 0.2240034076010271 }, "geometry": { "type": "LineString", "coordinates": [ [ 1.3698848, 52.1815564 ], [ 1.3698712, 52.1814387 ], [ 1.3699436, 52.181354500000012 ], [ 1.3699999, 52.18119990000001 ], [ 1.3699892, 52.1808711 ], [ 1.3699972, 52.1801454 ] ] } },
{ "type": "Feature", "properties": { "id": 102537, "nach": 0.31223384573905549 }, "geometry": { "type": "LineString", "coordinates": [ [ 1.3686383, 52.181779599999984 ], [ 1.3689418, 52.1816992 ], [ 1.3695764, 52.1815827 ], [ 1.3698848, 52.1815564 ] ] } },
{ "type": "Feature", "properties": { "id": 80864, "nach": 0.16434550021786834 }, "geometry": { "type": "LineString", "coordinates": [ [ 1.3778583, 52.168669800000018 ], [ 1.3773017, 52.1670149 ], [ 1.3763511, 52.1646579 ], [ 1.3762753, 52.164264700000011 ], [ 1.3762729, 52.1639658 ], [ 1.3764153, 52.1635611 ] ] } },
{ "type": "Feature", "properties": { "id": 80865, "nach": 0.0 }, "geometry": { "type": "LineString", "coordinates": [ [ 1.3778583, 52.168669800000018 ], [ 1.3781308, 52.1685946 ], [ 1.3785117, 52.1684598 ], [ 1.3788271, 52.1682826 ], [ 1.379075, 52.1680781 ], [ 1.3793046, 52.1678779 ], [ 1.3795084, 52.167585 ], [ 1.3797069, 52.1672067 ], [ 1.3797766, 52.1671573 ], [ 1.379944, 52.1671996 ], [ 1.3807004, 52.1674299 ], [ 1.3811778, 52.1675977 ], [ 1.3819288, 52.167805 ], [ 1.3822389, 52.167947 ], [ 1.3823687, 52.1680189 ], [ 1.3826477, 52.1680057 ], [ 1.3833343, 52.1678379 ], [ 1.383978, 52.16761420000001 ], [ 1.3842316, 52.1675259 ], [ 1.384355, 52.1674108 ], [ 1.3844462, 52.1673038 ], [ 1.3844677, 52.1671459 ], [ 1.3844408, 52.1669978 ], [ 1.3842692, 52.1663661 ], [ 1.3841807, 52.165941599999989 ], [ 1.3840948, 52.165168400000013 ], [ 1.3840224, 52.1649775 ], [ 1.3839902, 52.164813 ], [ 1.3839983, 52.164533299999988 ], [ 1.3840787, 52.1641467 ], [ 1.3841297, 52.163895 ], [ 1.3841941, 52.163758400000013 ], [ 1.3843041, 52.1636514 ], [ 1.3844382, 52.1635577 ] ] } },
{ "type": "Feature", "properties": { "id": 80863, "nach": 0.16440160814938062 }, "geometry": { "type": "LineString", "coordinates": [ [ 1.3778583, 52.168669800000018 ], [ 1.3778976, 52.1688076 ], [ 1.3783745, 52.1698388 ], [ 1.378713, 52.1703553 ], [ 1.3793684, 52.1710211 ], [ 1.379529, 52.1713335 ], [ 1.3796197, 52.1717406 ], [ 1.3796685, 52.171961500000016 ], [ 1.3796974, 52.1723445 ], [ 1.3797224, 52.17248690000001 ] ] } },
{ "type": "Feature", "properties": { "id": 101545, "nach": 0.0 }, "geometry": { "type": "LineString", "coordinates": [ [ 1.3707349, 52.1737578 ], [ 1.3703647, 52.173619399999986 ], [ 1.3699489, 52.1733824 ], [ 1.3696056, 52.1731817 ], [ 1.369391, 52.1730765 ], [ 1.3691389, 52.17298430000001 ], [ 1.3689243, 52.17291520000002 ], [ 1.3687259, 52.1728626 ], [ 1.3686186, 52.172760600000011 ], [ 1.3687688, 52.172458 ], [ 1.3667249, 52.17111890000001 ], [ 1.3663333, 52.1709478 ], [ 1.3660168, 52.1705695 ], [ 1.3652873, 52.1695463 ], [ 1.3650888, 52.1692732 ], [ 1.3642629, 52.168602 ], [ 1.3636621, 52.167967 ], [ 1.3628062, 52.16684510000001 ], [ 1.3616797, 52.1653349 ], [ 1.3609662, 52.163581 ], [ 1.3607575, 52.1630398 ] ] } },
{ "type": "Feature", "properties": { "id": 80961, "nach": 0.15382991668237836 }, "geometry": { "type": "LineString", "coordinates": [ [ 1.3893389, 52.174551 ], [ 1.389639, 52.174524099999985 ], [ 1.3937388, 52.1739081 ], [ 1.3940629, 52.1738947 ], [ 1.3955855, 52.17401730000001 ], [ 1.3972182, 52.1739682 ] ] } },
{ "type": "Feature", "properties": { "id": 80939, "nach": 0.18886640108832348 }, "geometry": { "type": "LineString", "coordinates": [ [ 1.3867205, 52.1747584 ], [ 1.3870135, 52.1746381 ], [ 1.3873968, 52.1745107 ], [ 1.3877256, 52.1743932 ], [ 1.388368, 52.1741611 ], [ 1.3889296, 52.173965 ], [ 1.3893636, 52.1737738 ], [ 1.3898456, 52.1735293 ], [ 1.3905574, 52.1731602 ], [ 1.3908415, 52.1730127 ], [ 1.3912372, 52.1728138 ], [ 1.3915153, 52.1726127 ], [ 1.3917686, 52.1723247 ], [ 1.3918991, 52.1720744 ], [ 1.3919555, 52.17184060000001 ], [ 1.3920267, 52.171595600000011 ], [ 1.3920804, 52.1714943 ] ] } },
{ "type": "Feature", "properties": { "id": 44332, "nach": 0.29827129240220812 }, "geometry": { "type": "LineString", "coordinates": [ [ 1.3784992, 52.1782932 ], [ 1.3784272, 52.1782784 ] ] } },
{ "type": "Feature", "properties": { "id": 80931, "nach": 0.35846213239150032 }, "geometry": { "type": "LineString", "coordinates": [ [ 1.3783084, 52.178446 ], [ 1.3784272, 52.1782784 ] ] } },
{ "type": "Feature", "properties": { "id": 104791, "nach": 0.36817741321632047 }, "geometry": { "type": "LineString", "coordinates": [ [ 1.3788239, 52.1775663 ], [ 1.3784272, 52.1782784 ] ] } },
{ "type": "Feature", "properties": { "id": 80942, "nach": 0.21589194607481973 }, "geometry": { "type": "LineString", "coordinates": [ [ 1.3825391, 52.176296 ], [ 1.3824858, 52.1763084 ], [ 1.3822292, 52.1764223 ], [ 1.3818007, 52.1767192 ], [ 1.3815184, 52.1770598 ], [ 1.3813808, 52.1771874 ], [ 1.3811012, 52.1773622 ], [ 1.3806129, 52.1775735 ], [ 1.3792493, 52.1780673 ], [ 1.3786544, 52.178276 ], [ 1.3784992, 52.1782932 ] ] } },
{ "type": "Feature", "properties": { "id": 118326, "nach": 0.2634841149984169 }, "geometry": { "type": "LineString", "coordinates": [ [ 1.3772789, 52.180789299999986 ], [ 1.3774042, 52.1805758 ], [ 1.3774887, 52.1804368 ], [ 1.3775235, 52.1803916 ], [ 1.3775597, 52.1803299 ], [ 1.3776737, 52.1801408 ], [ 1.3777529, 52.180016600000016 ], [ 1.3778219, 52.1798867 ], [ 1.3778488, 52.1798131 ], [ 1.3779098, 52.1796605 ], [ 1.3779661, 52.1794237 ], [ 1.3780117, 52.1792592 ], [ 1.3780627, 52.1790816 ], [ 1.3781244, 52.178927 ], [ 1.3782021, 52.1787708 ], [ 1.3783067, 52.1786063 ], [ 1.3784992, 52.1782932 ] ] } },
{ "type": "Feature", "properties": { "id": 80933, "nach": 0.1246649365449997 }, "geometry": { "type": "LineString", "coordinates": [ [ 1.3783084, 52.178446 ], [ 1.3767752, 52.1779684 ], [ 1.3757076, 52.1776263 ], [ 1.3755038, 52.177651 ], [ 1.3738596, 52.1779881 ], [ 1.3716468, 52.178455 ], [ 1.3710272, 52.1785835 ], [ 1.3707697, 52.1791968 ], [ 1.3705095, 52.179968100000018 ], [ 1.3704532, 52.180044 ], [ 1.3703647, 52.180103200000012 ], [ 1.3702118, 52.1801345 ], [ 1.3701018, 52.1801441 ], [ 1.3699972, 52.1801454 ] ] } },
{ "type": "Feature", "properties": { "id": 143590, "nach": 0.35020617740544036 }, "geometry": { "type": "LineString", "coordinates": [ [ 1.3779487, 52.1790719 ], [ 1.3780211, 52.1788946 ], [ 1.3783084, 52.178446 ] ] } },
{ "type": "Feature", "properties": { "id": 118420, "nach": 0.25665276094112377 }, "geometry": { "type": "LineString", "coordinates": [ [ 1.3777783, 52.177779 ], [ 1.3777328, 52.1779138 ], [ 1.3775825, 52.1781277 ], [ 1.3776228, 52.17819020000001 ], [ 1.3783084, 52.178446 ] ] } },
{ "type": "Feature", "properties": { "id": 104792, "nach": 0.3550774869611677 }, "geometry": { "type": "LineString", "coordinates": [ [ 1.3788239, 52.1775663 ], [ 1.3791336, 52.177035 ], [ 1.3793393, 52.1765385 ], [ 1.3794881, 52.1763519 ], [ 1.37965, 52.176207900000016 ], [ 1.3798042, 52.176085 ], [ 1.379992, 52.1759354 ], [ 1.38005, 52.175884799999984 ] ] } },
{ "type": "Feature", "properties": { "id": 104797, "nach": 0.346323265515598 }, "geometry": { "type": "LineString", "coordinates": [ [ 1.3785807, 52.1774868 ], [ 1.3787185, 52.1775403 ], [ 1.3788239, 52.1775663 ] ] } },
{ "type": "Feature", "properties": { "id": 36122, "nach": 0.16440554713956321 }, "geometry": { "type": "LineString", "coordinates": [ [ 1.3840868, 52.1878162 ], [ 1.3829628, 52.1860934 ], [ 1.3808599, 52.1847778 ], [ 1.3824478, 52.1838832 ] ] } },
{ "type": "Feature", "properties": { "id": 80944, "nach": 0.24409178795208566 }, "geometry": { "type": "LineString", "coordinates": [ [ 1.3825391, 52.176296 ], [ 1.3823112, 52.1761822 ], [ 1.3819491, 52.1759122 ], [ 1.3817533, 52.1757775 ], [ 1.3802674, 52.175497500000013 ] ] } },
{ "type": "Feature", "properties": { "id": 80943, "nach": 0.21138226277456501 }, "geometry": { "type": "LineString", "coordinates": [ [ 1.3825391, 52.176296 ], [ 1.3826652, 52.1762666 ], [ 1.3829644, 52.176244 ], [ 1.3832573, 52.17622260000001 ], [ 1.3836525, 52.1761558 ], [ 1.3839967, 52.17607180000001 ], [ 1.3843288, 52.1759574 ], [ 1.3847824, 52.175805900000015 ], [ 1.3852155, 52.1756327 ], [ 1.3857107, 52.1754098 ], [ 1.3860747, 52.1751903 ], [ 1.3862814, 52.175006099999983 ], [ 1.3865375, 52.1748348 ], [ 1.3867205, 52.1747584 ] ] } },
{ "type": "Feature", "properties": { "id": 118328, "nach": 0.24933142769549588 }, "geometry": { "type": "LineString", "coordinates": [ [ 1.3774391, 52.1807329 ], [ 1.3772789, 52.180789299999986 ] ] } },
{ "type": "Feature", "properties": { "id": 118331, "nach": 0.2613076760368836 }, "geometry": { "type": "LineString", "coordinates": [ [ 1.3771745, 52.1808136 ], [ 1.3772124, 52.1808135 ], [ 1.3772601, 52.1807959 ], [ 1.3772789, 52.180789299999986 ] ] } },
{ "type": "Feature", "properties": { "id": 80962, "nach": 0.18887952577911316 }, "geometry": { "type": "LineString", "coordinates": [ [ 1.3893389, 52.174551 ], [ 1.3885983, 52.1746228 ], [ 1.387453, 52.1747707 ], [ 1.3870105, 52.1748465 ], [ 1.3867205, 52.1747584 ] ] } },
{ "type": "Feature", "properties": { "id": 80946, "nach": 0.33867086239628685 }, "geometry": { "type": "LineString", "coordinates": [ [ 1.38005, 52.175884799999984 ], [ 1.3800992, 52.1758499 ], [ 1.3801784, 52.1757487 ], [ 1.3802674, 52.175497500000013 ] ] } },
{ "type": "Feature", "properties": { "id": 80963, "nach": 0.3249875757279484 }, "geometry": { "type": "LineString", "coordinates": [ [ 1.3802151, 52.174409600000011 ], [ 1.3802382, 52.1747651 ], [ 1.3802812, 52.175035 ], [ 1.3802787, 52.175208 ], [ 1.3802674, 52.175497500000013 ] ] } },
{ "type": "Feature", "properties": { "id": 80947, "nach": 0.27495215859259237 }, "geometry": { "type": "LineString", "coordinates": [ [ 1.38005, 52.175884799999984 ], [ 1.3776093, 52.1751193 ], [ 1.3766706, 52.1748463 ], [ 1.3758657, 52.1746819 ] ] } },
{ "type": "Feature", "properties": { "id": 80965, "nach": 0.22411957580968009 }, "geometry": { "type": "LineString", "coordinates": [ [ 1.3802151, 52.174409600000011 ], [ 1.377899, 52.1743496 ], [ 1.3771641, 52.1744845 ], [ 1.3768234, 52.1745307 ], [ 1.3763004, 52.1745075 ], [ 1.3760858, 52.174593100000017 ], [ 1.3759622, 52.1746425 ] ] } },
{ "type": "Feature", "properties": { "id": 80964, "nach": 0.30190990159652359 }, "geometry": { "type": "LineString", "coordinates": [ [ 1.3802151, 52.174409600000011 ], [ 1.3801918, 52.1742284 ], [ 1.3801514, 52.174063100000012 ] ] } },
{ "type": "Feature", "properties": { "id": 115980, "nach": 0.2591136552423125 }, "geometry": { "type": "LineString", "coordinates": [ [ 1.3799508, 52.1746164 ], [ 1.3799667, 52.1745767 ], [ 1.3799883, 52.1745351 ], [ 1.3800387, 52.174449399999986 ], [ 1.3800566, 52.174436 ], [ 1.3800767, 52.17442770000001 ], [ 1.3801023, 52.174421 ], [ 1.3802151, 52.174409600000011 ] ] } },
{ "type": "Feature", "properties": { "id": 80935, "nach": 0.16455671393008131 }, "geometry": { "type": "LineString", "coordinates": [ [ 1.3925618, 52.1762555 ], [ 1.3924784, 52.1762564 ], [ 1.3922573, 52.1762444 ], [ 1.3917808, 52.176154 ], [ 1.3909828, 52.1760249 ], [ 1.3902826, 52.1758467 ], [ 1.3894574, 52.1758196 ], [ 1.3888588, 52.1758822 ] ] } },
{ "type": "Feature", "properties": { "id": 59664, "nach": 0.26344077921422548 }, "geometry": { "type": "LineString", "coordinates": [ [ 1.3759622, 52.1746425 ], [ 1.3758657, 52.1746819 ] ] } },
{ "type": "Feature", "properties": { "id": 59663, "nach": 0.21571703410006091 }, "geometry": { "type": "LineString", "coordinates": [ [ 1.3713327, 52.1739812 ], [ 1.3717941, 52.1741325 ], [ 1.3721999, 52.1742398 ], [ 1.3727793, 52.1743549 ], [ 1.373246, 52.1744569 ], [ 1.3736805, 52.1745753 ], [ 1.374031, 52.1746852 ], [ 1.3743583, 52.1747411 ], [ 1.3749036, 52.1747234 ], [ 1.3754043, 52.1747115 ], [ 1.3756833, 52.174698399999983 ], [ 1.3758657, 52.1746819 ] ] } },
{ "type": "Feature", "properties": { "id": 59673, "nach": 0.0 }, "geometry": { "type": "LineString", "coordinates": [ [ 1.3801514, 52.174063100000012 ], [ 1.3796261, 52.1741095 ], [ 1.3791951, 52.1741378 ], [ 1.3785245, 52.1741378 ], [ 1.3779846, 52.1741227 ], [ 1.3772872, 52.1740931 ], [ 1.3766167, 52.174047 ], [ 1.3763037, 52.174032500000017 ], [ 1.3761875, 52.1740766 ], [ 1.3761178, 52.1741161 ], [ 1.3760856, 52.1742707 ], [ 1.3760408, 52.1744997 ], [ 1.3759622, 52.1746425 ] ] } },
{ "type": "Feature", "properties": { "id": 101544, "nach": 0.18144052399019714 }, "geometry": { "type": "LineString", "coordinates": [ [ 1.3707349, 52.1737578 ], [ 1.3707768, 52.173709700000018 ], [ 1.37083, 52.1736616 ], [ 1.370871, 52.1736379 ], [ 1.3709157, 52.1736217 ], [ 1.3709804, 52.1736196 ], [ 1.37111, 52.173662200000017 ], [ 1.3711386, 52.1736852 ], [ 1.3711632, 52.173718600000015 ], [ 1.371186, 52.1737412 ], [ 1.3713083, 52.1738272 ], [ 1.3713266, 52.17385440000001 ], [ 1.3713336, 52.1738975 ], [ 1.3713327, 52.1739812 ] ] } },
{ "type": "Feature", "properties": { "id": 59672, "nach": 0.26952145402988403 }, "geometry": { "type": "LineString", "coordinates": [ [ 1.3801514, 52.174063100000012 ], [ 1.3800373, 52.173841 ], [ 1.3798573, 52.1734186 ], [ 1.3798147, 52.1732455 ], [ 1.3797419, 52.172598200000017 ], [ 1.3797224, 52.17248690000001 ] ] } },
{ "type": "Feature", "properties": { "id": 59670, "nach": 0.20625493207682219 }, "geometry": { "type": "LineString", "coordinates": [ [ 1.3797224, 52.17248690000001 ], [ 1.379256, 52.172474400000013 ], [ 1.3784084, 52.1724448 ], [ 1.3778111, 52.1724172 ], [ 1.377475, 52.1723626 ], [ 1.3772585, 52.1722724 ], [ 1.377137, 52.17215860000001 ] ] } },
{ "type": "Feature", "properties": { "id": 80954, "nach": 0.0 }, "geometry": { "type": "LineString", "coordinates": [ [ 1.3937911, 52.182073 ], [ 1.393224, 52.1820878 ], [ 1.3922097, 52.1821389 ], [ 1.3919319, 52.1821985 ], [ 1.3916957, 52.1821559 ], [ 1.391654, 52.1820196 ], [ 1.3904591, 52.17965980000001 ], [ 1.3892973, 52.1769222 ], [ 1.3889673, 52.176218300000016 ], [ 1.3888588, 52.1758822 ] ] } },
{ "type": "Feature", "properties": { "id": 62092, "nach": 0.12478302117461426 }, "geometry": { "type": "LineString", "coordinates": [ [ 1.38742, 52.176441700000012 ], [ 1.3875318, 52.1763889 ], [ 1.3885683, 52.1759642 ], [ 1.3888588, 52.1758822 ] ] } },
{ "type": "Feature", "properties": { "id": 80969, "nach": 0.070358888294268368 }, "geometry": { "type": "LineString", "coordinates": [ [ 1.3646899, 52.180898 ], [ 1.3653382, 52.1804766 ], [ 1.3657674, 52.1801852 ], [ 1.3659417, 52.18014440000001 ], [ 1.3677442, 52.1801197 ], [ 1.3693803, 52.180094800000013 ], [ 1.3697987, 52.1801148 ], [ 1.3699543, 52.180146 ], [ 1.3699972, 52.1801454 ] ] } },
{ "type": "Feature", "properties": { "id": 143589, "nach": 0.33699225760350837 }, "geometry": { "type": "LineString", "coordinates": [ [ 1.3779487, 52.1790719 ], [ 1.3779231, 52.1791345 ], [ 1.3778885, 52.1793274 ] ] } },
{ "type": "Feature", "properties": { "id": 143588, "nach": 0.25877562642279028 }, "geometry": { "type": "LineString", "coordinates": [ [ 1.3779487, 52.1790719 ], [ 1.3776458, 52.1789904 ] ] } },
{ "type": "Feature", "properties": { "id": 80960, "nach": 0.1032107304613281 }, "geometry": { "type": "LineString", "coordinates": [ [ 1.3893389, 52.174551 ], [ 1.3926619, 52.1727277 ] ] } },
{ "type": "Feature", "properties": { "id": 102538, "nach": 0.29664425049499282 }, "geometry": { "type": "LineString", "coordinates": [ [ 1.3686383, 52.181779599999984 ], [ 1.3684316, 52.1818344 ], [ 1.3679687, 52.181967900000011 ], [ 1.3677869, 52.182016300000015 ] ] } },
{ "type": "Feature", "properties": { "id": 102539, "nach": 0.23111550094953628 }, "geometry": { "type": "LineString", "coordinates": [ [ 1.3686383, 52.181779599999984 ], [ 1.3686469, 52.181837 ], [ 1.3686796, 52.1820347 ], [ 1.3686388, 52.182076 ], [ 1.3679285, 52.1822346 ] ] } },
{ "type": "Feature", "properties": { "id": 115979, "nach": 0.0 }, "geometry": { "type": "LineString", "coordinates": [ [ 1.3799508, 52.1746164 ], [ 1.3799971, 52.174641900000012 ], [ 1.3800258, 52.1746615 ], [ 1.3800672, 52.174706 ], [ 1.3800913, 52.17475060000001 ], [ 1.3800926, 52.1747686 ], [ 1.3800844, 52.1747862 ], [ 1.3800681, 52.1747996 ], [ 1.3800367, 52.174813 ], [ 1.3799931, 52.1748155 ], [ 1.3798021, 52.1747979 ], [ 1.3797694, 52.1747904 ], [ 1.379753, 52.1747803 ], [ 1.3797476, 52.1747686 ], [ 1.3797476, 52.1747494 ], [ 1.3797558, 52.1747302 ], [ 1.379783, 52.1747076 ], [ 1.3799031, 52.1746429 ], [ 1.3799508, 52.1746164 ] ] } },
{ "type": "Feature", "properties": { "id": 143584, "nach": 0.31424708748981778 }, "geometry": { "type": "LineString", "coordinates": [ [ 1.3778885, 52.1793274 ], [ 1.3778667, 52.17944940000001 ], [ 1.3778077, 52.1797198 ], [ 1.3777862, 52.1797678 ], [ 1.3777488, 52.17985130000001 ], [ 1.3776817, 52.1799717 ], [ 1.3776232, 52.18007020000001 ], [ 1.3774054, 52.180436899999989 ], [ 1.3773651, 52.1805026 ], [ 1.3771745, 52.1808136 ] ] } },
{ "type": "Feature", "properties": { "id": 104798, "nach": 0.25878798900991368 }, "geometry": { "type": "LineString", "coordinates": [ [ 1.3787745, 52.1772054 ], [ 1.3785807, 52.1774868 ] ] } },
{ "type": "Feature", "properties": { "id": 137726, "nach": 0.31491858800623335 }, "geometry": { "type": "LineString", "coordinates": [ [ 1.3784706, 52.1772828 ], [ 1.3783804, 52.177409 ], [ 1.3785807, 52.1774868 ] ] } },
{ "type": "Feature", "properties": { "id": 137725, "nach": 0.25862492631545164 }, "geometry": { "type": "LineString", "coordinates": [ [ 1.3784706, 52.1772828 ], [ 1.3785445, 52.1771796 ] ] } },
{ "type": "Feature", "properties": { "id": 137728, "nach": 0.23098232429512022 }, "geometry": { "type": "LineString", "coordinates": [ [ 1.3784247, 52.176724900000018 ], [ 1.3785642, 52.1764541 ], [ 1.3786232, 52.176343900000013 ], [ 1.3786348, 52.1762583 ], [ 1.3785812, 52.1761701 ], [ 1.3784802, 52.176079600000016 ], [ 1.3782924, 52.175987500000012 ], [ 1.3780662, 52.1759288 ], [ 1.3778266, 52.1759173 ], [ 1.3776075, 52.1759672 ], [ 1.3773787, 52.1760615 ], [ 1.3772186, 52.1761788 ], [ 1.3770631, 52.1763367 ], [ 1.3770005, 52.176436 ], [ 1.3769656, 52.1765237 ], [ 1.3769826, 52.1766087 ], [ 1.3770783, 52.1767129 ], [ 1.3771775, 52.1767781 ], [ 1.3774055, 52.1768335 ], [ 1.3776478, 52.1768971 ], [ 1.3778051, 52.1769102 ], [ 1.3779276, 52.176934900000013 ], [ 1.3780694, 52.1769952 ], [ 1.37822, 52.17711640000001 ], [ 1.3782772, 52.1771367 ], [ 1.3784706, 52.1772828 ] ] } },
{ "type": "Feature", "properties": { "id": 143586, "nach": 0.25656025184698578 }, "geometry": { "type": "LineString", "coordinates": [ [ 1.3778885, 52.1793274 ], [ 1.3776432, 52.179317 ], [ 1.377548, 52.1795253 ] ] } }
]
}
