{
"type": "FeatureCollection",
"name": "COLCH_119_cycling",
"crs": { "type": "name", "properties": { "name": "urn:ogc:def:crs:OGC:1.3:CRS84" } },
"features": [
{"type":"Feature","properties":{"highway":"cycleway","name":null,"category":"Dedicated cycleway"},"geometry":{"type":"MultiLineString","coordinates":[[[0.9413815,51.8855442],[0.9412223,51.8856396],[0.9413297,51.8856969]]]}},
{"type":"Feature","properties":{"highway":"path","name":null,"category":"Shared path"},"geometry":{"type":"MultiLineString","coordinates":[[[0.9440204,51.8868268],[0.9438813,51.8869492],[0.9436042,51.8871917]]]}},
{"type":"Feature","properties":{"highway":"cycleway","name":"Avon Way Cycle Path","category":"Dedicated cycleway"},"geometry":{"type":"MultiLineString","coordinates":[[[0.9389933,51.8859113],[0.9390171,51.8858874],[0.9389537,51.8858626],[0.9388555,51.8858245],[0.9388394,51.8858055],[0.9388662,51.8857881],[0.9388984,51.8857508],[0.9388957,51.885726],[0.9388636,51.885697],[0.938657,51.885582],[0.9385108,51.8855108],[0.93837,51.8854578],[0.9381729,51.8853924],[0.9380589,51.8853601],[0.9379768,51.8853374],[0.9378698,51.8853046],[0.9377142,51.8852599],[0.9374701,51.8852003],[0.9371201,51.8851325],[0.9369272,51.8850998],[0.9368465,51.8850861],[0.9366387,51.8850671],[0.9365633,51.8850614],[0.9363463,51.885028],[0.9362013,51.885013],[0.9359641,51.8849992],[0.935669,51.8849868],[0.935336,51.8849878],[0.9351795,51.8849884],[0.9348952,51.8850199],[0.9346753,51.8850414],[0.9345922,51.8850467],[0.9344848,51.8850505],[0.9343373,51.8850406],[0.9342274,51.8850381],[0.9338813,51.8850439],[0.9337808,51.8850216],[0.9336413,51.8849959],[0.9335724,51.8849782]]]}},
{"type":"Feature","properties":{"highway":"cycleway","name":null,"category":"Dedicated cycleway"},"geometry":{"type":"MultiLineString","coordinates":[[[0.9515861,51.8932806],[0.9513584,51.8932173],[0.9512913,51.8931585],[0.951091,51.8931505]]]}},
{"type":"Feature","properties":{"highway":"path","name":"Salary Brook Cycle Route","category":"Shared path"},"geometry":{"type":"MultiLineString","coordinates":[[[0.94537,51.887539],[0.9452991,51.8875865]]]}},
{"type":"Feature","properties":{"highway":"cycleway","name":null,"category":"Dedicated cycleway"},"geometry":{"type":"MultiLineString","coordinates":[[[0.9491171,51.8956567],[0.9490751,51.8956481],[0.9488952,51.8955799]]]}},
{"type":"Feature","properties":{"highway":"path","name":"Salary Brook Cycle Route","category":"Shared path"},"geometry":{"type":"MultiLineString","coordinates":[[[0.9451361,51.887379],[0.9450277,51.8875236],[0.9450346,51.8875636]]]}},
{"type":"Feature","properties":{"highway":"track","name":null,"category":"Track"},"geometry":{"type":"MultiLineString","coordinates":[[[0.9497633,51.8987864],[0.9491876,51.8981973],[0.9486458,51.8976742],[0.9486031,51.8975134],[0.9485069,51.8971508],[0.9484854,51.8969795],[0.9484917,51.8969429]]]}},
{"type":"Feature","properties":{"highway":"path","name":null,"category":"Shared path"},"geometry":{"type":"MultiLineString","coordinates":[[[0.9502744,51.8894075],[0.9503871,51.8893607],[0.950494,51.8891895],[0.9506484,51.8890933],[0.9507449,51.8890076],[0.9507961,51.8888997],[0.9507173,51.8888012],[0.9503746,51.8886445],[0.9497791,51.8883712],[0.9492212,51.8881793],[0.9490588,51.8881014],[0.948947,51.8880237],[0.9487712,51.8879887],[0.9486052,51.887995],[0.9482768,51.8879703],[0.9480348,51.8879455],[0.947877,51.8878953],[0.9476695,51.8877868],[0.9474755,51.887667],[0.9473086,51.8875752],[0.9471462,51.8875278],[0.9470379,51.8875028],[0.9468575,51.8873663],[0.9467592,51.8872831],[0.9466635,51.8872021],[0.9465957,51.8871388],[0.9464696,51.8870211],[0.946253,51.8868513],[0.9461177,51.8867817],[0.9458922,51.8866787],[0.9457929,51.8866063],[0.9454681,51.8863139],[0.9453283,51.8862081],[0.9452031,51.8861314]]]}},
{"type":"Feature","properties":{"highway":"path","name":null,"category":"Shared path"},"geometry":{"type":"MultiLineString","coordinates":[[[0.9443059,51.8865662],[0.9447103,51.8867789],[0.9449986,51.8868916],[0.9450792,51.8869187],[0.945101,51.886926],[0.9452252,51.8869935],[0.9454595,51.8871317],[0.9458155,51.8872689],[0.9461152,51.8873569],[0.9462835,51.8874063],[0.9465396,51.887629],[0.9467246,51.887738],[0.946927,51.8878589],[0.9471368,51.8879526],[0.947498,51.8881431],[0.9476883,51.8882168],[0.9479089,51.8883892],[0.9479064,51.88846],[0.9479102,51.8887133]]]}},
{"type":"Feature","properties":{"highway":"path","name":null,"category":"Shared path"},"geometry":{"type":"MultiLineString","coordinates":[[[0.9467592,51.8872831],[0.9466102,51.8872652],[0.9465418,51.8872643],[0.9464917,51.8872689],[0.946434,51.8872878],[0.9464012,51.8873276],[0.9463484,51.8873736],[0.9462835,51.8874063]]]}},
{"type":"Feature","properties":{"highway":"path","name":null,"category":"Shared path"},"geometry":{"type":"MultiLineString","coordinates":[[[0.9445147,51.8864777],[0.9440337,51.886158],[0.9436514,51.885962],[0.9434472,51.8858573],[0.9428067,51.885512],[0.9426519,51.8854181],[0.942536,51.8853478],[0.9421752,51.8851055],[0.9417833,51.8848461],[0.9413091,51.8845839],[0.9407497,51.8842581],[0.9400821,51.8838624],[0.9396896,51.8836759],[0.9391035,51.8834562],[0.9390356,51.8834308],[0.9386467,51.8832728],[0.9384001,51.8831858],[0.9382512,51.883113],[0.9378767,51.8829622],[0.9377072,51.8829174],[0.9373036,51.8828441]]]}},
{"type":"Feature","properties":{"highway":"cycleway","name":"Salary Brook Cycle Route","category":"Dedicated cycleway"},"geometry":{"type":"MultiLineString","coordinates":[[[0.9439039,51.8867749],[0.9440204,51.8868268],[0.9446248,51.8871241],[0.9447055,51.8871652],[0.9447801,51.8872028],[0.9448984,51.8872625],[0.9450604,51.8873343],[0.9451361,51.887379],[0.94537,51.887539],[0.9455124,51.8875979],[0.9457395,51.8876797],[0.9457584,51.8876878],[0.9458416,51.8877289],[0.9458559,51.887736],[0.9459383,51.8877767],[0.9460363,51.8878252],[0.9461233,51.8878682],[0.9462607,51.8879361],[0.9463853,51.8879946],[0.946548,51.888071],[0.9465639,51.8880886],[0.9465869,51.8881141],[0.9465816,51.888177],[0.9466125,51.8882192],[0.9467577,51.8882795],[0.9470086,51.888378],[0.9475473,51.8885896],[0.9477171,51.8886463],[0.9479102,51.8887133],[0.9481099,51.8887965],[0.948206,51.8888228],[0.9484263,51.8888966],[0.9486751,51.8889766],[0.9488256,51.8890388],[0.9489527,51.8890885],[0.949287,51.889219],[0.9493644,51.8893209],[0.9495039,51.8894119],[0.9496903,51.889498],[0.949819,51.8895261],[0.9500537,51.889575],[0.950197,51.8896642],[0.9503301,51.8897942],[0.95066,51.8900129],[0.950902,51.8901733],[0.9510657,51.8903178],[0.9511966,51.8904778],[0.9513383,51.8906293],[0.9514117,51.8907327],[0.9516423,51.8910323],[0.951725,51.8911835],[0.951771,51.8912676],[0.9518655,51.8914402],[0.9518612,51.8914869],[0.951842,51.8915357],[0.9518495,51.8916869],[0.9518551,51.8917299],[0.95188,51.8919195],[0.9519557,51.8919941],[0.9519578,51.8920876],[0.9519278,51.8922291],[0.9518175,51.8925418],[0.9518017,51.8925864],[0.9516434,51.8929722],[0.9516301,51.8931643],[0.9515861,51.8932806],[0.9515995,51.8934445],[0.9515994,51.8935406],[0.9515494,51.8935987],[0.9515146,51.8936179],[0.9514336,51.8936624],[0.951348,51.8937983],[0.9512615,51.8939356],[0.9511389,51.8940295],[0.9510109,51.8940902],[0.9508827,51.894151],[0.950641,51.8942656],[0.9503292,51.8944134],[0.9503145,51.8944968],[0.9502576,51.8945518],[0.9502201,51.8945876],[0.9501821,51.894619],[0.9501432,51.8946434],[0.9500411,51.8947331],[0.9499374,51.8948192],[0.9498656,51.8948589],[0.9497569,51.8948535],[0.9497401,51.8948662],[0.949722,51.8948799],[0.9497087,51.89489],[0.9496802,51.8949115],[0.9495585,51.8950034],[0.9494411,51.8950921],[0.949385,51.8951913],[0.9493869,51.8953236],[0.9493731,51.895398],[0.9493463,51.8954231],[0.9493242,51.8954437],[0.9493035,51.8954631],[0.9492936,51.8955215],[0.9492135,51.8955389],[0.9491563,51.8955759],[0.9491171,51.8956567],[0.9490664,51.895751],[0.9490944,51.8958132],[0.9490768,51.8958825],[0.9490259,51.8959566],[0.9490181,51.8959659],[0.9488466,51.8961703],[0.9487366,51.8963015],[0.9487232,51.8963174],[0.9485149,51.8965658],[0.9484418,51.896622],[0.9480818,51.8968971]]]}},
{"type":"Feature","properties":{"highway":"path","name":null,"category":"Shared path"},"geometry":{"type":"MultiLineString","coordinates":[[[0.9462766,51.8928926],[0.9467317,51.892897],[0.9470056,51.8929527]]]}},
{"type":"Feature","properties":{"highway":"path","name":null,"category":"Shared path"},"geometry":{"type":"MultiLineString","coordinates":[[[0.9473645,51.8928278],[0.9476779,51.89284]]]}},
{"type":"Feature","properties":{"highway":"path","name":null,"category":"Shared path"},"geometry":{"type":"MultiLineString","coordinates":[[[0.9404853,51.8920302],[0.9406153,51.8919752],[0.9407924,51.8919946],[0.9409275,51.8918063],[0.9409802,51.8918148],[0.9411332,51.8918394]]]}},
{"type":"Feature","properties":{"highway":"path","name":null,"category":"Shared path"},"geometry":{"type":"MultiLineString","coordinates":[[[0.9465418,51.8872643],[0.9465957,51.8871388]]]}},
{"type":"Feature","properties":{"highway":"cycleway","name":"Salary Brook Cycle Route","category":"Dedicated cycleway"},"geometry":{"type":"MultiLineString","coordinates":[[[0.937017,51.8826615],[0.93714,51.8827043],[0.9372315,51.8827605],[0.9373036,51.8828441],[0.9373169,51.8829875],[0.9373627,51.8833532],[0.9373965,51.8834864],[0.9374617,51.8835921],[0.9376011,51.8836745],[0.9377001,51.8837245],[0.9378142,51.8837821],[0.9380338,51.8839029],[0.9384622,51.8841267],[0.9386537,51.8842291],[0.9388651,51.8843681],[0.9389434,51.8844101],[0.9394072,51.8846592],[0.9396406,51.8847739],[0.9399064,51.8848976],[0.9399617,51.8849232],[0.9402448,51.8850392],[0.9405865,51.8851664],[0.9411967,51.8854549],[0.9413815,51.8855442],[0.9414718,51.8855858],[0.941792,51.8857332],[0.9418687,51.8857735],[0.9421543,51.8858817],[0.9423826,51.8860058],[0.9427993,51.8862103],[0.9429052,51.8862723],[0.9431397,51.8863758],[0.9431525,51.8863828],[0.9431961,51.8864068],[0.9436102,51.886634]]]}},
{"type":"Feature","properties":{"highway":"cycleway","name":"Salary Brook Cycle Route","category":"Dedicated cycleway"},"geometry":{"type":"MultiLineString","coordinates":[[[0.9436102,51.886634],[0.9436232,51.8866402],[0.9439039,51.8867749]]]}},
{"type":"Feature","properties":{"highway":"path","name":null,"category":"Shared path"},"geometry":{"type":"MultiLineString","coordinates":[[[0.9388555,51.8858245],[0.9388184,51.885853],[0.9384061,51.8856898],[0.9382963,51.8857793],[0.9382769,51.8857755]]]}},
{"type":"Feature","properties":{"highway":"path","name":null,"category":"Shared path"},"geometry":{"type":"MultiLineString","coordinates":[[[0.9382769,51.8857755],[0.9382801,51.8857904],[0.9381358,51.8859303],[0.9386276,51.8861432]]]}},
{"type":"Feature","properties":{"highway":"path","name":null,"category":"Shared path"},"geometry":{"type":"MultiLineString","coordinates":[[[0.9364366,51.8875764],[0.9366671,51.887286]]]}},
{"type":"Feature","properties":{"highway":"path","name":null,"category":"Shared path"},"geometry":{"type":"MultiLineString","coordinates":[[[0.9434797,51.8876385],[0.9435449,51.8875914],[0.9438131,51.8873398],[0.943915,51.887246]]]}},
{"type":"Feature","properties":{"highway":"path","name":null,"category":"Shared path"},"geometry":{"type":"MultiLineString","coordinates":[[[0.9447034,51.8891634],[0.94486,51.8889794]]]}},
{"type":"Feature","properties":{"highway":"path","name":null,"category":"Shared path"},"geometry":{"type":"MultiLineString","coordinates":[[[0.9441063,51.8891567],[0.9441395,51.8891392],[0.9444813,51.8892489]]]}},
{"type":"Feature","properties":{"highway":"path","name":null,"category":"Shared path"},"geometry":{"type":"MultiLineString","coordinates":[[[0.9414246,51.8914643],[0.9413234,51.8914388],[0.9412723,51.8914259],[0.9409498,51.8913445]]]}},
{"type":"Feature","properties":{"highway":"path","name":null,"category":"Shared path"},"geometry":{"type":"MultiLineString","coordinates":[[[0.9412723,51.8914259],[0.9411864,51.8915434],[0.9408557,51.8914557],[0.9407983,51.8914405]]]}},
{"type":"Feature","properties":{"highway":"path","name":null,"category":"Shared path"},"geometry":{"type":"MultiLineString","coordinates":[[[0.9411864,51.8915434],[0.9410159,51.8917678],[0.9409802,51.8918148]]]}},
{"type":"Feature","properties":{"highway":"path","name":null,"category":"Shared path"},"geometry":{"type":"MultiLineString","coordinates":[[[0.9423295,51.8909606],[0.9422232,51.8909394],[0.9414831,51.8906817]]]}},
{"type":"Feature","properties":{"highway":"path","name":null,"category":"Shared path"},"geometry":{"type":"MultiLineString","coordinates":[[[0.9420994,51.8894634],[0.9419075,51.8894387],[0.9416447,51.8893448],[0.9412382,51.8892027]]]}},
{"type":"Feature","properties":{"highway":"path","name":null,"category":"Shared path"},"geometry":{"type":"MultiLineString","coordinates":[[[0.9400707,51.8898355],[0.9401358,51.8897721],[0.9402649,51.8896441],[0.9403599,51.8896121]]]}},
{"type":"Feature","properties":{"highway":"path","name":null,"category":"Shared path"},"geometry":{"type":"MultiLineString","coordinates":[[[0.9383309,51.8877175],[0.9386095,51.8874657]]]}},
{"type":"Feature","properties":{"highway":"path","name":null,"category":"Shared path"},"geometry":{"type":"MultiLineString","coordinates":[[[0.9385787,51.8874507],[0.9388248,51.8872334],[0.9388663,51.8872132],[0.9390078,51.887084],[0.9390579,51.8870415]]]}},
{"type":"Feature","properties":{"highway":"path","name":null,"category":"Shared path"},"geometry":{"type":"MultiLineString","coordinates":[[[0.9372301,51.8885744],[0.9372726,51.8885262],[0.9373034,51.8885119],[0.9377887,51.8884216],[0.9378406,51.888423],[0.9379258,51.8884596],[0.9381569,51.8885614],[0.93866,51.8887477],[0.9389056,51.8888324],[0.9391767,51.8889503],[0.9393693,51.8890406],[0.9394132,51.8890543]]]}},
{"type":"Feature","properties":{"highway":"path","name":null,"category":"Shared path"},"geometry":{"type":"MultiLineString","coordinates":[[[0.9393811,51.8862893],[0.9394352,51.8862514],[0.9394475,51.8861962],[0.9390654,51.886045],[0.9388929,51.8860735],[0.9387706,51.8860218]]]}},
{"type":"Feature","properties":{"highway":"path","name":null,"category":"Shared path"},"geometry":{"type":"MultiLineString","coordinates":[[[0.9394475,51.8861962],[0.9395461,51.8861087],[0.939295,51.8860174],[0.9391656,51.8858453],[0.9390812,51.8857617]]]}},
{"type":"Feature","properties":{"highway":"path","name":null,"category":"Shared path"},"geometry":{"type":"MultiLineString","coordinates":[[[0.9394508,51.886811],[0.9396082,51.8866662]]]}},
{"type":"Feature","properties":{"highway":"path","name":null,"category":"Shared path"},"geometry":{"type":"MultiLineString","coordinates":[[[0.9396804,51.8869655],[0.9398056,51.8868887],[0.9400781,51.8866549]]]}},
{"type":"Feature","properties":{"highway":"path","name":null,"category":"Shared path"},"geometry":{"type":"MultiLineString","coordinates":[[[0.9394374,51.8872622],[0.9396317,51.8873346]]]}},
{"type":"Feature","properties":{"highway":"path","name":null,"category":"Shared path"},"geometry":{"type":"MultiLineString","coordinates":[[[0.9390899,51.8880138],[0.9393989,51.8877599],[0.9393602,51.8877064]]]}},
{"type":"Feature","properties":{"highway":"path","name":null,"category":"Shared path"},"geometry":{"type":"MultiLineString","coordinates":[[[0.9393586,51.8881265],[0.9397745,51.8877754]]]}},
{"type":"Feature","properties":{"highway":"path","name":null,"category":"Shared path"},"geometry":{"type":"MultiLineString","coordinates":[[[0.9407037,51.8877643],[0.9408926,51.8876135],[0.9409744,51.8876553],[0.9410695,51.8877038],[0.9413248,51.8878147]]]}},
{"type":"Feature","properties":{"highway":"path","name":null,"category":"Shared path"},"geometry":{"type":"MultiLineString","coordinates":[[[0.9409744,51.8876553],[0.941029,51.8875976]]]}},
{"type":"Feature","properties":{"highway":"path","name":null,"category":"Shared path"},"geometry":{"type":"MultiLineString","coordinates":[[[0.9410695,51.8877038],[0.9414638,51.8873682],[0.941706,51.887467]]]}},
{"type":"Feature","properties":{"highway":"path","name":null,"category":"Shared path"},"geometry":{"type":"MultiLineString","coordinates":[[[0.9401373,51.8847325],[0.9402728,51.8847987],[0.9403416,51.8848324],[0.9405715,51.8849425],[0.9408177,51.8850572],[0.9409925,51.8851531],[0.941026,51.8852002],[0.941367,51.8853602],[0.9414676,51.8854108],[0.9416328,51.8854938],[0.9420843,51.8857255],[0.9423936,51.8858695],[0.942902,51.8861309],[0.9431991,51.8862898],[0.9432467,51.8863152],[0.9434319,51.8864142],[0.9438263,51.8866205],[0.9439585,51.8867319]]]}},
{"type":"Feature","properties":{"highway":"path","name":null,"category":"Shared path"},"geometry":{"type":"MultiLineString","coordinates":[[[0.9431525,51.8863828],[0.9432467,51.8863152]]]}},
{"type":"Feature","properties":{"highway":"path","name":null,"category":"Shared path"},"geometry":{"type":"MultiLineString","coordinates":[[[0.9431991,51.8862898],[0.9435107,51.8860584],[0.9435742,51.8860149],[0.9436514,51.885962]]]}},
{"type":"Feature","properties":{"highway":"path","name":null,"category":"Shared path"},"geometry":{"type":"MultiLineString","coordinates":[[[0.9447801,51.8872028],[0.9449608,51.8870435],[0.9450792,51.8869187]]]}},
{"type":"Feature","properties":{"highway":"path","name":null,"category":"Shared path"},"geometry":{"type":"MultiLineString","coordinates":[[[0.9465639,51.8880886],[0.9466214,51.8880864],[0.9469387,51.8881083],[0.9472284,51.888171],[0.9473901,51.8881748],[0.9474949,51.8881958],[0.9476883,51.8882168]]]}},
{"type":"Feature","properties":{"highway":"path","name":null,"category":"Shared path"},"geometry":{"type":"MultiLineString","coordinates":[[[0.9458416,51.8877289],[0.945948,51.8876205],[0.9460915,51.8874996],[0.9462835,51.8874063]]]}},
{"type":"Feature","properties":{"highway":"path","name":null,"category":"Shared path"},"geometry":{"type":"MultiLineString","coordinates":[[[0.9451361,51.887379],[0.9454679,51.887378],[0.9460808,51.8873655],[0.9461152,51.8873569]]]}},
{"type":"Feature","properties":{"highway":"path","name":null,"category":"Shared path"},"geometry":{"type":"MultiLineString","coordinates":[[[0.9414676,51.8854108],[0.941455,51.8853093],[0.9414273,51.8852056],[0.941475,51.88514],[0.9415213,51.8850696],[0.9415829,51.8849708],[0.9416476,51.8848671],[0.9416537,51.8848566]]]}},
{"type":"Feature","properties":{"highway":"path","name":null,"category":"Shared path"},"geometry":{"type":"MultiLineString","coordinates":[[[0.9416537,51.8848566],[0.9418063,51.8849622],[0.9419788,51.8850677],[0.9422669,51.8852437],[0.9424687,51.8853815],[0.9425811,51.8854681],[0.942461,51.8855479],[0.9423192,51.8856611],[0.9422145,51.8857267],[0.942155,51.8857564]]]}},
{"type":"Feature","properties":{"highway":"path","name":null,"category":"Shared path"},"geometry":{"type":"MultiLineString","coordinates":[[[0.9399919,51.8863073],[0.9412611,51.8868541]]]}},
{"type":"Feature","properties":{"highway":"path","name":null,"category":"Shared path"},"geometry":{"type":"MultiLineString","coordinates":[[[0.9420726,51.8896435],[0.9418975,51.8896392],[0.9417684,51.889599],[0.9415478,51.8895194],[0.941483,51.8894927]]]}},
{"type":"Feature","properties":{"highway":"path","name":null,"category":"Shared path"},"geometry":{"type":"MultiLineString","coordinates":[[[0.9417162,51.8904628],[0.9416556,51.8905305],[0.9422939,51.8907614],[0.9424032,51.8907691]]]}},
{"type":"Feature","properties":{"highway":"path","name":null,"category":"Shared path"},"geometry":{"type":"MultiLineString","coordinates":[[[0.942198,51.8913087],[0.9417412,51.8911841],[0.9415619,51.8911419],[0.9415439,51.8911377],[0.9412003,51.8910453]]]}},
{"type":"Feature","properties":{"highway":"path","name":null,"category":"Shared path"},"geometry":{"type":"MultiLineString","coordinates":[[[0.9413234,51.8914388],[0.9415619,51.8911419],[0.9417367,51.8909273]]]}},
{"type":"Feature","properties":{"highway":"path","name":null,"category":"Shared path"},"geometry":{"type":"MultiLineString","coordinates":[[[0.9410159,51.8917678],[0.9406797,51.8916683],[0.9408557,51.8914557]]]}},
{"type":"Feature","properties":{"highway":"path","name":null,"category":"Shared path"},"geometry":{"type":"MultiLineString","coordinates":[[[0.9426519,51.8854181],[0.9425811,51.8854681],[0.9435742,51.8860149],[0.9438214,51.8861753],[0.9440043,51.8862806],[0.9441547,51.8863459],[0.9443411,51.8865513]]]}},
{"type":"Feature","properties":{"highway":"path","name":null,"category":"Shared path"},"geometry":{"type":"MultiLineString","coordinates":[[[0.9414718,51.8855858],[0.9415737,51.8855163],[0.9416328,51.8854938]]]}},
{"type":"Feature","properties":{"highway":"path","name":null,"category":"Shared path"},"geometry":{"type":"MultiLineString","coordinates":[[[0.9481776,51.888231],[0.9481967,51.8882154],[0.9487712,51.8879887]]]}},
{"type":"Feature","properties":{"highway":"path","name":null,"category":"Shared path"},"geometry":{"type":"MultiLineString","coordinates":[[[0.9479089,51.8883892],[0.9481243,51.888275]]]}},
{"type":"Feature","properties":{"highway":"path","name":null,"category":"Shared path"},"geometry":{"type":"MultiLineString","coordinates":[[[0.9481243,51.888275],[0.9481776,51.888231]]]}}
]
}
