{
"type": "FeatureCollection",
"name": "IPSWI_20",
"crs": { "type": "name", "properties": { "name": "urn:ogc:def:crs:OGC:1.3:CRS84" } },
"features": [
{ "type": "Feature", "properties": { "osm_id": 12100751329, "name": null, "amenity": null, "man_made": null, "leisure": "picnic_table", "playground": null, "memorial": null }, "geometry": { "type": "Point", "coordinates": [ 1.1187407, 52.0428161 ] } },
{ "type": "Feature", "properties": { "osm_id": 12100751330, "name": null, "amenity": "bench", "man_made": null, "leisure": null, "playground": null, "memorial": null }, "geometry": { "type": "Point", "coordinates": [ 1.1187085, 52.0428504 ] } },
{ "type": "Feature", "properties": { "osm_id": 12001316368, "name": null, "amenity": "bench", "man_made": null, "leisure": null, "playground": null, "memorial": null }, "geometry": { "type": "Point", "coordinates": [ 1.1189093, 52.0431811 ] } }
]
}
