{
"type": "FeatureCollection",
"name": "BASIL_25_walking",
"crs": { "type": "name", "properties": { "name": "urn:ogc:def:crs:OGC:1.3:CRS84" } },
"features": [
{"type":"Feature","properties":{"highway":"footway","name":null,"category":"Footpath (pedestrian only)"},"geometry":{"type":"MultiLineString","coordinates":[[[0.4368768,51.5860556],[0.4368924,51.5861448]]]}},
{"type":"Feature","properties":{"highway":"footway","name":null,"category":"Footpath (pedestrian only)"},"geometry":{"type":"MultiLineString","coordinates":[[[0.4331778,51.5868327],[0.4331431,51.5869473],[0.4331262,51.5870032]]]}},
{"type":"Feature","properties":{"highway":"footway","name":null,"category":"Footpath (pedestrian only)"},"geometry":{"type":"MultiLineString","coordinates":[[[0.4368768,51.5860556],[0.4382408,51.5860149],[0.438362,51.5860332],[0.4385332,51.5860913]]]}},
{"type":"Feature","properties":{"highway":"footway","name":null,"category":"Footpath (pedestrian only)"},"geometry":{"type":"MultiLineString","coordinates":[[[0.4402255,51.5883896],[0.4399304,51.5883829],[0.4394666,51.588343],[0.4391449,51.5883061]]]}},
{"type":"Feature","properties":{"highway":"footway","name":null,"category":"Footpath (pedestrian only)"},"geometry":{"type":"MultiLineString","coordinates":[[[0.4368768,51.5860556],[0.4363766,51.586076],[0.436143,51.5860888],[0.4360816,51.5861082],[0.4360468,51.5861707],[0.4360575,51.5862224],[0.4360562,51.5863032],[0.4360213,51.586324],[0.4358389,51.5864115],[0.4358121,51.5864682],[0.4358109,51.5865269]]]}},
{"type":"Feature","properties":{"highway":"footway","name":null,"category":"Footpath (pedestrian only)"},"geometry":{"type":"MultiLineString","coordinates":[[[0.4253838,51.5836994],[0.425652,51.5837362],[0.425652,51.5840285],[0.4253824,51.5840253]]]}},
{"type":"Feature","properties":{"highway":"footway","name":null,"category":"Footpath (pedestrian only)"},"geometry":{"type":"MultiLineString","coordinates":[[[0.4253259,51.5840366],[0.4253031,51.5840766],[0.4252943,51.5841609],[0.4253426,51.5842375],[0.4254585,51.5843336]]]}},
{"type":"Feature","properties":{"highway":"footway","name":null,"category":"Footpath (pedestrian only)"},"geometry":{"type":"MultiLineString","coordinates":[[[0.4257014,51.5839916],[0.4256819,51.5840367],[0.4253855,51.5840426],[0.4253824,51.5840253]]]}},
{"type":"Feature","properties":{"highway":"footway","name":null,"category":"Footpath (pedestrian only)"},"geometry":{"type":"MultiLineString","coordinates":[[[0.4253838,51.5836994],[0.4253983,51.5836799],[0.4256719,51.5837116],[0.4256778,51.5836867],[0.4253265,51.5836434],[0.424998,51.583564]]]}},
{"type":"Feature","properties":{"highway":"footway","name":null,"category":"Footpath (pedestrian only)"},"geometry":{"type":"MultiLineString","coordinates":[[[0.4391449,51.5883061],[0.4390329,51.588319]]]}},
{"type":"Feature","properties":{"highway":"footway","name":null,"category":"Footpath (pedestrian only)"},"geometry":{"type":"MultiLineString","coordinates":[[[0.4401368,51.5884423],[0.4401658,51.5884495],[0.4404578,51.5885173],[0.4405579,51.5885378],[0.4406317,51.5885509],[0.4407209,51.5885612],[0.4409007,51.5885767],[0.4410626,51.5885931],[0.4412812,51.5886025],[0.4413813,51.588603]]]}},
{"type":"Feature","properties":{"highway":"footway","name":null,"category":"Footpath (pedestrian only)"},"geometry":{"type":"MultiLineString","coordinates":[[[0.4399304,51.5883829],[0.4397812,51.5883214],[0.4396037,51.588293],[0.4394343,51.5882629],[0.4392164,51.5882361],[0.439168,51.5882495],[0.4390281,51.5882278],[0.4386435,51.5881676],[0.4384149,51.5881292],[0.4382083,51.5880838],[0.43809,51.5880475],[0.437958,51.5880211]]]}},
{"type":"Feature","properties":{"highway":"footway","name":null,"category":"Footpath (pedestrian only)"},"geometry":{"type":"MultiLineString","coordinates":[[[0.4305962,51.5863795],[0.4305761,51.5862699],[0.4305826,51.5861505],[0.43076,51.5861483]]]}},
{"type":"Feature","properties":{"highway":"footway","name":null,"category":"Footpath (pedestrian only)"},"geometry":{"type":"MultiLineString","coordinates":[[[0.4305826,51.5861505],[0.4305177,51.5860784],[0.4301322,51.5858787],[0.4301215,51.585873]]]}},
{"type":"Feature","properties":{"highway":"footway","name":null,"category":"Footpath (pedestrian only)"},"geometry":{"type":"MultiLineString","coordinates":[[[0.4324655,51.5861726],[0.4330921,51.5861533]]]}},
{"type":"Feature","properties":{"highway":"footway","name":null,"category":"Footpath (pedestrian only)"},"geometry":{"type":"MultiLineString","coordinates":[[[0.4259184,51.5873364],[0.4258499,51.5873131],[0.4257444,51.587285],[0.4252119,51.5868505],[0.4250567,51.5868377]]]}},
{"type":"Feature","properties":{"highway":"footway","name":null,"category":"Footpath (pedestrian only)"},"geometry":{"type":"MultiLineString","coordinates":[[[0.4257444,51.587285],[0.4254369,51.5872548],[0.4251499,51.5872465],[0.4248298,51.587208],[0.424651,51.5871865],[0.4241331,51.586837],[0.4240904,51.5868082],[0.4234735,51.5863466],[0.4234067,51.5862613],[0.4233707,51.5859144]]]}},
{"type":"Feature","properties":{"highway":"footway","name":null,"category":"Footpath (pedestrian only)"},"geometry":{"type":"MultiLineString","coordinates":[[[0.4259109,51.5876391],[0.4259146,51.5874414],[0.4259184,51.5873364],[0.4260274,51.5872274],[0.426432,51.5871398]]]}},
{"type":"Feature","properties":{"highway":"footway","name":null,"category":"Footpath (pedestrian only)"},"geometry":{"type":"MultiLineString","coordinates":[[[0.4265929,51.5870498],[0.4266975,51.5869982],[0.4268316,51.5869554],[0.4277194,51.5869343],[0.4280493,51.5869316]]]}},
{"type":"Feature","properties":{"highway":"footway","name":null,"category":"Footpath (pedestrian only)"},"geometry":{"type":"MultiLineString","coordinates":[[[0.426432,51.5871398],[0.4265929,51.5870498]]]}},
{"type":"Feature","properties":{"highway":"track","name":null,"category":"Track"},"geometry":{"type":"MultiLineString","coordinates":[[[0.4385266,51.5926748],[0.4382932,51.5925682],[0.4376981,51.5923561],[0.4367706,51.5921371],[0.4352735,51.5918844],[0.4346207,51.5917668],[0.4337764,51.5916148]]]}},
{"type":"Feature","properties":{"highway":"track","name":null,"category":"Track"},"geometry":{"type":"MultiLineString","coordinates":[[[0.4293879,51.5935105],[0.4295366,51.5935959],[0.429679,51.5936585],[0.4298079,51.5936932],[0.4298931,51.5937063],[0.4301353,51.5937711],[0.4304892,51.5939192],[0.4306998,51.5940302],[0.4308569,51.5940993],[0.4310975,51.5941908],[0.4313214,51.5942693],[0.4313722,51.5942955],[0.4313983,51.5943418],[0.4313687,51.5944638],[0.431471,51.5945239],[0.4315974,51.5944788]]]}},
{"type":"Feature","properties":{"highway":"footway","name":null,"category":"Footpath (pedestrian only)"},"geometry":{"type":"MultiLineString","coordinates":[[[0.43673,51.5898527],[0.4346207,51.5917668]]]}},
{"type":"Feature","properties":{"highway":"footway","name":null,"category":"Footpath (pedestrian only)"},"geometry":{"type":"MultiLineString","coordinates":[[[0.422078,51.5883332],[0.4220775,51.5883926],[0.421698,51.588393],[0.4214666,51.5885051],[0.421099,51.5912532],[0.4209009,51.591271]]]}},
{"type":"Feature","properties":{"highway":"footway","name":null,"category":"Footpath (pedestrian only)"},"geometry":{"type":"MultiLineString","coordinates":[[[0.43317,51.5866946],[0.4332133,51.5867293]]]}},
{"type":"Feature","properties":{"highway":"footway","name":null,"category":"Footpath (pedestrian only)"},"geometry":{"type":"MultiLineString","coordinates":[[[0.4316551,51.587911],[0.4319326,51.5875594],[0.4327819,51.5869594],[0.4332133,51.5867293]]]}},
{"type":"Feature","properties":{"highway":"footway","name":null,"category":"Footpath (pedestrian only)"},"geometry":{"type":"MultiLineString","coordinates":[[[0.4332133,51.5867293],[0.4336002,51.5865497],[0.4340501,51.5863835],[0.4346862,51.5862003],[0.4359737,51.5859594],[0.4368658,51.5859232],[0.4376492,51.5858051],[0.4380099,51.5857328],[0.4383201,51.5856581],[0.4384443,51.5855975],[0.4384716,51.5855354],[0.4385093,51.5853926],[0.438514,51.5852366]]]}},
{"type":"Feature","properties":{"highway":"footway","name":null,"category":"Footpath (pedestrian only)"},"geometry":{"type":"MultiLineString","coordinates":[[[0.4391238,51.5857933],[0.4389755,51.5857594],[0.4388941,51.5856943],[0.43877,51.5855208]]]}},
{"type":"Feature","properties":{"highway":"footway","name":null,"category":"Footpath (pedestrian only)"},"geometry":{"type":"MultiLineString","coordinates":[[[0.4316024,51.5865674],[0.4316829,51.5865272],[0.4317599,51.5864968],[0.4318291,51.5864373]]]}},
{"type":"Feature","properties":{"highway":"footway","name":null,"category":"Footpath (pedestrian only)"},"geometry":{"type":"MultiLineString","coordinates":[[[0.43076,51.5861483],[0.4307693,51.5861906],[0.4309066,51.5863186],[0.4310669,51.5863587],[0.4311251,51.5864104],[0.4312167,51.5864712],[0.43134,51.5865073],[0.4314062,51.5865157],[0.4315579,51.5865275],[0.4316829,51.5865272]]]}},
{"type":"Feature","properties":{"highway":"footway","name":null,"category":"Footpath (pedestrian only)"},"geometry":{"type":"MultiLineString","coordinates":[[[0.4299494,51.5864866],[0.4298615,51.5865036],[0.4297651,51.5865547]]]}},
{"type":"Feature","properties":{"highway":"footway","name":null,"category":"Footpath (pedestrian only)"},"geometry":{"type":"MultiLineString","coordinates":[[[0.4314581,51.58815],[0.4313242,51.588164],[0.4310903,51.5881698],[0.4309982,51.5881728]]]}},
{"type":"Feature","properties":{"highway":"track","name":null,"category":"Track"},"geometry":{"type":"MultiLineString","coordinates":[[[0.4280816,51.5882407],[0.4280752,51.5883007],[0.42799,51.588811]]]}},
{"type":"Feature","properties":{"highway":"track","name":null,"category":"Track"},"geometry":{"type":"MultiLineString","coordinates":[[[0.4294822,51.5881643],[0.4294589,51.5882614]]]}},
{"type":"Feature","properties":{"highway":"track","name":null,"category":"Track"},"geometry":{"type":"MultiLineString","coordinates":[[[0.4241749,51.5883385],[0.4241712,51.5884181]]]}},
{"type":"Feature","properties":{"highway":"path","name":null,"category":"Shared path"},"geometry":{"type":"MultiLineString","coordinates":[[[0.4247732,51.5924303],[0.4246926,51.5924001]]]}},
{"type":"Feature","properties":{"highway":"footway","name":null,"category":"Footpath (pedestrian only)"},"geometry":{"type":"MultiLineString","coordinates":[[[0.4246438,51.5923727],[0.4246926,51.5924001]]]}},
{"type":"Feature","properties":{"highway":"footway","name":null,"category":"Footpath (pedestrian only)"},"geometry":{"type":"MultiLineString","coordinates":[[[0.4207654,51.5913529],[0.4207563,51.5913622],[0.4208175,51.5913889],[0.421073,51.5915005],[0.4223479,51.5916855],[0.4228252,51.5918033],[0.4232187,51.5919004],[0.4233391,51.5919301],[0.4242096,51.5921176],[0.4245671,51.5922742],[0.4246157,51.592306],[0.4246345,51.592337],[0.4246438,51.5923727],[0.4246219,51.5924397],[0.424591,51.5926808],[0.4246671,51.5932113],[0.4247194,51.593563],[0.4247099,51.5937743]]]}},
{"type":"Feature","properties":{"highway":"footway","name":null,"category":"Footpath (pedestrian only)"},"geometry":{"type":"MultiLineString","coordinates":[[[0.4208335,51.5912835],[0.4207654,51.5913529]]]}},
{"type":"Feature","properties":{"highway":"path","name":null,"category":"Shared path"},"geometry":{"type":"MultiLineString","coordinates":[[[0.4276498,51.5923439],[0.4275331,51.5923694]]]}},
{"type":"Feature","properties":{"highway":"path","name":null,"category":"Shared path"},"geometry":{"type":"MultiLineString","coordinates":[[[0.4274328,51.5923939],[0.4273124,51.5924075],[0.4271974,51.5924291],[0.4268152,51.5925037],[0.4264211,51.5925396],[0.4261455,51.5925331],[0.4259558,51.5925027],[0.4251825,51.5923233],[0.4246728,51.5921613],[0.4241483,51.5919836],[0.4234564,51.5918078],[0.4232697,51.5917691]]]}},
{"type":"Feature","properties":{"highway":"path","name":null,"category":"Shared path"},"geometry":{"type":"MultiLineString","coordinates":[[[0.4275331,51.5923694],[0.4274328,51.5923939]]]}},
{"type":"Feature","properties":{"highway":"path","name":null,"category":"Shared path"},"geometry":{"type":"MultiLineString","coordinates":[[[0.4248163,51.5924469],[0.4248876,51.5924263],[0.4250876,51.5924457],[0.4259825,51.5926657],[0.4262136,51.5926942],[0.4266626,51.5926841],[0.4272582,51.5925957],[0.427473,51.592604],[0.4278212,51.5927421],[0.4280731,51.592882],[0.4281528,51.5929059],[0.4283559,51.5927344],[0.4281285,51.5926373],[0.4278767,51.5925035],[0.4277222,51.5924065],[0.4276498,51.5923439],[0.4276111,51.5922619],[0.4276423,51.5917064],[0.4277118,51.5909783],[0.4278107,51.5901056],[0.4279218,51.5891412],[0.42799,51.588811]]]}},
{"type":"Feature","properties":{"highway":"path","name":null,"category":"Shared path"},"geometry":{"type":"MultiLineString","coordinates":[[[0.4271974,51.5924291],[0.4272506,51.5923679],[0.427304,51.5922701],[0.4273189,51.5920543],[0.4274941,51.5901485],[0.4277376,51.5884547],[0.4277338,51.5883152]]]}},
{"type":"Feature","properties":{"highway":"path","name":null,"category":"Shared path"},"geometry":{"type":"MultiLineString","coordinates":[[[0.4283559,51.5927344],[0.4284324,51.5927445],[0.4285144,51.5927289],[0.4286098,51.5926873],[0.4286951,51.5926041],[0.4288307,51.5924326],[0.4290516,51.5921539]]]}},
{"type":"Feature","properties":{"highway":"footway","name":null,"category":"Footpath (pedestrian only)"},"geometry":{"type":"MultiLineString","coordinates":[[[0.4233707,51.5859144],[0.4234209,51.585877],[0.4238965,51.5858722]]]}},
{"type":"Feature","properties":{"highway":"footway","name":null,"category":"Footpath (pedestrian only)"},"geometry":{"type":"MultiLineString","coordinates":[[[0.4241331,51.586837],[0.4239557,51.5868702],[0.4237061,51.5869108]]]}},
{"type":"Feature","properties":{"highway":"footway","name":null,"category":"Footpath (pedestrian only)"},"geometry":{"type":"MultiLineString","coordinates":[[[0.4219392,51.5873723],[0.4221563,51.5873911],[0.4225263,51.5873911],[0.4226143,51.5873911],[0.4225897,51.5874907],[0.4224682,51.5877337]]]}},
{"type":"Feature","properties":{"highway":"footway","name":null,"category":"Footpath (pedestrian only)"},"geometry":{"type":"MultiLineString","coordinates":[[[0.4248298,51.587208],[0.4246913,51.5872785],[0.4242949,51.5873014],[0.4236047,51.5873512],[0.4231795,51.5873525],[0.4227811,51.5873614],[0.4226143,51.5873911]]]}},
{"type":"Feature","properties":{"highway":"footway","name":null,"category":"Footpath (pedestrian only)"},"geometry":{"type":"MultiLineString","coordinates":[[[0.4220684,51.5860383],[0.4227233,51.5860436]]]}},
{"type":"Feature","properties":{"highway":"footway","name":null,"category":"Footpath (pedestrian only)"},"geometry":{"type":"MultiLineString","coordinates":[[[0.4227233,51.5860436],[0.422805,51.5860531],[0.423033,51.5860072],[0.4232097,51.5859638],[0.4233707,51.5859144]]]}},
{"type":"Feature","properties":{"highway":"footway","name":null,"category":"Footpath (pedestrian only)"},"geometry":{"type":"MultiLineString","coordinates":[[[0.4224682,51.5877337],[0.4224743,51.5883342]]]}},
{"type":"Feature","properties":{"highway":"footway","name":null,"category":"Footpath (pedestrian only)"},"geometry":{"type":"MultiLineString","coordinates":[[[0.425913,51.5877595],[0.4264435,51.5877371]]]}},
{"type":"Feature","properties":{"highway":"footway","name":null,"category":"Footpath (pedestrian only)"},"geometry":{"type":"MultiLineString","coordinates":[[[0.4291926,51.5876839],[0.4291839,51.5875311]]]}},
{"type":"Feature","properties":{"highway":"footway","name":null,"category":"Footpath (pedestrian only)"},"geometry":{"type":"MultiLineString","coordinates":[[[0.4297187,51.5876156],[0.4295565,51.5877057]]]}},
{"type":"Feature","properties":{"highway":"footway","name":null,"category":"Footpath (pedestrian only)"},"geometry":{"type":"MultiLineString","coordinates":[[[0.4291704,51.5873564],[0.4290768,51.5874154]]]}},
{"type":"Feature","properties":{"highway":"footway","name":null,"category":"Footpath (pedestrian only)"},"geometry":{"type":"MultiLineString","coordinates":[[[0.4305919,51.5866479],[0.4306906,51.5866201],[0.4307841,51.5866033],[0.4308291,51.5865721],[0.43086,51.5865334]]]}},
{"type":"Feature","properties":{"highway":"footway","name":null,"category":"Footpath (pedestrian only)"},"geometry":{"type":"MultiLineString","coordinates":[[[0.4335703,51.5857556],[0.4330677,51.5857548]]]}},
{"type":"Feature","properties":{"highway":"footway","name":null,"category":"Footpath (pedestrian only)"},"geometry":{"type":"MultiLineString","coordinates":[[[0.4336588,51.5852899],[0.433601,51.5852976],[0.4335966,51.5857551]]]}},
{"type":"Feature","properties":{"highway":"footway","name":null,"category":"Footpath (pedestrian only)"},"geometry":{"type":"MultiLineString","coordinates":[[[0.4335127,51.5851753],[0.4334775,51.5852047],[0.4330224,51.5852137]]]}},
{"type":"Feature","properties":{"highway":"footway","name":null,"category":"Footpath (pedestrian only)"},"geometry":{"type":"MultiLineString","coordinates":[[[0.4358097,51.5855859],[0.4358112,51.5858662],[0.4359737,51.5859594]]]}},
{"type":"Feature","properties":{"highway":"footway","name":null,"category":"Footpath (pedestrian only)"},"geometry":{"type":"MultiLineString","coordinates":[[[0.4371883,51.5850598],[0.4371026,51.5850609],[0.4368466,51.5850663],[0.4366676,51.5850701]]]}},
{"type":"Feature","properties":{"highway":"footway","name":null,"category":"Footpath (pedestrian only)"},"geometry":{"type":"MultiLineString","coordinates":[[[0.438514,51.5852366],[0.4385121,51.5849447],[0.4385162,51.5847354],[0.4384669,51.5846869],[0.4384383,51.5846586]]]}},
{"type":"Feature","properties":{"highway":"footway","name":null,"category":"Footpath (pedestrian only)"},"geometry":{"type":"MultiLineString","coordinates":[[[0.4331431,51.5869473],[0.4333328,51.5868684],[0.4334138,51.5868492],[0.4335632,51.5868524],[0.4336984,51.5868574],[0.4339462,51.5868614]]]}},
{"type":"Feature","properties":{"highway":"footway","name":null,"category":"Footpath (pedestrian only)"},"geometry":{"type":"MultiLineString","coordinates":[[[0.4249327,51.5832776],[0.4249424,51.5832189]]]}},
{"type":"Feature","properties":{"highway":"footway","name":null,"category":"Footpath (pedestrian only)"},"geometry":{"type":"MultiLineString","coordinates":[[[0.4368139,51.588037],[0.4368003,51.5882042],[0.4368064,51.5883539],[0.4367843,51.5886296],[0.43673,51.5898527]]]}},
{"type":"Feature","properties":{"highway":"footway","name":null,"category":"Footpath (pedestrian only)"},"geometry":{"type":"MultiLineString","coordinates":[[[0.4137432,51.5898905],[0.4137052,51.5902813],[0.4136486,51.5907439],[0.4136047,51.5911678],[0.4135283,51.5916894],[0.413415,51.5922215],[0.4133272,51.5926612],[0.4132689,51.592862]]]}},
{"type":"Feature","properties":{"highway":"footway","name":null,"category":"Footpath (pedestrian only)"},"geometry":{"type":"MultiLineString","coordinates":[[[0.4141245,51.5881577],[0.4137477,51.5898494],[0.4137432,51.5898905]]]}},
{"type":"Feature","properties":{"highway":"footway","name":null,"category":"Footpath (pedestrian only)"},"geometry":{"type":"MultiLineString","coordinates":[[[0.4139408,51.5881528],[0.4139618,51.5880725],[0.4140694,51.5877347],[0.414119,51.5873952],[0.414504,51.5873943],[0.4145706,51.5870522],[0.4145762,51.5869123],[0.414269,51.5868323],[0.4144304,51.5860283],[0.4144184,51.5859112]]]}},
{"type":"Feature","properties":{"highway":"footway","name":null,"category":"Footpath (pedestrian only)"},"geometry":{"type":"MultiLineString","coordinates":[[[0.4209009,51.591271],[0.4208404,51.5912764],[0.4208335,51.5912835]]]}},
{"type":"Feature","properties":{"highway":"footway","name":null,"category":"Footpath (pedestrian only)"},"geometry":{"type":"MultiLineString","coordinates":[[[0.4247732,51.5924303],[0.4248163,51.5924469]]]}},
{"type":"Feature","properties":{"highway":"footway","name":null,"category":"Footpath (pedestrian only)"},"geometry":{"type":"MultiLineString","coordinates":[[[0.4291539,51.5866698],[0.4291012,51.5866321],[0.4290336,51.5865897]]]}},
{"type":"Feature","properties":{"highway":"footway","name":null,"category":"Footpath (pedestrian only)"},"geometry":{"type":"MultiLineString","coordinates":[[[0.4249236,51.5833433],[0.4249327,51.5832776]]]}},
{"type":"Feature","properties":{"highway":"path","name":null,"category":"Shared path"},"geometry":{"type":"MultiLineString","coordinates":[[[0.4249515,51.5834259],[0.4248217,51.5833769]]]}},
{"type":"Feature","properties":{"highway":"footway","name":null,"category":"Footpath (pedestrian only)"},"geometry":{"type":"MultiLineString","coordinates":[[[0.437958,51.5880211],[0.437911,51.5880135],[0.4377763,51.5879954]]]}},
{"type":"Feature","properties":{"highway":"footway","name":null,"category":"Footpath (pedestrian only)"},"geometry":{"type":"MultiLineString","coordinates":[[[0.4315891,51.5882678],[0.4316444,51.5881805],[0.4316668,51.5881526]]]}},
{"type":"Feature","properties":{"highway":"footway","name":null,"category":"Footpath (pedestrian only)"},"geometry":{"type":"MultiLineString","coordinates":[[[0.4316668,51.5881526],[0.4317523,51.5880519]]]}}
]
}
