{
"type": "FeatureCollection",
"name": "BASIL_141_walking",
"crs": { "type": "name", "properties": { "name": "urn:ogc:def:crs:OGC:1.3:CRS84" } },
"features": [
{"type":"Feature","properties":{"highway":"footway","name":null,"category":"Footpath (pedestrian only)"},"geometry":{"type":"MultiLineString","coordinates":[[[0.4183637,51.6269017],[0.4186736,51.6267794]]]}},
{"type":"Feature","properties":{"highway":"footway","name":null,"category":"Footpath (pedestrian only)"},"geometry":{"type":"MultiLineString","coordinates":[[[0.4182641,51.628861],[0.4181775,51.628715]]]}},
{"type":"Feature","properties":{"highway":"footway","name":null,"category":"Footpath (pedestrian only)"},"geometry":{"type":"MultiLineString","coordinates":[[[0.4166124,51.6272124],[0.416403,51.6275282],[0.416336,51.6276301]]]}},
{"type":"Feature","properties":{"highway":"footway","name":null,"category":"Footpath (pedestrian only)"},"geometry":{"type":"MultiLineString","coordinates":[[[0.4144357,51.6279165],[0.41442,51.6280374],[0.4143163,51.6281227],[0.414222,51.6281991],[0.4140354,51.628304],[0.4135748,51.6284768],[0.413425,51.6285227],[0.4132019,51.6286098],[0.4130957,51.6286304],[0.4129175,51.6286546],[0.4129005,51.6286546],[0.4128315,51.6286546],[0.412769,51.6286496]]]}},
{"type":"Feature","properties":{"highway":"footway","name":null,"category":"Footpath (pedestrian only)"},"geometry":{"type":"MultiLineString","coordinates":[[[0.4154834,51.6257375],[0.4155743,51.6256935],[0.4156238,51.6256696],[0.4163708,51.6253275]]]}},
{"type":"Feature","properties":{"highway":"footway","name":null,"category":"Footpath (pedestrian only)"},"geometry":{"type":"MultiLineString","coordinates":[[[0.4152255,51.6259567],[0.4152687,51.6259375],[0.4154446,51.6258759],[0.4154359,51.6258079],[0.4154834,51.6257375]]]}},
{"type":"Feature","properties":{"highway":"footway","name":"Footpath 7 Gooseberry Green","category":"Footpath (pedestrian only)"},"geometry":{"type":"MultiLineString","coordinates":[[[0.4127422,51.6268062],[0.4125933,51.6269932],[0.4123741,51.6272243],[0.4122602,51.6273779],[0.4122072,51.6275182],[0.412245,51.6276747],[0.4122762,51.6277891],[0.4123061,51.6279129],[0.4123314,51.6280346],[0.4123423,51.6281433],[0.4123601,51.6282079],[0.4120366,51.6282554],[0.411795,51.628289],[0.4116593,51.6283083]]]}},
{"type":"Feature","properties":{"highway":"footway","name":null,"category":"Footpath (pedestrian only)"},"geometry":{"type":"MultiLineString","coordinates":[[[0.4149086,51.6240103],[0.4148368,51.6240298],[0.4143817,51.624073],[0.4141939,51.624082],[0.4143132,51.6242683],[0.4143617,51.6243439]]]}},
{"type":"Feature","properties":{"highway":"footway","name":null,"category":"Footpath (pedestrian only)"},"geometry":{"type":"MultiLineString","coordinates":[[[0.4127972,51.6251723],[0.4129292,51.6252161],[0.4134781,51.6255875]]]}},
{"type":"Feature","properties":{"highway":"footway","name":null,"category":"Footpath (pedestrian only)"},"geometry":{"type":"MultiLineString","coordinates":[[[0.4097329,51.6259691],[0.4092046,51.6256642],[0.4085041,51.6256279]]]}},
{"type":"Feature","properties":{"highway":"footway","name":null,"category":"Footpath (pedestrian only)"},"geometry":{"type":"MultiLineString","coordinates":[[[0.4093322,51.6232242],[0.4091712,51.6230141],[0.4086545,51.6232776],[0.4081878,51.6233515],[0.4079135,51.6234697],[0.4078345,51.6235038]]]}},
{"type":"Feature","properties":{"highway":"footway","name":null,"category":"Footpath (pedestrian only)"},"geometry":{"type":"MultiLineString","coordinates":[[[0.4058429,51.6236361],[0.4058189,51.6237416],[0.4057727,51.6239564],[0.4057171,51.6242938]]]}},
{"type":"Feature","properties":{"highway":"footway","name":null,"category":"Footpath (pedestrian only)"},"geometry":{"type":"MultiLineString","coordinates":[[[0.4148928,51.6239149],[0.4149086,51.6240103]]]}},
{"type":"Feature","properties":{"highway":"footway","name":null,"category":"Footpath (pedestrian only)"},"geometry":{"type":"MultiLineString","coordinates":[[[0.4196344,51.6287072],[0.4197773,51.6287031]]]}},
{"type":"Feature","properties":{"highway":"footway","name":null,"category":"Footpath (pedestrian only)"},"geometry":{"type":"MultiLineString","coordinates":[[[0.4194398,51.6282108],[0.4193589,51.6283233]]]}},
{"type":"Feature","properties":{"highway":"footway","name":null,"category":"Footpath (pedestrian only)"},"geometry":{"type":"MultiLineString","coordinates":[[[0.4196344,51.6287072],[0.4196433,51.6287736]]]}},
{"type":"Feature","properties":{"highway":"footway","name":null,"category":"Footpath (pedestrian only)"},"geometry":{"type":"MultiLineString","coordinates":[[[0.4193589,51.6283233],[0.4196344,51.6287072]]]}},
{"type":"Feature","properties":{"highway":"footway","name":null,"category":"Footpath (pedestrian only)"},"geometry":{"type":"MultiLineString","coordinates":[[[0.4189219,51.6262082],[0.4190434,51.6261611],[0.4191553,51.6261177],[0.4192773,51.6260704]]]}},
{"type":"Feature","properties":{"highway":"footway","name":null,"category":"Footpath (pedestrian only)"},"geometry":{"type":"MultiLineString","coordinates":[[[0.4069871,51.6271182],[0.406634,51.6271804],[0.4063872,51.6272224],[0.4062168,51.6272559],[0.4061749,51.6272586],[0.406149,51.627173],[0.4061392,51.6271371],[0.4059757,51.6271547],[0.4059179,51.6271469],[0.4055885,51.6272381],[0.4053098,51.6273278],[0.4049601,51.6273798],[0.4047144,51.627446],[0.4042136,51.6275405],[0.403708,51.6276397],[0.4032214,51.6277484],[0.4027631,51.6278287],[0.4023284,51.6279342],[0.4015204,51.6280744],[0.401048,51.62815],[0.4007314,51.628235],[0.4005613,51.6282586],[0.4004762,51.6283295],[0.4003966,51.6283944],[0.4002501,51.6287017],[0.3998783,51.6289477],[0.3995296,51.6291847],[0.3994678,51.6291953],[0.3993666,51.6292242]]]}},
{"type":"Feature","properties":{"highway":"footway","name":null,"category":"Footpath (pedestrian only)"},"geometry":{"type":"MultiLineString","coordinates":[[[0.4245493,51.6239394],[0.4249986,51.624031],[0.4250718,51.6241489]]]}},
{"type":"Feature","properties":{"highway":"path","name":null,"category":"Shared path"},"geometry":{"type":"MultiLineString","coordinates":[[[0.4199157,51.6190881],[0.4201673,51.6191104]]]}},
{"type":"Feature","properties":{"highway":"footway","name":null,"category":"Footpath (pedestrian only)"},"geometry":{"type":"MultiLineString","coordinates":[[[0.4141723,51.619934],[0.4139548,51.6203422],[0.414555,51.6204802],[0.4150759,51.620623],[0.4156137,51.6207346],[0.415874,51.6207887],[0.4161647,51.6207976]]]}},
{"type":"Feature","properties":{"highway":"footway","name":null,"category":"Footpath (pedestrian only)"},"geometry":{"type":"MultiLineString","coordinates":[[[0.4184773,51.6286991],[0.4184496,51.6286489]]]}},
{"type":"Feature","properties":{"highway":"footway","name":null,"category":"Footpath (pedestrian only)"},"geometry":{"type":"MultiLineString","coordinates":[[[0.4298758,51.6210664],[0.4298123,51.6210401],[0.4297795,51.6210485],[0.4295331,51.6210623],[0.4293618,51.6210623],[0.4290444,51.6210433],[0.4288662,51.6210381],[0.4285697,51.6210061],[0.4282731,51.6209897],[0.4281732,51.6209899],[0.4278387,51.6209905],[0.4276995,51.620981],[0.4275004,51.6209741],[0.4272916,51.6209586],[0.4271343,51.6209309],[0.4270145,51.6208929],[0.4268781,51.6208237],[0.4267528,51.6207606],[0.426576,51.620726],[0.4263101,51.6206759],[0.4262238,51.6206457],[0.4260929,51.6206145],[0.4259662,51.6205938],[0.4258816,51.6205667],[0.4258117,51.6205471],[0.4257128,51.6205091],[0.4255458,51.6204641],[0.4253606,51.620427],[0.4251893,51.6203587],[0.4249791,51.6202826],[0.4248399,51.6202342],[0.4246826,51.6201979],[0.4245197,51.6201835],[0.4243165,51.6201466],[0.4240653,51.6200739],[0.4239259,51.6200322],[0.4232355,51.6197045],[0.4231449,51.6196646],[0.4229404,51.6195746],[0.4226883,51.6194713],[0.4223718,51.6193215],[0.4222592,51.6192049],[0.4221841,51.6191816],[0.4219676,51.6190177]]]}},
{"type":"Feature","properties":{"highway":"footway","name":null,"category":"Footpath (pedestrian only)"},"geometry":{"type":"MultiLineString","coordinates":[[[0.4298123,51.6210401],[0.429705,51.6209601],[0.429528,51.6208369],[0.4293402,51.6207403],[0.4291095,51.6206004],[0.4290422,51.6205377],[0.429013,51.6205105],[0.4288628,51.6204239],[0.4285624,51.620304],[0.4282727,51.6201608],[0.4280796,51.6200709],[0.4279133,51.6200242],[0.4278282,51.6200317],[0.4275914,51.6200742],[0.4273186,51.6199951],[0.427114,51.6199676],[0.4270376,51.6199598],[0.4267867,51.6199343],[0.426481,51.6198877],[0.426202,51.6198577],[0.4257353,51.619861],[0.4252632,51.6198977],[0.4250701,51.619941],[0.424818,51.6200042],[0.424641,51.6200242],[0.4244532,51.6200842],[0.4243191,51.6200609],[0.4240992,51.6200242],[0.4239704,51.6199942],[0.4235574,51.6198144],[0.4234992,51.6197553],[0.4232355,51.6197045]]]}},
{"type":"Feature","properties":{"highway":"footway","name":null,"category":"Footpath (pedestrian only)"},"geometry":{"type":"MultiLineString","coordinates":[[[0.4020256,51.6230866],[0.4022515,51.6234571],[0.4023334,51.6235915],[0.4023564,51.6235867],[0.4032878,51.6233898]]]}},
{"type":"Feature","properties":{"highway":"footway","name":null,"category":"Footpath (pedestrian only)"},"geometry":{"type":"MultiLineString","coordinates":[[[0.4054158,51.6218116],[0.4054208,51.6218528],[0.4054005,51.6218731],[0.4053552,51.6219338],[0.4053031,51.6219937],[0.4052076,51.6220122],[0.4050479,51.6219948],[0.4047183,51.6219471],[0.4046939,51.6219408],[0.4045957,51.6219169],[0.4045917,51.6218566],[0.4045878,51.6217991],[0.4045825,51.6217197]]]}},
{"type":"Feature","properties":{"highway":"footway","name":null,"category":"Footpath (pedestrian only)"},"geometry":{"type":"MultiLineString","coordinates":[[[0.4018705,51.6237053],[0.4020988,51.623654]]]}},
{"type":"Feature","properties":{"highway":"footway","name":null,"category":"Footpath (pedestrian only)"},"geometry":{"type":"MultiLineString","coordinates":[[[0.4022515,51.6234571],[0.4020172,51.6235037],[0.4020988,51.623654],[0.4021753,51.6237947],[0.4023758,51.6237527],[0.4023503,51.6237159],[0.4024126,51.6237018],[0.4023564,51.6235867]]]}},
{"type":"Feature","properties":{"highway":"footway","name":null,"category":"Footpath (pedestrian only)"},"geometry":{"type":"MultiLineString","coordinates":[[[0.4161645,51.6208961],[0.4158708,51.6208423],[0.4157372,51.6208163],[0.4144999,51.6205609],[0.4142944,51.6205184]]]}},
{"type":"Feature","properties":{"highway":"footway","name":null,"category":"Footpath (pedestrian only)"},"geometry":{"type":"MultiLineString","coordinates":[[[0.4144999,51.6205609],[0.4145376,51.6205112],[0.414555,51.6204802]]]}},
{"type":"Feature","properties":{"highway":"footway","name":null,"category":"Footpath (pedestrian only)"},"geometry":{"type":"MultiLineString","coordinates":[[[0.4138154,51.6209987],[0.4139045,51.6210135],[0.4139248,51.6209731],[0.414189,51.621011],[0.4142656,51.6208651],[0.4142782,51.6208411],[0.4143909,51.6208527],[0.4144204,51.6207737],[0.4144999,51.6205609]]]}},
{"type":"Feature","properties":{"highway":"footway","name":null,"category":"Footpath (pedestrian only)"},"geometry":{"type":"MultiLineString","coordinates":[[[0.4144878,51.6207789],[0.4144204,51.6207737]]]}},
{"type":"Feature","properties":{"highway":"footway","name":null,"category":"Footpath (pedestrian only)"},"geometry":{"type":"MultiLineString","coordinates":[[[0.4136561,51.6208828],[0.4141173,51.6209726],[0.4141736,51.6208461],[0.4142656,51.6208651]]]}},
{"type":"Feature","properties":{"highway":"footway","name":null,"category":"Footpath (pedestrian only)"},"geometry":{"type":"MultiLineString","coordinates":[[[0.4196589,51.6189142],[0.4196995,51.6189146],[0.4197581,51.6189152]]]}},
{"type":"Feature","properties":{"highway":"footway","name":null,"category":"Footpath (pedestrian only)"},"geometry":{"type":"MultiLineString","coordinates":[[[0.4175994,51.619039],[0.417716,51.6189031],[0.4181029,51.6184521]]]}},
{"type":"Feature","properties":{"highway":"track","name":null,"category":"Track"},"geometry":{"type":"MultiLineString","coordinates":[[[0.4128948,51.6223304],[0.4128475,51.6222641],[0.4128452,51.6222253],[0.4128438,51.6222008],[0.4128444,51.6221507],[0.4128653,51.6220831],[0.4129654,51.6219743],[0.4131531,51.6218955],[0.4134911,51.6218078],[0.4138327,51.6217667],[0.4143315,51.6217201]]]}},
{"type":"Feature","properties":{"highway":"footway","name":"The Walk","category":"Footpath (pedestrian only)"},"geometry":{"type":"MultiLineString","coordinates":[[[0.4174489,51.6234006],[0.4174049,51.6233768],[0.4168656,51.6233285],[0.4169096,51.6231417],[0.4166198,51.6231102]]]}},
{"type":"Feature","properties":{"highway":"footway","name":null,"category":"Footpath (pedestrian only)"},"geometry":{"type":"MultiLineString","coordinates":[[[0.4054397,51.6239327],[0.4051948,51.6240272],[0.4047877,51.6242205],[0.4043191,51.6245129],[0.4038038,51.6247678],[0.4036793,51.6248007]]]}},
{"type":"Feature","properties":{"highway":"footway","name":null,"category":"Footpath (pedestrian only)"},"geometry":{"type":"MultiLineString","coordinates":[[[0.4051948,51.6240272],[0.4055834,51.6243497],[0.4058422,51.6245184]]]}},
{"type":"Feature","properties":{"highway":"footway","name":null,"category":"Footpath (pedestrian only)"},"geometry":{"type":"MultiLineString","coordinates":[[[0.4054397,51.6239327],[0.4056305,51.623801],[0.4058189,51.6237416]]]}},
{"type":"Feature","properties":{"highway":"footway","name":null,"category":"Footpath (pedestrian only)"},"geometry":{"type":"MultiLineString","coordinates":[[[0.4201673,51.6191104],[0.4203284,51.6195586],[0.4202452,51.6195672],[0.4201682,51.6195614],[0.4201112,51.6195481],[0.4200696,51.6195299],[0.4199524,51.6195778],[0.4198139,51.6195802],[0.4197884,51.619656],[0.4197342,51.6196558],[0.4196234,51.6196292]]]}},
{"type":"Feature","properties":{"highway":"footway","name":null,"category":"Footpath (pedestrian only)"},"geometry":{"type":"MultiLineString","coordinates":[[[0.4197342,51.6196558],[0.4199157,51.6190881]]]}},
{"type":"Feature","properties":{"highway":"footway","name":null,"category":"Footpath (pedestrian only)"},"geometry":{"type":"MultiLineString","coordinates":[[[0.4199137,51.6190177],[0.4199162,51.6189161]]]}},
{"type":"Feature","properties":{"highway":"footway","name":null,"category":"Footpath (pedestrian only)"},"geometry":{"type":"MultiLineString","coordinates":[[[0.4198313,51.6189161],[0.4199162,51.6189161]]]}},
{"type":"Feature","properties":{"highway":"path","name":"Fairfield Rise","category":"Shared path"},"geometry":{"type":"MultiLineString","coordinates":[[[0.4115922,51.6190736],[0.4115805,51.6191128],[0.4115604,51.6191595]]]}},
{"type":"Feature","properties":{"highway":"footway","name":null,"category":"Footpath (pedestrian only)"},"geometry":{"type":"MultiLineString","coordinates":[[[0.4087969,51.6143786],[0.4090451,51.6146178],[0.4093616,51.6149076],[0.4099517,51.6152007],[0.4111909,51.6156237],[0.411663,51.6158469],[0.4121404,51.6161467],[0.412275,51.6162461],[0.4131865,51.6169194],[0.4136503,51.6170968],[0.4139609,51.6171939],[0.4141253,51.6172925],[0.4142799,51.6174228],[0.4143282,51.6174598],[0.4144134,51.6174923],[0.4147066,51.617694],[0.4149663,51.6178929],[0.4156005,51.6181185],[0.4163849,51.618187],[0.4164394,51.6181918],[0.4165276,51.6182048]]]}},
{"type":"Feature","properties":{"highway":"footway","name":null,"category":"Footpath (pedestrian only)"},"geometry":{"type":"MultiLineString","coordinates":[[[0.4138385,51.6176147],[0.4138734,51.6176249],[0.4142237,51.6174597],[0.4142478,51.6174439],[0.4142799,51.6174228]]]}},
{"type":"Feature","properties":{"highway":"footway","name":null,"category":"Footpath (pedestrian only)"},"geometry":{"type":"MultiLineString","coordinates":[[[0.4212222,51.6160057],[0.4207587,51.6160482],[0.420819,51.6162369],[0.4208816,51.6165783],[0.4209039,51.6167504],[0.4208874,51.6170089],[0.4208503,51.6170558],[0.4208458,51.6172487],[0.4208034,51.6173847],[0.4207207,51.6176997],[0.4206871,51.6179551],[0.4207877,51.6180828],[0.420781,51.6181674],[0.4208905,51.6182604],[0.4210468,51.6182701],[0.4210802,51.6182721],[0.4213546,51.6182874]]]}},
{"type":"Feature","properties":{"highway":"footway","name":null,"category":"Footpath (pedestrian only)"},"geometry":{"type":"MultiLineString","coordinates":[[[0.4208905,51.6182604],[0.4207654,51.6183298],[0.4206849,51.6185283],[0.4205664,51.6186157],[0.4204949,51.6187031],[0.420334,51.6187753]]]}},
{"type":"Feature","properties":{"highway":"footway","name":null,"category":"Footpath (pedestrian only)"},"geometry":{"type":"MultiLineString","coordinates":[[[0.3853365,51.6234435],[0.3857679,51.6233363],[0.3910269,51.6231598],[0.391438,51.6231541],[0.3939488,51.6230765],[0.3975368,51.6229479],[0.3979923,51.6229411],[0.3980785,51.6224161],[0.3999355,51.6223598],[0.4001702,51.6223395],[0.4005635,51.6223205],[0.4011219,51.6223096],[0.4015862,51.6225289],[0.4017468,51.6225296],[0.4022096,51.6225008],[0.4025461,51.6224993],[0.4030879,51.6224918],[0.4035554,51.6224338],[0.4040041,51.6223828],[0.4041937,51.6223434],[0.4043055,51.6222796],[0.4043177,51.6222599],[0.4042513,51.6220104],[0.4042099,51.6218516],[0.4040973,51.6212441]]]}},
{"type":"Feature","properties":{"highway":"footway","name":null,"category":"Footpath (pedestrian only)"},"geometry":{"type":"MultiLineString","coordinates":[[[0.4201673,51.6191104],[0.4202921,51.6188812],[0.420334,51.6187753]]]}},
{"type":"Feature","properties":{"highway":"footway","name":null,"category":"Footpath (pedestrian only)"},"geometry":{"type":"MultiLineString","coordinates":[[[0.4213546,51.6182874],[0.42148,51.6182497]]]}},
{"type":"Feature","properties":{"highway":"footway","name":"The Walk","category":"Footpath (pedestrian only)"},"geometry":{"type":"MultiLineString","coordinates":[[[0.4166198,51.6231102],[0.4163679,51.6231043]]]}},
{"type":"Feature","properties":{"highway":"footway","name":"The Walk","category":"Footpath (pedestrian only)"},"geometry":{"type":"MultiLineString","coordinates":[[[0.4163679,51.6231043],[0.4162298,51.6231011]]]}},
{"type":"Feature","properties":{"highway":"footway","name":null,"category":"Footpath (pedestrian only)"},"geometry":{"type":"MultiLineString","coordinates":[[[0.4179034,51.6239008],[0.4180435,51.6239095]]]}},
{"type":"Feature","properties":{"highway":"footway","name":null,"category":"Footpath (pedestrian only)"},"geometry":{"type":"MultiLineString","coordinates":[[[0.4199645,51.6245015],[0.419956,51.6246876],[0.419949,51.6247946],[0.4199459,51.6248424]]]}},
{"type":"Feature","properties":{"highway":"footway","name":null,"category":"Footpath (pedestrian only)"},"geometry":{"type":"MultiLineString","coordinates":[[[0.420242,51.6247143],[0.420177,51.6247082],[0.419956,51.6246876]]]}},
{"type":"Feature","properties":{"highway":"footway","name":"Middle Cloister","category":"Footpath (pedestrian only)"},"geometry":{"type":"MultiLineString","coordinates":[[[0.421932,51.6266318],[0.4218851,51.6263333],[0.4218797,51.6260116]]]}},
{"type":"Feature","properties":{"highway":"footway","name":null,"category":"Footpath (pedestrian only)"},"geometry":{"type":"MultiLineString","coordinates":[[[0.4234455,51.6254801],[0.4234975,51.6259983]]]}},
{"type":"Feature","properties":{"highway":"footway","name":null,"category":"Footpath (pedestrian only)"},"geometry":{"type":"MultiLineString","coordinates":[[[0.4241239,51.6254348],[0.4243731,51.6259326]]]}},
{"type":"Feature","properties":{"highway":"footway","name":"Pilgrims Walk","category":"Footpath (pedestrian only)"},"geometry":{"type":"MultiLineString","coordinates":[[[0.4238509,51.6259783],[0.4237921,51.6256218],[0.4238622,51.625615],[0.4239204,51.6256113],[0.4240335,51.6259679]]]}},
{"type":"Feature","properties":{"highway":"footway","name":null,"category":"Footpath (pedestrian only)"},"geometry":{"type":"MultiLineString","coordinates":[[[0.423849,51.6254546],[0.4238622,51.625615]]]}},
{"type":"Feature","properties":{"highway":"footway","name":null,"category":"Footpath (pedestrian only)"},"geometry":{"type":"MultiLineString","coordinates":[[[0.4229657,51.6254904],[0.4229653,51.6255677],[0.4229841,51.6260004],[0.4229505,51.6260288],[0.4229914,51.626229],[0.4232413,51.6261761],[0.4232303,51.6260873],[0.4235402,51.6260638],[0.4240428,51.6260257],[0.4247032,51.6259757],[0.4246772,51.6259004]]]}},
{"type":"Feature","properties":{"highway":"footway","name":null,"category":"Footpath (pedestrian only)"},"geometry":{"type":"MultiLineString","coordinates":[[[0.4232303,51.6260873],[0.423252,51.6260047]]]}},
{"type":"Feature","properties":{"highway":"footway","name":null,"category":"Footpath (pedestrian only)"},"geometry":{"type":"MultiLineString","coordinates":[[[0.4234975,51.6259983],[0.4235402,51.6260638]]]}},
{"type":"Feature","properties":{"highway":"footway","name":null,"category":"Footpath (pedestrian only)"},"geometry":{"type":"MultiLineString","coordinates":[[[0.4275945,51.6223208],[0.4271474,51.6224029],[0.4270301,51.6224149],[0.4269205,51.6224215],[0.4248237,51.6225485],[0.4236383,51.6224948],[0.4232369,51.6224416],[0.4225901,51.6222933],[0.420977,51.6221218],[0.4206421,51.6220862]]]}},
{"type":"Feature","properties":{"highway":"footway","name":null,"category":"Footpath (pedestrian only)"},"geometry":{"type":"MultiLineString","coordinates":[[[0.4178892,51.6219939],[0.4178791,51.6221718]]]}},
{"type":"Feature","properties":{"highway":"footway","name":null,"category":"Footpath (pedestrian only)"},"geometry":{"type":"MultiLineString","coordinates":[[[0.4150001,51.6194079],[0.4150629,51.6194172],[0.4151457,51.6195284],[0.4151833,51.6196282],[0.4151897,51.6196983]]]}},
{"type":"Feature","properties":{"highway":"footway","name":null,"category":"Footpath (pedestrian only)"},"geometry":{"type":"MultiLineString","coordinates":[[[0.4035554,51.6224338],[0.4039076,51.6225021],[0.4041594,51.6225202],[0.4042746,51.6225322],[0.4043569,51.6225329],[0.4044677,51.6225166],[0.4045486,51.6225042],[0.4046691,51.6224733]]]}},
{"type":"Feature","properties":{"highway":"footway","name":null,"category":"Footpath (pedestrian only)"},"geometry":{"type":"MultiLineString","coordinates":[[[0.4146602,51.6187894],[0.4147339,51.6186201],[0.4147362,51.618591],[0.4146825,51.6185577],[0.4146535,51.6185119],[0.4146847,51.618448],[0.4147049,51.6183898],[0.4147134,51.6182965]]]}},
{"type":"Feature","properties":{"highway":"footway","name":null,"category":"Footpath (pedestrian only)"},"geometry":{"type":"MultiLineString","coordinates":[[[0.4149663,51.6178929],[0.4149485,51.6179554],[0.4148967,51.6180458],[0.4148062,51.6181138],[0.4147381,51.6181981],[0.4147134,51.6182965]]]}},
{"type":"Feature","properties":{"highway":"footway","name":null,"category":"Footpath (pedestrian only)"},"geometry":{"type":"MultiLineString","coordinates":[[[0.4206421,51.6220862],[0.4200052,51.621996],[0.4198497,51.6219506],[0.4191307,51.6219462],[0.4186554,51.6220793],[0.4184396,51.6220347],[0.4183842,51.6220253]]]}},
{"type":"Feature","properties":{"highway":"footway","name":null,"category":"Footpath (pedestrian only)"},"geometry":{"type":"MultiLineString","coordinates":[[[0.4247948,51.6232018],[0.4247979,51.6231533],[0.4248237,51.6225485]]]}},
{"type":"Feature","properties":{"highway":"footway","name":null,"category":"Footpath (pedestrian only)"},"geometry":{"type":"MultiLineString","coordinates":[[[0.4200052,51.621996],[0.4192995,51.620748],[0.4192392,51.6206413]]]}},
{"type":"Feature","properties":{"highway":"footway","name":null,"category":"Footpath (pedestrian only)"},"geometry":{"type":"MultiLineString","coordinates":[[[0.4292847,51.6178632],[0.4292244,51.6180041],[0.4291789,51.6180954],[0.4293565,51.618371],[0.4284962,51.6194605],[0.4281821,51.6197106],[0.4278407,51.619859],[0.4275607,51.6198971],[0.4274378,51.6198887],[0.4270376,51.6199598]]]}},
{"type":"Feature","properties":{"highway":"footway","name":null,"category":"Footpath (pedestrian only)"},"geometry":{"type":"MultiLineString","coordinates":[[[0.41842,51.6234484],[0.4182952,51.6234496],[0.4179571,51.6234451],[0.4178265,51.6234254]]]}},
{"type":"Feature","properties":{"highway":"footway","name":null,"category":"Footpath (pedestrian only)"},"geometry":{"type":"MultiLineString","coordinates":[[[0.4191553,51.6261177],[0.4193045,51.6261159],[0.4195053,51.6261134],[0.4197537,51.6261164],[0.4199737,51.6261229],[0.4200406,51.6261249],[0.4201458,51.626129]]]}},
{"type":"Feature","properties":{"highway":"footway","name":null,"category":"Footpath (pedestrian only)"},"geometry":{"type":"MultiLineString","coordinates":[[[0.4178892,51.6219939],[0.4178383,51.6220345],[0.4176012,51.6220733],[0.4169118,51.6220614]]]}},
{"type":"Feature","properties":{"highway":"footway","name":null,"category":"Footpath (pedestrian only)"},"geometry":{"type":"MultiLineString","coordinates":[[[0.4239414,51.6232638],[0.4239416,51.6232449],[0.4239102,51.6231863],[0.4238774,51.6231333],[0.4238282,51.6230753],[0.4237904,51.6230147],[0.4236494,51.6228085],[0.4235128,51.6226697],[0.4233067,51.6225263],[0.4232369,51.6224416]]]}},
{"type":"Feature","properties":{"highway":"footway","name":null,"category":"Footpath (pedestrian only)"},"geometry":{"type":"MultiLineString","coordinates":[[[0.4252977,51.6252185],[0.4253551,51.6252405],[0.4254481,51.6252221],[0.425519,51.625208],[0.4256288,51.6251866],[0.4257943,51.6251815],[0.4258646,51.6251535]]]}},
{"type":"Feature","properties":{"highway":"footway","name":null,"category":"Footpath (pedestrian only)"},"geometry":{"type":"MultiLineString","coordinates":[[[0.4254481,51.6252221],[0.4257787,51.6253275],[0.4258795,51.62521],[0.4259126,51.6251703]]]}},
{"type":"Feature","properties":{"highway":"footway","name":null,"category":"Footpath (pedestrian only)"},"geometry":{"type":"MultiLineString","coordinates":[[[0.4238282,51.6230753],[0.4234833,51.6229656],[0.4230756,51.6228593],[0.4227903,51.622834],[0.4223987,51.6227943],[0.42217,51.6227486],[0.4220326,51.622539],[0.4218126,51.6224125],[0.4214854,51.6223642],[0.4212199,51.6222543],[0.420977,51.6221218]]]}},
{"type":"Feature","properties":{"highway":"footway","name":null,"category":"Footpath (pedestrian only)"},"geometry":{"type":"MultiLineString","coordinates":[[[0.4269205,51.6224215],[0.4268095,51.6223321],[0.4267031,51.6222016],[0.4265419,51.6220861],[0.4263706,51.6219853]]]}},
{"type":"Feature","properties":{"highway":"footway","name":null,"category":"Footpath (pedestrian only)"},"geometry":{"type":"MultiLineString","coordinates":[[[0.4259453,51.6214331],[0.4258813,51.6212723],[0.4258256,51.6211064],[0.425781,51.620994],[0.4257574,51.6208367],[0.4257435,51.620726],[0.4256349,51.6206128],[0.4254859,51.6205022],[0.4253606,51.620427]]]}},
{"type":"Feature","properties":{"highway":"footway","name":null,"category":"Footpath (pedestrian only)"},"geometry":{"type":"MultiLineString","coordinates":[[[0.4257435,51.620726],[0.4258353,51.6206197],[0.4258816,51.6205667],[0.4259161,51.6205272],[0.4259941,51.6204131],[0.4260289,51.6203682],[0.4261319,51.6202861],[0.42616,51.6202438],[0.4262321,51.6202109],[0.426402,51.6202143],[0.4265649,51.6202705],[0.426718,51.6203353],[0.4269463,51.620401],[0.4271691,51.6204728],[0.4276174,51.6206457],[0.4277803,51.6206923],[0.4280169,51.6206768],[0.428262,51.6206258],[0.428404,51.6205964],[0.4285836,51.6205687],[0.4287284,51.620573],[0.428862,51.6205627],[0.4289873,51.6205428],[0.4290422,51.6205377]]]}},
{"type":"Feature","properties":{"highway":"footway","name":null,"category":"Footpath (pedestrian only)"},"geometry":{"type":"MultiLineString","coordinates":[[[0.4248237,51.6225485],[0.4248606,51.6224549],[0.4249612,51.6223067],[0.4250792,51.6221469],[0.4251812,51.6220486],[0.4252576,51.6219804],[0.4253421,51.6219013],[0.4254802,51.6217805],[0.4256653,51.6216698],[0.4258598,51.6215466],[0.4259008,51.6214922],[0.4259453,51.6214331],[0.4260207,51.6215849],[0.4261213,51.6217497],[0.4263023,51.6219287],[0.4263706,51.6219853]]]}},
{"type":"Feature","properties":{"highway":"footway","name":null,"category":"Footpath (pedestrian only)"},"geometry":{"type":"MultiLineString","coordinates":[[[0.4259008,51.6214922],[0.4255898,51.621415],[0.425099,51.6212768],[0.4246537,51.6211736],[0.4241441,51.621097],[0.4237766,51.621032]]]}},
{"type":"Feature","properties":{"highway":"footway","name":null,"category":"Footpath (pedestrian only)"},"geometry":{"type":"MultiLineString","coordinates":[[[0.4221841,51.6191816],[0.4220231,51.6192981],[0.4219051,51.6193714],[0.4216055,51.6194955],[0.4212997,51.6195521],[0.4210683,51.6196179],[0.4209342,51.6196379],[0.4208223,51.6196387],[0.4206659,51.6196945],[0.4204728,51.6197678],[0.4202912,51.6198252],[0.4201628,51.6198619],[0.4200544,51.6198977]]]}},
{"type":"Feature","properties":{"highway":"footway","name":null,"category":"Footpath (pedestrian only)"},"geometry":{"type":"MultiLineString","coordinates":[[[0.423853,51.6178862],[0.4233797,51.6176316]]]}}
]
}
