{
"type": "FeatureCollection",
"name": "17273c664dc4_visibility",
"crs": { "type": "name", "properties": { "name": "urn:ogc:def:crs:OGC:1.3:CRS84" } },
"features": [
{ "type": "Feature", "properties": { "visible_points": 1, "total_points": 64, "visibility_pct": 1.5625 }, "geometry": { "type": "Point", "coordinates": [ 0.346319985315426, 51.635122113045036 ] } },
{ "type": "Feature", "properties": { "visible_points": 0, "total_points": 64, "visibility_pct": 0.0 }, "geometry": { "type": "Point", "coordinates": [ 0.346520027500311, 51.635118112990583 ] } },
{ "type": "Feature", "properties": { "visible_points": 0, "total_points": 63, "visibility_pct": 0.0 }, "geometry": { "type": "Point", "coordinates": [ 0.346720069638998, 51.635114112595573 ] } },
{ "type": "Feature", "properties": { "visible_points": 2, "total_points": 76, "visibility_pct": 2.6315789473684208 }, "geometry": { "type": "Point", "coordinates": [ 0.346225528331609, 51.635231918695105 ] } },
{ "type": "Feature", "properties": { "visible_points": 28, "total_points": 76, "visibility_pct": 36.84210526315789 }, "geometry": { "type": "Point", "coordinates": [ 0.346425571012145, 51.635227918794939 ] } },
{ "type": "Feature", "properties": { "visible_points": 32, "total_points": 75, "visibility_pct": 42.666666666666671 }, "geometry": { "type": "Point", "coordinates": [ 0.346625613646478, 51.635223918554246 ] } },
{ "type": "Feature", "properties": { "visible_points": 0, "total_points": 73, "visibility_pct": 0.0 }, "geometry": { "type": "Point", "coordinates": [ 0.346825656234627, 51.635219917972975 ] } },
{ "type": "Feature", "properties": { "visible_points": 0, "total_points": 87, "visibility_pct": 0.0 }, "geometry": { "type": "Point", "coordinates": [ 0.346131070898346, 51.635341724273545 ] } },
{ "type": "Feature", "properties": { "visible_points": 37, "total_points": 87, "visibility_pct": 42.528735632183903 }, "geometry": { "type": "Point", "coordinates": [ 0.346331114074527, 51.635337724527702 ] } },
{ "type": "Feature", "properties": { "visible_points": 38, "total_points": 87, "visibility_pct": 43.678160919540232 }, "geometry": { "type": "Point", "coordinates": [ 0.34653115720452, 51.635333724441288 ] } },
{ "type": "Feature", "properties": { "visible_points": 35, "total_points": 85, "visibility_pct": 41.17647058823529 }, "geometry": { "type": "Point", "coordinates": [ 0.346731200288319, 51.635329724014348 ] } },
{ "type": "Feature", "properties": { "visible_points": 0, "total_points": 82, "visibility_pct": 0.0 }, "geometry": { "type": "Point", "coordinates": [ 0.346931243325917, 51.635325723246829 ] } },
{ "type": "Feature", "properties": { "visible_points": 0, "total_points": 77, "visibility_pct": 0.0 }, "geometry": { "type": "Point", "coordinates": [ 0.347131286317318, 51.635321722138784 ] } },
{ "type": "Feature", "properties": { "visible_points": 1, "total_points": 70, "visibility_pct": 1.4285714285714286 }, "geometry": { "type": "Point", "coordinates": [ 0.345236437866493, 51.63546752474101 ] } },
{ "type": "Feature", "properties": { "visible_points": 4, "total_points": 91, "visibility_pct": 4.395604395604396 }, "geometry": { "type": "Point", "coordinates": [ 0.345836569297615, 51.635455529031354 ] } },
{ "type": "Feature", "properties": { "visible_points": 31, "total_points": 96, "visibility_pct": 32.291666666666671 }, "geometry": { "type": "Point", "coordinates": [ 0.346036613015632, 51.635451529780383 ] } },
{ "type": "Feature", "properties": { "visible_points": 44, "total_points": 99, "visibility_pct": 44.444444444444443 }, "geometry": { "type": "Point", "coordinates": [ 0.346236656687464, 51.635447530188834 ] } },
{ "type": "Feature", "properties": { "visible_points": 50, "total_points": 99, "visibility_pct": 50.505050505050505 }, "geometry": { "type": "Point", "coordinates": [ 0.346436700313109, 51.635443530256737 ] } },
{ "type": "Feature", "properties": { "visible_points": 45, "total_points": 98, "visibility_pct": 45.91836734693878 }, "geometry": { "type": "Point", "coordinates": [ 0.346636743892565, 51.635439529984083 ] } },
{ "type": "Feature", "properties": { "visible_points": 40, "total_points": 95, "visibility_pct": 42.105263157894733 }, "geometry": { "type": "Point", "coordinates": [ 0.346836787425821, 51.635435529370895 ] } },
{ "type": "Feature", "properties": { "visible_points": 39, "total_points": 90, "visibility_pct": 43.333333333333336 }, "geometry": { "type": "Point", "coordinates": [ 0.347036830912878, 51.635431528417136 ] } },
{ "type": "Feature", "properties": { "visible_points": 0, "total_points": 81, "visibility_pct": 0.0 }, "geometry": { "type": "Point", "coordinates": [ 0.34723687435373, 51.635427527122836 ] } },
{ "type": "Feature", "properties": { "visible_points": 0, "total_points": 75, "visibility_pct": 0.0 }, "geometry": { "type": "Point", "coordinates": [ 0.34514197755172, 51.635577329558977 ] } },
{ "type": "Feature", "properties": { "visible_points": 9, "total_points": 83, "visibility_pct": 10.843373493975903 }, "geometry": { "type": "Point", "coordinates": [ 0.345342021903918, 51.635573331483961 ] } },
{ "type": "Feature", "properties": { "visible_points": 0, "total_points": 96, "visibility_pct": 0.0 }, "geometry": { "type": "Point", "coordinates": [ 0.345742110469789, 51.635565334312268 ] } },
{ "type": "Feature", "properties": { "visible_points": 42, "total_points": 102, "visibility_pct": 41.17647058823529 }, "geometry": { "type": "Point", "coordinates": [ 0.34594215468346, 51.635561335215584 ] } },
{ "type": "Feature", "properties": { "visible_points": 49, "total_points": 107, "visibility_pct": 45.794392523364486 }, "geometry": { "type": "Point", "coordinates": [ 0.34614219885095, 51.635557335778351 ] } },
{ "type": "Feature", "properties": { "visible_points": 57, "total_points": 110, "visibility_pct": 51.81818181818182 }, "geometry": { "type": "Point", "coordinates": [ 0.346342242972249, 51.635553336000562 ] } },
{ "type": "Feature", "properties": { "visible_points": 57, "total_points": 110, "visibility_pct": 51.81818181818182 }, "geometry": { "type": "Point", "coordinates": [ 0.346542287047361, 51.635549335882232 ] } },
{ "type": "Feature", "properties": { "visible_points": 54, "total_points": 108, "visibility_pct": 50.0 }, "geometry": { "type": "Point", "coordinates": [ 0.346742331076277, 51.635545335423345 ] } },
{ "type": "Feature", "properties": { "visible_points": 45, "total_points": 102, "visibility_pct": 44.117647058823529 }, "geometry": { "type": "Point", "coordinates": [ 0.346942375058995, 51.635541334623873 ] } },
{ "type": "Feature", "properties": { "visible_points": 45, "total_points": 93, "visibility_pct": 48.387096774193552 }, "geometry": { "type": "Point", "coordinates": [ 0.347142418995511, 51.635537333483882 ] } },
{ "type": "Feature", "properties": { "visible_points": 0, "total_points": 81, "visibility_pct": 0.0 }, "geometry": { "type": "Point", "coordinates": [ 0.347342462885821, 51.635533332003313 ] } },
{ "type": "Feature", "properties": { "visible_points": 0, "total_points": 66, "visibility_pct": 0.0 }, "geometry": { "type": "Point", "coordinates": [ 0.34484747189347, 51.635691131885451 ] } },
{ "type": "Feature", "properties": { "visible_points": 0, "total_points": 77, "visibility_pct": 0.0 }, "geometry": { "type": "Point", "coordinates": [ 0.345047516787481, 51.635687134305329 ] } },
{ "type": "Feature", "properties": { "visible_points": 0, "total_points": 88, "visibility_pct": 0.0 }, "geometry": { "type": "Point", "coordinates": [ 0.345247561635326, 51.635683136384621 ] } },
{ "type": "Feature", "properties": { "visible_points": 27, "total_points": 96, "visibility_pct": 28.125 }, "geometry": { "type": "Point", "coordinates": [ 0.345447606437003, 51.635679138123365 ] } },
{ "type": "Feature", "properties": { "visible_points": 15, "total_points": 101, "visibility_pct": 14.85148514851485 }, "geometry": { "type": "Point", "coordinates": [ 0.345647651192501, 51.635675139521545 ] } },
{ "type": "Feature", "properties": { "visible_points": 44, "total_points": 107, "visibility_pct": 41.121495327102799 }, "geometry": { "type": "Point", "coordinates": [ 0.34584769590183, 51.635671140579177 ] } },
{ "type": "Feature", "properties": { "visible_points": 52, "total_points": 111, "visibility_pct": 46.846846846846844 }, "geometry": { "type": "Point", "coordinates": [ 0.346047740564977, 51.635667141296274 ] } },
{ "type": "Feature", "properties": { "visible_points": 56, "total_points": 114, "visibility_pct": 49.122807017543856 }, "geometry": { "type": "Point", "coordinates": [ 0.346247785181933, 51.635663141672794 ] } },
{ "type": "Feature", "properties": { "visible_points": 64, "total_points": 117, "visibility_pct": 54.700854700854705 }, "geometry": { "type": "Point", "coordinates": [ 0.346447829752703, 51.635659141708757 ] } },
{ "type": "Feature", "properties": { "visible_points": 61, "total_points": 117, "visibility_pct": 52.136752136752143 }, "geometry": { "type": "Point", "coordinates": [ 0.346647874277285, 51.635655141404158 ] } },
{ "type": "Feature", "properties": { "visible_points": 56, "total_points": 111, "visibility_pct": 50.450450450450447 }, "geometry": { "type": "Point", "coordinates": [ 0.346847918755664, 51.635651140759009 ] } },
{ "type": "Feature", "properties": { "visible_points": 48, "total_points": 104, "visibility_pct": 46.153846153846153 }, "geometry": { "type": "Point", "coordinates": [ 0.347047963187843, 51.635647139773319 ] } },
{ "type": "Feature", "properties": { "visible_points": 43, "total_points": 92, "visibility_pct": 46.739130434782609 }, "geometry": { "type": "Point", "coordinates": [ 0.347248007573821, 51.635643138447051 ] } },
{ "type": "Feature", "properties": { "visible_points": 25, "total_points": 79, "visibility_pct": 31.645569620253166 }, "geometry": { "type": "Point", "coordinates": [ 0.347448051913588, 51.635639136780235 ] } },
{ "type": "Feature", "properties": { "visible_points": 0, "total_points": 67, "visibility_pct": 0.0 }, "geometry": { "type": "Point", "coordinates": [ 0.347648096207142, 51.635635134772876 ] } },
{ "type": "Feature", "properties": { "visible_points": 0, "total_points": 66, "visibility_pct": 0.0 }, "geometry": { "type": "Point", "coordinates": [ 0.344753010184102, 51.635800936405872 ] } },
{ "type": "Feature", "properties": { "visible_points": 0, "total_points": 77, "visibility_pct": 0.0 }, "geometry": { "type": "Point", "coordinates": [ 0.344953055573767, 51.635796938980043 ] } },
{ "type": "Feature", "properties": { "visible_points": 0, "total_points": 89, "visibility_pct": 0.0 }, "geometry": { "type": "Point", "coordinates": [ 0.345153100917265, 51.635792941213666 ] } },
{ "type": "Feature", "properties": { "visible_points": 16, "total_points": 100, "visibility_pct": 16.0 }, "geometry": { "type": "Point", "coordinates": [ 0.345353146214594, 51.635788943106725 ] } },
{ "type": "Feature", "properties": { "visible_points": 34, "total_points": 107, "visibility_pct": 31.775700934579437 }, "geometry": { "type": "Point", "coordinates": [ 0.345553191465754, 51.635784944659228 ] } },
{ "type": "Feature", "properties": { "visible_points": 42, "total_points": 112, "visibility_pct": 37.5 }, "geometry": { "type": "Point", "coordinates": [ 0.345753236670735, 51.635780945871176 ] } },
{ "type": "Feature", "properties": { "visible_points": 55, "total_points": 115, "visibility_pct": 47.826086956521742 }, "geometry": { "type": "Point", "coordinates": [ 0.345953281829541, 51.635776946742567 ] } },
{ "type": "Feature", "properties": { "visible_points": 65, "total_points": 117, "visibility_pct": 55.555555555555557 }, "geometry": { "type": "Point", "coordinates": [ 0.346153326942161, 51.635772947273381 ] } },
{ "type": "Feature", "properties": { "visible_points": 66, "total_points": 119, "visibility_pct": 55.462184873949582 }, "geometry": { "type": "Point", "coordinates": [ 0.34635337200859, 51.63576894746366 ] } },
{ "type": "Feature", "properties": { "visible_points": 70, "total_points": 120, "visibility_pct": 58.333333333333336 }, "geometry": { "type": "Point", "coordinates": [ 0.346553417028836, 51.635764947313376 ] } },
{ "type": "Feature", "properties": { "visible_points": 65, "total_points": 119, "visibility_pct": 54.621848739495796 }, "geometry": { "type": "Point", "coordinates": [ 0.34675346200288, 51.635760946822543 ] } },
{ "type": "Feature", "properties": { "visible_points": 58, "total_points": 114, "visibility_pct": 50.877192982456144 }, "geometry": { "type": "Point", "coordinates": [ 0.346953506930727, 51.63575694599114 ] } },
{ "type": "Feature", "properties": { "visible_points": 49, "total_points": 101, "visibility_pct": 48.514851485148512 }, "geometry": { "type": "Point", "coordinates": [ 0.347153551812373, 51.635752944819181 ] } },
{ "type": "Feature", "properties": { "visible_points": 23, "total_points": 88, "visibility_pct": 26.136363636363637 }, "geometry": { "type": "Point", "coordinates": [ 0.347353596647811, 51.63574894330668 ] } },
{ "type": "Feature", "properties": { "visible_points": 0, "total_points": 75, "visibility_pct": 0.0 }, "geometry": { "type": "Point", "coordinates": [ 0.347553641437037, 51.635744941453609 ] } },
{ "type": "Feature", "properties": { "visible_points": 0, "total_points": 62, "visibility_pct": 0.0 }, "geometry": { "type": "Point", "coordinates": [ 0.347753686180047, 51.635740939259975 ] } },
{ "type": "Feature", "properties": { "visible_points": 0, "total_points": 63, "visibility_pct": 0.0 }, "geometry": { "type": "Point", "coordinates": [ 0.344658548025259, 51.635910740854627 ] } },
{ "type": "Feature", "properties": { "visible_points": 5, "total_points": 75, "visibility_pct": 6.666666666666667 }, "geometry": { "type": "Point", "coordinates": [ 0.344858593910571, 51.635906743583135 ] } },
{ "type": "Feature", "properties": { "visible_points": 13, "total_points": 87, "visibility_pct": 14.942528735632186 }, "geometry": { "type": "Point", "coordinates": [ 0.34505863974973, 51.635902745971066 ] } },
{ "type": "Feature", "properties": { "visible_points": 27, "total_points": 99, "visibility_pct": 27.27272727272727 }, "geometry": { "type": "Point", "coordinates": [ 0.345258685542712, 51.635898748018455 ] } },
{ "type": "Feature", "properties": { "visible_points": 36, "total_points": 112, "visibility_pct": 32.142857142857146 }, "geometry": { "type": "Point", "coordinates": [ 0.345458731289533, 51.635894749725274 ] } },
{ "type": "Feature", "properties": { "visible_points": 42, "total_points": 116, "visibility_pct": 36.206896551724135 }, "geometry": { "type": "Point", "coordinates": [ 0.345658776990173, 51.63589075109153 ] } },
{ "type": "Feature", "properties": { "visible_points": 49, "total_points": 118, "visibility_pct": 41.525423728813557 }, "geometry": { "type": "Point", "coordinates": [ 0.345858822644638, 51.635886752117216 ] } },
{ "type": "Feature", "properties": { "visible_points": 63, "total_points": 119, "visibility_pct": 52.941176470588239 }, "geometry": { "type": "Point", "coordinates": [ 0.346058868252924, 51.635882752802374 ] } },
{ "type": "Feature", "properties": { "visible_points": 70, "total_points": 120, "visibility_pct": 58.333333333333336 }, "geometry": { "type": "Point", "coordinates": [ 0.346258913815021, 51.635878753146962 ] } },
{ "type": "Feature", "properties": { "visible_points": 68, "total_points": 120, "visibility_pct": 56.666666666666664 }, "geometry": { "type": "Point", "coordinates": [ 0.346458959330924, 51.635874753150979 ] } },
{ "type": "Feature", "properties": { "visible_points": 68, "total_points": 120, "visibility_pct": 56.666666666666664 }, "geometry": { "type": "Point", "coordinates": [ 0.346659004800645, 51.635870752814455 ] } },
{ "type": "Feature", "properties": { "visible_points": 65, "total_points": 118, "visibility_pct": 55.084745762711862 }, "geometry": { "type": "Point", "coordinates": [ 0.346859050224155, 51.635866752137353 ] } },
{ "type": "Feature", "properties": { "visible_points": 51, "total_points": 107, "visibility_pct": 47.663551401869157 }, "geometry": { "type": "Point", "coordinates": [ 0.347059095601474, 51.635862751119703 ] } },
{ "type": "Feature", "properties": { "visible_points": 44, "total_points": 94, "visibility_pct": 46.808510638297875 }, "geometry": { "type": "Point", "coordinates": [ 0.347259140932583, 51.63585874976151 ] } },
{ "type": "Feature", "properties": { "visible_points": 0, "total_points": 81, "visibility_pct": 0.0 }, "geometry": { "type": "Point", "coordinates": [ 0.347459186217484, 51.635854748062734 ] } },
{ "type": "Feature", "properties": { "visible_points": 2, "total_points": 68, "visibility_pct": 2.9411764705882351 }, "geometry": { "type": "Point", "coordinates": [ 0.347659231456173, 51.635850746023408 ] } },
{ "type": "Feature", "properties": { "visible_points": 0, "total_points": 69, "visibility_pct": 0.0 }, "geometry": { "type": "Point", "coordinates": [ 0.344764131797903, 51.636016548114611 ] } },
{ "type": "Feature", "properties": { "visible_points": 0, "total_points": 82, "visibility_pct": 0.0 }, "geometry": { "type": "Point", "coordinates": [ 0.34496417813271, 51.636012550656865 ] } },
{ "type": "Feature", "properties": { "visible_points": 0, "total_points": 95, "visibility_pct": 0.0 }, "geometry": { "type": "Point", "coordinates": [ 0.345164224421359, 51.63600855285857 ] } },
{ "type": "Feature", "properties": { "visible_points": 33, "total_points": 108, "visibility_pct": 30.555555555555557 }, "geometry": { "type": "Point", "coordinates": [ 0.345364270663836, 51.636004554719705 ] } },
{ "type": "Feature", "properties": { "visible_points": 40, "total_points": 118, "visibility_pct": 33.898305084745758 }, "geometry": { "type": "Point", "coordinates": [ 0.345564316860141, 51.636000556240276 ] } },
{ "type": "Feature", "properties": { "visible_points": 46, "total_points": 120, "visibility_pct": 38.333333333333336 }, "geometry": { "type": "Point", "coordinates": [ 0.34576436301027, 51.635996557420285 ] } },
{ "type": "Feature", "properties": { "visible_points": 52, "total_points": 120, "visibility_pct": 43.333333333333336 }, "geometry": { "type": "Point", "coordinates": [ 0.345964409114217, 51.63599255825973 ] } },
{ "type": "Feature", "properties": { "visible_points": 60, "total_points": 120, "visibility_pct": 50.0 }, "geometry": { "type": "Point", "coordinates": [ 0.346164455171983, 51.63598855875864 ] } },
{ "type": "Feature", "properties": { "visible_points": 67, "total_points": 120, "visibility_pct": 55.833333333333336 }, "geometry": { "type": "Point", "coordinates": [ 0.346364501183558, 51.635984558916967 ] } },
{ "type": "Feature", "properties": { "visible_points": 68, "total_points": 118, "visibility_pct": 57.627118644067799 }, "geometry": { "type": "Point", "coordinates": [ 0.346564547148943, 51.635980558734744 ] } },
{ "type": "Feature", "properties": { "visible_points": 65, "total_points": 115, "visibility_pct": 56.521739130434781 }, "geometry": { "type": "Point", "coordinates": [ 0.34676459306813, 51.635976558211972 ] } },
{ "type": "Feature", "properties": { "visible_points": 59, "total_points": 109, "visibility_pct": 54.128440366972477 }, "geometry": { "type": "Point", "coordinates": [ 0.34696463894112, 51.635972557348609 ] } },
{ "type": "Feature", "properties": { "visible_points": 46, "total_points": 98, "visibility_pct": 46.938775510204081 }, "geometry": { "type": "Point", "coordinates": [ 0.347164684767902, 51.635968556144718 ] } },
{ "type": "Feature", "properties": { "visible_points": 39, "total_points": 85, "visibility_pct": 45.882352941176471 }, "geometry": { "type": "Point", "coordinates": [ 0.347364730548486, 51.635964554600257 ] } },
{ "type": "Feature", "properties": { "visible_points": 17, "total_points": 73, "visibility_pct": 23.287671232876711 }, "geometry": { "type": "Point", "coordinates": [ 0.347564776282844, 51.635960552715218 ] } },
{ "type": "Feature", "properties": { "visible_points": 0, "total_points": 62, "visibility_pct": 0.0 }, "geometry": { "type": "Point", "coordinates": [ 0.344669669235746, 51.636126352574465 ] } },
{ "type": "Feature", "properties": { "visible_points": 0, "total_points": 74, "visibility_pct": 0.0 }, "geometry": { "type": "Point", "coordinates": [ 0.344869716066215, 51.636122355271056 ] } },
{ "type": "Feature", "properties": { "visible_points": 13, "total_points": 86, "visibility_pct": 15.11627906976744 }, "geometry": { "type": "Point", "coordinates": [ 0.345069762850521, 51.636118357627055 ] } },
{ "type": "Feature", "properties": { "visible_points": 31, "total_points": 98, "visibility_pct": 31.632653061224492 }, "geometry": { "type": "Point", "coordinates": [ 0.345269809588665, 51.636114359642505 ] } },
{ "type": "Feature", "properties": { "visible_points": 36, "total_points": 107, "visibility_pct": 33.644859813084111 }, "geometry": { "type": "Point", "coordinates": [ 0.345469856280633, 51.636110361317392 ] } },
{ "type": "Feature", "properties": { "visible_points": 42, "total_points": 112, "visibility_pct": 37.5 }, "geometry": { "type": "Point", "coordinates": [ 0.345669902926426, 51.636106362651716 ] } },
{ "type": "Feature", "properties": { "visible_points": 47, "total_points": 114, "visibility_pct": 41.228070175438596 }, "geometry": { "type": "Point", "coordinates": [ 0.345869949526041, 51.636102363645485 ] } },
{ "type": "Feature", "properties": { "visible_points": 56, "total_points": 115, "visibility_pct": 48.695652173913047 }, "geometry": { "type": "Point", "coordinates": [ 0.346069996079478, 51.636098364298704 ] } },
{ "type": "Feature", "properties": { "visible_points": 61, "total_points": 114, "visibility_pct": 53.508771929824562 }, "geometry": { "type": "Point", "coordinates": [ 0.346270042586723, 51.636094364611338 ] } },
{ "type": "Feature", "properties": { "visible_points": 63, "total_points": 112, "visibility_pct": 56.25 }, "geometry": { "type": "Point", "coordinates": [ 0.34647008904778, 51.636090364583417 ] } },
{ "type": "Feature", "properties": { "visible_points": 63, "total_points": 109, "visibility_pct": 57.798165137614674 }, "geometry": { "type": "Point", "coordinates": [ 0.346670135462644, 51.636086364214947 ] } },
{ "type": "Feature", "properties": { "visible_points": 55, "total_points": 104, "visibility_pct": 52.884615384615387 }, "geometry": { "type": "Point", "coordinates": [ 0.346870181831307, 51.636082363505913 ] } },
{ "type": "Feature", "properties": { "visible_points": 49, "total_points": 97, "visibility_pct": 50.515463917525771 }, "geometry": { "type": "Point", "coordinates": [ 0.347070228153767, 51.63607836245631 ] } },
{ "type": "Feature", "properties": { "visible_points": 39, "total_points": 87, "visibility_pct": 44.827586206896555 }, "geometry": { "type": "Point", "coordinates": [ 0.347270274430024, 51.63607436106615 ] } },
{ "type": "Feature", "properties": { "visible_points": 32, "total_points": 75, "visibility_pct": 42.666666666666671 }, "geometry": { "type": "Point", "coordinates": [ 0.347470320660071, 51.636070359335434 ] } },
{ "type": "Feature", "properties": { "visible_points": 0, "total_points": 63, "visibility_pct": 0.0 }, "geometry": { "type": "Point", "coordinates": [ 0.3476703668439, 51.636066357264141 ] } },
{ "type": "Feature", "properties": { "visible_points": 0, "total_points": 75, "visibility_pct": 0.0 }, "geometry": { "type": "Point", "coordinates": [ 0.344975300830203, 51.636228162323917 ] } },
{ "type": "Feature", "properties": { "visible_points": 26, "total_points": 86, "visibility_pct": 30.232558139534881 }, "geometry": { "type": "Point", "coordinates": [ 0.345175348064006, 51.636224164493683 ] } },
{ "type": "Feature", "properties": { "visible_points": 31, "total_points": 94, "visibility_pct": 32.978723404255319 }, "geometry": { "type": "Point", "coordinates": [ 0.345375395251644, 51.636220166322886 ] } },
{ "type": "Feature", "properties": { "visible_points": 36, "total_points": 100, "visibility_pct": 36.0 }, "geometry": { "type": "Point", "coordinates": [ 0.345575442393105, 51.636216167811526 ] } },
{ "type": "Feature", "properties": { "visible_points": 42, "total_points": 104, "visibility_pct": 40.384615384615387 }, "geometry": { "type": "Point", "coordinates": [ 0.345775489488393, 51.636212168959617 ] } },
{ "type": "Feature", "properties": { "visible_points": 48, "total_points": 106, "visibility_pct": 45.283018867924532 }, "geometry": { "type": "Point", "coordinates": [ 0.3459755365375, 51.636208169767137 ] } },
{ "type": "Feature", "properties": { "visible_points": 53, "total_points": 106, "visibility_pct": 50.0 }, "geometry": { "type": "Point", "coordinates": [ 0.34617558354042, 51.636204170234095 ] } },
{ "type": "Feature", "properties": { "visible_points": 59, "total_points": 104, "visibility_pct": 56.730769230769226 }, "geometry": { "type": "Point", "coordinates": [ 0.346375630497149, 51.636200170360489 ] } },
{ "type": "Feature", "properties": { "visible_points": 58, "total_points": 101, "visibility_pct": 57.42574257425742 }, "geometry": { "type": "Point", "coordinates": [ 0.346575677407689, 51.636196170146313 ] } },
{ "type": "Feature", "properties": { "visible_points": 55, "total_points": 97, "visibility_pct": 56.701030927835049 }, "geometry": { "type": "Point", "coordinates": [ 0.346775724272028, 51.636192169591588 ] } },
{ "type": "Feature", "properties": { "visible_points": 45, "total_points": 91, "visibility_pct": 49.450549450549453 }, "geometry": { "type": "Point", "coordinates": [ 0.346975771090173, 51.6361881686963 ] } },
{ "type": "Feature", "properties": { "visible_points": 39, "total_points": 84, "visibility_pct": 46.428571428571431 }, "geometry": { "type": "Point", "coordinates": [ 0.347175817862108, 51.636184167460449 ] } },
{ "type": "Feature", "properties": { "visible_points": 0, "total_points": 75, "visibility_pct": 0.0 }, "geometry": { "type": "Point", "coordinates": [ 0.347375864587839, 51.636180165884028 ] } },
{ "type": "Feature", "properties": { "visible_points": 0, "total_points": 73, "visibility_pct": 0.0 }, "geometry": { "type": "Point", "coordinates": [ 0.34508088608987, 51.636333969273245 ] } },
{ "type": "Feature", "properties": { "visible_points": 0, "total_points": 81, "visibility_pct": 0.0 }, "geometry": { "type": "Point", "coordinates": [ 0.345280933773174, 51.636329971256778 ] } },
{ "type": "Feature", "properties": { "visible_points": 28, "total_points": 87, "visibility_pct": 32.183908045977013 }, "geometry": { "type": "Point", "coordinates": [ 0.345480981410307, 51.636325972899748 ] } },
{ "type": "Feature", "properties": { "visible_points": 35, "total_points": 92, "visibility_pct": 38.04347826086957 }, "geometry": { "type": "Point", "coordinates": [ 0.345681029001263, 51.636321974202126 ] } },
{ "type": "Feature", "properties": { "visible_points": 43, "total_points": 95, "visibility_pct": 45.263157894736842 }, "geometry": { "type": "Point", "coordinates": [ 0.345881076546046, 51.636317975163955 ] } },
{ "type": "Feature", "properties": { "visible_points": 46, "total_points": 96, "visibility_pct": 47.916666666666671 }, "geometry": { "type": "Point", "coordinates": [ 0.346081124044643, 51.636313975785221 ] } },
{ "type": "Feature", "properties": { "visible_points": 47, "total_points": 95, "visibility_pct": 49.473684210526315 }, "geometry": { "type": "Point", "coordinates": [ 0.346281171497048, 51.636309976065945 ] } },
{ "type": "Feature", "properties": { "visible_points": 48, "total_points": 92, "visibility_pct": 52.173913043478258 }, "geometry": { "type": "Point", "coordinates": [ 0.346481218903263, 51.636305976006078 ] } },
{ "type": "Feature", "properties": { "visible_points": 43, "total_points": 89, "visibility_pct": 48.314606741573037 }, "geometry": { "type": "Point", "coordinates": [ 0.346681266263287, 51.636301975605669 ] } },
{ "type": "Feature", "properties": { "visible_points": 26, "total_points": 84, "visibility_pct": 30.952380952380953 }, "geometry": { "type": "Point", "coordinates": [ 0.34688131357711, 51.636297974864668 ] } },
{ "type": "Feature", "properties": { "visible_points": 0, "total_points": 78, "visibility_pct": 0.0 }, "geometry": { "type": "Point", "coordinates": [ 0.347081360844731, 51.636293973783125 ] } },
{ "type": "Feature", "properties": { "visible_points": 0, "total_points": 74, "visibility_pct": 0.0 }, "geometry": { "type": "Point", "coordinates": [ 0.345386519978021, 51.636435777916304 ] } },
{ "type": "Feature", "properties": { "visible_points": 20, "total_points": 79, "visibility_pct": 25.316455696202532 }, "geometry": { "type": "Point", "coordinates": [ 0.345586568064655, 51.636431779373019 ] } },
{ "type": "Feature", "properties": { "visible_points": 30, "total_points": 83, "visibility_pct": 36.144578313253014 }, "geometry": { "type": "Point", "coordinates": [ 0.345786616105107, 51.636427780489164 ] } },
{ "type": "Feature", "properties": { "visible_points": 0, "total_points": 84, "visibility_pct": 0.0 }, "geometry": { "type": "Point", "coordinates": [ 0.345986664099388, 51.636423781264753 ] } },
{ "type": "Feature", "properties": { "visible_points": 38, "total_points": 84, "visibility_pct": 45.238095238095241 }, "geometry": { "type": "Point", "coordinates": [ 0.346186712047469, 51.636419781699779 ] } },
{ "type": "Feature", "properties": { "visible_points": 0, "total_points": 83, "visibility_pct": 0.0 }, "geometry": { "type": "Point", "coordinates": [ 0.346386759949372, 51.636415781794234 ] } },
{ "type": "Feature", "properties": { "visible_points": 7, "total_points": 80, "visibility_pct": 8.75 }, "geometry": { "type": "Point", "coordinates": [ 0.34658680780507, 51.636411781548119 ] } },
{ "type": "Feature", "properties": { "visible_points": 0, "total_points": 76, "visibility_pct": 0.0 }, "geometry": { "type": "Point", "coordinates": [ 0.346786855614583, 51.636407780961434 ] } },
{ "type": "Feature", "properties": { "visible_points": 0, "total_points": 70, "visibility_pct": 0.0 }, "geometry": { "type": "Point", "coordinates": [ 0.345692155214693, 51.636537585742751 ] } },
{ "type": "Feature", "properties": { "visible_points": 0, "total_points": 72, "visibility_pct": 0.0 }, "geometry": { "type": "Point", "coordinates": [ 0.345892203704643, 51.636533586672655 ] } },
{ "type": "Feature", "properties": { "visible_points": 12, "total_points": 73, "visibility_pct": 16.43835616438356 }, "geometry": { "type": "Point", "coordinates": [ 0.346092252148416, 51.636529587261997 ] } },
{ "type": "Feature", "properties": { "visible_points": 13, "total_points": 72, "visibility_pct": 18.055555555555554 }, "geometry": { "type": "Point", "coordinates": [ 0.346292300545994, 51.636525587510761 ] } }
]
}
