{
"type": "FeatureCollection",
"name": "UTTLE_9_cycling",
"crs": { "type": "name", "properties": { "name": "urn:ogc:def:crs:OGC:1.3:CRS84" } },
"features": [
{"type":"Feature","properties":{"highway":"track","name":"Thornton Road","category":"Track"},"geometry":{"type":"MultiLineString","coordinates":[[[0.2887267,51.8711339],[0.2888897,51.8703289],[0.2889561,51.8698963],[0.2891533,51.8685762],[0.2891719,51.8683723],[0.2892695,51.8677182],[0.2892774,51.8676748]]]}},
{"type":"Feature","properties":{"highway":"bridleway","name":"Jack's Lane","category":"Bridleway"},"geometry":{"type":"MultiLineString","coordinates":[[[0.280824,51.8706787],[0.2811792,51.8706869],[0.2815736,51.8706602],[0.2819513,51.8705913],[0.2823118,51.8704377],[0.2826294,51.8702999],[0.2830064,51.8702581],[0.2836336,51.8703105],[0.28445,51.8704314],[0.2860883,51.8706708],[0.287333,51.8707716],[0.2874151,51.8707803],[0.2879337,51.8708351],[0.2887267,51.8711339],[0.289101,51.8712909],[0.2893,51.8713281],[0.2893842,51.8713439],[0.2897962,51.8713174],[0.2910322,51.8711637],[0.2914699,51.8710577],[0.2916782,51.8709977],[0.2917274,51.8709835],[0.2921051,51.8709941],[0.293753,51.8711266],[0.294268,51.8711796],[0.2944397,51.8711637]]]}},
{"type":"Feature","properties":{"highway":"bridleway","name":"The Flitch Way","category":"Bridleway"},"geometry":{"type":"MultiLineString","coordinates":[[[0.3029319,51.866824],[0.3029006,51.8668237],[0.2999694,51.8667885],[0.2997821,51.8667872],[0.2997575,51.8667881],[0.2996827,51.8667853],[0.2996671,51.8667849],[0.2995679,51.8667837],[0.2982961,51.8667684],[0.2961332,51.8667154],[0.2898234,51.8666116],[0.2894438,51.8666101],[0.2879376,51.8666202],[0.2878821,51.8666177]]]}},
{"type":"Feature","properties":{"highway":"path","name":null,"category":"Shared path"},"geometry":{"type":"MultiLineString","coordinates":[[[0.2916864,51.8709467],[0.2916864,51.8709368]]]}},
{"type":"Feature","properties":{"highway":"cycleway","name":null,"category":"Dedicated cycleway"},"geometry":{"type":"MultiLineString","coordinates":[[[0.2872701,51.8673838],[0.2872914,51.8673202],[0.2873285,51.8672395],[0.2874035,51.8671455],[0.2874941,51.867084],[0.2876454,51.8669515],[0.2877241,51.8668945],[0.2878988,51.8667689],[0.2879311,51.8667093],[0.2879377,51.8666371],[0.2879376,51.8666202]]]}},
{"type":"Feature","properties":{"highway":"cycleway","name":null,"category":"Dedicated cycleway"},"geometry":{"type":"MultiLineString","coordinates":[[[0.2898063,51.8677504],[0.2892695,51.8677182],[0.2888118,51.867687],[0.2878545,51.8676218],[0.2875594,51.8676007],[0.2872189,51.8675916],[0.2871758,51.8675905],[0.2868775,51.8675992],[0.2866785,51.8676374],[0.2865731,51.8676763],[0.2865154,51.8677425],[0.2863658,51.8677336],[0.2862874,51.8677102],[0.2862442,51.8677576],[0.2862274,51.867952],[0.2861782,51.868267],[0.2860748,51.868716],[0.285944,51.8693603],[0.2859319,51.8694279],[0.2858918,51.8694997],[0.2858314,51.8695337],[0.2857483,51.8695369],[0.2848822,51.8694639],[0.2845505,51.8694386],[0.2844047,51.8694413],[0.2843319,51.8694424],[0.2841368,51.869472],[0.284073,51.8694928],[0.2832285,51.8697677],[0.2826767,51.8697734],[0.2825567,51.8697277],[0.2823404,51.8696454],[0.282211,51.8695887],[0.2820465,51.8695162],[0.2819275,51.8694367],[0.2818322,51.869295],[0.2818207,51.8690211],[0.281802,51.8685731],[0.2817396,51.8684149],[0.2816098,51.8683215],[0.2815538,51.8682809],[0.2811782,51.8680982],[0.2808883,51.8680334],[0.2806301,51.8680015],[0.2805529,51.867992],[0.2798348,51.8680402],[0.2795604,51.8680741],[0.2794726,51.8680852],[0.2782941,51.8682865],[0.2780536,51.8682915],[0.2779304,51.868294],[0.2777866,51.868297],[0.2775897,51.868301],[0.2768702,51.868292],[0.2765979,51.8683011],[0.2765377,51.8682869],[0.2764853,51.8682746],[0.2764761,51.868258],[0.2764458,51.8682033],[0.2764323,51.8681222],[0.276435,51.8678624],[0.2764443,51.8669846],[0.2763506,51.8670229],[0.2762067,51.8670196],[0.2761884,51.8670101],[0.2761326,51.8669809],[0.2761066,51.8669786],[0.275958,51.8669653],[0.2755369,51.8669687],[0.2749316,51.8669743]]]}},
{"type":"Feature","properties":{"highway":"path","name":null,"category":"Shared path"},"geometry":{"type":"MultiLineString","coordinates":[[[0.2876827,51.8669835],[0.2876454,51.8669515]]]}},
{"type":"Feature","properties":{"highway":"cycleway","name":null,"category":"Dedicated cycleway"},"geometry":{"type":"MultiLineString","coordinates":[[[0.2859319,51.8694279],[0.28601,51.8694343],[0.2861328,51.8694423],[0.2861287,51.8694969],[0.2861475,51.869521],[0.286173,51.8695408],[0.2862025,51.8695524],[0.2864573,51.8695801],[0.2869401,51.8696327],[0.2870823,51.8696418],[0.2871896,51.8696344],[0.2872378,51.8696261],[0.28727,51.8696095],[0.2872888,51.8695896],[0.2873156,51.8695574],[0.2873398,51.8695242],[0.2873505,51.8694994],[0.2873559,51.8694787],[0.2874571,51.8694846],[0.2875356,51.8694895],[0.2875222,51.86954],[0.2875315,51.8695689],[0.2875611,51.8696261],[0.2876107,51.8696625],[0.2876818,51.8696923],[0.2877367,51.8697072],[0.2877299,51.8697426],[0.2877219,51.8697828],[0.2877163,51.8698108],[0.2877059,51.8698637],[0.2876415,51.869867],[0.2875624,51.8698737],[0.2875302,51.8698878],[0.2874967,51.8699142],[0.2873639,51.8701859],[0.2873585,51.8702248],[0.2873599,51.8702687],[0.2873907,51.8703101],[0.287435,51.8703672],[0.2874672,51.8704326],[0.2874712,51.8704748],[0.2874628,51.8705305],[0.2874151,51.8707803],[0.2873959,51.8708808],[0.287424,51.8710712],[0.2874308,51.8711176],[0.2875086,51.8712468],[0.2875248,51.8713458],[0.2875301,51.8713785],[0.2875074,51.8714407],[0.2875965,51.8714886],[0.2875604,51.871541]]]}},
{"type":"Feature","properties":{"highway":"cycleway","name":null,"category":"Dedicated cycleway"},"geometry":{"type":"MultiLineString","coordinates":[[[0.2872306,51.8675442],[0.2872366,51.8675066],[0.2872701,51.8673838]]]}}
]
}
