{
"type": "FeatureCollection",
"name": "8386b26fad45_visibility",
"crs": { "type": "name", "properties": { "name": "urn:ogc:def:crs:OGC:1.3:CRS84" } },
"features": [
{ "type": "Feature", "properties": { "visible_points": 0, "total_points": 80, "visibility_pct": 0.0 }, "geometry": { "type": "Point", "coordinates": [ 0.345283742712576, 51.486178980931221 ] } },
{ "type": "Feature", "properties": { "visible_points": 0, "total_points": 80, "visibility_pct": 0.0 }, "geometry": { "type": "Point", "coordinates": [ 0.345483142297891, 51.486174996768625 ] } },
{ "type": "Feature", "properties": { "visible_points": 16, "total_points": 78, "visibility_pct": 20.512820512820511 }, "geometry": { "type": "Point", "coordinates": [ 0.345682541842788, 51.486171012270574 ] } },
{ "type": "Feature", "properties": { "visible_points": 25, "total_points": 73, "visibility_pct": 34.246575342465754 }, "geometry": { "type": "Point", "coordinates": [ 0.34588194134725, 51.486167027437098 ] } },
{ "type": "Feature", "properties": { "visible_points": 25, "total_points": 66, "visibility_pct": 37.878787878787875 }, "geometry": { "type": "Point", "coordinates": [ 0.346081340811282, 51.486163042268167 ] } },
{ "type": "Feature", "properties": { "visible_points": 0, "total_points": 71, "visibility_pct": 0.0 }, "geometry": { "type": "Point", "coordinates": [ 0.344391971692427, 51.486304712710151 ] } },
{ "type": "Feature", "properties": { "visible_points": 0, "total_points": 76, "visibility_pct": 0.0 }, "geometry": { "type": "Point", "coordinates": [ 0.344591371855765, 51.486300729996572 ] } },
{ "type": "Feature", "properties": { "visible_points": 11, "total_points": 81, "visibility_pct": 13.580246913580247 }, "geometry": { "type": "Point", "coordinates": [ 0.344790771978693, 51.486296746947552 ] } },
{ "type": "Feature", "properties": { "visible_points": 0, "total_points": 86, "visibility_pct": 0.0 }, "geometry": { "type": "Point", "coordinates": [ 0.344990172061203, 51.486292763563092 ] } },
{ "type": "Feature", "properties": { "visible_points": 0, "total_points": 90, "visibility_pct": 0.0 }, "geometry": { "type": "Point", "coordinates": [ 0.345189572103301, 51.4862887798432 ] } },
{ "type": "Feature", "properties": { "visible_points": 0, "total_points": 92, "visibility_pct": 0.0 }, "geometry": { "type": "Point", "coordinates": [ 0.345388972104972, 51.486284795787867 ] } },
{ "type": "Feature", "properties": { "visible_points": 0, "total_points": 91, "visibility_pct": 0.0 }, "geometry": { "type": "Point", "coordinates": [ 0.345588372066224, 51.48628081139708 ] } },
{ "type": "Feature", "properties": { "visible_points": 34, "total_points": 86, "visibility_pct": 39.534883720930232 }, "geometry": { "type": "Point", "coordinates": [ 0.345787771987043, 51.48627682667086 ] } },
{ "type": "Feature", "properties": { "visible_points": 30, "total_points": 78, "visibility_pct": 38.461538461538467 }, "geometry": { "type": "Point", "coordinates": [ 0.345987171867436, 51.486272841609207 ] } },
{ "type": "Feature", "properties": { "visible_points": 17, "total_points": 69, "visibility_pct": 24.637681159420293 }, "geometry": { "type": "Point", "coordinates": [ 0.346186571707395, 51.486268856212092 ] } },
{ "type": "Feature", "properties": { "visible_points": 0, "total_points": 80, "visibility_pct": 0.0 }, "geometry": { "type": "Point", "coordinates": [ 0.344297799041814, 51.486414511164725 ] } },
{ "type": "Feature", "properties": { "visible_points": 26, "total_points": 84, "visibility_pct": 30.952380952380953 }, "geometry": { "type": "Point", "coordinates": [ 0.344497199621511, 51.486410528558409 ] } },
{ "type": "Feature", "properties": { "visible_points": 30, "total_points": 89, "visibility_pct": 33.707865168539328 }, "geometry": { "type": "Point", "coordinates": [ 0.344696600160791, 51.486406545616667 ] } },
{ "type": "Feature", "properties": { "visible_points": 0, "total_points": 94, "visibility_pct": 0.0 }, "geometry": { "type": "Point", "coordinates": [ 0.344896000659657, 51.486402562339485 ] } },
{ "type": "Feature", "properties": { "visible_points": 32, "total_points": 99, "visibility_pct": 32.323232323232325 }, "geometry": { "type": "Point", "coordinates": [ 0.345095401118106, 51.486398578726849 ] } },
{ "type": "Feature", "properties": { "visible_points": 45, "total_points": 101, "visibility_pct": 44.554455445544555 }, "geometry": { "type": "Point", "coordinates": [ 0.34529480153614, 51.486394594778773 ] } },
{ "type": "Feature", "properties": { "visible_points": 43, "total_points": 103, "visibility_pct": 41.747572815533978 }, "geometry": { "type": "Point", "coordinates": [ 0.34549420191375, 51.48639061049527 ] } },
{ "type": "Feature", "properties": { "visible_points": 40, "total_points": 99, "visibility_pct": 40.404040404040401 }, "geometry": { "type": "Point", "coordinates": [ 0.345693602250933, 51.486386625876307 ] } },
{ "type": "Feature", "properties": { "visible_points": 36, "total_points": 89, "visibility_pct": 40.449438202247187 }, "geometry": { "type": "Point", "coordinates": [ 0.345893002547682, 51.486382640921917 ] } },
{ "type": "Feature", "properties": { "visible_points": 34, "total_points": 79, "visibility_pct": 43.037974683544306 }, "geometry": { "type": "Point", "coordinates": [ 0.346092402804006, 51.486378655632073 ] } },
{ "type": "Feature", "properties": { "visible_points": 0, "total_points": 69, "visibility_pct": 0.0 }, "geometry": { "type": "Point", "coordinates": [ 0.346291803019888, 51.486374670006803 ] } },
{ "type": "Feature", "properties": { "visible_points": 0, "total_points": 88, "visibility_pct": 0.0 }, "geometry": { "type": "Point", "coordinates": [ 0.34420362601528, 51.486524309590955 ] } },
{ "type": "Feature", "properties": { "visible_points": 30, "total_points": 92, "visibility_pct": 32.608695652173914 }, "geometry": { "type": "Point", "coordinates": [ 0.344403027011327, 51.486520327091917 ] } },
{ "type": "Feature", "properties": { "visible_points": 42, "total_points": 96, "visibility_pct": 43.75 }, "geometry": { "type": "Point", "coordinates": [ 0.344602427966966, 51.486516344257446 ] } },
{ "type": "Feature", "properties": { "visible_points": 48, "total_points": 101, "visibility_pct": 47.524752475247524 }, "geometry": { "type": "Point", "coordinates": [ 0.344801828882192, 51.48651236108752 ] } },
{ "type": "Feature", "properties": { "visible_points": 55, "total_points": 106, "visibility_pct": 51.886792452830186 }, "geometry": { "type": "Point", "coordinates": [ 0.345001229757001, 51.486508377582169 ] } },
{ "type": "Feature", "properties": { "visible_points": 56, "total_points": 109, "visibility_pct": 51.37614678899083 }, "geometry": { "type": "Point", "coordinates": [ 0.345200630591388, 51.48650439374137 ] } },
{ "type": "Feature", "properties": { "visible_points": 52, "total_points": 111, "visibility_pct": 46.846846846846844 }, "geometry": { "type": "Point", "coordinates": [ 0.345400031385361, 51.486500409565117 ] } },
{ "type": "Feature", "properties": { "visible_points": 50, "total_points": 110, "visibility_pct": 45.454545454545453 }, "geometry": { "type": "Point", "coordinates": [ 0.345599432138905, 51.486496425053417 ] } },
{ "type": "Feature", "properties": { "visible_points": 44, "total_points": 99, "visibility_pct": 44.444444444444443 }, "geometry": { "type": "Point", "coordinates": [ 0.345798832852022, 51.486492440206291 ] } },
{ "type": "Feature", "properties": { "visible_points": 37, "total_points": 88, "visibility_pct": 42.045454545454547 }, "geometry": { "type": "Point", "coordinates": [ 0.345998233524702, 51.486488455023711 ] } },
{ "type": "Feature", "properties": { "visible_points": 31, "total_points": 77, "visibility_pct": 40.259740259740262 }, "geometry": { "type": "Point", "coordinates": [ 0.34619763415696, 51.486484469505697 ] } },
{ "type": "Feature", "properties": { "visible_points": 0, "total_points": 65, "visibility_pct": 0.0 }, "geometry": { "type": "Point", "coordinates": [ 0.346397034748771, 51.486480483652237 ] } },
{ "type": "Feature", "properties": { "visible_points": 0, "total_points": 53, "visibility_pct": 0.0 }, "geometry": { "type": "Point", "coordinates": [ 0.342913043290019, 51.486657995294891 ] } },
{ "type": "Feature", "properties": { "visible_points": 0, "total_points": 61, "visibility_pct": 0.0 }, "geometry": { "type": "Point", "coordinates": [ 0.343112444944801, 51.486654014915857 ] } },
{ "type": "Feature", "properties": { "visible_points": 30, "total_points": 100, "visibility_pct": 30.0 }, "geometry": { "type": "Point", "coordinates": [ 0.344308854025218, 51.486630125597074 ] } },
{ "type": "Feature", "properties": { "visible_points": 46, "total_points": 104, "visibility_pct": 44.230769230769226 }, "geometry": { "type": "Point", "coordinates": [ 0.344508255397211, 51.486626142869881 ] } },
{ "type": "Feature", "properties": { "visible_points": 52, "total_points": 108, "visibility_pct": 48.148148148148145 }, "geometry": { "type": "Point", "coordinates": [ 0.344707656728799, 51.486622159807247 ] } },
{ "type": "Feature", "properties": { "visible_points": 56, "total_points": 112, "visibility_pct": 50.0 }, "geometry": { "type": "Point", "coordinates": [ 0.344907058019967, 51.486618176409145 ] } },
{ "type": "Feature", "properties": { "visible_points": 62, "total_points": 115, "visibility_pct": 53.913043478260867 }, "geometry": { "type": "Point", "coordinates": [ 0.345106459270722, 51.486614192675617 ] } },
{ "type": "Feature", "properties": { "visible_points": 62, "total_points": 115, "visibility_pct": 53.913043478260867 }, "geometry": { "type": "Point", "coordinates": [ 0.345305860481052, 51.486610208606621 ] } },
{ "type": "Feature", "properties": { "visible_points": 57, "total_points": 113, "visibility_pct": 50.442477876106196 }, "geometry": { "type": "Point", "coordinates": [ 0.345505261650961, 51.486606224202212 ] } },
{ "type": "Feature", "properties": { "visible_points": 50, "total_points": 107, "visibility_pct": 46.728971962616825 }, "geometry": { "type": "Point", "coordinates": [ 0.345704662780447, 51.486602239462329 ] } },
{ "type": "Feature", "properties": { "visible_points": 43, "total_points": 96, "visibility_pct": 44.791666666666671 }, "geometry": { "type": "Point", "coordinates": [ 0.345904063869494, 51.486598254387026 ] } },
{ "type": "Feature", "properties": { "visible_points": 35, "total_points": 83, "visibility_pct": 42.168674698795186 }, "geometry": { "type": "Point", "coordinates": [ 0.346103464918118, 51.486594268976269 ] } },
{ "type": "Feature", "properties": { "visible_points": 29, "total_points": 71, "visibility_pct": 40.845070422535215 }, "geometry": { "type": "Point", "coordinates": [ 0.346302865926298, 51.486590283230093 ] } },
{ "type": "Feature", "properties": { "visible_points": 0, "total_points": 59, "visibility_pct": 0.0 }, "geometry": { "type": "Point", "coordinates": [ 0.346502266894042, 51.486586297148435 ] } },
{ "type": "Feature", "properties": { "visible_points": 0, "total_points": 66, "visibility_pct": 0.0 }, "geometry": { "type": "Point", "coordinates": [ 0.343018269084627, 51.486763812749004 ] } },
{ "type": "Feature", "properties": { "visible_points": 0, "total_points": 74, "visibility_pct": 0.0 }, "geometry": { "type": "Point", "coordinates": [ 0.343217671115371, 51.486759832141765 ] } },
{ "type": "Feature", "properties": { "visible_points": 0, "total_points": 84, "visibility_pct": 0.0 }, "geometry": { "type": "Point", "coordinates": [ 0.343417073105725, 51.486755851199099 ] } },
{ "type": "Feature", "properties": { "visible_points": 25, "total_points": 93, "visibility_pct": 26.881720430107524 }, "geometry": { "type": "Point", "coordinates": [ 0.343616475055685, 51.48675186992098 ] } },
{ "type": "Feature", "properties": { "visible_points": 27, "total_points": 99, "visibility_pct": 27.27272727272727 }, "geometry": { "type": "Point", "coordinates": [ 0.343815876965254, 51.486747888307406 ] } },
{ "type": "Feature", "properties": { "visible_points": 0, "total_points": 102, "visibility_pct": 0.0 }, "geometry": { "type": "Point", "coordinates": [ 0.344015278834415, 51.486743906358384 ] } },
{ "type": "Feature", "properties": { "visible_points": 21, "total_points": 106, "visibility_pct": 19.811320754716981 }, "geometry": { "type": "Point", "coordinates": [ 0.344214680663178, 51.486739924073902 ] } },
{ "type": "Feature", "properties": { "visible_points": 51, "total_points": 110, "visibility_pct": 46.36363636363636 }, "geometry": { "type": "Point", "coordinates": [ 0.344414082451533, 51.486735941453993 ] } },
{ "type": "Feature", "properties": { "visible_points": 57, "total_points": 114, "visibility_pct": 50.0 }, "geometry": { "type": "Point", "coordinates": [ 0.344613484199478, 51.486731958498616 ] } },
{ "type": "Feature", "properties": { "visible_points": 58, "total_points": 118, "visibility_pct": 49.152542372881356 }, "geometry": { "type": "Point", "coordinates": [ 0.34481288590701, 51.486727975207792 ] } },
{ "type": "Feature", "properties": { "visible_points": 59, "total_points": 118, "visibility_pct": 50.0 }, "geometry": { "type": "Point", "coordinates": [ 0.345012287574126, 51.486723991581535 ] } },
{ "type": "Feature", "properties": { "visible_points": 64, "total_points": 115, "visibility_pct": 55.652173913043477 }, "geometry": { "type": "Point", "coordinates": [ 0.345211689200826, 51.48672000761983 ] } },
{ "type": "Feature", "properties": { "visible_points": 60, "total_points": 111, "visibility_pct": 54.054054054054056 }, "geometry": { "type": "Point", "coordinates": [ 0.345411090787102, 51.486716023322685 ] } },
{ "type": "Feature", "properties": { "visible_points": 55, "total_points": 105, "visibility_pct": 52.380952380952387 }, "geometry": { "type": "Point", "coordinates": [ 0.345610492332949, 51.486712038690058 ] } },
{ "type": "Feature", "properties": { "visible_points": 46, "total_points": 96, "visibility_pct": 47.916666666666671 }, "geometry": { "type": "Point", "coordinates": [ 0.345809893838373, 51.486708053722005 ] } },
{ "type": "Feature", "properties": { "visible_points": 39, "total_points": 85, "visibility_pct": 45.882352941176471 }, "geometry": { "type": "Point", "coordinates": [ 0.346009295303363, 51.486704068418526 ] } },
{ "type": "Feature", "properties": { "visible_points": 31, "total_points": 73, "visibility_pct": 42.465753424657535 }, "geometry": { "type": "Point", "coordinates": [ 0.346208696727915, 51.486700082779592 ] } },
{ "type": "Feature", "properties": { "visible_points": 10, "total_points": 61, "visibility_pct": 16.393442622950818 }, "geometry": { "type": "Point", "coordinates": [ 0.346408098112032, 51.486696096805218 ] } },
{ "type": "Feature", "properties": { "visible_points": 1, "total_points": 72, "visibility_pct": 1.3888888888888888 }, "geometry": { "type": "Point", "coordinates": [ 0.342924092848504, 51.486873610553801 ] } },
{ "type": "Feature", "properties": { "visible_points": 0, "total_points": 79, "visibility_pct": 0.0 }, "geometry": { "type": "Point", "coordinates": [ 0.343123495295602, 51.486869630053874 ] } },
{ "type": "Feature", "properties": { "visible_points": 6, "total_points": 87, "visibility_pct": 6.8965517241379306 }, "geometry": { "type": "Point", "coordinates": [ 0.343322897702312, 51.48686564921848 ] } },
{ "type": "Feature", "properties": { "visible_points": 26, "total_points": 96, "visibility_pct": 27.083333333333332 }, "geometry": { "type": "Point", "coordinates": [ 0.343522300068631, 51.486861668047638 ] } },
{ "type": "Feature", "properties": { "visible_points": 28, "total_points": 105, "visibility_pct": 26.666666666666668 }, "geometry": { "type": "Point", "coordinates": [ 0.343721702394557, 51.486857686541356 ] } },
{ "type": "Feature", "properties": { "visible_points": 30, "total_points": 108, "visibility_pct": 27.777777777777779 }, "geometry": { "type": "Point", "coordinates": [ 0.343921104680075, 51.486853704699598 ] } },
{ "type": "Feature", "properties": { "visible_points": 29, "total_points": 111, "visibility_pct": 26.126126126126124 }, "geometry": { "type": "Point", "coordinates": [ 0.344120506925203, 51.4868497225224 ] } },
{ "type": "Feature", "properties": { "visible_points": 50, "total_points": 114, "visibility_pct": 43.859649122807014 }, "geometry": { "type": "Point", "coordinates": [ 0.344319909129919, 51.486845740009763 ] } },
{ "type": "Feature", "properties": { "visible_points": 54, "total_points": 117, "visibility_pct": 46.153846153846153 }, "geometry": { "type": "Point", "coordinates": [ 0.344519311294224, 51.486841757161677 ] } },
{ "type": "Feature", "properties": { "visible_points": 52, "total_points": 117, "visibility_pct": 44.444444444444443 }, "geometry": { "type": "Point", "coordinates": [ 0.344718713418127, 51.486837773978117 ] } },
{ "type": "Feature", "properties": { "visible_points": 56, "total_points": 115, "visibility_pct": 48.695652173913047 }, "geometry": { "type": "Point", "coordinates": [ 0.344918115501604, 51.486833790459137 ] } },
{ "type": "Feature", "properties": { "visible_points": 57, "total_points": 111, "visibility_pct": 51.351351351351347 }, "geometry": { "type": "Point", "coordinates": [ 0.345117517544675, 51.486829806604689 ] } },
{ "type": "Feature", "properties": { "visible_points": 61, "total_points": 106, "visibility_pct": 57.547169811320757 }, "geometry": { "type": "Point", "coordinates": [ 0.345316919547314, 51.486825822414794 ] } },
{ "type": "Feature", "properties": { "visible_points": 53, "total_points": 100, "visibility_pct": 53.0 }, "geometry": { "type": "Point", "coordinates": [ 0.34551632150954, 51.486821837889458 ] } },
{ "type": "Feature", "properties": { "visible_points": 49, "total_points": 93, "visibility_pct": 52.688172043010752 }, "geometry": { "type": "Point", "coordinates": [ 0.345715723431327, 51.48681785302869 ] } },
{ "type": "Feature", "properties": { "visible_points": 40, "total_points": 84, "visibility_pct": 47.619047619047613 }, "geometry": { "type": "Point", "coordinates": [ 0.345915125312689, 51.486813867832439 ] } },
{ "type": "Feature", "properties": { "visible_points": 26, "total_points": 73, "visibility_pct": 35.61643835616438 }, "geometry": { "type": "Point", "coordinates": [ 0.346114527153619, 51.48680988230079 ] } },
{ "type": "Feature", "properties": { "visible_points": 0, "total_points": 85, "visibility_pct": 0.0 }, "geometry": { "type": "Point", "coordinates": [ 0.343029319099886, 51.486979427937612 ] } },
{ "type": "Feature", "properties": { "visible_points": 14, "total_points": 92, "visibility_pct": 15.217391304347828 }, "geometry": { "type": "Point", "coordinates": [ 0.343228721922954, 51.486975447209517 ] } },
{ "type": "Feature", "properties": { "visible_points": 18, "total_points": 99, "visibility_pct": 18.181818181818183 }, "geometry": { "type": "Point", "coordinates": [ 0.343428124705629, 51.486971466145945 ] } },
{ "type": "Feature", "properties": { "visible_points": 23, "total_points": 108, "visibility_pct": 21.296296296296298 }, "geometry": { "type": "Point", "coordinates": [ 0.343627527447918, 51.486967484746941 ] } },
{ "type": "Feature", "properties": { "visible_points": 21, "total_points": 112, "visibility_pct": 18.75 }, "geometry": { "type": "Point", "coordinates": [ 0.343826930149799, 51.48696350301249 ] } },
{ "type": "Feature", "properties": { "visible_points": 24, "total_points": 114, "visibility_pct": 21.052631578947366 }, "geometry": { "type": "Point", "coordinates": [ 0.344026332811286, 51.48695952094257 ] } },
{ "type": "Feature", "properties": { "visible_points": 52, "total_points": 116, "visibility_pct": 44.827586206896555 }, "geometry": { "type": "Point", "coordinates": [ 0.344225735432366, 51.486955538537195 ] } },
{ "type": "Feature", "properties": { "visible_points": 57, "total_points": 116, "visibility_pct": 49.137931034482754 }, "geometry": { "type": "Point", "coordinates": [ 0.34442513801304, 51.486951555796388 ] } },
{ "type": "Feature", "properties": { "visible_points": 53, "total_points": 114, "visibility_pct": 46.491228070175438 }, "geometry": { "type": "Point", "coordinates": [ 0.344624540553308, 51.486947572720105 ] } },
{ "type": "Feature", "properties": { "visible_points": 53, "total_points": 111, "visibility_pct": 47.747747747747752 }, "geometry": { "type": "Point", "coordinates": [ 0.344823943053157, 51.486943589308396 ] } },
{ "type": "Feature", "properties": { "visible_points": 50, "total_points": 106, "visibility_pct": 47.169811320754718 }, "geometry": { "type": "Point", "coordinates": [ 0.345023345512591, 51.486939605561233 ] } },
{ "type": "Feature", "properties": { "visible_points": 57, "total_points": 100, "visibility_pct": 56.999999999999993 }, "geometry": { "type": "Point", "coordinates": [ 0.345222747931605, 51.486935621478608 ] } },
{ "type": "Feature", "properties": { "visible_points": 54, "total_points": 95, "visibility_pct": 56.84210526315789 }, "geometry": { "type": "Point", "coordinates": [ 0.345422150310198, 51.486931637060536 ] } },
{ "type": "Feature", "properties": { "visible_points": 45, "total_points": 88, "visibility_pct": 51.136363636363633 }, "geometry": { "type": "Point", "coordinates": [ 0.345621552648364, 51.486927652307031 ] } },
{ "type": "Feature", "properties": { "visible_points": 35, "total_points": 80, "visibility_pct": 43.75 }, "geometry": { "type": "Point", "coordinates": [ 0.345820954946099, 51.486923667218065 ] } },
{ "type": "Feature", "properties": { "visible_points": 4, "total_points": 91, "visibility_pct": 4.395604395604396 }, "geometry": { "type": "Point", "coordinates": [ 0.342935142528217, 51.487089225793021 ] } },
{ "type": "Feature", "properties": { "visible_points": 16, "total_points": 98, "visibility_pct": 16.326530612244898 }, "geometry": { "type": "Point", "coordinates": [ 0.343134545767644, 51.487085245172217 ] } },
{ "type": "Feature", "properties": { "visible_points": 19, "total_points": 105, "visibility_pct": 18.095238095238095 }, "geometry": { "type": "Point", "coordinates": [ 0.343333948966683, 51.487081264215931 ] } },
{ "type": "Feature", "properties": { "visible_points": 24, "total_points": 111, "visibility_pct": 21.621621621621621 }, "geometry": { "type": "Point", "coordinates": [ 0.343533352125327, 51.487077282924211 ] } },
{ "type": "Feature", "properties": { "visible_points": 27, "total_points": 116, "visibility_pct": 23.275862068965516 }, "geometry": { "type": "Point", "coordinates": [ 0.343732755243579, 51.487073301297023 ] } },
{ "type": "Feature", "properties": { "visible_points": 26, "total_points": 117, "visibility_pct": 22.222222222222221 }, "geometry": { "type": "Point", "coordinates": [ 0.34393215832143, 51.487069319334388 ] } },
{ "type": "Feature", "properties": { "visible_points": 30, "total_points": 117, "visibility_pct": 25.641025641025639 }, "geometry": { "type": "Point", "coordinates": [ 0.344131561358877, 51.487065337036299 ] } },
{ "type": "Feature", "properties": { "visible_points": 42, "total_points": 115, "visibility_pct": 36.521739130434781 }, "geometry": { "type": "Point", "coordinates": [ 0.344330964355916, 51.487061354402748 ] } },
{ "type": "Feature", "properties": { "visible_points": 52, "total_points": 112, "visibility_pct": 46.428571428571431 }, "geometry": { "type": "Point", "coordinates": [ 0.344530367312552, 51.487057371433778 ] } },
{ "type": "Feature", "properties": { "visible_points": 52, "total_points": 107, "visibility_pct": 48.598130841121495 }, "geometry": { "type": "Point", "coordinates": [ 0.344729770228772, 51.487053388129318 ] } },
{ "type": "Feature", "properties": { "visible_points": 48, "total_points": 101, "visibility_pct": 47.524752475247524 }, "geometry": { "type": "Point", "coordinates": [ 0.344929173104579, 51.487049404489419 ] } },
{ "type": "Feature", "properties": { "visible_points": 50, "total_points": 95, "visibility_pct": 52.631578947368418 }, "geometry": { "type": "Point", "coordinates": [ 0.345128575939965, 51.487045420514072 ] } },
{ "type": "Feature", "properties": { "visible_points": 48, "total_points": 89, "visibility_pct": 53.932584269662918 }, "geometry": { "type": "Point", "coordinates": [ 0.345327978734932, 51.487041436203278 ] } },
{ "type": "Feature", "properties": { "visible_points": 0, "total_points": 82, "visibility_pct": 0.0 }, "geometry": { "type": "Point", "coordinates": [ 0.345527381489472, 51.487037451557036 ] } },
{ "type": "Feature", "properties": { "visible_points": 0, "total_points": 103, "visibility_pct": 0.0 }, "geometry": { "type": "Point", "coordinates": [ 0.34304036923638, 51.487195043106553 ] } },
{ "type": "Feature", "properties": { "visible_points": 15, "total_points": 110, "visibility_pct": 13.636363636363635 }, "geometry": { "type": "Point", "coordinates": [ 0.343239772851782, 51.487191062257573 ] } },
{ "type": "Feature", "properties": { "visible_points": 17, "total_points": 115, "visibility_pct": 14.782608695652174 }, "geometry": { "type": "Point", "coordinates": [ 0.343439176426791, 51.487187081073138 ] } },
{ "type": "Feature", "properties": { "visible_points": 25, "total_points": 119, "visibility_pct": 21.008403361344538 }, "geometry": { "type": "Point", "coordinates": [ 0.343638579961408, 51.487183099553235 ] } },
{ "type": "Feature", "properties": { "visible_points": 28, "total_points": 120, "visibility_pct": 23.333333333333332 }, "geometry": { "type": "Point", "coordinates": [ 0.343837983455625, 51.487179117697877 ] } },
{ "type": "Feature", "properties": { "visible_points": 35, "total_points": 117, "visibility_pct": 29.914529914529915 }, "geometry": { "type": "Point", "coordinates": [ 0.344037386909442, 51.487175135507073 ] } },
{ "type": "Feature", "properties": { "visible_points": 46, "total_points": 113, "visibility_pct": 40.707964601769916 }, "geometry": { "type": "Point", "coordinates": [ 0.344236790322855, 51.487171152980807 ] } },
{ "type": "Feature", "properties": { "visible_points": 44, "total_points": 108, "visibility_pct": 40.74074074074074 }, "geometry": { "type": "Point", "coordinates": [ 0.344436193695857, 51.487167170119086 ] } },
{ "type": "Feature", "properties": { "visible_points": 44, "total_points": 102, "visibility_pct": 43.137254901960787 }, "geometry": { "type": "Point", "coordinates": [ 0.344635597028453, 51.487163186921919 ] } },
{ "type": "Feature", "properties": { "visible_points": 44, "total_points": 96, "visibility_pct": 45.833333333333329 }, "geometry": { "type": "Point", "coordinates": [ 0.344835000320629, 51.48715920338929 ] } },
{ "type": "Feature", "properties": { "visible_points": 47, "total_points": 90, "visibility_pct": 52.222222222222229 }, "geometry": { "type": "Point", "coordinates": [ 0.345034403572392, 51.487155219521206 ] } },
{ "type": "Feature", "properties": { "visible_points": 43, "total_points": 83, "visibility_pct": 51.807228915662648 }, "geometry": { "type": "Point", "coordinates": [ 0.345233806783735, 51.48715123531769 ] } },
{ "type": "Feature", "properties": { "visible_points": 5, "total_points": 103, "visibility_pct": 4.8543689320388346 }, "geometry": { "type": "Point", "coordinates": [ 0.342946192329159, 51.487304841012566 ] } },
{ "type": "Feature", "properties": { "visible_points": 16, "total_points": 110, "visibility_pct": 14.545454545454545 }, "geometry": { "type": "Point", "coordinates": [ 0.343145596360927, 51.487300860270871 ] } },
{ "type": "Feature", "properties": { "visible_points": 17, "total_points": 115, "visibility_pct": 14.782608695652174 }, "geometry": { "type": "Point", "coordinates": [ 0.343345000352304, 51.487296879193721 ] } },
{ "type": "Feature", "properties": { "visible_points": 21, "total_points": 118, "visibility_pct": 17.796610169491526 }, "geometry": { "type": "Point", "coordinates": [ 0.343544404303285, 51.487292897781103 ] } },
{ "type": "Feature", "properties": { "visible_points": 25, "total_points": 118, "visibility_pct": 21.1864406779661 }, "geometry": { "type": "Point", "coordinates": [ 0.343743808213872, 51.48728891603303 ] } },
{ "type": "Feature", "properties": { "visible_points": 32, "total_points": 114, "visibility_pct": 28.07017543859649 }, "geometry": { "type": "Point", "coordinates": [ 0.343943212084061, 51.487284933949496 ] } },
{ "type": "Feature", "properties": { "visible_points": 45, "total_points": 109, "visibility_pct": 41.284403669724774 }, "geometry": { "type": "Point", "coordinates": [ 0.344142615913842, 51.487280951530522 ] } },
{ "type": "Feature", "properties": { "visible_points": 42, "total_points": 103, "visibility_pct": 40.776699029126213 }, "geometry": { "type": "Point", "coordinates": [ 0.344342019703222, 51.487276968776087 ] } },
{ "type": "Feature", "properties": { "visible_points": 39, "total_points": 97, "visibility_pct": 40.206185567010309 }, "geometry": { "type": "Point", "coordinates": [ 0.344541423452189, 51.487272985686189 ] } },
{ "type": "Feature", "properties": { "visible_points": 41, "total_points": 91, "visibility_pct": 45.054945054945058 }, "geometry": { "type": "Point", "coordinates": [ 0.344740827160745, 51.487269002260845 ] } },
{ "type": "Feature", "properties": { "visible_points": 35, "total_points": 84, "visibility_pct": 41.666666666666671 }, "geometry": { "type": "Point", "coordinates": [ 0.344940230828882, 51.48726501850004 ] } },
{ "type": "Feature", "properties": { "visible_points": 0, "total_points": 66, "visibility_pct": 0.0 }, "geometry": { "type": "Point", "coordinates": [ 0.34225380145927, 51.487426578780692 ] } },
{ "type": "Feature", "properties": { "visible_points": 8, "total_points": 79, "visibility_pct": 10.126582278481013 }, "geometry": { "type": "Point", "coordinates": [ 0.342453206028553, 51.48742259915268 ] } },
{ "type": "Feature", "properties": { "visible_points": 14, "total_points": 91, "visibility_pct": 15.384615384615385 }, "geometry": { "type": "Point", "coordinates": [ 0.342652610557455, 51.487418619189178 ] } },
{ "type": "Feature", "properties": { "visible_points": 0, "total_points": 102, "visibility_pct": 0.0 }, "geometry": { "type": "Point", "coordinates": [ 0.342852015045976, 51.487414638890229 ] } },
{ "type": "Feature", "properties": { "visible_points": 5, "total_points": 111, "visibility_pct": 4.5045045045045047 }, "geometry": { "type": "Point", "coordinates": [ 0.343051419494112, 51.487410658255826 ] } },
{ "type": "Feature", "properties": { "visible_points": 0, "total_points": 115, "visibility_pct": 0.0 }, "geometry": { "type": "Point", "coordinates": [ 0.343250823901861, 51.487406677285961 ] } },
{ "type": "Feature", "properties": { "visible_points": 16, "total_points": 117, "visibility_pct": 13.675213675213676 }, "geometry": { "type": "Point", "coordinates": [ 0.34345022826921, 51.487402695980627 ] } },
{ "type": "Feature", "properties": { "visible_points": 23, "total_points": 116, "visibility_pct": 19.827586206896552 }, "geometry": { "type": "Point", "coordinates": [ 0.343649632596169, 51.487398714339832 ] } },
{ "type": "Feature", "properties": { "visible_points": 28, "total_points": 111, "visibility_pct": 25.225225225225223 }, "geometry": { "type": "Point", "coordinates": [ 0.343849036882728, 51.48739473236359 ] } },
{ "type": "Feature", "properties": { "visible_points": 42, "total_points": 105, "visibility_pct": 40.0 }, "geometry": { "type": "Point", "coordinates": [ 0.344048441128884, 51.487390750051894 ] } },
{ "type": "Feature", "properties": { "visible_points": 38, "total_points": 99, "visibility_pct": 38.383838383838381 }, "geometry": { "type": "Point", "coordinates": [ 0.344247845334639, 51.487386767404736 ] } },
{ "type": "Feature", "properties": { "visible_points": 36, "total_points": 92, "visibility_pct": 39.130434782608695 }, "geometry": { "type": "Point", "coordinates": [ 0.344447249499982, 51.487382784422124 ] } },
{ "type": "Feature", "properties": { "visible_points": 30, "total_points": 85, "visibility_pct": 35.294117647058826 }, "geometry": { "type": "Point", "coordinates": [ 0.344646653624915, 51.487378801104036 ] } },
{ "type": "Feature", "properties": { "visible_points": 0, "total_points": 62, "visibility_pct": 0.0 }, "geometry": { "type": "Point", "coordinates": [ 0.342159622551022, 51.487536376308149 ] } },
{ "type": "Feature", "properties": { "visible_points": 0, "total_points": 75, "visibility_pct": 0.0 }, "geometry": { "type": "Point", "coordinates": [ 0.342359027536671, 51.487532396787401 ] } },
{ "type": "Feature", "properties": { "visible_points": 0, "total_points": 88, "visibility_pct": 0.0 }, "geometry": { "type": "Point", "coordinates": [ 0.342558432481943, 51.48752841693122 ] } },
{ "type": "Feature", "properties": { "visible_points": 19, "total_points": 100, "visibility_pct": 19.0 }, "geometry": { "type": "Point", "coordinates": [ 0.34275783738683, 51.487524436739569 ] } },
{ "type": "Feature", "properties": { "visible_points": 20, "total_points": 110, "visibility_pct": 18.181818181818183 }, "geometry": { "type": "Point", "coordinates": [ 0.342957242251333, 51.487520456212437 ] } },
{ "type": "Feature", "properties": { "visible_points": 0, "total_points": 116, "visibility_pct": 0.0 }, "geometry": { "type": "Point", "coordinates": [ 0.343156647075451, 51.487516475349864 ] } },
{ "type": "Feature", "properties": { "visible_points": 0, "total_points": 116, "visibility_pct": 0.0 }, "geometry": { "type": "Point", "coordinates": [ 0.343356051859177, 51.487512494151815 ] } },
{ "type": "Feature", "properties": { "visible_points": 23, "total_points": 115, "visibility_pct": 20.0 }, "geometry": { "type": "Point", "coordinates": [ 0.343555456602508, 51.487508512618312 ] } },
{ "type": "Feature", "properties": { "visible_points": 33, "total_points": 109, "visibility_pct": 30.275229357798167 }, "geometry": { "type": "Point", "coordinates": [ 0.343754861305444, 51.487504530749355 ] } },
{ "type": "Feature", "properties": { "visible_points": 35, "total_points": 103, "visibility_pct": 33.980582524271846 }, "geometry": { "type": "Point", "coordinates": [ 0.343954265967975, 51.487500548544936 ] } },
{ "type": "Feature", "properties": { "visible_points": 30, "total_points": 96, "visibility_pct": 31.25 }, "geometry": { "type": "Point", "coordinates": [ 0.344153670590104, 51.487496566005049 ] } },
{ "type": "Feature", "properties": { "visible_points": 26, "total_points": 88, "visibility_pct": 29.545454545454547 }, "geometry": { "type": "Point", "coordinates": [ 0.34435307517183, 51.487492583129715 ] } },
{ "type": "Feature", "properties": { "visible_points": 0, "total_points": 80, "visibility_pct": 0.0 }, "geometry": { "type": "Point", "coordinates": [ 0.344552479713138, 51.487488599918919 ] } },
{ "type": "Feature", "properties": { "visible_points": 0, "total_points": 72, "visibility_pct": 0.0 }, "geometry": { "type": "Point", "coordinates": [ 0.342264848668817, 51.487642194393814 ] } },
{ "type": "Feature", "properties": { "visible_points": 0, "total_points": 85, "visibility_pct": 0.0 }, "geometry": { "type": "Point", "coordinates": [ 0.342464254030456, 51.48763821464491 ] } },
{ "type": "Feature", "properties": { "visible_points": 22, "total_points": 97, "visibility_pct": 22.680412371134022 }, "geometry": { "type": "Point", "coordinates": [ 0.342663659351717, 51.487634234560552 ] } },
{ "type": "Feature", "properties": { "visible_points": 23, "total_points": 109, "visibility_pct": 21.100917431192663 }, "geometry": { "type": "Point", "coordinates": [ 0.342863064632591, 51.487630254140711 ] } },
{ "type": "Feature", "properties": { "visible_points": 20, "total_points": 117, "visibility_pct": 17.094017094017094 }, "geometry": { "type": "Point", "coordinates": [ 0.343062469873083, 51.487626273385416 ] } },
{ "type": "Feature", "properties": { "visible_points": 0, "total_points": 116, "visibility_pct": 0.0 }, "geometry": { "type": "Point", "coordinates": [ 0.34326187507318, 51.48762229229466 ] } },
{ "type": "Feature", "properties": { "visible_points": 3, "total_points": 114, "visibility_pct": 2.6315789473684208 }, "geometry": { "type": "Point", "coordinates": [ 0.343461280232889, 51.487618310868456 ] } },
{ "type": "Feature", "properties": { "visible_points": 21, "total_points": 109, "visibility_pct": 19.26605504587156 }, "geometry": { "type": "Point", "coordinates": [ 0.3436606853522, 51.487614329106769 ] } },
{ "type": "Feature", "properties": { "visible_points": 31, "total_points": 102, "visibility_pct": 30.392156862745097 }, "geometry": { "type": "Point", "coordinates": [ 0.343860090431109, 51.487610347009628 ] } },
{ "type": "Feature", "properties": { "visible_points": 23, "total_points": 94, "visibility_pct": 24.468085106382979 }, "geometry": { "type": "Point", "coordinates": [ 0.34405949546962, 51.487606364577033 ] } },
{ "type": "Feature", "properties": { "visible_points": 0, "total_points": 86, "visibility_pct": 0.0 }, "geometry": { "type": "Point", "coordinates": [ 0.344258900467724, 51.487602381808976 ] } },
{ "type": "Feature", "properties": { "visible_points": 0, "total_points": 81, "visibility_pct": 0.0 }, "geometry": { "type": "Point", "coordinates": [ 0.342370075202998, 51.487748012330258 ] } },
{ "type": "Feature", "properties": { "visible_points": 8, "total_points": 94, "visibility_pct": 8.5106382978723403 }, "geometry": { "type": "Point", "coordinates": [ 0.34256948094063, 51.487744032353184 ] } },
{ "type": "Feature", "properties": { "visible_points": 25, "total_points": 106, "visibility_pct": 23.584905660377359 }, "geometry": { "type": "Point", "coordinates": [ 0.342768886637882, 51.48774005204065 ] } },
{ "type": "Feature", "properties": { "visible_points": 27, "total_points": 116, "visibility_pct": 23.275862068965516 }, "geometry": { "type": "Point", "coordinates": [ 0.342968292294744, 51.487736071392625 ] } },
{ "type": "Feature", "properties": { "visible_points": 0, "total_points": 117, "visibility_pct": 0.0 }, "geometry": { "type": "Point", "coordinates": [ 0.343167697911222, 51.487732090409168 ] } },
{ "type": "Feature", "properties": { "visible_points": 0, "total_points": 114, "visibility_pct": 0.0 }, "geometry": { "type": "Point", "coordinates": [ 0.343367103487305, 51.487728109090249 ] } },
{ "type": "Feature", "properties": { "visible_points": 2, "total_points": 109, "visibility_pct": 1.834862385321101 }, "geometry": { "type": "Point", "coordinates": [ 0.343566509022996, 51.487724127435833 ] } },
{ "type": "Feature", "properties": { "visible_points": 9, "total_points": 102, "visibility_pct": 8.8235294117647065 }, "geometry": { "type": "Point", "coordinates": [ 0.343765914518289, 51.487720145445991 ] } },
{ "type": "Feature", "properties": { "visible_points": 0, "total_points": 94, "visibility_pct": 0.0 }, "geometry": { "type": "Point", "coordinates": [ 0.343965319973176, 51.487716163120666 ] } },
{ "type": "Feature", "properties": { "visible_points": 0, "total_points": 78, "visibility_pct": 0.0 }, "geometry": { "type": "Point", "coordinates": [ 0.342275895999563, 51.487857809987254 ] } },
{ "type": "Feature", "properties": { "visible_points": 0, "total_points": 91, "visibility_pct": 0.0 }, "geometry": { "type": "Point", "coordinates": [ 0.34247530215357, 51.487853830117473 ] } },
{ "type": "Feature", "properties": { "visible_points": 23, "total_points": 103, "visibility_pct": 22.330097087378643 }, "geometry": { "type": "Point", "coordinates": [ 0.342674708267196, 51.487849849912223 ] } },
{ "type": "Feature", "properties": { "visible_points": 27, "total_points": 113, "visibility_pct": 23.893805309734514 }, "geometry": { "type": "Point", "coordinates": [ 0.34287411434044, 51.487845869371512 ] } },
{ "type": "Feature", "properties": { "visible_points": 28, "total_points": 118, "visibility_pct": 23.728813559322035 }, "geometry": { "type": "Point", "coordinates": [ 0.343073520373291, 51.487841888495332 ] } },
{ "type": "Feature", "properties": { "visible_points": 0, "total_points": 115, "visibility_pct": 0.0 }, "geometry": { "type": "Point", "coordinates": [ 0.343272926365759, 51.487837907283691 ] } },
{ "type": "Feature", "properties": { "visible_points": 1, "total_points": 110, "visibility_pct": 0.90909090909090906 }, "geometry": { "type": "Point", "coordinates": [ 0.343472332317827, 51.487833925736588 ] } },
{ "type": "Feature", "properties": { "visible_points": 0, "total_points": 103, "visibility_pct": 0.0 }, "geometry": { "type": "Point", "coordinates": [ 0.343671738229502, 51.487829943854031 ] } },
{ "type": "Feature", "properties": { "visible_points": 0, "total_points": 86, "visibility_pct": 0.0 }, "geometry": { "type": "Point", "coordinates": [ 0.342381122990532, 51.487963627853411 ] } },
{ "type": "Feature", "properties": { "visible_points": 0, "total_points": 98, "visibility_pct": 0.0 }, "geometry": { "type": "Point", "coordinates": [ 0.342580529520535, 51.48795964775546 ] } },
{ "type": "Feature", "properties": { "visible_points": 27, "total_points": 109, "visibility_pct": 24.770642201834864 }, "geometry": { "type": "Point", "coordinates": [ 0.342779936010156, 51.487955667322034 ] } },
{ "type": "Feature", "properties": { "visible_points": 28, "total_points": 116, "visibility_pct": 24.137931034482758 }, "geometry": { "type": "Point", "coordinates": [ 0.342979342459393, 51.487951686553153 ] } },
{ "type": "Feature", "properties": { "visible_points": 25, "total_points": 116, "visibility_pct": 21.551724137931032 }, "geometry": { "type": "Point", "coordinates": [ 0.343178748868238, 51.487947705448804 ] } },
{ "type": "Feature", "properties": { "visible_points": 0, "total_points": 111, "visibility_pct": 0.0 }, "geometry": { "type": "Point", "coordinates": [ 0.343378155236691, 51.487943724008979 ] } },
{ "type": "Feature", "properties": { "visible_points": 1, "total_points": 103, "visibility_pct": 0.97087378640776689 }, "geometry": { "type": "Point", "coordinates": [ 0.343577561564751, 51.487939742233699 ] } },
{ "type": "Feature", "properties": { "visible_points": 0, "total_points": 78, "visibility_pct": 0.0 }, "geometry": { "type": "Point", "coordinates": [ 0.342286943451512, 51.488073425561012 ] } },
{ "type": "Feature", "properties": { "visible_points": 0, "total_points": 91, "visibility_pct": 0.0 }, "geometry": { "type": "Point", "coordinates": [ 0.342486350397898, 51.488069445570346 ] } },
{ "type": "Feature", "properties": { "visible_points": 25, "total_points": 103, "visibility_pct": 24.271844660194176 }, "geometry": { "type": "Point", "coordinates": [ 0.342685757303896, 51.488065465244226 ] } },
{ "type": "Feature", "properties": { "visible_points": 28, "total_points": 113, "visibility_pct": 24.778761061946902 }, "geometry": { "type": "Point", "coordinates": [ 0.342885164169516, 51.48806148458263 ] } },
{ "type": "Feature", "properties": { "visible_points": 29, "total_points": 116, "visibility_pct": 25.0 }, "geometry": { "type": "Point", "coordinates": [ 0.343084570994747, 51.488057503585573 ] } },
{ "type": "Feature", "properties": { "visible_points": 26, "total_points": 112, "visibility_pct": 23.214285714285715 }, "geometry": { "type": "Point", "coordinates": [ 0.343283977779584, 51.488053522253026 ] } },
{ "type": "Feature", "properties": { "visible_points": 0, "total_points": 103, "visibility_pct": 0.0 }, "geometry": { "type": "Point", "coordinates": [ 0.343483384524028, 51.488049540585052 ] } },
{ "type": "Feature", "properties": { "visible_points": 2, "total_points": 94, "visibility_pct": 2.1276595744680851 }, "geometry": { "type": "Point", "coordinates": [ 0.343682791228077, 51.488045558581575 ] } },
{ "type": "Feature", "properties": { "visible_points": 1, "total_points": 82, "visibility_pct": 1.2195121951219512 }, "geometry": { "type": "Point", "coordinates": [ 0.342392170899274, 51.488179243356889 ] } },
{ "type": "Feature", "properties": { "visible_points": 0, "total_points": 94, "visibility_pct": 0.0 }, "geometry": { "type": "Point", "coordinates": [ 0.34259157822166, 51.488175263138075 ] } },
{ "type": "Feature", "properties": { "visible_points": 24, "total_points": 106, "visibility_pct": 22.641509433962266 }, "geometry": { "type": "Point", "coordinates": [ 0.342790985503661, 51.488171282583764 ] } },
{ "type": "Feature", "properties": { "visible_points": 28, "total_points": 115, "visibility_pct": 24.347826086956523 }, "geometry": { "type": "Point", "coordinates": [ 0.342990392745277, 51.488167301693998 ] } },
{ "type": "Feature", "properties": { "visible_points": 27, "total_points": 112, "visibility_pct": 24.107142857142858 }, "geometry": { "type": "Point", "coordinates": [ 0.343189799946504, 51.488163320468757 ] } },
{ "type": "Feature", "properties": { "visible_points": 0, "total_points": 103, "visibility_pct": 0.0 }, "geometry": { "type": "Point", "coordinates": [ 0.343389207107335, 51.488159338908055 ] } },
{ "type": "Feature", "properties": { "visible_points": 0, "total_points": 93, "visibility_pct": 0.0 }, "geometry": { "type": "Point", "coordinates": [ 0.343588614227775, 51.488155357011863 ] } },
{ "type": "Feature", "properties": { "visible_points": 0, "total_points": 83, "visibility_pct": 0.0 }, "geometry": { "type": "Point", "coordinates": [ 0.34378802130781, 51.48815137478023 ] } },
{ "type": "Feature", "properties": { "visible_points": 0, "total_points": 83, "visibility_pct": 0.0 }, "geometry": { "type": "Point", "coordinates": [ 0.342497398763435, 51.488285061003566 ] } },
{ "type": "Feature", "properties": { "visible_points": 19, "total_points": 94, "visibility_pct": 20.212765957446805 }, "geometry": { "type": "Point", "coordinates": [ 0.342696806461825, 51.488281080556554 ] } },
{ "type": "Feature", "properties": { "visible_points": 23, "total_points": 103, "visibility_pct": 22.330097087378643 }, "geometry": { "type": "Point", "coordinates": [ 0.342896214119826, 51.488277099774081 ] } },
{ "type": "Feature", "properties": { "visible_points": 26, "total_points": 106, "visibility_pct": 24.528301886792452 }, "geometry": { "type": "Point", "coordinates": [ 0.343095621737444, 51.488273118656139 ] } },
{ "type": "Feature", "properties": { "visible_points": 21, "total_points": 100, "visibility_pct": 21.0 }, "geometry": { "type": "Point", "coordinates": [ 0.343295029314668, 51.488269137202721 ] } },
{ "type": "Feature", "properties": { "visible_points": 0, "total_points": 91, "visibility_pct": 0.0 }, "geometry": { "type": "Point", "coordinates": [ 0.343494436851497, 51.488265155413835 ] } },
{ "type": "Feature", "properties": { "visible_points": 0, "total_points": 81, "visibility_pct": 0.0 }, "geometry": { "type": "Point", "coordinates": [ 0.343693844347929, 51.488261173289473 ] } },
{ "type": "Feature", "properties": { "visible_points": 4, "total_points": 71, "visibility_pct": 5.6338028169014089 }, "geometry": { "type": "Point", "coordinates": [ 0.343893251803957, 51.488257190829664 ] } },
{ "type": "Feature", "properties": { "visible_points": 0, "total_points": 71, "visibility_pct": 0.0 }, "geometry": { "type": "Point", "coordinates": [ 0.342403218929226, 51.488394858840714 ] } },
{ "type": "Feature", "properties": { "visible_points": 0, "total_points": 81, "visibility_pct": 0.0 }, "geometry": { "type": "Point", "coordinates": [ 0.342602627044002, 51.488390878501008 ] } },
{ "type": "Feature", "properties": { "visible_points": 18, "total_points": 90, "visibility_pct": 20.0 }, "geometry": { "type": "Point", "coordinates": [ 0.342802035118399, 51.488386897825819 ] } },
{ "type": "Feature", "properties": { "visible_points": 21, "total_points": 95, "visibility_pct": 22.105263157894736 }, "geometry": { "type": "Point", "coordinates": [ 0.3430014431524, 51.488382916815162 ] } },
{ "type": "Feature", "properties": { "visible_points": 22, "total_points": 95, "visibility_pct": 23.157894736842106 }, "geometry": { "type": "Point", "coordinates": [ 0.343200851146022, 51.488378935469036 ] } },
{ "type": "Feature", "properties": { "visible_points": 0, "total_points": 87, "visibility_pct": 0.0 }, "geometry": { "type": "Point", "coordinates": [ 0.343400259099243, 51.488374953787449 ] } },
{ "type": "Feature", "properties": { "visible_points": 0, "total_points": 78, "visibility_pct": 0.0 }, "geometry": { "type": "Point", "coordinates": [ 0.343599667012067, 51.488370971770379 ] } },
{ "type": "Feature", "properties": { "visible_points": 5, "total_points": 68, "visibility_pct": 7.3529411764705888 }, "geometry": { "type": "Point", "coordinates": [ 0.343799074884495, 51.488366989417841 ] } },
{ "type": "Feature", "properties": { "visible_points": 3, "total_points": 69, "visibility_pct": 4.3478260869565215 }, "geometry": { "type": "Point", "coordinates": [ 0.342508447250191, 51.488500676417097 ] } },
{ "type": "Feature", "properties": { "visible_points": 0, "total_points": 77, "visibility_pct": 0.0 }, "geometry": { "type": "Point", "coordinates": [ 0.342707855740976, 51.488496695849221 ] } },
{ "type": "Feature", "properties": { "visible_points": 18, "total_points": 82, "visibility_pct": 21.951219512195124 }, "geometry": { "type": "Point", "coordinates": [ 0.342907264191376, 51.488492714945863 ] } },
{ "type": "Feature", "properties": { "visible_points": 0, "total_points": 86, "visibility_pct": 0.0 }, "geometry": { "type": "Point", "coordinates": [ 0.34310667260139, 51.488488733707023 ] } },
{ "type": "Feature", "properties": { "visible_points": 12, "total_points": 82, "visibility_pct": 14.634146341463413 }, "geometry": { "type": "Point", "coordinates": [ 0.343306080971009, 51.48848475213272 ] } },
{ "type": "Feature", "properties": { "visible_points": 9, "total_points": 74, "visibility_pct": 12.162162162162163 }, "geometry": { "type": "Point", "coordinates": [ 0.343505489300232, 51.488480770222928 ] } },
{ "type": "Feature", "properties": { "visible_points": 16, "total_points": 64, "visibility_pct": 25.0 }, "geometry": { "type": "Point", "coordinates": [ 0.342613675987567, 51.488606493844273 ] } },
{ "type": "Feature", "properties": { "visible_points": 0, "total_points": 70, "visibility_pct": 0.0 }, "geometry": { "type": "Point", "coordinates": [ 0.342813084854361, 51.488602513048207 ] } },
{ "type": "Feature", "properties": { "visible_points": 0, "total_points": 74, "visibility_pct": 0.0 }, "geometry": { "type": "Point", "coordinates": [ 0.343012493680774, 51.488598531916651 ] } },
{ "type": "Feature", "properties": { "visible_points": 6, "total_points": 75, "visibility_pct": 8.0 }, "geometry": { "type": "Point", "coordinates": [ 0.343211902466786, 51.488594550449633 ] } },
{ "type": "Feature", "properties": { "visible_points": 6, "total_points": 69, "visibility_pct": 8.695652173913043 }, "geometry": { "type": "Point", "coordinates": [ 0.343411311212413, 51.488590568647155 ] } },
{ "type": "Feature", "properties": { "visible_points": 3, "total_points": 58, "visibility_pct": 5.1724137931034484 }, "geometry": { "type": "Point", "coordinates": [ 0.342718905141355, 51.488712311122185 ] } },
{ "type": "Feature", "properties": { "visible_points": 4, "total_points": 62, "visibility_pct": 6.4516129032258061 }, "geometry": { "type": "Point", "coordinates": [ 0.342918314384166, 51.48870833009795 ] } }
]
}
