{
"type": "FeatureCollection",
"name": "d32daed40b23_visibility",
"crs": { "type": "name", "properties": { "name": "urn:ogc:def:crs:OGC:1.3:CRS84" } },
"features": [
{ "type": "Feature", "properties": { "visible_points": 7, "total_points": 54, "visibility_pct": 12.962962962962962 }, "geometry": { "type": "Point", "coordinates": [ 0.395479524517372, 51.521860727565191 ] } },
{ "type": "Feature", "properties": { "visible_points": 0, "total_points": 62, "visibility_pct": 0.0 }, "geometry": { "type": "Point", "coordinates": [ 0.395679071681975, 51.521856652818165 ] } },
{ "type": "Feature", "properties": { "visible_points": 10, "total_points": 69, "visibility_pct": 14.492753623188406 }, "geometry": { "type": "Point", "coordinates": [ 0.395878618800087, 51.521852577731472 ] } },
{ "type": "Feature", "properties": { "visible_points": 1, "total_points": 75, "visibility_pct": 1.3333333333333335 }, "geometry": { "type": "Point", "coordinates": [ 0.396078165871696, 51.521848502305097 ] } },
{ "type": "Feature", "properties": { "visible_points": 0, "total_points": 79, "visibility_pct": 0.0 }, "geometry": { "type": "Point", "coordinates": [ 0.396277712896807, 51.52184442653904 ] } },
{ "type": "Feature", "properties": { "visible_points": 11, "total_points": 65, "visibility_pct": 16.923076923076923 }, "geometry": { "type": "Point", "coordinates": [ 0.395584954350483, 51.521966493778294 ] } },
{ "type": "Feature", "properties": { "visible_points": 10, "total_points": 74, "visibility_pct": 13.513513513513514 }, "geometry": { "type": "Point", "coordinates": [ 0.395784501956389, 51.521962418852226 ] } },
{ "type": "Feature", "properties": { "visible_points": 0, "total_points": 81, "visibility_pct": 0.0 }, "geometry": { "type": "Point", "coordinates": [ 0.395984049515802, 51.521958343586483 ] } },
{ "type": "Feature", "properties": { "visible_points": 14, "total_points": 88, "visibility_pct": 15.909090909090908 }, "geometry": { "type": "Point", "coordinates": [ 0.396183597028711, 51.521954267981059 ] } },
{ "type": "Feature", "properties": { "visible_points": 27, "total_points": 89, "visibility_pct": 30.337078651685395 }, "geometry": { "type": "Point", "coordinates": [ 0.396383144495121, 51.521950192035973 ] } },
{ "type": "Feature", "properties": { "visible_points": 26, "total_points": 87, "visibility_pct": 29.885057471264371 }, "geometry": { "type": "Point", "coordinates": [ 0.396582691915015, 51.521946115751213 ] } },
{ "type": "Feature", "properties": { "visible_points": 25, "total_points": 84, "visibility_pct": 29.761904761904763 }, "geometry": { "type": "Point", "coordinates": [ 0.396782239288403, 51.521942039126742 ] } },
{ "type": "Feature", "properties": { "visible_points": 0, "total_points": 81, "visibility_pct": 0.0 }, "geometry": { "type": "Point", "coordinates": [ 0.396981786615273, 51.521937962162625 ] } },
{ "type": "Feature", "properties": { "visible_points": 14, "total_points": 77, "visibility_pct": 18.181818181818183 }, "geometry": { "type": "Point", "coordinates": [ 0.395690384671409, 51.522072259895211 ] } },
{ "type": "Feature", "properties": { "visible_points": 10, "total_points": 86, "visibility_pct": 11.627906976744185 }, "geometry": { "type": "Point", "coordinates": [ 0.395889932718624, 51.522068184790093 ] } },
{ "type": "Feature", "properties": { "visible_points": 26, "total_points": 94, "visibility_pct": 27.659574468085108 }, "geometry": { "type": "Point", "coordinates": [ 0.396089480719334, 51.522064109345308 ] } },
{ "type": "Feature", "properties": { "visible_points": 29, "total_points": 99, "visibility_pct": 29.292929292929294 }, "geometry": { "type": "Point", "coordinates": [ 0.39628902867355, 51.522060033560848 ] } },
{ "type": "Feature", "properties": { "visible_points": 28, "total_points": 98, "visibility_pct": 28.571428571428569 }, "geometry": { "type": "Point", "coordinates": [ 0.396488576581254, 51.522055957436692 ] } },
{ "type": "Feature", "properties": { "visible_points": 29, "total_points": 96, "visibility_pct": 30.208333333333332 }, "geometry": { "type": "Point", "coordinates": [ 0.396688124442446, 51.522051880972882 ] } },
{ "type": "Feature", "properties": { "visible_points": 31, "total_points": 93, "visibility_pct": 33.333333333333329 }, "geometry": { "type": "Point", "coordinates": [ 0.396887672257131, 51.522047804169375 ] } },
{ "type": "Feature", "properties": { "visible_points": 1, "total_points": 89, "visibility_pct": 1.1235955056179776 }, "geometry": { "type": "Point", "coordinates": [ 0.397087220025288, 51.522043727026201 ] } },
{ "type": "Feature", "properties": { "visible_points": 10, "total_points": 86, "visibility_pct": 11.627906976744185 }, "geometry": { "type": "Point", "coordinates": [ 0.39728676774693, 51.522039649543345 ] } },
{ "type": "Feature", "properties": { "visible_points": 0, "total_points": 82, "visibility_pct": 0.0 }, "geometry": { "type": "Point", "coordinates": [ 0.397486315422042, 51.522035571720821 ] } },
{ "type": "Feature", "properties": { "visible_points": 0, "total_points": 77, "visibility_pct": 0.0 }, "geometry": { "type": "Point", "coordinates": [ 0.397685863050627, 51.522031493558629 ] } },
{ "type": "Feature", "properties": { "visible_points": 16, "total_points": 78, "visibility_pct": 20.512820512820511 }, "geometry": { "type": "Point", "coordinates": [ 0.395596266945133, 51.522182100860412 ] } },
{ "type": "Feature", "properties": { "visible_points": 13, "total_points": 89, "visibility_pct": 14.606741573033707 }, "geometry": { "type": "Point", "coordinates": [ 0.395795815480153, 51.522178025915935 ] } },
{ "type": "Feature", "properties": { "visible_points": 28, "total_points": 99, "visibility_pct": 28.28282828282828 }, "geometry": { "type": "Point", "coordinates": [ 0.395995363968676, 51.522173950631782 ] } },
{ "type": "Feature", "properties": { "visible_points": 32, "total_points": 105, "visibility_pct": 30.476190476190478 }, "geometry": { "type": "Point", "coordinates": [ 0.396194912410697, 51.522169875007933 ] } },
{ "type": "Feature", "properties": { "visible_points": 32, "total_points": 108, "visibility_pct": 29.629629629629626 }, "geometry": { "type": "Point", "coordinates": [ 0.396394460806212, 51.522165799044416 ] } },
{ "type": "Feature", "properties": { "visible_points": 38, "total_points": 106, "visibility_pct": 35.849056603773583 }, "geometry": { "type": "Point", "coordinates": [ 0.396594009155214, 51.522161722741231 ] } },
{ "type": "Feature", "properties": { "visible_points": 36, "total_points": 104, "visibility_pct": 34.615384615384613 }, "geometry": { "type": "Point", "coordinates": [ 0.39679355745771, 51.522157646098357 ] } },
{ "type": "Feature", "properties": { "visible_points": 34, "total_points": 101, "visibility_pct": 33.663366336633665 }, "geometry": { "type": "Point", "coordinates": [ 0.396993105713684, 51.522153569115801 ] } },
{ "type": "Feature", "properties": { "visible_points": 22, "total_points": 98, "visibility_pct": 22.448979591836736 }, "geometry": { "type": "Point", "coordinates": [ 0.39719265392314, 51.52214949179357 ] } },
{ "type": "Feature", "properties": { "visible_points": 0, "total_points": 94, "visibility_pct": 0.0 }, "geometry": { "type": "Point", "coordinates": [ 0.397392202086068, 51.522145414131678 ] } },
{ "type": "Feature", "properties": { "visible_points": 3, "total_points": 90, "visibility_pct": 3.3333333333333335 }, "geometry": { "type": "Point", "coordinates": [ 0.397591750202471, 51.52214133613009 ] } },
{ "type": "Feature", "properties": { "visible_points": 3, "total_points": 85, "visibility_pct": 3.5294117647058822 }, "geometry": { "type": "Point", "coordinates": [ 0.397791298272344, 51.522137257788827 ] } },
{ "type": "Feature", "properties": { "visible_points": 5, "total_points": 80, "visibility_pct": 6.25 }, "geometry": { "type": "Point", "coordinates": [ 0.397990846295677, 51.522133179107875 ] } },
{ "type": "Feature", "properties": { "visible_points": 18, "total_points": 90, "visibility_pct": 20.0 }, "geometry": { "type": "Point", "coordinates": [ 0.395701697800393, 51.522287866963993 ] } },
{ "type": "Feature", "properties": { "visible_points": 0, "total_points": 100, "visibility_pct": 0.0 }, "geometry": { "type": "Point", "coordinates": [ 0.395901246776726, 51.522283791840472 ] } },
{ "type": "Feature", "properties": { "visible_points": 32, "total_points": 109, "visibility_pct": 29.357798165137616 }, "geometry": { "type": "Point", "coordinates": [ 0.396100795706554, 51.522279716377255 ] } },
{ "type": "Feature", "properties": { "visible_points": 34, "total_points": 113, "visibility_pct": 30.088495575221241 }, "geometry": { "type": "Point", "coordinates": [ 0.396300344589885, 51.522275640574378 ] } },
{ "type": "Feature", "properties": { "visible_points": 43, "total_points": 114, "visibility_pct": 37.719298245614034 }, "geometry": { "type": "Point", "coordinates": [ 0.396499893426698, 51.522271564431804 ] } },
{ "type": "Feature", "properties": { "visible_points": 44, "total_points": 112, "visibility_pct": 39.285714285714285 }, "geometry": { "type": "Point", "coordinates": [ 0.396699442217011, 51.522267487949556 ] } },
{ "type": "Feature", "properties": { "visible_points": 22, "total_points": 106, "visibility_pct": 20.754716981132077 }, "geometry": { "type": "Point", "coordinates": [ 0.397298088308823, 51.522255256464753 ] } },
{ "type": "Feature", "properties": { "visible_points": 0, "total_points": 102, "visibility_pct": 0.0 }, "geometry": { "type": "Point", "coordinates": [ 0.397497636913046, 51.522251178623769 ] } },
{ "type": "Feature", "properties": { "visible_points": 4, "total_points": 97, "visibility_pct": 4.1237113402061851 }, "geometry": { "type": "Point", "coordinates": [ 0.39769718547074, 51.522247100443145 ] } },
{ "type": "Feature", "properties": { "visible_points": 4, "total_points": 93, "visibility_pct": 4.3010752688172049 }, "geometry": { "type": "Point", "coordinates": [ 0.397896733981897, 51.522243021922833 ] } },
{ "type": "Feature", "properties": { "visible_points": 0, "total_points": 88, "visibility_pct": 0.0 }, "geometry": { "type": "Point", "coordinates": [ 0.398096282446518, 51.522238943062817 ] } },
{ "type": "Feature", "properties": { "visible_points": 0, "total_points": 82, "visibility_pct": 0.0 }, "geometry": { "type": "Point", "coordinates": [ 0.398295830871195, 51.522234863849953 ] } },
{ "type": "Feature", "properties": { "visible_points": 12, "total_points": 95, "visibility_pct": 12.631578947368421 }, "geometry": { "type": "Point", "coordinates": [ 0.395807129143482, 51.522393632971372 ] } },
{ "type": "Feature", "properties": { "visible_points": 37, "total_points": 106, "visibility_pct": 34.905660377358487 }, "geometry": { "type": "Point", "coordinates": [ 0.396006678561125, 51.522389557668802 ] } },
{ "type": "Feature", "properties": { "visible_points": 40, "total_points": 114, "visibility_pct": 35.087719298245609 }, "geometry": { "type": "Point", "coordinates": [ 0.396206227932265, 51.52238548202655 ] } },
{ "type": "Feature", "properties": { "visible_points": 49, "total_points": 119, "visibility_pct": 41.17647058823529 }, "geometry": { "type": "Point", "coordinates": [ 0.396405777256901, 51.522381406044616 ] } },
{ "type": "Feature", "properties": { "visible_points": 53, "total_points": 119, "visibility_pct": 44.537815126050425 }, "geometry": { "type": "Point", "coordinates": [ 0.396605326535022, 51.522377329722993 ] } },
{ "type": "Feature", "properties": { "visible_points": 57, "total_points": 118, "visibility_pct": 48.305084745762713 }, "geometry": { "type": "Point", "coordinates": [ 0.396804875766635, 51.522373253061708 ] } },
{ "type": "Feature", "properties": { "visible_points": 51, "total_points": 117, "visibility_pct": 43.589743589743591 }, "geometry": { "type": "Point", "coordinates": [ 0.397004424951727, 51.522369176060714 ] } },
{ "type": "Feature", "properties": { "visible_points": 37, "total_points": 115, "visibility_pct": 32.173913043478258 }, "geometry": { "type": "Point", "coordinates": [ 0.397203974090301, 51.522365098720051 ] } },
{ "type": "Feature", "properties": { "visible_points": 2, "total_points": 112, "visibility_pct": 1.7857142857142856 }, "geometry": { "type": "Point", "coordinates": [ 0.397403523182344, 51.522361021039728 ] } },
{ "type": "Feature", "properties": { "visible_points": 2, "total_points": 109, "visibility_pct": 1.834862385321101 }, "geometry": { "type": "Point", "coordinates": [ 0.397603072227865, 51.522356943019702 ] } },
{ "type": "Feature", "properties": { "visible_points": 5, "total_points": 105, "visibility_pct": 4.7619047619047619 }, "geometry": { "type": "Point", "coordinates": [ 0.397802621226847, 51.522352864660007 ] } },
{ "type": "Feature", "properties": { "visible_points": 6, "total_points": 100, "visibility_pct": 6.0 }, "geometry": { "type": "Point", "coordinates": [ 0.398002170179297, 51.522348785960631 ] } },
{ "type": "Feature", "properties": { "visible_points": 0, "total_points": 95, "visibility_pct": 0.0 }, "geometry": { "type": "Point", "coordinates": [ 0.398201719085203, 51.522344706921565 ] } },
{ "type": "Feature", "properties": { "visible_points": 13, "total_points": 87, "visibility_pct": 14.942528735632186 }, "geometry": { "type": "Point", "coordinates": [ 0.398401267982846, 51.522340627447882 ] } },
{ "type": "Feature", "properties": { "visible_points": 7, "total_points": 77, "visibility_pct": 9.0909090909090917 }, "geometry": { "type": "Point", "coordinates": [ 0.398600816893927, 51.522336547387852 ] } },
{ "type": "Feature", "properties": { "visible_points": 12, "total_points": 90, "visibility_pct": 13.333333333333334 }, "geometry": { "type": "Point", "coordinates": [ 0.395713011068941, 51.522503474024525 ] } },
{ "type": "Feature", "properties": { "visible_points": 0, "total_points": 101, "visibility_pct": 0.0 }, "geometry": { "type": "Point", "coordinates": [ 0.395912560974399, 51.522499398882573 ] } },
{ "type": "Feature", "properties": { "visible_points": 48, "total_points": 110, "visibility_pct": 43.636363636363633 }, "geometry": { "type": "Point", "coordinates": [ 0.396112110833352, 51.52249532340096 ] } },
{ "type": "Feature", "properties": { "visible_points": 54, "total_points": 117, "visibility_pct": 46.153846153846153 }, "geometry": { "type": "Point", "coordinates": [ 0.396311660645807, 51.522491247579659 ] } },
{ "type": "Feature", "properties": { "visible_points": 56, "total_points": 120, "visibility_pct": 46.666666666666664 }, "geometry": { "type": "Point", "coordinates": [ 0.396511210411755, 51.522487171418661 ] } },
{ "type": "Feature", "properties": { "visible_points": 59, "total_points": 120, "visibility_pct": 49.166666666666664 }, "geometry": { "type": "Point", "coordinates": [ 0.396710760131184, 51.522483094917988 ] } },
{ "type": "Feature", "properties": { "visible_points": 51, "total_points": 120, "visibility_pct": 42.5 }, "geometry": { "type": "Point", "coordinates": [ 0.396910309804101, 51.522479018077647 ] } },
{ "type": "Feature", "properties": { "visible_points": 43, "total_points": 120, "visibility_pct": 35.833333333333336 }, "geometry": { "type": "Point", "coordinates": [ 0.397109859430497, 51.522474940897609 ] } },
{ "type": "Feature", "properties": { "visible_points": 19, "total_points": 120, "visibility_pct": 15.833333333333332 }, "geometry": { "type": "Point", "coordinates": [ 0.397309409010362, 51.522470863377904 ] } },
{ "type": "Feature", "properties": { "visible_points": 0, "total_points": 118, "visibility_pct": 0.0 }, "geometry": { "type": "Point", "coordinates": [ 0.397508958543715, 51.522466785518496 ] } },
{ "type": "Feature", "properties": { "visible_points": 2, "total_points": 115, "visibility_pct": 1.7391304347826086 }, "geometry": { "type": "Point", "coordinates": [ 0.397708508030524, 51.522462707319413 ] } },
{ "type": "Feature", "properties": { "visible_points": 0, "total_points": 111, "visibility_pct": 0.0 }, "geometry": { "type": "Point", "coordinates": [ 0.397908057470801, 51.522458628780669 ] } },
{ "type": "Feature", "properties": { "visible_points": 12, "total_points": 106, "visibility_pct": 11.320754716981133 }, "geometry": { "type": "Point", "coordinates": [ 0.398107606864547, 51.522454549902221 ] } },
{ "type": "Feature", "properties": { "visible_points": 13, "total_points": 99, "visibility_pct": 13.131313131313133 }, "geometry": { "type": "Point", "coordinates": [ 0.398307156224976, 51.522450470666463 ] } },
{ "type": "Feature", "properties": { "visible_points": 13, "total_points": 90, "visibility_pct": 14.444444444444443 }, "geometry": { "type": "Point", "coordinates": [ 0.398506705609909, 51.522446390864573 ] } },
{ "type": "Feature", "properties": { "visible_points": 11, "total_points": 79, "visibility_pct": 13.924050632911392 }, "geometry": { "type": "Point", "coordinates": [ 0.398706254997744, 51.522442310602401 ] } },
{ "type": "Feature", "properties": { "visible_points": 8, "total_points": 68, "visibility_pct": 11.76470588235294 }, "geometry": { "type": "Point", "coordinates": [ 0.398905804337491, 51.522438230000368 ] } },
{ "type": "Feature", "properties": { "visible_points": 15, "total_points": 85, "visibility_pct": 17.647058823529413 }, "geometry": { "type": "Point", "coordinates": [ 0.395618892553095, 51.522613314999873 ] } },
{ "type": "Feature", "properties": { "visible_points": 0, "total_points": 96, "visibility_pct": 0.0 }, "geometry": { "type": "Point", "coordinates": [ 0.395818442946374, 51.522609240018582 ] } },
{ "type": "Feature", "properties": { "visible_points": 45, "total_points": 106, "visibility_pct": 42.452830188679243 }, "geometry": { "type": "Point", "coordinates": [ 0.396017993293151, 51.522605164697588 ] } },
{ "type": "Feature", "properties": { "visible_points": 60, "total_points": 114, "visibility_pct": 52.631578947368418 }, "geometry": { "type": "Point", "coordinates": [ 0.396217543593424, 51.522601089036904 ] } },
{ "type": "Feature", "properties": { "visible_points": 63, "total_points": 119, "visibility_pct": 52.941176470588239 }, "geometry": { "type": "Point", "coordinates": [ 0.396417093847185, 51.522597013036552 ] } },
{ "type": "Feature", "properties": { "visible_points": 69, "total_points": 120, "visibility_pct": 57.5 }, "geometry": { "type": "Point", "coordinates": [ 0.396616644054447, 51.522592936696512 ] } },
{ "type": "Feature", "properties": { "visible_points": 65, "total_points": 120, "visibility_pct": 54.166666666666664 }, "geometry": { "type": "Point", "coordinates": [ 0.396816194215181, 51.522588860016789 ] } },
{ "type": "Feature", "properties": { "visible_points": 52, "total_points": 120, "visibility_pct": 43.333333333333336 }, "geometry": { "type": "Point", "coordinates": [ 0.397015744329405, 51.522584782997384 ] } },
{ "type": "Feature", "properties": { "visible_points": 0, "total_points": 120, "visibility_pct": 0.0 }, "geometry": { "type": "Point", "coordinates": [ 0.397215294397109, 51.522580705638298 ] } },
{ "type": "Feature", "properties": { "visible_points": 1, "total_points": 120, "visibility_pct": 0.83333333333333337 }, "geometry": { "type": "Point", "coordinates": [ 0.397414844418279, 51.522576627939522 ] } },
{ "type": "Feature", "properties": { "visible_points": 3, "total_points": 120, "visibility_pct": 2.5 }, "geometry": { "type": "Point", "coordinates": [ 0.397614394392927, 51.522572549901085 ] } },
{ "type": "Feature", "properties": { "visible_points": 7, "total_points": 118, "visibility_pct": 5.9322033898305087 }, "geometry": { "type": "Point", "coordinates": [ 0.397813944321035, 51.522568471522938 ] } },
{ "type": "Feature", "properties": { "visible_points": 10, "total_points": 115, "visibility_pct": 8.695652173913043 }, "geometry": { "type": "Point", "coordinates": [ 0.39801349420261, 51.522564392805116 ] } },
{ "type": "Feature", "properties": { "visible_points": 16, "total_points": 111, "visibility_pct": 14.414414414414415 }, "geometry": { "type": "Point", "coordinates": [ 0.39821304403764, 51.522560313747604 ] } },
{ "type": "Feature", "properties": { "visible_points": 5, "total_points": 102, "visibility_pct": 4.9019607843137258 }, "geometry": { "type": "Point", "coordinates": [ 0.398412593882449, 51.52255623424081 ] } },
{ "type": "Feature", "properties": { "visible_points": 15, "total_points": 91, "visibility_pct": 16.483516483516482 }, "geometry": { "type": "Point", "coordinates": [ 0.398612143761833, 51.522552154162163 ] } },
{ "type": "Feature", "properties": { "visible_points": 11, "total_points": 80, "visibility_pct": 13.75 }, "geometry": { "type": "Point", "coordinates": [ 0.398811693610475, 51.52254807372325 ] } },
{ "type": "Feature", "properties": { "visible_points": 5, "total_points": 68, "visibility_pct": 7.3529411764705888 }, "geometry": { "type": "Point", "coordinates": [ 0.399011243411024, 51.522543992944463 ] } },
{ "type": "Feature", "properties": { "visible_points": 0, "total_points": 91, "visibility_pct": 0.0 }, "geometry": { "type": "Point", "coordinates": [ 0.395724324477048, 51.522719081076794 ] } },
{ "type": "Feature", "properties": { "visible_points": 36, "total_points": 102, "visibility_pct": 35.294117647058826 }, "geometry": { "type": "Point", "coordinates": [ 0.395923875311643, 51.522715005916439 ] } },
{ "type": "Feature", "properties": { "visible_points": 62, "total_points": 111, "visibility_pct": 55.85585585585585 }, "geometry": { "type": "Point", "coordinates": [ 0.39612342609974, 51.522710930416395 ] } },
{ "type": "Feature", "properties": { "visible_points": 66, "total_points": 117, "visibility_pct": 56.410256410256409 }, "geometry": { "type": "Point", "coordinates": [ 0.396322976841326, 51.522706854576676 ] } },
{ "type": "Feature", "properties": { "visible_points": 74, "total_points": 120, "visibility_pct": 61.666666666666671 }, "geometry": { "type": "Point", "coordinates": [ 0.396522527536412, 51.52270277839726 ] } },
{ "type": "Feature", "properties": { "visible_points": 70, "total_points": 120, "visibility_pct": 58.333333333333336 }, "geometry": { "type": "Point", "coordinates": [ 0.396722078184978, 51.522698701878177 ] } },
{ "type": "Feature", "properties": { "visible_points": 62, "total_points": 120, "visibility_pct": 51.666666666666671 }, "geometry": { "type": "Point", "coordinates": [ 0.396921628787028, 51.52269462501939 ] } },
{ "type": "Feature", "properties": { "visible_points": 55, "total_points": 120, "visibility_pct": 45.833333333333329 }, "geometry": { "type": "Point", "coordinates": [ 0.39712117934256, 51.522690547820922 ] } },
{ "type": "Feature", "properties": { "visible_points": 43, "total_points": 120, "visibility_pct": 35.833333333333336 }, "geometry": { "type": "Point", "coordinates": [ 0.397320729851565, 51.522686470282785 ] } },
{ "type": "Feature", "properties": { "visible_points": 0, "total_points": 120, "visibility_pct": 0.0 }, "geometry": { "type": "Point", "coordinates": [ 0.397520280314042, 51.522682392404946 ] } },
{ "type": "Feature", "properties": { "visible_points": 10, "total_points": 120, "visibility_pct": 8.3333333333333321 }, "geometry": { "type": "Point", "coordinates": [ 0.397719830729992, 51.522678314187438 ] } },
{ "type": "Feature", "properties": { "visible_points": 0, "total_points": 120, "visibility_pct": 0.0 }, "geometry": { "type": "Point", "coordinates": [ 0.397919381099394, 51.522674235630241 ] } },
{ "type": "Feature", "properties": { "visible_points": 16, "total_points": 118, "visibility_pct": 13.559322033898304 }, "geometry": { "type": "Point", "coordinates": [ 0.398118931422269, 51.522670156733355 ] } },
{ "type": "Feature", "properties": { "visible_points": 20, "total_points": 113, "visibility_pct": 17.699115044247787 }, "geometry": { "type": "Point", "coordinates": [ 0.398318481720517, 51.522666077474867 ] } },
{ "type": "Feature", "properties": { "visible_points": 15, "total_points": 91, "visibility_pct": 16.483516483516482 }, "geometry": { "type": "Point", "coordinates": [ 0.398717582422679, 51.522657917366054 ] } },
{ "type": "Feature", "properties": { "visible_points": 0, "total_points": 79, "visibility_pct": 0.0 }, "geometry": { "type": "Point", "coordinates": [ 0.398917132732128, 51.522653836750365 ] } },
{ "type": "Feature", "properties": { "visible_points": 0, "total_points": 67, "visibility_pct": 0.0 }, "geometry": { "type": "Point", "coordinates": [ 0.399116682993477, 51.522649755794838 ] } },
{ "type": "Feature", "properties": { "visible_points": 8, "total_points": 86, "visibility_pct": 9.3023255813953494 }, "geometry": { "type": "Point", "coordinates": [ 0.395630205566411, 51.522828922057215 ] } },
{ "type": "Feature", "properties": { "visible_points": 44, "total_points": 98, "visibility_pct": 44.897959183673471 }, "geometry": { "type": "Point", "coordinates": [ 0.395829756888833, 51.522824847057521 ] } },
{ "type": "Feature", "properties": { "visible_points": 62, "total_points": 108, "visibility_pct": 57.407407407407405 }, "geometry": { "type": "Point", "coordinates": [ 0.396029308164754, 51.522820771718102 ] } },
{ "type": "Feature", "properties": { "visible_points": 70, "total_points": 115, "visibility_pct": 60.869565217391312 }, "geometry": { "type": "Point", "coordinates": [ 0.396228859394166, 51.522816696039015 ] } },
{ "type": "Feature", "properties": { "visible_points": 73, "total_points": 120, "visibility_pct": 60.833333333333329 }, "geometry": { "type": "Point", "coordinates": [ 0.396428410577083, 51.522812620020225 ] } },
{ "type": "Feature", "properties": { "visible_points": 77, "total_points": 120, "visibility_pct": 64.166666666666671 }, "geometry": { "type": "Point", "coordinates": [ 0.396627961713474, 51.522808543661768 ] } },
{ "type": "Feature", "properties": { "visible_points": 71, "total_points": 120, "visibility_pct": 59.166666666666664 }, "geometry": { "type": "Point", "coordinates": [ 0.396827512803358, 51.52280446696362 ] } },
{ "type": "Feature", "properties": { "visible_points": 63, "total_points": 120, "visibility_pct": 52.5 }, "geometry": { "type": "Point", "coordinates": [ 0.397027063846722, 51.522800389925791 ] } },
{ "type": "Feature", "properties": { "visible_points": 56, "total_points": 120, "visibility_pct": 46.666666666666664 }, "geometry": { "type": "Point", "coordinates": [ 0.397226614843564, 51.522796312548266 ] } },
{ "type": "Feature", "properties": { "visible_points": 44, "total_points": 120, "visibility_pct": 36.666666666666664 }, "geometry": { "type": "Point", "coordinates": [ 0.397426165793875, 51.522792234831066 ] } },
{ "type": "Feature", "properties": { "visible_points": 29, "total_points": 120, "visibility_pct": 24.166666666666668 }, "geometry": { "type": "Point", "coordinates": [ 0.397625716697656, 51.522788156774169 ] } },
{ "type": "Feature", "properties": { "visible_points": 0, "total_points": 120, "visibility_pct": 0.0 }, "geometry": { "type": "Point", "coordinates": [ 0.397825267554906, 51.522784078377597 ] } },
{ "type": "Feature", "properties": { "visible_points": 2, "total_points": 120, "visibility_pct": 1.6666666666666667 }, "geometry": { "type": "Point", "coordinates": [ 0.398024818365614, 51.522779999641337 ] } },
{ "type": "Feature", "properties": { "visible_points": 19, "total_points": 120, "visibility_pct": 15.833333333333332 }, "geometry": { "type": "Point", "coordinates": [ 0.398224369129786, 51.522775920565387 ] } },
{ "type": "Feature", "properties": { "visible_points": 19, "total_points": 102, "visibility_pct": 18.627450980392158 }, "geometry": { "type": "Point", "coordinates": [ 0.398623470774085, 51.522767760928758 ] } },
{ "type": "Feature", "properties": { "visible_points": 8, "total_points": 90, "visibility_pct": 8.8888888888888893 }, "geometry": { "type": "Point", "coordinates": [ 0.398823021592442, 51.522763680476217 ] } },
{ "type": "Feature", "properties": { "visible_points": 0, "total_points": 77, "visibility_pct": 0.0 }, "geometry": { "type": "Point", "coordinates": [ 0.399022572362701, 51.522759599683788 ] } },
{ "type": "Feature", "properties": { "visible_points": 11, "total_points": 82, "visibility_pct": 13.414634146341465 }, "geometry": { "type": "Point", "coordinates": [ 0.395536086214468, 51.522938762959882 ] } },
{ "type": "Feature", "properties": { "visible_points": 33, "total_points": 94, "visibility_pct": 35.106382978723403 }, "geometry": { "type": "Point", "coordinates": [ 0.395735638024713, 51.522934688120806 ] } },
{ "type": "Feature", "properties": { "visible_points": 55, "total_points": 104, "visibility_pct": 52.884615384615387 }, "geometry": { "type": "Point", "coordinates": [ 0.395935189788463, 51.522930612942034 ] } },
{ "type": "Feature", "properties": { "visible_points": 65, "total_points": 113, "visibility_pct": 57.522123893805308 }, "geometry": { "type": "Point", "coordinates": [ 0.396134741505707, 51.522926537423587 ] } },
{ "type": "Feature", "properties": { "visible_points": 72, "total_points": 119, "visibility_pct": 60.504201680672267 }, "geometry": { "type": "Point", "coordinates": [ 0.396334293176448, 51.522922461565429 ] } },
{ "type": "Feature", "properties": { "visible_points": 78, "total_points": 120, "visibility_pct": 65.0 }, "geometry": { "type": "Point", "coordinates": [ 0.396533844800676, 51.522918385367603 ] } },
{ "type": "Feature", "properties": { "visible_points": 76, "total_points": 120, "visibility_pct": 63.333333333333329 }, "geometry": { "type": "Point", "coordinates": [ 0.396733396378391, 51.522914308830082 ] } },
{ "type": "Feature", "properties": { "visible_points": 74, "total_points": 120, "visibility_pct": 61.666666666666671 }, "geometry": { "type": "Point", "coordinates": [ 0.39693294790959, 51.522910231952885 ] } },
{ "type": "Feature", "properties": { "visible_points": 65, "total_points": 120, "visibility_pct": 54.166666666666664 }, "geometry": { "type": "Point", "coordinates": [ 0.397132499394266, 51.522906154735992 ] } },
{ "type": "Feature", "properties": { "visible_points": 50, "total_points": 120, "visibility_pct": 41.666666666666671 }, "geometry": { "type": "Point", "coordinates": [ 0.39733205083242, 51.522902077179417 ] } },
{ "type": "Feature", "properties": { "visible_points": 44, "total_points": 120, "visibility_pct": 36.666666666666664 }, "geometry": { "type": "Point", "coordinates": [ 0.397531602224039, 51.522897999283138 ] } },
{ "type": "Feature", "properties": { "visible_points": 0, "total_points": 120, "visibility_pct": 0.0 }, "geometry": { "type": "Point", "coordinates": [ 0.397731153569129, 51.522893921047199 ] } },
{ "type": "Feature", "properties": { "visible_points": 17, "total_points": 120, "visibility_pct": 14.166666666666666 }, "geometry": { "type": "Point", "coordinates": [ 0.397930704867682, 51.52288984247155 ] } },
{ "type": "Feature", "properties": { "visible_points": 22, "total_points": 120, "visibility_pct": 18.333333333333332 }, "geometry": { "type": "Point", "coordinates": [ 0.398130256119692, 51.522885763556225 ] } },
{ "type": "Feature", "properties": { "visible_points": 27, "total_points": 118, "visibility_pct": 22.881355932203391 }, "geometry": { "type": "Point", "coordinates": [ 0.398329807357812, 51.522881684275092 ] } },
{ "type": "Feature", "properties": { "visible_points": 26, "total_points": 111, "visibility_pct": 23.423423423423422 }, "geometry": { "type": "Point", "coordinates": [ 0.3985293586647, 51.522877604411406 ] } },
{ "type": "Feature", "properties": { "visible_points": 0, "total_points": 99, "visibility_pct": 0.0 }, "geometry": { "type": "Point", "coordinates": [ 0.398728909991965, 51.52287352412197 ] } },
{ "type": "Feature", "properties": { "visible_points": 0, "total_points": 87, "visibility_pct": 0.0 }, "geometry": { "type": "Point", "coordinates": [ 0.398928461271128, 51.522869443492674 ] } },
{ "type": "Feature", "properties": { "visible_points": 0, "total_points": 90, "visibility_pct": 0.0 }, "geometry": { "type": "Point", "coordinates": [ 0.395641518719283, 51.523044529106315 ] } },
{ "type": "Feature", "properties": { "visible_points": 49, "total_points": 101, "visibility_pct": 48.514851485148512 }, "geometry": { "type": "Point", "coordinates": [ 0.395841070970861, 51.523040454088189 ] } },
{ "type": "Feature", "properties": { "visible_points": 60, "total_points": 110, "visibility_pct": 54.54545454545454 }, "geometry": { "type": "Point", "coordinates": [ 0.396040623175938, 51.523036378730367 ] } },
{ "type": "Feature", "properties": { "visible_points": 70, "total_points": 118, "visibility_pct": 59.322033898305079 }, "geometry": { "type": "Point", "coordinates": [ 0.39624017533451, 51.523032303032849 ] } },
{ "type": "Feature", "properties": { "visible_points": 73, "total_points": 120, "visibility_pct": 60.833333333333329 }, "geometry": { "type": "Point", "coordinates": [ 0.396439727446575, 51.523028226995649 ] } },
{ "type": "Feature", "properties": { "visible_points": 82, "total_points": 120, "visibility_pct": 68.333333333333329 }, "geometry": { "type": "Point", "coordinates": [ 0.396639279512124, 51.523024150618767 ] } },
{ "type": "Feature", "properties": { "visible_points": 79, "total_points": 120, "visibility_pct": 65.833333333333329 }, "geometry": { "type": "Point", "coordinates": [ 0.396838831531159, 51.523020073902188 ] } },
{ "type": "Feature", "properties": { "visible_points": 71, "total_points": 120, "visibility_pct": 59.166666666666664 }, "geometry": { "type": "Point", "coordinates": [ 0.397038383503676, 51.523015996845942 ] } },
{ "type": "Feature", "properties": { "visible_points": 64, "total_points": 120, "visibility_pct": 53.333333333333336 }, "geometry": { "type": "Point", "coordinates": [ 0.397237935429665, 51.523011919449971 ] } },
{ "type": "Feature", "properties": { "visible_points": 59, "total_points": 120, "visibility_pct": 49.166666666666664 }, "geometry": { "type": "Point", "coordinates": [ 0.397437487309133, 51.523007841714353 ] } },
{ "type": "Feature", "properties": { "visible_points": 53, "total_points": 120, "visibility_pct": 44.166666666666664 }, "geometry": { "type": "Point", "coordinates": [ 0.397637039142065, 51.523003763639025 ] } },
{ "type": "Feature", "properties": { "visible_points": 49, "total_points": 120, "visibility_pct": 40.833333333333336 }, "geometry": { "type": "Point", "coordinates": [ 0.39783659092846, 51.522999685223994 ] } },
{ "type": "Feature", "properties": { "visible_points": 46, "total_points": 120, "visibility_pct": 38.333333333333336 }, "geometry": { "type": "Point", "coordinates": [ 0.398036142668319, 51.522995606469287 ] } },
{ "type": "Feature", "properties": { "visible_points": 34, "total_points": 120, "visibility_pct": 28.333333333333332 }, "geometry": { "type": "Point", "coordinates": [ 0.398235694361636, 51.522991527374906 ] } },
{ "type": "Feature", "properties": { "visible_points": 31, "total_points": 115, "visibility_pct": 26.956521739130434 }, "geometry": { "type": "Point", "coordinates": [ 0.398435246108527, 51.522987447803217 ] } },
{ "type": "Feature", "properties": { "visible_points": 14, "total_points": 106, "visibility_pct": 13.20754716981132 }, "geometry": { "type": "Point", "coordinates": [ 0.398634797930687, 51.522983367687651 ] } },
{ "type": "Feature", "properties": { "visible_points": 0, "total_points": 95, "visibility_pct": 0.0 }, "geometry": { "type": "Point", "coordinates": [ 0.398834349718767, 51.52297928722146 ] } },
{ "type": "Feature", "properties": { "visible_points": 23, "total_points": 86, "visibility_pct": 26.744186046511626 }, "geometry": { "type": "Point", "coordinates": [ 0.395547398972541, 51.523154370014055 ] } },
{ "type": "Feature", "properties": { "visible_points": 41, "total_points": 98, "visibility_pct": 41.836734693877553 }, "geometry": { "type": "Point", "coordinates": [ 0.395746951711946, 51.523150295156547 ] } },
{ "type": "Feature", "properties": { "visible_points": 53, "total_points": 108, "visibility_pct": 49.074074074074076 }, "geometry": { "type": "Point", "coordinates": [ 0.39594650440486, 51.523146219959379 ] } },
{ "type": "Feature", "properties": { "visible_points": 63, "total_points": 116, "visibility_pct": 54.310344827586206 }, "geometry": { "type": "Point", "coordinates": [ 0.396146057051263, 51.523142144422501 ] } },
{ "type": "Feature", "properties": { "visible_points": 70, "total_points": 120, "visibility_pct": 58.333333333333336 }, "geometry": { "type": "Point", "coordinates": [ 0.396345609651166, 51.523138068545933 ] } },
{ "type": "Feature", "properties": { "visible_points": 80, "total_points": 120, "visibility_pct": 66.666666666666657 }, "geometry": { "type": "Point", "coordinates": [ 0.396545162204553, 51.523133992329697 ] } },
{ "type": "Feature", "properties": { "visible_points": 84, "total_points": 120, "visibility_pct": 70.0 }, "geometry": { "type": "Point", "coordinates": [ 0.39674471471143, 51.52312991577373 ] } },
{ "type": "Feature", "properties": { "visible_points": 78, "total_points": 120, "visibility_pct": 65.0 }, "geometry": { "type": "Point", "coordinates": [ 0.396944267171783, 51.523125838878109 ] } },
{ "type": "Feature", "properties": { "visible_points": 76, "total_points": 120, "visibility_pct": 63.333333333333329 }, "geometry": { "type": "Point", "coordinates": [ 0.397143819585621, 51.523121761642791 ] } },
{ "type": "Feature", "properties": { "visible_points": 69, "total_points": 120, "visibility_pct": 57.5 }, "geometry": { "type": "Point", "coordinates": [ 0.397343371952926, 51.523117684067778 ] } },
{ "type": "Feature", "properties": { "visible_points": 65, "total_points": 120, "visibility_pct": 54.166666666666664 }, "geometry": { "type": "Point", "coordinates": [ 0.397542924273706, 51.523113606153075 ] } },
{ "type": "Feature", "properties": { "visible_points": 57, "total_points": 120, "visibility_pct": 47.5 }, "geometry": { "type": "Point", "coordinates": [ 0.39774247654795, 51.52310952789869 ] } },
{ "type": "Feature", "properties": { "visible_points": 54, "total_points": 120, "visibility_pct": 45.0 }, "geometry": { "type": "Point", "coordinates": [ 0.397942028775657, 51.523105449304616 ] } },
{ "type": "Feature", "properties": { "visible_points": 44, "total_points": 120, "visibility_pct": 36.666666666666664 }, "geometry": { "type": "Point", "coordinates": [ 0.398141580956825, 51.523101370370838 ] } },
{ "type": "Feature", "properties": { "visible_points": 35, "total_points": 118, "visibility_pct": 29.66101694915254 }, "geometry": { "type": "Point", "coordinates": [ 0.398341133136862, 51.523097291067145 ] } },
{ "type": "Feature", "properties": { "visible_points": 26, "total_points": 111, "visibility_pct": 23.423423423423422 }, "geometry": { "type": "Point", "coordinates": [ 0.398540685408613, 51.523093211173261 ] } },
{ "type": "Feature", "properties": { "visible_points": 0, "total_points": 100, "visibility_pct": 0.0 }, "geometry": { "type": "Point", "coordinates": [ 0.398740237705605, 51.523089130870197 ] } },
{ "type": "Feature", "properties": { "visible_points": 0, "total_points": 89, "visibility_pct": 0.0 }, "geometry": { "type": "Point", "coordinates": [ 0.398939789954501, 51.523085050227259 ] } },
{ "type": "Feature", "properties": { "visible_points": 21, "total_points": 83, "visibility_pct": 25.301204819277107 }, "geometry": { "type": "Point", "coordinates": [ 0.395453278784474, 51.52326421084399 ] } },
{ "type": "Feature", "properties": { "visible_points": 38, "total_points": 95, "visibility_pct": 40.0 }, "geometry": { "type": "Point", "coordinates": [ 0.395652832011718, 51.523260136147158 ] } },
{ "type": "Feature", "properties": { "visible_points": 54, "total_points": 106, "visibility_pct": 50.943396226415096 }, "geometry": { "type": "Point", "coordinates": [ 0.395852385192463, 51.523256061110615 ] } },
{ "type": "Feature", "properties": { "visible_points": 64, "total_points": 114, "visibility_pct": 56.140350877192979 }, "geometry": { "type": "Point", "coordinates": [ 0.396051938326706, 51.523251985734383 ] } },
{ "type": "Feature", "properties": { "visible_points": 69, "total_points": 120, "visibility_pct": 57.5 }, "geometry": { "type": "Point", "coordinates": [ 0.396251491414448, 51.523247910018448 ] } },
{ "type": "Feature", "properties": { "visible_points": 76, "total_points": 120, "visibility_pct": 63.333333333333329 }, "geometry": { "type": "Point", "coordinates": [ 0.396451044455676, 51.52324383396283 ] } },
{ "type": "Feature", "properties": { "visible_points": 84, "total_points": 120, "visibility_pct": 70.0 }, "geometry": { "type": "Point", "coordinates": [ 0.396650597450389, 51.523239757567517 ] } },
{ "type": "Feature", "properties": { "visible_points": 82, "total_points": 120, "visibility_pct": 68.333333333333329 }, "geometry": { "type": "Point", "coordinates": [ 0.396850150398591, 51.523235680832506 ] } },
{ "type": "Feature", "properties": { "visible_points": 79, "total_points": 120, "visibility_pct": 65.833333333333329 }, "geometry": { "type": "Point", "coordinates": [ 0.397049703300272, 51.523231603757829 ] } },
{ "type": "Feature", "properties": { "visible_points": 78, "total_points": 120, "visibility_pct": 65.0 }, "geometry": { "type": "Point", "coordinates": [ 0.397249256155426, 51.523227526343447 ] } },
{ "type": "Feature", "properties": { "visible_points": 72, "total_points": 120, "visibility_pct": 60.0 }, "geometry": { "type": "Point", "coordinates": [ 0.39744880896405, 51.52322344858937 ] } },
{ "type": "Feature", "properties": { "visible_points": 70, "total_points": 120, "visibility_pct": 58.333333333333336 }, "geometry": { "type": "Point", "coordinates": [ 0.397648361726145, 51.52321937049561 ] } },
{ "type": "Feature", "properties": { "visible_points": 59, "total_points": 120, "visibility_pct": 49.166666666666664 }, "geometry": { "type": "Point", "coordinates": [ 0.397847914441706, 51.523215292062162 ] } },
{ "type": "Feature", "properties": { "visible_points": 46, "total_points": 120, "visibility_pct": 38.333333333333336 }, "geometry": { "type": "Point", "coordinates": [ 0.398047467110722, 51.523211213289002 ] } },
{ "type": "Feature", "properties": { "visible_points": 39, "total_points": 120, "visibility_pct": 32.5 }, "geometry": { "type": "Point", "coordinates": [ 0.398247019733195, 51.523207134176175 ] } },
{ "type": "Feature", "properties": { "visible_points": 39, "total_points": 115, "visibility_pct": 33.913043478260867 }, "geometry": { "type": "Point", "coordinates": [ 0.398446572435011, 51.523203054572718 ] } },
{ "type": "Feature", "properties": { "visible_points": 32, "total_points": 106, "visibility_pct": 30.188679245283019 }, "geometry": { "type": "Point", "coordinates": [ 0.398646125231642, 51.523198974438841 ] } },
{ "type": "Feature", "properties": { "visible_points": 8, "total_points": 95, "visibility_pct": 8.4210526315789469 }, "geometry": { "type": "Point", "coordinates": [ 0.398845677989458, 51.523194893959023 ] } },
{ "type": "Feature", "properties": { "visible_points": 0, "total_points": 82, "visibility_pct": 0.0 }, "geometry": { "type": "Point", "coordinates": [ 0.39904523069917, 51.523190813139337 ] } },
{ "type": "Feature", "properties": { "visible_points": 26, "total_points": 79, "visibility_pct": 32.911392405063289 }, "geometry": { "type": "Point", "coordinates": [ 0.395359158155085, 51.523374051596164 ] } },
{ "type": "Feature", "properties": { "visible_points": 36, "total_points": 91, "visibility_pct": 39.560439560439562 }, "geometry": { "type": "Point", "coordinates": [ 0.395558711870164, 51.523369977059957 ] } },
{ "type": "Feature", "properties": { "visible_points": 48, "total_points": 103, "visibility_pct": 46.601941747572816 }, "geometry": { "type": "Point", "coordinates": [ 0.395758265538751, 51.523365902184061 ] } },
{ "type": "Feature", "properties": { "visible_points": 60, "total_points": 112, "visibility_pct": 53.571428571428569 }, "geometry": { "type": "Point", "coordinates": [ 0.39595781916083, 51.523361826968454 ] } },
{ "type": "Feature", "properties": { "visible_points": 68, "total_points": 119, "visibility_pct": 57.142857142857139 }, "geometry": { "type": "Point", "coordinates": [ 0.396157372736414, 51.523357751413165 ] } },
{ "type": "Feature", "properties": { "visible_points": 72, "total_points": 120, "visibility_pct": 60.0 }, "geometry": { "type": "Point", "coordinates": [ 0.396356926265483, 51.52335367551818 ] } },
{ "type": "Feature", "properties": { "visible_points": 82, "total_points": 120, "visibility_pct": 68.333333333333329 }, "geometry": { "type": "Point", "coordinates": [ 0.396556479748044, 51.523349599283513 ] } },
{ "type": "Feature", "properties": { "visible_points": 87, "total_points": 120, "visibility_pct": 72.5 }, "geometry": { "type": "Point", "coordinates": [ 0.396756033184092, 51.52334552270915 ] } },
{ "type": "Feature", "properties": { "visible_points": 85, "total_points": 120, "visibility_pct": 70.833333333333343 }, "geometry": { "type": "Point", "coordinates": [ 0.396955586573618, 51.52334144579509 ] } },
{ "type": "Feature", "properties": { "visible_points": 80, "total_points": 120, "visibility_pct": 66.666666666666657 }, "geometry": { "type": "Point", "coordinates": [ 0.397155139916618, 51.523337368541341 ] } },
{ "type": "Feature", "properties": { "visible_points": 77, "total_points": 120, "visibility_pct": 64.166666666666671 }, "geometry": { "type": "Point", "coordinates": [ 0.397354693213099, 51.523333290947889 ] } },
{ "type": "Feature", "properties": { "visible_points": 73, "total_points": 120, "visibility_pct": 60.833333333333329 }, "geometry": { "type": "Point", "coordinates": [ 0.397554246463043, 51.523329213014733 ] } },
{ "type": "Feature", "properties": { "visible_points": 62, "total_points": 120, "visibility_pct": 51.666666666666671 }, "geometry": { "type": "Point", "coordinates": [ 0.397753799666452, 51.523325134741924 ] } },
{ "type": "Feature", "properties": { "visible_points": 57, "total_points": 120, "visibility_pct": 47.5 }, "geometry": { "type": "Point", "coordinates": [ 0.39795335282333, 51.523321056129411 ] } },
{ "type": "Feature", "properties": { "visible_points": 48, "total_points": 120, "visibility_pct": 40.0 }, "geometry": { "type": "Point", "coordinates": [ 0.398152905933658, 51.523316977177195 ] } },
{ "type": "Feature", "properties": { "visible_points": 45, "total_points": 118, "visibility_pct": 38.135593220338983 }, "geometry": { "type": "Point", "coordinates": [ 0.398352459057679, 51.523312897851071 ] } },
{ "type": "Feature", "properties": { "visible_points": 42, "total_points": 111, "visibility_pct": 37.837837837837839 }, "geometry": { "type": "Point", "coordinates": [ 0.398552012296872, 51.523308817927386 ] } },
{ "type": "Feature", "properties": { "visible_points": 32, "total_points": 100, "visibility_pct": 32.0 }, "geometry": { "type": "Point", "coordinates": [ 0.398751565563604, 51.523304737610701 ] } },
{ "type": "Feature", "properties": { "visible_points": 18, "total_points": 88, "visibility_pct": 20.454545454545457 }, "geometry": { "type": "Point", "coordinates": [ 0.398951118782245, 51.523300656954149 ] } },
{ "type": "Feature", "properties": { "visible_points": 0, "total_points": 75, "visibility_pct": 0.0 }, "geometry": { "type": "Point", "coordinates": [ 0.399150671952782, 51.523296575957694 ] } },
{ "type": "Feature", "properties": { "visible_points": 33, "total_points": 86, "visibility_pct": 38.372093023255815 }, "geometry": { "type": "Point", "coordinates": [ 0.395464591287289, 51.523479817894994 ] } },
{ "type": "Feature", "properties": { "visible_points": 43, "total_points": 99, "visibility_pct": 43.43434343434344 }, "geometry": { "type": "Point", "coordinates": [ 0.395664145443713, 51.523475743179723 ] } },
{ "type": "Feature", "properties": { "visible_points": 56, "total_points": 110, "visibility_pct": 50.909090909090907 }, "geometry": { "type": "Point", "coordinates": [ 0.395863699553637, 51.523471668124763 ] } },
{ "type": "Feature", "properties": { "visible_points": 65, "total_points": 118, "visibility_pct": 55.084745762711862 }, "geometry": { "type": "Point", "coordinates": [ 0.39606325361706, 51.523467592730107 ] } },
{ "type": "Feature", "properties": { "visible_points": 67, "total_points": 120, "visibility_pct": 55.833333333333336 }, "geometry": { "type": "Point", "coordinates": [ 0.396262807633978, 51.523463516995783 ] } },
{ "type": "Feature", "properties": { "visible_points": 73, "total_points": 120, "visibility_pct": 60.833333333333329 }, "geometry": { "type": "Point", "coordinates": [ 0.396462361604387, 51.523459440921727 ] } },
{ "type": "Feature", "properties": { "visible_points": 87, "total_points": 120, "visibility_pct": 72.5 }, "geometry": { "type": "Point", "coordinates": [ 0.396661915528276, 51.52345536450801 ] } },
{ "type": "Feature", "properties": { "visible_points": 90, "total_points": 120, "visibility_pct": 75.0 }, "geometry": { "type": "Point", "coordinates": [ 0.396861469405654, 51.523451287754575 ] } },
{ "type": "Feature", "properties": { "visible_points": 81, "total_points": 120, "visibility_pct": 67.5 }, "geometry": { "type": "Point", "coordinates": [ 0.397061023236509, 51.523447210661452 ] } },
{ "type": "Feature", "properties": { "visible_points": 78, "total_points": 120, "visibility_pct": 65.0 }, "geometry": { "type": "Point", "coordinates": [ 0.397260577020837, 51.523443133228646 ] } },
{ "type": "Feature", "properties": { "visible_points": 73, "total_points": 120, "visibility_pct": 60.833333333333329 }, "geometry": { "type": "Point", "coordinates": [ 0.39746013075864, 51.52343905545613 ] } },
{ "type": "Feature", "properties": { "visible_points": 64, "total_points": 120, "visibility_pct": 53.333333333333336 }, "geometry": { "type": "Point", "coordinates": [ 0.397659684449906, 51.523434977343939 ] } },
{ "type": "Feature", "properties": { "visible_points": 62, "total_points": 120, "visibility_pct": 51.666666666666671 }, "geometry": { "type": "Point", "coordinates": [ 0.397859238094635, 51.523430898892052 ] } },
{ "type": "Feature", "properties": { "visible_points": 63, "total_points": 120, "visibility_pct": 52.5 }, "geometry": { "type": "Point", "coordinates": [ 0.398058791692828, 51.523426820100461 ] } },
{ "type": "Feature", "properties": { "visible_points": 53, "total_points": 120, "visibility_pct": 44.166666666666664 }, "geometry": { "type": "Point", "coordinates": [ 0.398258345244471, 51.523422740969181 ] } },
{ "type": "Feature", "properties": { "visible_points": 48, "total_points": 115, "visibility_pct": 41.739130434782609 }, "geometry": { "type": "Point", "coordinates": [ 0.398457898903792, 51.523418661334382 ] } },
{ "type": "Feature", "properties": { "visible_points": 40, "total_points": 105, "visibility_pct": 38.095238095238095 }, "geometry": { "type": "Point", "coordinates": [ 0.398657452676944, 51.523414581182315 ] } },
{ "type": "Feature", "properties": { "visible_points": 27, "total_points": 93, "visibility_pct": 29.032258064516132 }, "geometry": { "type": "Point", "coordinates": [ 0.398857006404512, 51.523410500688868 ] } },
{ "type": "Feature", "properties": { "visible_points": 1, "total_points": 80, "visibility_pct": 1.25 }, "geometry": { "type": "Point", "coordinates": [ 0.399056560083975, 51.523406419855554 ] } },
{ "type": "Feature", "properties": { "visible_points": 15, "total_points": 78, "visibility_pct": 19.230769230769234 }, "geometry": { "type": "Point", "coordinates": [ 0.395370470263082, 51.523589658652234 ] } },
{ "type": "Feature", "properties": { "visible_points": 34, "total_points": 91, "visibility_pct": 37.362637362637365 }, "geometry": { "type": "Point", "coordinates": [ 0.39557002490735, 51.52358558409761 ] } },
{ "type": "Feature", "properties": { "visible_points": 45, "total_points": 104, "visibility_pct": 43.269230769230774 }, "geometry": { "type": "Point", "coordinates": [ 0.395769579505119, 51.523581509203304 ] } },
{ "type": "Feature", "properties": { "visible_points": 55, "total_points": 115, "visibility_pct": 47.826086956521742 }, "geometry": { "type": "Point", "coordinates": [ 0.395969134056387, 51.523577433969287 ] } },
{ "type": "Feature", "properties": { "visible_points": 65, "total_points": 120, "visibility_pct": 54.166666666666664 }, "geometry": { "type": "Point", "coordinates": [ 0.396168688561153, 51.523573358395574 ] } },
{ "type": "Feature", "properties": { "visible_points": 71, "total_points": 120, "visibility_pct": 59.166666666666664 }, "geometry": { "type": "Point", "coordinates": [ 0.396368243019407, 51.523569282482157 ] } },
{ "type": "Feature", "properties": { "visible_points": 79, "total_points": 120, "visibility_pct": 65.833333333333329 }, "geometry": { "type": "Point", "coordinates": [ 0.396567797431151, 51.52356520622908 ] } },
{ "type": "Feature", "properties": { "visible_points": 80, "total_points": 120, "visibility_pct": 66.666666666666657 }, "geometry": { "type": "Point", "coordinates": [ 0.396767351796381, 51.523561129636285 ] } },
{ "type": "Feature", "properties": { "visible_points": 82, "total_points": 120, "visibility_pct": 68.333333333333329 }, "geometry": { "type": "Point", "coordinates": [ 0.396966906115087, 51.523557052703801 ] } },
{ "type": "Feature", "properties": { "visible_points": 80, "total_points": 120, "visibility_pct": 66.666666666666657 }, "geometry": { "type": "Point", "coordinates": [ 0.39716646038727, 51.52355297543162 ] } },
{ "type": "Feature", "properties": { "visible_points": 76, "total_points": 120, "visibility_pct": 63.333333333333329 }, "geometry": { "type": "Point", "coordinates": [ 0.39736601461293, 51.523548897819737 ] } },
{ "type": "Feature", "properties": { "visible_points": 68, "total_points": 120, "visibility_pct": 56.666666666666664 }, "geometry": { "type": "Point", "coordinates": [ 0.397565568792051, 51.523544819868171 ] } },
{ "type": "Feature", "properties": { "visible_points": 65, "total_points": 120, "visibility_pct": 54.166666666666664 }, "geometry": { "type": "Point", "coordinates": [ 0.397765122924645, 51.523540741576902 ] } },
{ "type": "Feature", "properties": { "visible_points": 63, "total_points": 120, "visibility_pct": 52.5 }, "geometry": { "type": "Point", "coordinates": [ 0.397964677010693, 51.523536662945936 ] } },
{ "type": "Feature", "properties": { "visible_points": 50, "total_points": 120, "visibility_pct": 41.666666666666671 }, "geometry": { "type": "Point", "coordinates": [ 0.398164231050203, 51.523532583975296 ] } },
{ "type": "Feature", "properties": { "visible_points": 47, "total_points": 118, "visibility_pct": 39.83050847457627 }, "geometry": { "type": "Point", "coordinates": [ 0.398363785120629, 51.52352850462465 ] } },
{ "type": "Feature", "properties": { "visible_points": 41, "total_points": 109, "visibility_pct": 37.61467889908257 }, "geometry": { "type": "Point", "coordinates": [ 0.398563339329475, 51.523524424673823 ] } },
{ "type": "Feature", "properties": { "visible_points": 30, "total_points": 98, "visibility_pct": 30.612244897959183 }, "geometry": { "type": "Point", "coordinates": [ 0.398762893565967, 51.523520344343495 ] } },
{ "type": "Feature", "properties": { "visible_points": 0, "total_points": 86, "visibility_pct": 0.0 }, "geometry": { "type": "Point", "coordinates": [ 0.398962447754359, 51.523516263673308 ] } },
{ "type": "Feature", "properties": { "visible_points": 0, "total_points": 73, "visibility_pct": 0.0 }, "geometry": { "type": "Point", "coordinates": [ 0.399162001894653, 51.523512182663225 ] } },
{ "type": "Feature", "properties": { "visible_points": 13, "total_points": 69, "visibility_pct": 18.840579710144929 }, "geometry": { "type": "Point", "coordinates": [ 0.395276348797543, 51.523699499331691 ] } },
{ "type": "Feature", "properties": { "visible_points": 28, "total_points": 81, "visibility_pct": 34.567901234567898 }, "geometry": { "type": "Point", "coordinates": [ 0.395475903929656, 51.523695424937721 ] } },
{ "type": "Feature", "properties": { "visible_points": 36, "total_points": 93, "visibility_pct": 38.70967741935484 }, "geometry": { "type": "Point", "coordinates": [ 0.395675459015273, 51.523691350204039 ] } },
{ "type": "Feature", "properties": { "visible_points": 47, "total_points": 105, "visibility_pct": 44.761904761904766 }, "geometry": { "type": "Point", "coordinates": [ 0.395875014054388, 51.523687275130683 ] } },
{ "type": "Feature", "properties": { "visible_points": 54, "total_points": 115, "visibility_pct": 46.956521739130437 }, "geometry": { "type": "Point", "coordinates": [ 0.396074569047004, 51.52368319971761 ] } },
{ "type": "Feature", "properties": { "visible_points": 61, "total_points": 117, "visibility_pct": 52.136752136752143 }, "geometry": { "type": "Point", "coordinates": [ 0.396274123993111, 51.523679123964847 ] } },
{ "type": "Feature", "properties": { "visible_points": 70, "total_points": 119, "visibility_pct": 58.82352941176471 }, "geometry": { "type": "Point", "coordinates": [ 0.396473678892705, 51.523675047872395 ] } },
{ "type": "Feature", "properties": { "visible_points": 71, "total_points": 120, "visibility_pct": 59.166666666666664 }, "geometry": { "type": "Point", "coordinates": [ 0.396673233745787, 51.523670971440218 ] } },
{ "type": "Feature", "properties": { "visible_points": 71, "total_points": 120, "visibility_pct": 59.166666666666664 }, "geometry": { "type": "Point", "coordinates": [ 0.396872788552354, 51.523666894668374 ] } },
{ "type": "Feature", "properties": { "visible_points": 71, "total_points": 120, "visibility_pct": 59.166666666666664 }, "geometry": { "type": "Point", "coordinates": [ 0.397072343312392, 51.52366281755684 ] } },
{ "type": "Feature", "properties": { "visible_points": 61, "total_points": 120, "visibility_pct": 50.833333333333329 }, "geometry": { "type": "Point", "coordinates": [ 0.397271898025908, 51.523658740105589 ] } },
{ "type": "Feature", "properties": { "visible_points": 62, "total_points": 120, "visibility_pct": 51.666666666666671 }, "geometry": { "type": "Point", "coordinates": [ 0.397471452692894, 51.523654662314627 ] } },
{ "type": "Feature", "properties": { "visible_points": 61, "total_points": 120, "visibility_pct": 50.833333333333329 }, "geometry": { "type": "Point", "coordinates": [ 0.397671007313346, 51.523650584184004 ] } },
{ "type": "Feature", "properties": { "visible_points": 54, "total_points": 120, "visibility_pct": 45.0 }, "geometry": { "type": "Point", "coordinates": [ 0.39787056188726, 51.523646505713664 ] } },
{ "type": "Feature", "properties": { "visible_points": 55, "total_points": 120, "visibility_pct": 45.833333333333329 }, "geometry": { "type": "Point", "coordinates": [ 0.398070116414634, 51.523642426903649 ] } },
{ "type": "Feature", "properties": { "visible_points": 51, "total_points": 120, "visibility_pct": 42.5 }, "geometry": { "type": "Point", "coordinates": [ 0.398269670899916, 51.52363834775187 ] } },
{ "type": "Feature", "properties": { "visible_points": 43, "total_points": 113, "visibility_pct": 38.053097345132741 }, "geometry": { "type": "Point", "coordinates": [ 0.398469225521189, 51.523634268085267 ] } },
{ "type": "Feature", "properties": { "visible_points": 35, "total_points": 103, "visibility_pct": 33.980582524271846 }, "geometry": { "type": "Point", "coordinates": [ 0.398668780266608, 51.523630187918073 ] } },
{ "type": "Feature", "properties": { "visible_points": 21, "total_points": 91, "visibility_pct": 23.076923076923077 }, "geometry": { "type": "Point", "coordinates": [ 0.398868334963933, 51.52362610741099 ] } },
{ "type": "Feature", "properties": { "visible_points": 0, "total_points": 78, "visibility_pct": 0.0 }, "geometry": { "type": "Point", "coordinates": [ 0.399067889613158, 51.523622026564034 ] } },
{ "type": "Feature", "properties": { "visible_points": 0, "total_points": 70, "visibility_pct": 0.0 }, "geometry": { "type": "Point", "coordinates": [ 0.395381782510627, 51.523805265700034 ] } },
{ "type": "Feature", "properties": { "visible_points": 10, "total_points": 82, "visibility_pct": 12.195121951219512 }, "geometry": { "type": "Point", "coordinates": [ 0.395581338084094, 51.523801191127006 ] } },
{ "type": "Feature", "properties": { "visible_points": 40, "total_points": 93, "visibility_pct": 43.01075268817204 }, "geometry": { "type": "Point", "coordinates": [ 0.39578089361106, 51.523797116214283 ] } },
{ "type": "Feature", "properties": { "visible_points": 45, "total_points": 104, "visibility_pct": 43.269230769230774 }, "geometry": { "type": "Point", "coordinates": [ 0.395980449091527, 51.52379304096187 ] } },
{ "type": "Feature", "properties": { "visible_points": 47, "total_points": 109, "visibility_pct": 43.119266055045877 }, "geometry": { "type": "Point", "coordinates": [ 0.396180004525483, 51.523788965369739 ] } },
{ "type": "Feature", "properties": { "visible_points": 53, "total_points": 111, "visibility_pct": 47.747747747747752 }, "geometry": { "type": "Point", "coordinates": [ 0.39637955991294, 51.523784889437913 ] } },
{ "type": "Feature", "properties": { "visible_points": 59, "total_points": 113, "visibility_pct": 52.212389380530979 }, "geometry": { "type": "Point", "coordinates": [ 0.396579115253878, 51.52378081316639 ] } },
{ "type": "Feature", "properties": { "visible_points": 62, "total_points": 115, "visibility_pct": 53.913043478260867 }, "geometry": { "type": "Point", "coordinates": [ 0.396778670548297, 51.52377673655517 ] } },
{ "type": "Feature", "properties": { "visible_points": 67, "total_points": 117, "visibility_pct": 57.26495726495726 }, "geometry": { "type": "Point", "coordinates": [ 0.3969782257962, 51.523772659604255 ] } },
{ "type": "Feature", "properties": { "visible_points": 58, "total_points": 118, "visibility_pct": 49.152542372881356 }, "geometry": { "type": "Point", "coordinates": [ 0.397177780997575, 51.523768582313657 ] } },
{ "type": "Feature", "properties": { "visible_points": 54, "total_points": 119, "visibility_pct": 45.378151260504204 }, "geometry": { "type": "Point", "coordinates": [ 0.397377336152424, 51.523764504683335 ] } },
{ "type": "Feature", "properties": { "visible_points": 59, "total_points": 120, "visibility_pct": 49.166666666666664 }, "geometry": { "type": "Point", "coordinates": [ 0.39757689126074, 51.523760426713331 ] } },
{ "type": "Feature", "properties": { "visible_points": 49, "total_points": 120, "visibility_pct": 40.833333333333336 }, "geometry": { "type": "Point", "coordinates": [ 0.397776446322523, 51.523756348403609 ] } },
{ "type": "Feature", "properties": { "visible_points": 49, "total_points": 120, "visibility_pct": 40.833333333333336 }, "geometry": { "type": "Point", "coordinates": [ 0.397976001337761, 51.523752269754226 ] } },
{ "type": "Feature", "properties": { "visible_points": 49, "total_points": 120, "visibility_pct": 40.833333333333336 }, "geometry": { "type": "Point", "coordinates": [ 0.398175556306455, 51.52374819076514 ] } },
{ "type": "Feature", "properties": { "visible_points": 44, "total_points": 116, "visibility_pct": 37.931034482758619 }, "geometry": { "type": "Point", "coordinates": [ 0.39837511132675, 51.52374411138323 ] } },
{ "type": "Feature", "properties": { "visible_points": 39, "total_points": 107, "visibility_pct": 36.44859813084112 }, "geometry": { "type": "Point", "coordinates": [ 0.398574666506434, 51.523740031412544 ] } },
{ "type": "Feature", "properties": { "visible_points": 24, "total_points": 95, "visibility_pct": 25.263157894736842 }, "geometry": { "type": "Point", "coordinates": [ 0.398774221712691, 51.523735951068595 ] } },
{ "type": "Feature", "properties": { "visible_points": 0, "total_points": 83, "visibility_pct": 0.0 }, "geometry": { "type": "Point", "coordinates": [ 0.398973776870852, 51.523731870384765 ] } },
{ "type": "Feature", "properties": { "visible_points": 1, "total_points": 59, "visibility_pct": 1.6949152542372881 }, "geometry": { "type": "Point", "coordinates": [ 0.395287660650266, 51.523915106384578 ] } },
{ "type": "Feature", "properties": { "visible_points": 0, "total_points": 70, "visibility_pct": 0.0 }, "geometry": { "type": "Point", "coordinates": [ 0.395487216711578, 51.523911031972183 ] } },
{ "type": "Feature", "properties": { "visible_points": 20, "total_points": 81, "visibility_pct": 24.691358024691358 }, "geometry": { "type": "Point", "coordinates": [ 0.395686772726398, 51.523906957220106 ] } },
{ "type": "Feature", "properties": { "visible_points": 39, "total_points": 91, "visibility_pct": 42.857142857142854 }, "geometry": { "type": "Point", "coordinates": [ 0.39588632869472, 51.523902882128318 ] } },
{ "type": "Feature", "properties": { "visible_points": 44, "total_points": 98, "visibility_pct": 44.897959183673471 }, "geometry": { "type": "Point", "coordinates": [ 0.396085884616535, 51.523898806696849 ] } },
{ "type": "Feature", "properties": { "visible_points": 48, "total_points": 101, "visibility_pct": 47.524752475247524 }, "geometry": { "type": "Point", "coordinates": [ 0.396285440491841, 51.523894730925669 ] } },
{ "type": "Feature", "properties": { "visible_points": 48, "total_points": 104, "visibility_pct": 46.153846153846153 }, "geometry": { "type": "Point", "coordinates": [ 0.396484996320641, 51.523890654814785 ] } },
{ "type": "Feature", "properties": { "visible_points": 45, "total_points": 107, "visibility_pct": 42.056074766355138 }, "geometry": { "type": "Point", "coordinates": [ 0.396684552102923, 51.523886578364191 ] } },
{ "type": "Feature", "properties": { "visible_points": 51, "total_points": 109, "visibility_pct": 46.788990825688074 }, "geometry": { "type": "Point", "coordinates": [ 0.396884107838686, 51.523882501573922 ] } },
{ "type": "Feature", "properties": { "visible_points": 48, "total_points": 111, "visibility_pct": 43.243243243243242 }, "geometry": { "type": "Point", "coordinates": [ 0.397083663527925, 51.523878424443936 ] } },
{ "type": "Feature", "properties": { "visible_points": 40, "total_points": 112, "visibility_pct": 35.714285714285715 }, "geometry": { "type": "Point", "coordinates": [ 0.397283219170641, 51.523874346974267 ] } },
{ "type": "Feature", "properties": { "visible_points": 48, "total_points": 113, "visibility_pct": 42.477876106194692 }, "geometry": { "type": "Point", "coordinates": [ 0.397482774766817, 51.523870269164895 ] } },
{ "type": "Feature", "properties": { "visible_points": 40, "total_points": 114, "visibility_pct": 35.087719298245609 }, "geometry": { "type": "Point", "coordinates": [ 0.397682330316471, 51.52386619101582 ] } },
{ "type": "Feature", "properties": { "visible_points": 41, "total_points": 116, "visibility_pct": 35.344827586206897 }, "geometry": { "type": "Point", "coordinates": [ 0.397881885819579, 51.523862112527041 ] } },
{ "type": "Feature", "properties": { "visible_points": 42, "total_points": 117, "visibility_pct": 35.897435897435898 }, "geometry": { "type": "Point", "coordinates": [ 0.398081441276147, 51.523858033698573 ] } },
{ "type": "Feature", "properties": { "visible_points": 41, "total_points": 116, "visibility_pct": 35.344827586206897 }, "geometry": { "type": "Point", "coordinates": [ 0.398280996701568, 51.523853954524178 ] } },
{ "type": "Feature", "properties": { "visible_points": 32, "total_points": 109, "visibility_pct": 29.357798165137616 }, "geometry": { "type": "Point", "coordinates": [ 0.398480552285435, 51.523849874826944 ] } },
{ "type": "Feature", "properties": { "visible_points": 26, "total_points": 99, "visibility_pct": 26.262626262626267 }, "geometry": { "type": "Point", "coordinates": [ 0.39868010800063, 51.523845794646121 ] } },
{ "type": "Feature", "properties": { "visible_points": 0, "total_points": 87, "visibility_pct": 0.0 }, "geometry": { "type": "Point", "coordinates": [ 0.398879663667727, 51.523841714125403 ] } },
{ "type": "Feature", "properties": { "visible_points": 6, "total_points": 78, "visibility_pct": 7.6923076923076925 }, "geometry": { "type": "Point", "coordinates": [ 0.395792207856575, 51.524012723217005 ] } },
{ "type": "Feature", "properties": { "visible_points": 5, "total_points": 85, "visibility_pct": 5.8823529411764701 }, "geometry": { "type": "Point", "coordinates": [ 0.395991764266249, 51.524008647946168 ] } },
{ "type": "Feature", "properties": { "visible_points": 0, "total_points": 89, "visibility_pct": 0.0 }, "geometry": { "type": "Point", "coordinates": [ 0.396191320629421, 51.524004572335627 ] } },
{ "type": "Feature", "properties": { "visible_points": 13, "total_points": 93, "visibility_pct": 13.978494623655912 }, "geometry": { "type": "Point", "coordinates": [ 0.396390876946076, 51.524000496385383 ] } },
{ "type": "Feature", "properties": { "visible_points": 35, "total_points": 96, "visibility_pct": 36.458333333333329 }, "geometry": { "type": "Point", "coordinates": [ 0.396590433216222, 51.523996420095429 ] } },
{ "type": "Feature", "properties": { "visible_points": 36, "total_points": 99, "visibility_pct": 36.363636363636367 }, "geometry": { "type": "Point", "coordinates": [ 0.396789989439849, 51.523992343465807 ] } },
{ "type": "Feature", "properties": { "visible_points": 34, "total_points": 101, "visibility_pct": 33.663366336633665 }, "geometry": { "type": "Point", "coordinates": [ 0.396989545616954, 51.523988266496467 ] } },
{ "type": "Feature", "properties": { "visible_points": 32, "total_points": 103, "visibility_pct": 31.067961165048541 }, "geometry": { "type": "Point", "coordinates": [ 0.397189101747534, 51.523984189187416 ] } },
{ "type": "Feature", "properties": { "visible_points": 26, "total_points": 104, "visibility_pct": 25.0 }, "geometry": { "type": "Point", "coordinates": [ 0.397388657831587, 51.523980111538677 ] } },
{ "type": "Feature", "properties": { "visible_points": 32, "total_points": 106, "visibility_pct": 30.188679245283019 }, "geometry": { "type": "Point", "coordinates": [ 0.397588213869105, 51.523976033550241 ] } },
{ "type": "Feature", "properties": { "visible_points": 30, "total_points": 108, "visibility_pct": 27.777777777777779 }, "geometry": { "type": "Point", "coordinates": [ 0.397787769860088, 51.523971955222095 ] } },
{ "type": "Feature", "properties": { "visible_points": 29, "total_points": 110, "visibility_pct": 26.36363636363636 }, "geometry": { "type": "Point", "coordinates": [ 0.397987325804526, 51.523967876554266 ] } },
{ "type": "Feature", "properties": { "visible_points": 30, "total_points": 110, "visibility_pct": 27.27272727272727 }, "geometry": { "type": "Point", "coordinates": [ 0.398186881702428, 51.523963797546713 ] } },
{ "type": "Feature", "properties": { "visible_points": 32, "total_points": 104, "visibility_pct": 30.76923076923077 }, "geometry": { "type": "Point", "coordinates": [ 0.398386437675377, 51.523959718132645 ] } },
{ "type": "Feature", "properties": { "visible_points": 23, "total_points": 96, "visibility_pct": 23.958333333333336 }, "geometry": { "type": "Point", "coordinates": [ 0.398585993827746, 51.523955638143548 ] } },
{ "type": "Feature", "properties": { "visible_points": 0, "total_points": 86, "visibility_pct": 0.0 }, "geometry": { "type": "Point", "coordinates": [ 0.398785550003781, 51.523951557785971 ] } },
{ "type": "Feature", "properties": { "visible_points": 1, "total_points": 76, "visibility_pct": 1.3157894736842104 }, "geometry": { "type": "Point", "coordinates": [ 0.398985106131718, 51.523947477088498 ] } },
{ "type": "Feature", "properties": { "visible_points": 9, "total_points": 77, "visibility_pct": 11.688311688311687 }, "geometry": { "type": "Point", "coordinates": [ 0.39609720032566, 51.524114413667817 ] } },
{ "type": "Feature", "properties": { "visible_points": 9, "total_points": 81, "visibility_pct": 11.111111111111111 }, "geometry": { "type": "Point", "coordinates": [ 0.396296757130179, 51.524110337878206 ] } },
{ "type": "Feature", "properties": { "visible_points": 5, "total_points": 84, "visibility_pct": 5.9523809523809517 }, "geometry": { "type": "Point", "coordinates": [ 0.396496313888192, 51.524106261748926 ] } },
{ "type": "Feature", "properties": { "visible_points": 1, "total_points": 87, "visibility_pct": 1.1494252873563218 }, "geometry": { "type": "Point", "coordinates": [ 0.396695870599685, 51.524102185279908 ] } },
{ "type": "Feature", "properties": { "visible_points": 0, "total_points": 90, "visibility_pct": 0.0 }, "geometry": { "type": "Point", "coordinates": [ 0.396895427264657, 51.524098108471215 ] } },
{ "type": "Feature", "properties": { "visible_points": 0, "total_points": 92, "visibility_pct": 0.0 }, "geometry": { "type": "Point", "coordinates": [ 0.397094983883106, 51.524094031322804 ] } },
{ "type": "Feature", "properties": { "visible_points": 2, "total_points": 94, "visibility_pct": 2.1276595744680851 }, "geometry": { "type": "Point", "coordinates": [ 0.397294540455032, 51.524089953834675 ] } },
{ "type": "Feature", "properties": { "visible_points": 7, "total_points": 96, "visibility_pct": 7.291666666666667 }, "geometry": { "type": "Point", "coordinates": [ 0.397494096980423, 51.524085876006872 ] } },
{ "type": "Feature", "properties": { "visible_points": 8, "total_points": 98, "visibility_pct": 8.1632653061224492 }, "geometry": { "type": "Point", "coordinates": [ 0.397693653459278, 51.524081797839372 ] } },
{ "type": "Feature", "properties": { "visible_points": 20, "total_points": 100, "visibility_pct": 20.0 }, "geometry": { "type": "Point", "coordinates": [ 0.397893209891596, 51.524077719332155 ] } },
{ "type": "Feature", "properties": { "visible_points": 22, "total_points": 102, "visibility_pct": 21.568627450980394 }, "geometry": { "type": "Point", "coordinates": [ 0.398092766277369, 51.524073640485248 ] } },
{ "type": "Feature", "properties": { "visible_points": 23, "total_points": 97, "visibility_pct": 23.711340206185564 }, "geometry": { "type": "Point", "coordinates": [ 0.398292322644982, 51.524069561288293 ] } },
{ "type": "Feature", "properties": { "visible_points": 19, "total_points": 91, "visibility_pct": 20.87912087912088 }, "geometry": { "type": "Point", "coordinates": [ 0.398491879194033, 51.524065481560918 ] } },
{ "type": "Feature", "properties": { "visible_points": 0, "total_points": 83, "visibility_pct": 0.0 }, "geometry": { "type": "Point", "coordinates": [ 0.398691435879011, 51.524061401366446 ] } },
{ "type": "Feature", "properties": { "visible_points": 2, "total_points": 74, "visibility_pct": 2.7027027027027026 }, "geometry": { "type": "Point", "coordinates": [ 0.398890992515892, 51.524057320832107 ] } },
{ "type": "Feature", "properties": { "visible_points": 10, "total_points": 75, "visibility_pct": 13.333333333333334 }, "geometry": { "type": "Point", "coordinates": [ 0.396601751318188, 51.524212027016247 ] } },
{ "type": "Feature", "properties": { "visible_points": 10, "total_points": 78, "visibility_pct": 12.820512820512819 }, "geometry": { "type": "Point", "coordinates": [ 0.396801308471035, 51.524207950368179 ] } },
{ "type": "Feature", "properties": { "visible_points": 11, "total_points": 80, "visibility_pct": 13.75 }, "geometry": { "type": "Point", "coordinates": [ 0.397000865577355, 51.524203873380401 ] } },
{ "type": "Feature", "properties": { "visible_points": 8, "total_points": 82, "visibility_pct": 9.7560975609756095 }, "geometry": { "type": "Point", "coordinates": [ 0.397200422637152, 51.52419979605294 ] } },
{ "type": "Feature", "properties": { "visible_points": 7, "total_points": 85, "visibility_pct": 8.235294117647058 }, "geometry": { "type": "Point", "coordinates": [ 0.397399979650417, 51.524195718385762 ] } },
{ "type": "Feature", "properties": { "visible_points": 0, "total_points": 87, "visibility_pct": 0.0 }, "geometry": { "type": "Point", "coordinates": [ 0.397599536617151, 51.524191640378881 ] } },
{ "type": "Feature", "properties": { "visible_points": 0, "total_points": 89, "visibility_pct": 0.0 }, "geometry": { "type": "Point", "coordinates": [ 0.397799093537343, 51.524187562032296 ] } },
{ "type": "Feature", "properties": { "visible_points": 14, "total_points": 91, "visibility_pct": 15.384615384615385 }, "geometry": { "type": "Point", "coordinates": [ 0.397998650410996, 51.524183483346008 ] } },
{ "type": "Feature", "properties": { "visible_points": 21, "total_points": 89, "visibility_pct": 23.595505617977526 }, "geometry": { "type": "Point", "coordinates": [ 0.398198207238109, 51.524179404320037 ] } },
{ "type": "Feature", "properties": { "visible_points": 0, "total_points": 84, "visibility_pct": 0.0 }, "geometry": { "type": "Point", "coordinates": [ 0.398397764166305, 51.524175324874236 ] } },
{ "type": "Feature", "properties": { "visible_points": 0, "total_points": 78, "visibility_pct": 0.0 }, "geometry": { "type": "Point", "coordinates": [ 0.398597321293414, 51.524171244866842 ] } },
{ "type": "Feature", "properties": { "visible_points": 0, "total_points": 70, "visibility_pct": 0.0 }, "geometry": { "type": "Point", "coordinates": [ 0.398796878439239, 51.524167164495637 ] } },
{ "type": "Feature", "properties": { "visible_points": 0, "total_points": 79, "visibility_pct": 0.0 }, "geometry": { "type": "Point", "coordinates": [ 0.398104091418301, 51.524289247263667 ] } },
{ "type": "Feature", "properties": { "visible_points": 0, "total_points": 76, "visibility_pct": 0.0 }, "geometry": { "type": "Point", "coordinates": [ 0.398303648730166, 51.52428516804428 ] } },
{ "type": "Feature", "properties": { "visible_points": 0, "total_points": 71, "visibility_pct": 0.0 }, "geometry": { "type": "Point", "coordinates": [ 0.398503206246983, 51.524281088287161 ] } },
{ "type": "Feature", "properties": { "visible_points": 0, "total_points": 65, "visibility_pct": 0.0 }, "geometry": { "type": "Point", "coordinates": [ 0.398702763901756, 51.524277008079082 ] } },
{ "type": "Feature", "properties": { "visible_points": 4, "total_points": 58, "visibility_pct": 6.8965517241379306 }, "geometry": { "type": "Point", "coordinates": [ 0.39860864890344, 51.524386851582435 ] } }
]
}
