{
"type": "FeatureCollection",
"name": "THURR_59_NACH",
"crs": { "type": "name", "properties": { "name": "urn:ogc:def:crs:OGC:1.3:CRS84" } },
"features": [
{"type":"Feature","properties":{"id":41894,"nach":0.59545290603411549},"geometry":{"type":"LineString","coordinates":[[0.2482488,51.506385300000012],[0.2481214,51.5063985]]}},
{"type":"Feature","properties":{"id":41899,"nach":0.52630514514814586},"geometry":{"type":"LineString","coordinates":[[0.2477788,51.5055516],[0.2478673,51.5057689],[0.2481214,51.5063985]]}},
{"type":"Feature","properties":{"id":25906,"nach":0.59616920609126256},"geometry":{"type":"LineString","coordinates":[[0.2490907,51.508129],[0.2486599,51.5076433],[0.2484782,51.5073893],[0.2483145,51.5071297],[0.2482434,51.5069556],[0.2481942,51.5067677],[0.2481529,51.5065918],[0.2481214,51.5063985]]}},
{"type":"Feature","properties":{"id":41896,"nach":0.55703996420214297},"geometry":{"type":"LineString","coordinates":[[0.2482488,51.506385300000012],[0.248238,51.5063485],[0.2482764,51.5063057],[0.2482548,51.506223]]}},
{"type":"Feature","properties":{"id":41906,"nach":0.54462148614008987},"geometry":{"type":"LineString","coordinates":[[0.2486575,51.5063428],[0.2485993,51.5063489],[0.2482488,51.506385300000012]]}},
{"type":"Feature","properties":{"id":41935,"nach":0.58472613121336769},"geometry":{"type":"LineString","coordinates":[[0.2492945,51.5083627],[0.2490907,51.508129]]}},
{"type":"Feature","properties":{"id":25909,"nach":0.44325332009592422},"geometry":{"type":"LineString","coordinates":[[0.2488046,51.5082488],[0.2488672,51.5082137],[0.2490907,51.508129]]}},
{"type":"Feature","properties":{"id":35724,"nach":0.52422344196226134},"geometry":{"type":"LineString","coordinates":[[0.2503283,51.5100329],[0.2502799,51.5099494],[0.2502088,51.5098094],[0.2501481,51.5096315]]}},
{"type":"Feature","properties":{"id":41973,"nach":0.58166504229867211},"geometry":{"type":"LineString","coordinates":[[0.2499171,51.5092442],[0.2500797,51.5095508],[0.2501481,51.5096315]]}},
{"type":"Feature","properties":{"id":35712,"nach":0.54203326201170088},"geometry":{"type":"LineString","coordinates":[[0.2506918,51.5095315],[0.2503506,51.5096071],[0.2502887,51.5096173],[0.2502316,51.509614900000017],[0.2501481,51.5096315]]}},
{"type":"Feature","properties":{"id":35726,"nach":0.51692239855873268},"geometry":{"type":"LineString","coordinates":[[0.2503283,51.5100329],[0.2504981,51.5099978],[0.2505381,51.5099792],[0.2505566,51.5099487],[0.2505553,51.5099246],[0.2505108,51.5098419],[0.2504847,51.5097731],[0.250486,51.50973470000001],[0.250533,51.5096888],[0.2505744,51.5096695],[0.2506849,51.5096453],[0.2507326,51.5096196],[0.2507156,51.509570200000013],[0.2506918,51.5095315]]}},
{"type":"Feature","properties":{"id":41982,"nach":0.56323927270490071},"geometry":{"type":"LineString","coordinates":[[0.2512316,51.5111268],[0.251182,51.51108090000001],[0.2509627,51.5108846],[0.2508603,51.5107837],[0.2507662,51.5106793],[0.2506445,51.510523900000017],[0.250531,51.5103634],[0.2504272,51.5101983],[0.2503283,51.5100329]]}},
{"type":"Feature","properties":{"id":41972,"nach":0.58326738624696417},"geometry":{"type":"LineString","coordinates":[[0.2499171,51.5092442],[0.2498107,51.5090575]]}},
{"type":"Feature","properties":{"id":41990,"nach":0.0},"geometry":{"type":"LineString","coordinates":[[0.2507106,51.5095276],[0.2504884,51.5091202],[0.2499171,51.5092442]]}},
{"type":"Feature","properties":{"id":41976,"nach":0.54818426604821868},"geometry":{"type":"LineString","coordinates":[[0.2513971,51.5112798],[0.2515978,51.5114826]]}},
{"type":"Feature","properties":{"id":1123,"nach":0.53751020506302205},"geometry":{"type":"LineString","coordinates":[[0.2515978,51.5114826],[0.2517001,51.5114549],[0.2517413,51.5114388]]}},
{"type":"Feature","properties":{"id":41996,"nach":0.53387165504835665},"geometry":{"type":"LineString","coordinates":[[0.2517302,51.5117039],[0.2516443,51.5115761],[0.2516117,51.5115105],[0.2515978,51.5114826]]}},
{"type":"Feature","properties":{"id":41980,"nach":0.54791002205781314},"geometry":{"type":"LineString","coordinates":[[0.2512316,51.5111268],[0.2513971,51.5112798]]}},
{"type":"Feature","properties":{"id":41988,"nach":0.47515270980383173},"geometry":{"type":"LineString","coordinates":[[0.2514859,51.5112471],[0.2513971,51.5112798]]}},
{"type":"Feature","properties":{"id":37031,"nach":0.48529554033480427},"geometry":{"type":"LineString","coordinates":[[0.2517413,51.5114388],[0.252034,51.5118069]]}},
{"type":"Feature","properties":{"id":37032,"nach":0.52469568869628158},"geometry":{"type":"LineString","coordinates":[[0.2517413,51.5114388],[0.2519755,51.5113732],[0.2521608,51.511327],[0.252386,51.5112838],[0.252607,51.5112521],[0.2527925,51.5112324],[0.2533599,51.5112057],[0.2536176,51.511187600000014],[0.2538678,51.5111659],[0.254083,51.5111406],[0.2542857,51.51111370000001]]}},
{"type":"Feature","properties":{"id":41995,"nach":0.51753337273163025},"geometry":{"type":"LineString","coordinates":[[0.2517302,51.5117039],[0.2517624,51.511752],[0.2518967,51.5119279],[0.252072,51.5121222]]}},
{"type":"Feature","properties":{"id":41998,"nach":0.39859916228066006},"geometry":{"type":"LineString","coordinates":[[0.2519563,51.5118179],[0.2518367,51.5116751],[0.2517302,51.5117039]]}},
{"type":"Feature","properties":{"id":1125,"nach":0.49802973242944126},"geometry":{"type":"LineString","coordinates":[[0.2551482,51.5109907],[0.2549303,51.510419400000011]]}},
{"type":"Feature","properties":{"id":41992,"nach":0.48731835832839626},"geometry":{"type":"LineString","coordinates":[[0.2559102,51.5108627],[0.2558293,51.51086870000001],[0.2558384,51.510893],[0.2551482,51.5109907]]}},
{"type":"Feature","properties":{"id":4040,"nach":0.50312963556210044},"geometry":{"type":"LineString","coordinates":[[0.2542857,51.51111370000001],[0.2551482,51.5109907]]}},
{"type":"Feature","properties":{"id":34103,"nach":0.52616462139472986},"geometry":{"type":"LineString","coordinates":[[0.2549303,51.510419400000011],[0.2544305,51.5090519]]}},
{"type":"Feature","properties":{"id":42003,"nach":0.5038867421349098},"geometry":{"type":"LineString","coordinates":[[0.2550005,51.51041],[0.2549303,51.510419400000011]]}},
{"type":"Feature","properties":{"id":41993,"nach":0.45672858628964597},"geometry":{"type":"LineString","coordinates":[[0.2559102,51.5108627],[0.2561104,51.5110076],[0.2565485,51.5112973],[0.2568937,51.5115465],[0.2570776,51.511661599999989],[0.257283,51.511813],[0.2573343,51.511839],[0.257439,51.5119742]]}},
{"type":"Feature","properties":{"id":41999,"nach":0.39166300880189969},"geometry":{"type":"LineString","coordinates":[[0.2564569,51.5107011],[0.2561135,51.51082250000001],[0.2560379,51.5108476],[0.2559102,51.5108627]]}},
{"type":"Feature","properties":{"id":1127,"nach":0.57763784892654624},"geometry":{"type":"LineString","coordinates":[[0.2539233,51.5090261],[0.2535371,51.5090789]]}},
{"type":"Feature","properties":{"id":7226,"nach":0.58152095790796243},"geometry":{"type":"LineString","coordinates":[[0.25376,51.5086025],[0.2539126,51.5089985],[0.2539233,51.5090261]]}},
{"type":"Feature","properties":{"id":12647,"nach":0.55392192142581087},"geometry":{"type":"LineString","coordinates":[[0.2544305,51.5090519],[0.254402,51.5090185],[0.2543542,51.5089872],[0.2542912,51.5089821],[0.2542164,51.5089884],[0.2539233,51.5090261]]}},
{"type":"Feature","properties":{"id":4052,"nach":0.45076743977921302},"geometry":{"type":"LineString","coordinates":[[0.2540872,51.5105737],[0.2535371,51.5090789]]}},
{"type":"Feature","properties":{"id":4043,"nach":0.56324905244540413},"geometry":{"type":"LineString","coordinates":[[0.2535371,51.5090789],[0.2526711,51.509198900000015]]}},
{"type":"Feature","properties":{"id":1128,"nach":0.58287549078122713},"geometry":{"type":"LineString","coordinates":[[0.2513383,51.5093961],[0.2507106,51.5095276]]}},
{"type":"Feature","properties":{"id":7430,"nach":0.57210558532141165},"geometry":{"type":"LineString","coordinates":[[0.2506916,51.5079118],[0.2507446,51.5080334],[0.2513383,51.5093961]]}},
{"type":"Feature","properties":{"id":4056,"nach":0.58204251356726666},"geometry":{"type":"LineString","coordinates":[[0.2518065,51.5093239],[0.2513383,51.5093961]]}},
{"type":"Feature","properties":{"id":41989,"nach":0.58149971979657555},"geometry":{"type":"LineString","coordinates":[[0.2507106,51.5095276],[0.2506918,51.5095315]]}},
{"type":"Feature","properties":{"id":7429,"nach":0.59083648177160641},"geometry":{"type":"LineString","coordinates":[[0.2506916,51.5079118],[0.2504731,51.5074196],[0.2503906,51.5072315],[0.2503168,51.507044]]}},
{"type":"Feature","properties":{"id":7433,"nach":0.43483611642005859},"geometry":{"type":"LineString","coordinates":[[0.2500772,51.5080233],[0.2506255,51.5079238],[0.2506916,51.5079118]]}},
{"type":"Feature","properties":{"id":41965,"nach":0.54822949112587382},"geometry":{"type":"LineString","coordinates":[[0.2509058,51.5078734],[0.2507787,51.5078962],[0.2506916,51.5079118]]}},
{"type":"Feature","properties":{"id":35156,"nach":0.61120293869641529},"geometry":{"type":"LineString","coordinates":[[0.2502364,51.50671],[0.2501776,51.5061907]]}},
{"type":"Feature","properties":{"id":41871,"nach":0.6556811282070627},"geometry":{"type":"LineString","coordinates":[[0.2500952,51.5061951],[0.2501776,51.5061907]]}},
{"type":"Feature","properties":{"id":1132,"nach":0.65318412412528049},"geometry":{"type":"LineString","coordinates":[[0.2501776,51.5061907],[0.2504765,51.5061872],[0.2506883,51.5061948]]}},
{"type":"Feature","properties":{"id":35157,"nach":0.6039461366213642},"geometry":{"type":"LineString","coordinates":[[0.2502364,51.50671],[0.2502492,51.5067936],[0.2502708,51.5068773],[0.2502923,51.5069693],[0.2503168,51.507044]]}},
{"type":"Feature","properties":{"id":35159,"nach":0.43642770031606143},"geometry":{"type":"LineString","coordinates":[[0.2509423,51.5069517],[0.2508513,51.506687],[0.2502364,51.50671]]}},
{"type":"Feature","properties":{"id":41877,"nach":0.65612575271550178},"geometry":{"type":"LineString","coordinates":[[0.2496008,51.506243],[0.2500143,51.5061994],[0.2500952,51.5061951]]}},
{"type":"Feature","properties":{"id":41874,"nach":0.44590850630655127},"geometry":{"type":"LineString","coordinates":[[0.2498934,51.5060737],[0.2500665,51.506063],[0.2500846,51.5061463],[0.2500952,51.5061951]]}},
{"type":"Feature","properties":{"id":37648,"nach":0.65195642146756871},"geometry":{"type":"LineString","coordinates":[[0.2506883,51.5061948],[0.2509466,51.5062217],[0.2512369,51.5062657],[0.2514338,51.5062879],[0.251626,51.5063012]]}},
{"type":"Feature","properties":{"id":37650,"nach":0.43742036289017999},"geometry":{"type":"LineString","coordinates":[[0.2505164,51.5056932],[0.2507203,51.505687],[0.2506883,51.5061948]]}},
{"type":"Feature","properties":{"id":1133,"nach":0.52270795968114614},"geometry":{"type":"LineString","coordinates":[[0.2531188,51.5061964],[0.2531936,51.5064733]]}},
{"type":"Feature","properties":{"id":3415,"nach":0.60534918669102844},"geometry":{"type":"LineString","coordinates":[[0.2535628,51.506153200000014],[0.2531188,51.5061964]]}},
{"type":"Feature","properties":{"id":3437,"nach":0.59776787834630662},"geometry":{"type":"LineString","coordinates":[[0.252501,51.5062613],[0.2531188,51.5061964]]}},
{"type":"Feature","properties":{"id":7214,"nach":0.50629374779360081},"geometry":{"type":"LineString","coordinates":[[0.2532778,51.5068],[0.253397,51.506764],[0.2541455,51.506688400000016],[0.2542067,51.5066715],[0.2542527,51.5066453],[0.2542791,51.5066056],[0.254247,51.5064599],[0.2542151,51.5064251],[0.2541455,51.5064023],[0.2540624,51.5063963],[0.253323,51.5064741],[0.2531936,51.5064733]]}},
{"type":"Feature","properties":{"id":33898,"nach":0.56183778128318296},"geometry":{"type":"LineString","coordinates":[[0.2540044,51.506108],[0.2535628,51.506153200000014]]}},
{"type":"Feature","properties":{"id":3416,"nach":0.58909271170508193},"geometry":{"type":"LineString","coordinates":[[0.2535628,51.506153200000014],[0.2535293,51.5060195],[0.253512,51.5060027],[0.2534639,51.5058085],[0.253439,51.505657599999985]]}},
{"type":"Feature","properties":{"id":7427,"nach":0.49962009089407694},"geometry":{"type":"LineString","coordinates":[[0.2519391,51.5124043],[0.2522601,51.5123192]]}},
{"type":"Feature","properties":{"id":41734,"nach":0.44106158154473946},"geometry":{"type":"LineString","coordinates":[[0.2533837,51.5157849],[0.2533333,51.5157026],[0.2533,51.5156226],[0.2532711,51.5155177],[0.2532566,51.515424],[0.2530718,51.514347900000011],[0.2530129,51.5140088],[0.2529766,51.513799500000012],[0.2529599,51.513673],[0.2529054,51.51326],[0.2528758,51.51307280000001],[0.25283,51.5129472],[0.2527553,51.5128345],[0.2525987,51.5126618],[0.2525253,51.5125875],[0.2522601,51.5123192]]}},
{"type":"Feature","properties":{"id":12669,"nach":0.51893543243679952},"geometry":{"type":"LineString","coordinates":[[0.252072,51.5121222],[0.2521471,51.5122008],[0.2522601,51.5123192]]}},
{"type":"Feature","properties":{"id":7426,"nach":0.0},"geometry":{"type":"LineString","coordinates":[[0.2516295,51.5130376],[0.251773,51.5130201],[0.2523051,51.5128647],[0.2520936,51.5126316],[0.2519391,51.5124043]]}},
{"type":"Feature","properties":{"id":7428,"nach":0.48468926597281015},"geometry":{"type":"LineString","coordinates":[[0.2519391,51.5124043],[0.2517638,51.5124701]]}},
{"type":"Feature","properties":{"id":41733,"nach":0.41194148438400952},"geometry":{"type":"LineString","coordinates":[[0.2533837,51.5157849],[0.2536076,51.515732499999984]]}},
{"type":"Feature","properties":{"id":42010,"nach":0.47915573666181693},"geometry":{"type":"LineString","coordinates":[[0.2534181,51.5158305],[0.2533837,51.5157849]]}},
{"type":"Feature","properties":{"id":21261,"nach":0.3776216394685204},"geometry":{"type":"LineString","coordinates":[[0.252034,51.5118069],[0.2519168,51.5118453],[0.252019,51.5119821],[0.2521363,51.512101],[0.252072,51.5121222]]}},
{"type":"Feature","properties":{"id":33899,"nach":0.52794259902583263},"geometry":{"type":"LineString","coordinates":[[0.2540044,51.506108],[0.2541582,51.506094100000013],[0.2542343,51.5061081],[0.2546917,51.5060604]]}},
{"type":"Feature","properties":{"id":34789,"nach":0.5076032521166598},"geometry":{"type":"LineString","coordinates":[[0.2539833,51.5059318],[0.2539925,51.5060087],[0.2540044,51.506108]]}},
{"type":"Feature","properties":{"id":41912,"nach":0.42726555673465189},"geometry":{"type":"LineString","coordinates":[[0.253439,51.505657599999985],[0.2523751,51.5056957]]}},
{"type":"Feature","properties":{"id":41911,"nach":0.59255708375641214},"geometry":{"type":"LineString","coordinates":[[0.253439,51.505657599999985],[0.2534257,51.5055128]]}},
{"type":"Feature","properties":{"id":3417,"nach":0.607806148436282},"geometry":{"type":"LineString","coordinates":[[0.2524148,51.5047856],[0.2520779,51.5047703]]}},
{"type":"Feature","properties":{"id":41916,"nach":0.54464461241236017},"geometry":{"type":"LineString","coordinates":[[0.2523665,51.5052281],[0.2524148,51.5047856]]}},
{"type":"Feature","properties":{"id":42393,"nach":0.57865371848711},"geometry":{"type":"LineString","coordinates":[[0.2528001,51.5048041],[0.2524148,51.5047856]]}},
{"type":"Feature","properties":{"id":41909,"nach":0.44391698988078654},"geometry":{"type":"LineString","coordinates":[[0.2520779,51.5047703],[0.2520368,51.5051294],[0.2520153,51.5053815],[0.2520214,51.505634899999983]]}},
{"type":"Feature","properties":{"id":41907,"nach":0.61592591608927849},"geometry":{"type":"LineString","coordinates":[[0.2520779,51.5047703],[0.2513041,51.5047353]]}},
{"type":"Feature","properties":{"id":41910,"nach":0.43872705334172146},"geometry":{"type":"LineString","coordinates":[[0.2521203,51.5043872],[0.2520779,51.5047703]]}},
{"type":"Feature","properties":{"id":41918,"nach":0.55514920718006011},"geometry":{"type":"LineString","coordinates":[[0.2523665,51.5052281],[0.252356,51.505389700000016],[0.2523603,51.5055499]]}},
{"type":"Feature","properties":{"id":41917,"nach":0.51070407544722707},"geometry":{"type":"LineString","coordinates":[[0.2523665,51.5052281],[0.2521107,51.5052245]]}},
{"type":"Feature","properties":{"id":41857,"nach":0.0},"geometry":{"type":"LineString","coordinates":[[0.2520214,51.505634899999983],[0.2514551,51.5056546],[0.2513694,51.5056524],[0.2512962,51.5056392],[0.2512699,51.5055945],[0.2512595,51.505551099999984],[0.2512512,51.5054541],[0.2512475,51.50528030000001],[0.2512675,51.5050997],[0.2513041,51.5047353]]}},
{"type":"Feature","properties":{"id":3420,"nach":0.61885119170522407},"geometry":{"type":"LineString","coordinates":[[0.2513041,51.5047353],[0.2509061,51.504722],[0.2504129,51.50471550000001]]}},
{"type":"Feature","properties":{"id":41856,"nach":0.35273511622990977},"geometry":{"type":"LineString","coordinates":[[0.2520214,51.505634899999983],[0.252367,51.505623]]}},
{"type":"Feature","properties":{"id":41858,"nach":0.44793608544903835},"geometry":{"type":"LineString","coordinates":[[0.2520214,51.505634899999983],[0.2520583,51.505856],[0.2521082,51.5061046],[0.2521564,51.5062932]]}},
{"type":"Feature","properties":{"id":41787,"nach":0.49509179546094984},"geometry":{"type":"LineString","coordinates":[[0.2504226,51.5050895],[0.2504129,51.50471550000001]]}},
{"type":"Feature","properties":{"id":3422,"nach":0.61616433173627239},"geometry":{"type":"LineString","coordinates":[[0.2504129,51.50471550000001],[0.2501077,51.5047247],[0.249742,51.5047442],[0.2489568,51.5048011]]}},
{"type":"Feature","properties":{"id":41791,"nach":0.47869309153711398},"geometry":{"type":"LineString","coordinates":[[0.2500104,51.5053654],[0.2501756,51.505362],[0.2502717,51.5053468],[0.2503645,51.5053059],[0.2504136,51.505253],[0.2504253,51.5051942],[0.2504226,51.5050895]]}},
{"type":"Feature","properties":{"id":3423,"nach":0.64006125865302532},"geometry":{"type":"LineString","coordinates":[[0.2489568,51.5048011],[0.2490448,51.5051865]]}},
{"type":"Feature","properties":{"id":3427,"nach":0.67957351341079941},"geometry":{"type":"LineString","coordinates":[[0.247871,51.504883],[0.2489568,51.5048011]]}},
{"type":"Feature","properties":{"id":41921,"nach":0.63168922852702225},"geometry":{"type":"LineString","coordinates":[[0.2490448,51.5051865],[0.2490999,51.5054281]]}},
{"type":"Feature","properties":{"id":41924,"nach":0.45442195811343905},"geometry":{"type":"LineString","coordinates":[[0.2495058,51.5053907],[0.2490448,51.5051865]]}},
{"type":"Feature","properties":{"id":3429,"nach":0.6300187896426066},"geometry":{"type":"LineString","coordinates":[[0.2490999,51.5054281],[0.2491682,51.5056741]]}},
{"type":"Feature","properties":{"id":41923,"nach":0.30164720407255874},"geometry":{"type":"LineString","coordinates":[[0.2495058,51.5053907],[0.2490999,51.5054281]]}},
{"type":"Feature","properties":{"id":41928,"nach":0.49500810364692682},"geometry":{"type":"LineString","coordinates":[[0.2491682,51.5056741],[0.2495058,51.5053907]]}},
{"type":"Feature","properties":{"id":41927,"nach":0.63837861372507898},"geometry":{"type":"LineString","coordinates":[[0.2491682,51.5056741],[0.2492567,51.50599290000001]]}},
{"type":"Feature","properties":{"id":41926,"nach":0.50756113855988538},"geometry":{"type":"LineString","coordinates":[[0.2495058,51.5053907],[0.249532,51.5053883],[0.2498971,51.5053676],[0.2500104,51.5053654]]}},
{"type":"Feature","properties":{"id":5664,"nach":0.55021461305554198},"geometry":{"type":"LineString","coordinates":[[0.2523603,51.5055499],[0.252367,51.505623]]}},
{"type":"Feature","properties":{"id":41860,"nach":0.54882578637820112},"geometry":{"type":"LineString","coordinates":[[0.2523751,51.5056957],[0.252367,51.505623]]}},
{"type":"Feature","properties":{"id":5667,"nach":0.45780072292520863},"geometry":{"type":"LineString","coordinates":[[0.2534257,51.5055128],[0.2523603,51.5055499]]}},
{"type":"Feature","properties":{"id":41870,"nach":0.55498782986067297},"geometry":{"type":"LineString","coordinates":[[0.2524092,51.5058994],[0.2523827,51.5057642],[0.2523751,51.5056957]]}},
{"type":"Feature","properties":{"id":41875,"nach":0.55064521445380388},"geometry":{"type":"LineString","coordinates":[[0.2496008,51.506243],[0.2493339,51.5062712]]}},
{"type":"Feature","properties":{"id":41904,"nach":0.54741243385481908},"geometry":{"type":"LineString","coordinates":[[0.2486575,51.5063428],[0.2493339,51.5062712]]}},
{"type":"Feature","properties":{"id":41889,"nach":0.39097986805163554},"geometry":{"type":"LineString","coordinates":[[0.2492908,51.506115800000011],[0.2493339,51.5062712]]}},
{"type":"Feature","properties":{"id":41879,"nach":0.63875229691347535},"geometry":{"type":"LineString","coordinates":[[0.2492868,51.5061016],[0.2496008,51.506243]]}},
{"type":"Feature","properties":{"id":41905,"nach":0.3974090231241128},"geometry":{"type":"LineString","coordinates":[[0.2486575,51.5063428],[0.2486143,51.5061858]]}},
{"type":"Feature","properties":{"id":41868,"nach":0.55803943769326225},"geometry":{"type":"LineString","coordinates":[[0.2524092,51.5058994],[0.252501,51.5062613]]}},
{"type":"Feature","properties":{"id":41852,"nach":0.62498059509174098},"geometry":{"type":"LineString","coordinates":[[0.2521958,51.5062904],[0.2522354,51.5062876],[0.252501,51.5062613]]}},
{"type":"Feature","properties":{"id":41869,"nach":0.51040733543467875},"geometry":{"type":"LineString","coordinates":[[0.2524092,51.5058994],[0.2521584,51.505924899999989]]}},
{"type":"Feature","properties":{"id":3441,"nach":0.43342994445427135},"geometry":{"type":"LineString","coordinates":[[0.249484,51.507158899999986],[0.2494087,51.506939900000013]]}},
{"type":"Feature","properties":{"id":3440,"nach":0.0},"geometry":{"type":"LineString","coordinates":[[0.2494087,51.506939900000013],[0.2494541,51.5069337],[0.2494181,51.5068324],[0.249314,51.5068467],[0.2493499,51.506948],[0.2494087,51.506939900000013]]}},
{"type":"Feature","properties":{"id":3444,"nach":0.51194247308936314},"geometry":{"type":"LineString","coordinates":[[0.2503168,51.507044],[0.249484,51.507158899999986]]}},
{"type":"Feature","properties":{"id":27131,"nach":0.43342994445427135},"geometry":{"type":"LineString","coordinates":[[0.2495613,51.5073795],[0.249484,51.507158899999986]]}},
{"type":"Feature","properties":{"id":27133,"nach":0.0},"geometry":{"type":"LineString","coordinates":[[0.2495613,51.5073795],[0.2494912,51.50739020000001],[0.2495376,51.507508700000017],[0.2496711,51.5074885],[0.2496246,51.5073699],[0.2495613,51.5073795]]}},
{"type":"Feature","properties":{"id":4053,"nach":0.50589401319905014},"geometry":{"type":"LineString","coordinates":[[0.2540872,51.5105737],[0.2542857,51.51111370000001]]}},
{"type":"Feature","properties":{"id":4054,"nach":0.47475980253834138},"geometry":{"type":"LineString","coordinates":[[0.2540872,51.5105737],[0.2532024,51.5106446]]}},
{"type":"Feature","properties":{"id":4051,"nach":0.39331915412769364},"geometry":{"type":"LineString","coordinates":[[0.2532024,51.5106446],[0.2526711,51.509198900000015]]}},
{"type":"Feature","properties":{"id":4045,"nach":0.55664998971500346},"geometry":{"type":"LineString","coordinates":[[0.2526711,51.509198900000015],[0.2518065,51.5093239]]}},
{"type":"Feature","properties":{"id":42389,"nach":0.48894457457768431},"geometry":{"type":"LineString","coordinates":[[0.2525795,51.5106931],[0.2532024,51.5106446]]}},
{"type":"Feature","properties":{"id":34100,"nach":0.52147010073824329},"geometry":{"type":"LineString","coordinates":[[0.2521465,51.5102465],[0.2518065,51.5093239]]}},
{"type":"Feature","properties":{"id":34102,"nach":0.50193764728275958},"geometry":{"type":"LineString","coordinates":[[0.2521465,51.5102465],[0.2522899,51.51064],[0.2523125,51.5106743],[0.2523409,51.5107041]]}},
{"type":"Feature","properties":{"id":42390,"nach":0.48460891689789654},"geometry":{"type":"LineString","coordinates":[[0.2525795,51.5106931],[0.2524866,51.5107003],[0.252413,51.5107074],[0.2523409,51.5107041]]}},
{"type":"Feature","properties":{"id":41991,"nach":0.40365717049038718},"geometry":{"type":"LineString","coordinates":[[0.2521024,51.5108914],[0.2522575,51.5107536],[0.2523409,51.5107041]]}},
{"type":"Feature","properties":{"id":34101,"nach":0.40744297409699626},"geometry":{"type":"LineString","coordinates":[[0.2521465,51.5102465],[0.2515236,51.5103386]]}},
{"type":"Feature","properties":{"id":42392,"nach":0.40261436367751541},"geometry":{"type":"LineString","coordinates":[[0.252644,51.5109009],[0.2526165,51.5108513],[0.2525795,51.5106931]]}},
{"type":"Feature","properties":{"id":12677,"nach":0.47358555610792846},"geometry":{"type":"LineString","coordinates":[[0.2536374,51.515792],[0.2537069,51.515889],[0.2538028,51.5159928],[0.2538761,51.516016],[0.253966,51.5160166]]}},
{"type":"Feature","properties":{"id":21280,"nach":0.40485085273743332},"geometry":{"type":"LineString","coordinates":[[0.2562458,51.5160243],[0.256047,51.516017],[0.2559027,51.51603],[0.2558459,51.51603870000001],[0.2557674,51.5160536],[0.2556074,51.5160772],[0.2551769,51.5161149],[0.253966,51.5160166]]}},
{"type":"Feature","properties":{"id":4218,"nach":0.44925751473742809},"geometry":{"type":"LineString","coordinates":[[0.2554253,51.5178497],[0.2554127,51.5178101],[0.2553856,51.517683100000013],[0.2553815,51.5175832],[0.2553442,51.5174792],[0.2552083,51.5173047],[0.2551173,51.5172076],[0.253966,51.5160166]]}},
{"type":"Feature","properties":{"id":41728,"nach":0.39721941886536716},"geometry":{"type":"LineString","coordinates":[[0.2536076,51.515732499999984],[0.2536374,51.515792]]}},
{"type":"Feature","properties":{"id":42011,"nach":0.46164525113502475},"geometry":{"type":"LineString","coordinates":[[0.2534181,51.5158305],[0.2536374,51.515792]]}},
{"type":"Feature","properties":{"id":42190,"nach":0.30381151033875481},"geometry":{"type":"LineString","coordinates":[[0.2599083,51.5157519],[0.2597803,51.5158585],[0.2595471,51.5159133],[0.2592687,51.5159118],[0.259092,51.5158685],[0.2587551,51.5158551],[0.2582876,51.5158762],[0.2576389,51.5158598],[0.2569507,51.515837],[0.2562215,51.5158017],[0.2556547,51.5157751],[0.2552405,51.51596],[0.25479,51.5159308],[0.254379,51.5158681],[0.2538174,51.5158364],[0.2536374,51.515792]]}},
{"type":"Feature","properties":{"id":41724,"nach":0.38056894996695495},"geometry":{"type":"LineString","coordinates":[[0.2600377,51.5160768],[0.2598356,51.5160701],[0.2587278,51.5160079],[0.2579422,51.5160146],[0.2571081,51.516041500000014],[0.2562458,51.5160243]]}},
{"type":"Feature","properties":{"id":21282,"nach":0.32492013826484356},"geometry":{"type":"LineString","coordinates":[[0.2562436,51.5174467],[0.2563644,51.5161896],[0.2562533,51.5161513],[0.2562458,51.5160243]]}},
{"type":"Feature","properties":{"id":12708,"nach":0.43759272902773239},"geometry":{"type":"LineString","coordinates":[[0.2579526,51.5184578],[0.2581548,51.5183901],[0.258269,51.518311],[0.2590312,51.5179861],[0.2591032,51.5180019],[0.2593245,51.5179053],[0.2596068,51.5178902]]}},
{"type":"Feature","properties":{"id":42013,"nach":0.43975121143841911},"geometry":{"type":"LineString","coordinates":[[0.2534181,51.5158305],[0.2534481,51.5158702],[0.2535227,51.515963],[0.2536885,51.5161522],[0.2537546,51.5162555],[0.2538054,51.5163661],[0.2538319,51.5164761],[0.2538457,51.5165877],[0.2538503,51.5168105],[0.2538392,51.5170282],[0.253766,51.51766640000001],[0.2537438,51.5179091],[0.2537262,51.5183078]]}},
{"type":"Feature","properties":{"id":31205,"nach":0.53539245152823278},"geometry":{"type":"LineString","coordinates":[[0.2595521,51.504413],[0.2596791,51.505064099999984],[0.2597984,51.5057078],[0.2598353,51.5058276],[0.2598849,51.5059193],[0.259903,51.5059526]]}},
{"type":"Feature","properties":{"id":31208,"nach":0.58057628999188782},"geometry":{"type":"LineString","coordinates":[[0.2551598,51.5046883],[0.2553871,51.5046723],[0.2560475,51.50464860000001],[0.2565011,51.504634],[0.257012,51.5046787],[0.2570671,51.5046816],[0.2588509,51.5046041],[0.2590976,51.5045513],[0.259161,51.504529900000016],[0.2592245,51.50449720000001],[0.2592733,51.5044721],[0.2593672,51.50444490000001],[0.2595521,51.504413]]}},
{"type":"Feature","properties":{"id":12636,"nach":0.4576074345339905},"geometry":{"type":"LineString","coordinates":[[0.2546917,51.5060604],[0.2550559,51.5060402],[0.2554944,51.506032],[0.2556862,51.5060571],[0.2558836,51.5060716],[0.256289,51.5060768],[0.2567246,51.5060813],[0.2580699,51.5060668],[0.2591379,51.5060844],[0.2598421,51.5060619],[0.259903,51.5059526]]}},
{"type":"Feature","properties":{"id":50310,"nach":0.52517244982834066},"geometry":{"type":"LineString","coordinates":[[0.2600213,51.5060724],[0.2599757,51.5060336],[0.259903,51.5059526]]}},
{"type":"Feature","properties":{"id":23971,"nach":0.35333930527599072},"geometry":{"type":"LineString","coordinates":[[0.2640034,51.505626],[0.2606219,51.5056261],[0.259903,51.5059526]]}},
{"type":"Feature","properties":{"id":12640,"nach":0.48655134719731769},"geometry":{"type":"LineString","coordinates":[[0.2551646,51.5079403],[0.2549393,51.5068043],[0.2549436,51.506655400000014],[0.2549083,51.5065004],[0.2548371,51.5064098],[0.2546917,51.5060604]]}},
{"type":"Feature","properties":{"id":50309,"nach":0.47864327501886955},"geometry":{"type":"LineString","coordinates":[[0.2600213,51.5060724],[0.2600647,51.5061094],[0.2601636,51.506179],[0.2602607,51.5062331],[0.2603578,51.50627690000001],[0.2604812,51.5063175],[0.2607307,51.5063641],[0.261774,51.506527],[0.2625549,51.5066459],[0.2627256,51.5066594],[0.2628738,51.5066611],[0.2639952,51.5066418],[0.2641323,51.506642],[0.264182,51.506654300000015],[0.2642722,51.5067045]]}},
{"type":"Feature","properties":{"id":50311,"nach":0.42613006268676845},"geometry":{"type":"LineString","coordinates":[[0.2600213,51.5060724],[0.2599989,51.5061084],[0.2598216,51.5063944],[0.2597518,51.5066799]]}},
{"type":"Feature","properties":{"id":12684,"nach":0.34569535407419183},"geometry":{"type":"LineString","coordinates":[[0.2671114,51.5108515],[0.2670108,51.5105568],[0.2669896,51.5099359],[0.2669698,51.509552],[0.2669145,51.509163],[0.2669718,51.5087678],[0.2669956,51.5082357],[0.2669515,51.5079248],[0.2669725,51.507639],[0.2668845,51.5073466],[0.266934,51.506566500000012]]}},
{"type":"Feature","properties":{"id":12682,"nach":0.344075090917774},"geometry":{"type":"LineString","coordinates":[[0.2671114,51.5108515],[0.2668777,51.5109859]]}},
{"type":"Feature","properties":{"id":41762,"nach":0.30380746289257388},"geometry":{"type":"LineString","coordinates":[[0.2672802,51.513163300000024],[0.267292,51.5131184],[0.2673039,51.5130412],[0.2672993,51.512958],[0.2672816,51.5128785],[0.2672782,51.5127991],[0.2673165,51.512645700000014],[0.2673523,51.5125694],[0.26736,51.5124075],[0.2672734,51.5119147],[0.2672543,51.5118181],[0.2671933,51.511448],[0.2671765,51.5110815],[0.2671114,51.5108515]]}},
{"type":"Feature","properties":{"id":5668,"nach":0.59760617962046014},"geometry":{"type":"LineString","coordinates":[[0.2534257,51.5055128],[0.2534246,51.5053378],[0.2534373,51.5051642]]}},
{"type":"Feature","properties":{"id":34806,"nach":0.57057113984245522},"geometry":{"type":"LineString","coordinates":[[0.2534373,51.5051642],[0.2534671,51.5049378],[0.2534625,51.5048933],[0.2534433,51.504851],[0.2533882,51.5048333],[0.2533157,51.5048288],[0.2528001,51.5048041]]}},
{"type":"Feature","properties":{"id":34809,"nach":0.62103818997387672},"geometry":{"type":"LineString","coordinates":[[0.2536842,51.5051489],[0.2536337,51.5051617],[0.2535997,51.505165],[0.2535658,51.5051682],[0.2534373,51.5051642]]}},
{"type":"Feature","properties":{"id":7213,"nach":0.51580100001177465},"geometry":{"type":"LineString","coordinates":[[0.2532778,51.5068],[0.2533408,51.5070429]]}},
{"type":"Feature","properties":{"id":7215,"nach":0.5244945639634091},"geometry":{"type":"LineString","coordinates":[[0.2533408,51.5070429],[0.2533821,51.5071938]]}},
{"type":"Feature","properties":{"id":7218,"nach":0.0},"geometry":{"type":"LineString","coordinates":[[0.2534301,51.5073689],[0.2535462,51.5073369],[0.2543086,51.5072609],[0.2543626,51.5072451],[0.2544116,51.5072082],[0.2544226,51.5071661],[0.2543948,51.5070316],[0.2543526,51.506996],[0.2542826,51.506974699999986],[0.2542177,51.5069714],[0.2534783,51.507049],[0.2533408,51.5070429]]}},
{"type":"Feature","properties":{"id":41831,"nach":0.5133737752402866},"geometry":{"type":"LineString","coordinates":[[0.2533821,51.5071938],[0.2534301,51.5073689]]}},
{"type":"Feature","properties":{"id":41834,"nach":0.47321292091179573},"geometry":{"type":"LineString","coordinates":[[0.2528905,51.507366],[0.253191,51.5073342],[0.2533821,51.5071938]]}},
{"type":"Feature","properties":{"id":7217,"nach":0.5077745218489349},"geometry":{"type":"LineString","coordinates":[[0.2534301,51.5073689],[0.2534703,51.507519399999985]]}},
{"type":"Feature","properties":{"id":41829,"nach":0.58780128457504666},"geometry":{"type":"LineString","coordinates":[[0.2534703,51.507519399999985],[0.2535026,51.5076398]]}},
{"type":"Feature","properties":{"id":41835,"nach":0.56253089066830309},"geometry":{"type":"LineString","coordinates":[[0.2528905,51.507366],[0.2529125,51.507456],[0.2532179,51.5074225],[0.2534703,51.507519399999985]]}},
{"type":"Feature","properties":{"id":7221,"nach":0.42520927505588557},"geometry":{"type":"LineString","coordinates":[[0.2535026,51.5076398],[0.2542859,51.5075634]]}},
{"type":"Feature","properties":{"id":7220,"nach":0.58448429926433898},"geometry":{"type":"LineString","coordinates":[[0.2535026,51.5076398],[0.2536474,51.5082097]]}},
{"type":"Feature","properties":{"id":7224,"nach":0.42427902296520792},"geometry":{"type":"LineString","coordinates":[[0.2536474,51.5082097],[0.2543186,51.5081388]]}},
{"type":"Feature","properties":{"id":7223,"nach":0.58232528496567126},"geometry":{"type":"LineString","coordinates":[[0.2536474,51.5082097],[0.25376,51.5086025]]}},
{"type":"Feature","properties":{"id":7227,"nach":0.42255052197201987},"geometry":{"type":"LineString","coordinates":[[0.25376,51.5086025],[0.2541641,51.5085487],[0.254207,51.5086849]]}},
{"type":"Feature","properties":{"id":7423,"nach":0.46505856422679503},"geometry":{"type":"LineString","coordinates":[[0.2517638,51.5124701],[0.2516913,51.5125103],[0.2516468,51.5125679],[0.2516302,51.5126302],[0.2516432,51.5127046],[0.251683,51.5128485],[0.2516295,51.5130376]]}},
{"type":"Feature","properties":{"id":42041,"nach":0.31197405045028936},"geometry":{"type":"LineString","coordinates":[[0.2427239,51.513627],[0.2428935,51.5135444],[0.2434317,51.513435100000017],[0.2440889,51.5132515],[0.2447146,51.5131123],[0.2461496,51.5129399],[0.2481968,51.5128409],[0.2484363,51.5128347],[0.2486845,51.5128402],[0.2489379,51.5128517],[0.2491706,51.512850899999989],[0.2495207,51.5128222],[0.2498089,51.5127928],[0.2502825,51.512728400000015],[0.2510183,51.5125983],[0.2511487,51.5125893],[0.2514418,51.5125315],[0.2515487,51.5124962],[0.2516614,51.5124693],[0.2517638,51.5124701]]}},
{"type":"Feature","properties":{"id":42008,"nach":0.44383968583027039},"geometry":{"type":"LineString","coordinates":[[0.2512708,51.5132276],[0.2516295,51.5130376]]}},
{"type":"Feature","properties":{"id":42007,"nach":0.36702577234900507},"geometry":{"type":"LineString","coordinates":[[0.2512708,51.5132276],[0.2511404,51.513296699999984]]}},
{"type":"Feature","properties":{"id":42009,"nach":0.36540496804169798},"geometry":{"type":"LineString","coordinates":[[0.2512708,51.5132276],[0.2511322,51.5131762],[0.2510332,51.5131921]]}},
{"type":"Feature","properties":{"id":41966,"nach":0.51150214674069483},"geometry":{"type":"LineString","coordinates":[[0.2508647,51.507779900000017],[0.2509058,51.5078734]]}},
{"type":"Feature","properties":{"id":41971,"nach":0.43459988352363232},"geometry":{"type":"LineString","coordinates":[[0.2510618,51.50788570000001],[0.2509218,51.5079108],[0.2509058,51.5078734]]}},
{"type":"Feature","properties":{"id":41845,"nach":0.61380824716449978},"geometry":{"type":"LineString","coordinates":[[0.2515942,51.5065798],[0.251626,51.5063012]]}},
{"type":"Feature","properties":{"id":7435,"nach":0.63513724118574755},"geometry":{"type":"LineString","coordinates":[[0.251626,51.5063012],[0.2517895,51.5063081],[0.2519824,51.506305599999983],[0.2521564,51.5062932]]}},
{"type":"Feature","properties":{"id":41844,"nach":0.43646207379452817},"geometry":{"type":"LineString","coordinates":[[0.2515942,51.5065798],[0.2515835,51.50667270000001]]}},
{"type":"Feature","properties":{"id":41850,"nach":0.60485073355958507},"geometry":{"type":"LineString","coordinates":[[0.2516806,51.5068805],[0.2517089,51.5066391],[0.251687,51.5066252],[0.2516496,51.5066165],[0.2516368,51.5065806],[0.2515942,51.5065798]]}},
{"type":"Feature","properties":{"id":41854,"nach":0.62892613547129006},"geometry":{"type":"LineString","coordinates":[[0.2521564,51.5062932],[0.2521958,51.5062904]]}},
{"type":"Feature","properties":{"id":41940,"nach":0.55458442553990939},"geometry":{"type":"LineString","coordinates":[[0.2493846,51.5091807],[0.2494553,51.509151],[0.2495403,51.5091235],[0.2498107,51.5090575]]}},
{"type":"Feature","properties":{"id":41937,"nach":0.58620788111229949},"geometry":{"type":"LineString","coordinates":[[0.2492945,51.5083627],[0.2494613,51.5085563],[0.2496129,51.508751900000014],[0.2497155,51.5089041],[0.2498107,51.5090575]]}},
{"type":"Feature","properties":{"id":41944,"nach":0.52777141194560107},"geometry":{"type":"LineString","coordinates":[[0.2491739,51.509307],[0.2493273,51.509204700000012],[0.2493846,51.5091807]]}},
{"type":"Feature","properties":{"id":41942,"nach":0.42650488258651226},"geometry":{"type":"LineString","coordinates":[[0.249552,51.509444],[0.2494402,51.5092212],[0.2494124,51.509201],[0.2493846,51.5091807]]}},
{"type":"Feature","properties":{"id":41938,"nach":0.41573883749311591},"geometry":{"type":"LineString","coordinates":[[0.2492945,51.5083627],[0.2492472,51.508379],[0.2491851,51.5084014],[0.2491303,51.5084031],[0.2490703,51.508393500000011],[0.2489744,51.508355],[0.2488969,51.508312],[0.2488046,51.5082488]]}},
{"type":"Feature","properties":{"id":41936,"nach":0.4399828241867742},"geometry":{"type":"LineString","coordinates":[[0.2492945,51.5083627],[0.2493396,51.5083472]]}},
{"type":"Feature","properties":{"id":12746,"nach":0.44298010674680532},"geometry":{"type":"LineString","coordinates":[[0.2592982,51.5185072],[0.2591208,51.5189981],[0.2591208,51.5191434]]}},
{"type":"Feature","properties":{"id":12745,"nach":0.40816660886353923},"geometry":{"type":"LineString","coordinates":[[0.2592982,51.5185072],[0.2593693,51.5183043],[0.25957,51.517951],[0.2596068,51.5178902]]}},
{"type":"Feature","properties":{"id":15028,"nach":0.33744835570905934},"geometry":{"type":"LineString","coordinates":[[0.2629265,51.517845800000011],[0.2625438,51.5180155],[0.261596,51.5181966],[0.2611748,51.5182079],[0.2607035,51.5181458],[0.2602973,51.517997],[0.2600692,51.5181544],[0.2598043,51.5182221],[0.2595331,51.5184488],[0.2592982,51.5185072]]}},
{"type":"Feature","properties":{"id":29128,"nach":0.35010543990345616},"geometry":{"type":"LineString","coordinates":[[0.2632468,51.5140692],[0.2631392,51.5140542],[0.2629708,51.514031700000011],[0.2628238,51.5139915],[0.2627163,51.5139685],[0.2625301,51.5139856],[0.2623222,51.5140198],[0.2608143,51.5138801]]}},
{"type":"Feature","properties":{"id":42195,"nach":0.41143927054361146},"geometry":{"type":"LineString","coordinates":[[0.2601704,51.5154241],[0.2601867,51.5153548],[0.2602576,51.5150763],[0.2608143,51.5138801]]}},
{"type":"Feature","properties":{"id":42077,"nach":0.41706232265634369},"geometry":{"type":"LineString","coordinates":[[0.2608471,51.5135501],[0.2609447,51.5137449],[0.2608143,51.5138801]]}},
{"type":"Feature","properties":{"id":29129,"nach":0.3297952650121509},"geometry":{"type":"LineString","coordinates":[[0.2632468,51.5140692],[0.2633128,51.5137145],[0.263293,51.5133242]]}},
{"type":"Feature","properties":{"id":42201,"nach":0.3874546880509176},"geometry":{"type":"LineString","coordinates":[[0.2650807,51.5142744],[0.2645895,51.5141925],[0.2632468,51.5140692]]}},
{"type":"Feature","properties":{"id":42194,"nach":0.43999777568653098},"geometry":{"type":"LineString","coordinates":[[0.2601704,51.5154241],[0.2600851,51.51578760000001]]}},
{"type":"Feature","properties":{"id":42197,"nach":0.29307183019514677},"geometry":{"type":"LineString","coordinates":[[0.2648321,51.5148395],[0.2642909,51.5147734],[0.2639066,51.5147262],[0.2635272,51.514697900000016],[0.2632491,51.5146569],[0.2628647,51.514638100000013],[0.262804,51.514723],[0.2626472,51.5149339],[0.2624854,51.5151228],[0.2622628,51.5152172],[0.2619644,51.5153651],[0.2616509,51.5154658],[0.2612665,51.5154941],[0.2608265,51.5154973],[0.2605432,51.515469],[0.2601704,51.5154241]]}},
{"type":"Feature","properties":{"id":42078,"nach":0.39428219965728611},"geometry":{"type":"LineString","coordinates":[[0.2608471,51.5135501],[0.2607922,51.5134406],[0.2606919,51.5133207],[0.2605711,51.5131227],[0.2603693,51.5127844],[0.2600791,51.5123625],[0.2598667,51.5120364],[0.2597425,51.5117605],[0.2597104,51.5116788]]}},
{"type":"Feature","properties":{"id":42082,"nach":0.34837413998235151},"geometry":{"type":"LineString","coordinates":[[0.263215,51.5131049],[0.2628205,51.5131742],[0.2612627,51.51355190000001],[0.2608471,51.5135501]]}},
{"type":"Feature","properties":{"id":42200,"nach":0.40038640186677332},"geometry":{"type":"LineString","coordinates":[[0.2650807,51.5142744],[0.2661291,51.5144491],[0.266362,51.5141704]]}},
{"type":"Feature","properties":{"id":42202,"nach":0.39609102765090143},"geometry":{"type":"LineString","coordinates":[[0.2650807,51.5142744],[0.2649333,51.5145531],[0.2648548,51.5147752],[0.2648321,51.5148395]]}},
{"type":"Feature","properties":{"id":21269,"nach":0.29908044356151164},"geometry":{"type":"LineString","coordinates":[[0.2670494,51.5127954],[0.2670226,51.5121139],[0.2669866,51.5117132],[0.2668959,51.5110767],[0.2668777,51.5109859]]}},
{"type":"Feature","properties":{"id":21271,"nach":0.23581608832569412},"geometry":{"type":"LineString","coordinates":[[0.2670494,51.5127954],[0.2650085,51.5130873],[0.263293,51.5133242]]}},
{"type":"Feature","properties":{"id":12643,"nach":0.48446242376403659},"geometry":{"type":"LineString","coordinates":[[0.2550721,51.5088697],[0.2551239,51.5083809],[0.2549573,51.508095800000014],[0.2551646,51.5079403]]}},
{"type":"Feature","properties":{"id":12644,"nach":0.4951380231745996},"geometry":{"type":"LineString","coordinates":[[0.2550128,51.5091659],[0.2550721,51.5088697]]}},
{"type":"Feature","properties":{"id":12648,"nach":0.52186345152142199},"geometry":{"type":"LineString","coordinates":[[0.2544305,51.5090519],[0.254513,51.5090696],[0.2550128,51.5091659]]}},
{"type":"Feature","properties":{"id":12651,"nach":0.46726667999911214},"geometry":{"type":"LineString","coordinates":[[0.255968,51.5102137],[0.255657,51.5101803],[0.2551424,51.509625],[0.2550128,51.5091659]]}},
{"type":"Feature","properties":{"id":12652,"nach":0.40149283957112059},"geometry":{"type":"LineString","coordinates":[[0.2560273,51.5104136],[0.255968,51.5102137]]}},
{"type":"Feature","properties":{"id":12659,"nach":0.37069982247968492},"geometry":{"type":"LineString","coordinates":[[0.2588253,51.509905],[0.2586519,51.5098946],[0.2579095,51.5100197],[0.2572269,51.510073],[0.2562235,51.510247],[0.255968,51.5102137]]}},
{"type":"Feature","properties":{"id":12661,"nach":0.34142865660627436},"geometry":{"type":"LineString","coordinates":[[0.2595873,51.5114915],[0.2595169,51.5114756],[0.2594911,51.5112216],[0.2594211,51.511122199999988],[0.2593659,51.5109528],[0.2592554,51.510912299999987],[0.2591928,51.5106803],[0.2590713,51.5106251],[0.2589977,51.5106472],[0.258832,51.5106619],[0.2587215,51.510441],[0.2587841,51.510209],[0.2588467,51.5101538],[0.2588799,51.5100175],[0.2588253,51.509905]]}},
{"type":"Feature","properties":{"id":42185,"nach":0.37219506613535475},"geometry":{"type":"LineString","coordinates":[[0.2580578,51.514009300000012],[0.2580445,51.5139506],[0.2580191,51.513819499999983],[0.2581001,51.5136249],[0.2582898,51.5133711],[0.2583067,51.51324],[0.2582348,51.5130581],[0.2580066,51.512703],[0.2578626,51.5124574],[0.2577448,51.5123649],[0.257439,51.5119742]]}},
{"type":"Feature","properties":{"id":12665,"nach":0.43261718932311966},"geometry":{"type":"LineString","coordinates":[[0.2595727,51.5116429],[0.2595341,51.5116952],[0.259464,51.5117263],[0.2592792,51.511752],[0.2585854,51.5118248],[0.2583668,51.511849199999986],[0.2580237,51.5118875],[0.2579823,51.5118936],[0.257439,51.5119742]]}},
{"type":"Feature","properties":{"id":42218,"nach":0.38502708391274226},"geometry":{"type":"LineString","coordinates":[[0.255823,51.5123307],[0.2559248,51.5122964],[0.2562075,51.5122011],[0.2572968,51.5120004],[0.257439,51.5119742]]}},
{"type":"Feature","properties":{"id":42188,"nach":0.39651783668345708},"geometry":{"type":"LineString","coordinates":[[0.2599083,51.5157519],[0.2595138,51.5155825],[0.2591588,51.5153218],[0.2587847,51.5150871],[0.2585956,51.5149616],[0.2584968,51.514822100000011],[0.2583253,51.5144351],[0.2582395,51.5142486],[0.2580578,51.514009300000012]]}},
{"type":"Feature","properties":{"id":42215,"nach":0.39369011893248335},"geometry":{"type":"LineString","coordinates":[[0.2573624,51.5140805],[0.2576737,51.5140794],[0.2579956,51.5140637],[0.2580578,51.514009300000012]]}},
{"type":"Feature","properties":{"id":12663,"nach":0.3879046300281469},"geometry":{"type":"LineString","coordinates":[[0.2595727,51.5116429],[0.2595672,51.5115782],[0.2595873,51.5114915]]}},
{"type":"Feature","properties":{"id":12713,"nach":0.42132598667398041},"geometry":{"type":"LineString","coordinates":[[0.2597104,51.5116788],[0.2596691,51.51164510000001],[0.2595727,51.5116429]]}},
{"type":"Feature","properties":{"id":42219,"nach":0.38519932069245577},"geometry":{"type":"LineString","coordinates":[[0.255823,51.5123307],[0.255436,51.51246110000001],[0.2553538,51.5124888],[0.2544947,51.5127654],[0.2537473,51.5129753],[0.253191,51.513137]]}},
{"type":"Feature","properties":{"id":42220,"nach":0.21723841290159859},"geometry":{"type":"LineString","coordinates":[[0.255823,51.5123307],[0.2558418,51.5125294],[0.2558669,51.5127949],[0.2566345,51.5131302],[0.2566449,51.5134538],[0.2573315,51.5137685],[0.2573377,51.5139158],[0.2573624,51.5140805]]}},
{"type":"Feature","properties":{"id":42084,"nach":0.27847508001338922},"geometry":{"type":"LineString","coordinates":[[0.2646749,51.511117599999977],[0.2642619,51.5111317],[0.2630536,51.5112955],[0.2623058,51.5113848],[0.2618148,51.5114426],[0.2616909,51.5114572],[0.2607234,51.5116059],[0.2600851,51.5116568],[0.2599303,51.511677],[0.2597104,51.5116788]]}},
{"type":"Feature","properties":{"id":41722,"nach":0.46851190888671423},"geometry":{"type":"LineString","coordinates":[[0.2600377,51.5160768],[0.2600851,51.51578760000001]]}},
{"type":"Feature","properties":{"id":42189,"nach":0.43368893188806718},"geometry":{"type":"LineString","coordinates":[[0.2599083,51.5157519],[0.2599776,51.515774],[0.2600851,51.51578760000001]]}},
{"type":"Feature","properties":{"id":41725,"nach":0.4817496555267608},"geometry":{"type":"LineString","coordinates":[[0.2600295,51.5161368],[0.2600377,51.5160768]]}},
{"type":"Feature","properties":{"id":21264,"nach":0.48412333431941362},"geometry":{"type":"LineString","coordinates":[[0.2521713,51.5118962],[0.2521329,51.5118674],[0.2520829,51.511846],[0.252034,51.5118069]]}},
{"type":"Feature","properties":{"id":42180,"nach":0.44666690927763886},"geometry":{"type":"LineString","coordinates":[[0.2533335,51.5143792],[0.2532876,51.514164899999983],[0.2532459,51.5139535],[0.253229,51.5137421],[0.2532058,51.5134187],[0.253191,51.513137]]}},
{"type":"Feature","properties":{"id":21263,"nach":0.45954704826717069},"geometry":{"type":"LineString","coordinates":[[0.2521713,51.5118962],[0.2523484,51.51209020000001],[0.2527398,51.5124863],[0.2531189,51.5128708],[0.2531589,51.512994],[0.253191,51.513137]]}},
{"type":"Feature","properties":{"id":42179,"nach":0.41303859169991775},"geometry":{"type":"LineString","coordinates":[[0.2533335,51.5143792],[0.2533701,51.514602],[0.2533813,51.5147326],[0.2534516,51.5152019],[0.2535113,51.5154525],[0.2536076,51.515732499999984]]}},
{"type":"Feature","properties":{"id":42183,"nach":0.3748279340605925},"geometry":{"type":"LineString","coordinates":[[0.2542194,51.5143187],[0.2538299,51.514337600000012],[0.2535568,51.514369099999989],[0.2533335,51.5143792]]}},
{"type":"Feature","properties":{"id":21265,"nach":0.33688872751930687},"geometry":{"type":"LineString","coordinates":[[0.2521713,51.5118962],[0.2525895,51.5118329],[0.2537012,51.511687500000015],[0.2558029,51.511365],[0.2559416,51.5114002],[0.2560221,51.5114864],[0.2562058,51.5120014]]}},
{"type":"Feature","properties":{"id":42184,"nach":0.36083110990406375},"geometry":{"type":"LineString","coordinates":[[0.2542194,51.5143187],[0.2542702,51.51471],[0.2542764,51.5149812],[0.2542328,51.5154075],[0.2541893,51.515671],[0.2537845,51.5157291],[0.2536076,51.515732499999984]]}},
{"type":"Feature","properties":{"id":42012,"nach":0.47025610663743028},"geometry":{"type":"LineString","coordinates":[[0.2534181,51.5158305],[0.2532545,51.5158321],[0.2530955,51.5157851],[0.2528681,51.5156991]]}},
{"type":"Feature","properties":{"id":42015,"nach":0.37272312273769692},"geometry":{"type":"LineString","coordinates":[[0.2535351,51.516367700000018],[0.2535573,51.516297500000015],[0.2535801,51.5162724],[0.2535801,51.5162424],[0.2535605,51.5162111],[0.2533774,51.5160583],[0.253408,51.515998200000013],[0.2533429,51.5159699],[0.2533586,51.5159407],[0.2534181,51.5158305]]}},
{"type":"Feature","properties":{"id":42083,"nach":0.31660003599013709},"geometry":{"type":"LineString","coordinates":[[0.2646749,51.511117599999977],[0.2647261,51.5111158],[0.2648466,51.51110850000002],[0.2652253,51.5110857],[0.2656216,51.5110618],[0.2658807,51.5110461],[0.2668777,51.5109859]]}},
{"type":"Feature","properties":{"id":42085,"nach":0.27846538685129463},"geometry":{"type":"LineString","coordinates":[[0.2646749,51.511117599999977],[0.264712,51.5114304],[0.2646716,51.5117231],[0.2643934,51.512019],[0.2641102,51.5122928],[0.2638067,51.5125478],[0.2635943,51.5127996],[0.263215,51.5131049]]}},
{"type":"Feature","properties":{"id":12688,"nach":0.46764590317736698},"geometry":{"type":"LineString","coordinates":[[0.2596068,51.5178902],[0.2598016,51.5175756]]}},
{"type":"Feature","properties":{"id":41727,"nach":0.44573241049424056},"geometry":{"type":"LineString","coordinates":[[0.2600295,51.5161368],[0.2598869,51.5171835],[0.2598016,51.5175756]]}},
{"type":"Feature","properties":{"id":42193,"nach":0.36050074901031531},"geometry":{"type":"LineString","coordinates":[[0.262307,51.5163193],[0.2622131,51.51672210000001],[0.2621798,51.5169629],[0.2621197,51.5172349],[0.2620292,51.5173596],[0.2614515,51.5174504],[0.2609237,51.5175121],[0.2604471,51.5176108],[0.260298,51.5176874],[0.2601209,51.5175699],[0.259952,51.5175188],[0.2598016,51.5175756]]}},
{"type":"Feature","properties":{"id":42192,"nach":0.42873946256941031},"geometry":{"type":"LineString","coordinates":[[0.262307,51.5163193],[0.2600295,51.5161368]]}},
{"type":"Feature","properties":{"id":42191,"nach":0.45147943312582961},"geometry":{"type":"LineString","coordinates":[[0.262307,51.5163193],[0.2634168,51.5164082]]}},
{"type":"Feature","properties":{"id":21274,"nach":0.39995020862321018},"geometry":{"type":"LineString","coordinates":[[0.2634168,51.5164082],[0.2629573,51.5176467],[0.2629265,51.517845800000011]]}},
{"type":"Feature","properties":{"id":21273,"nach":0.45736445033337925},"geometry":{"type":"LineString","coordinates":[[0.2634168,51.5164082],[0.2634748,51.5163955],[0.2637868,51.5164175],[0.2642314,51.5164259],[0.2644186,51.5164196]]}},
{"type":"Feature","properties":{"id":42198,"nach":0.38420490147028974},"geometry":{"type":"LineString","coordinates":[[0.2648321,51.5148395],[0.2645641,51.5150755],[0.2642404,51.515377700000016],[0.2640077,51.515594900000018],[0.263765,51.5158529],[0.2635475,51.5161079],[0.2634168,51.5164082]]}},
{"type":"Feature","properties":{"id":42080,"nach":0.34637332483391636},"geometry":{"type":"LineString","coordinates":[[0.263215,51.5131049],[0.263293,51.5133242]]}},
{"type":"Feature","properties":{"id":34963,"nach":0.4166306657125271},"geometry":{"type":"LineString","coordinates":[[0.2528681,51.5156991],[0.2521274,51.5153875],[0.2517844,51.51530850000001],[0.2514251,51.5152559],[0.251065,51.5152343],[0.2502991,51.515199],[0.2485693,51.5150289],[0.2479236,51.5149956],[0.24767,51.5149593]]}},
{"type":"Feature","properties":{"id":41933,"nach":0.43506163550759497},"geometry":{"type":"LineString","coordinates":[[0.2490332,51.508683499999989],[0.2489393,51.5084656],[0.2488083,51.50835020000001],[0.2487834,51.5083008],[0.2488046,51.5082488]]}},
{"type":"Feature","properties":{"id":33380,"nach":0.31735452092152394},"geometry":{"type":"LineString","coordinates":[[0.2474043,51.5050304],[0.2475451,51.5053084],[0.2476993,51.5057792],[0.2479917,51.5064002],[0.2482089,51.5071448],[0.2485684,51.5076991],[0.2487856,51.507957800000014],[0.2488044,51.5080897],[0.2487588,51.508191600000011],[0.2487782,51.5082254],[0.2488046,51.5082488]]}},
{"type":"Feature","properties":{"id":41943,"nach":0.48583225042698508},"geometry":{"type":"LineString","coordinates":[[0.2491739,51.509307],[0.2489257,51.5094902]]}},
{"type":"Feature","properties":{"id":28728,"nach":0.41563773689888195},"geometry":{"type":"LineString","coordinates":[[0.2493571,51.5097262],[0.2491657,51.5096759],[0.249029,51.5095918],[0.2489558,51.509511900000014],[0.2489257,51.5094902]]}},
{"type":"Feature","properties":{"id":41946,"nach":0.425575130550787},"geometry":{"type":"LineString","coordinates":[[0.2493195,51.5095162],[0.2492269,51.5093313],[0.2492054,51.5093214],[0.2491739,51.509307]]}},
{"type":"Feature","properties":{"id":34799,"nach":0.56820653128826637},"geometry":{"type":"LineString","coordinates":[[0.2550242,51.5047719],[0.2551085,51.5047681],[0.2551563,51.5047366],[0.2551598,51.5046883]]}},
{"type":"Feature","properties":{"id":41804,"nach":0.46119710487765186},"geometry":{"type":"LineString","coordinates":[[0.2546816,51.5046405],[0.255079,51.5046255],[0.2551514,51.5046458],[0.2551598,51.5046883]]}},
{"type":"Feature","properties":{"id":41808,"nach":0.44041978695708117},"geometry":{"type":"LineString","coordinates":[[0.2546969,51.5047826],[0.2550242,51.5047719]]}},
{"type":"Feature","properties":{"id":41813,"nach":0.55857820490670507},"geometry":{"type":"LineString","coordinates":[[0.2547132,51.50493250000001],[0.2550364,51.5049191],[0.2550242,51.5047719]]}},
{"type":"Feature","properties":{"id":41802,"nach":0.49048872784063519},"geometry":{"type":"LineString","coordinates":[[0.2546816,51.5046405],[0.2543124,51.5046544]]}},
{"type":"Feature","properties":{"id":41806,"nach":0.44447835176514588},"geometry":{"type":"LineString","coordinates":[[0.2546795,51.5046131],[0.2546816,51.5046405]]}},
{"type":"Feature","properties":{"id":41809,"nach":0.23213549004812556},"geometry":{"type":"LineString","coordinates":[[0.2546969,51.5047826],[0.2546948,51.50475440000001],[0.2546836,51.5046677],[0.2546816,51.5046405]]}},
{"type":"Feature","properties":{"id":34967,"nach":0.42054429629377016},"geometry":{"type":"LineString","coordinates":[[0.2517653,51.5168496],[0.2520374,51.5166778],[0.2521687,51.516568900000017],[0.2522701,51.5164136],[0.2523872,51.5162057],[0.2525503,51.515996199999989],[0.2527141,51.5158342],[0.2528681,51.5156991]]}},
{"type":"Feature","properties":{"id":34791,"nach":0.4289416601674072},"geometry":{"type":"LineString","coordinates":[[0.2539743,51.505793100000012],[0.2539833,51.5059318]]}},
{"type":"Feature","properties":{"id":34796,"nach":0.42316902772807302},"geometry":{"type":"LineString","coordinates":[[0.2545238,51.5057711],[0.2545284,51.5058406],[0.2544088,51.5059161],[0.2539833,51.5059318]]}},
{"type":"Feature","properties":{"id":42002,"nach":0.4060306299793347},"geometry":{"type":"LineString","coordinates":[[0.2550005,51.51041],[0.2553133,51.510368]]}},
{"type":"Feature","properties":{"id":42004,"nach":0.40797158671683115},"geometry":{"type":"LineString","coordinates":[[0.2550005,51.51041],[0.2549871,51.5103717]]}},
{"type":"Feature","properties":{"id":42005,"nach":0.40040450350449258},"geometry":{"type":"LineString","coordinates":[[0.2550005,51.51041],[0.2550161,51.5104544],[0.2550443,51.5104355],[0.2556451,51.5103497]]}},
{"type":"Feature","properties":{"id":34795,"nach":0.0},"geometry":{"type":"LineString","coordinates":[[0.2545238,51.5057711],[0.2545131,51.5056589],[0.2544864,51.5056186],[0.2544244,51.505605500000016],[0.2540671,51.5056185],[0.2539931,51.5056555],[0.2539694,51.50570720000001],[0.2539743,51.505793100000012]]}},
{"type":"Feature","properties":{"id":41807,"nach":0.46240718012859838},"geometry":{"type":"LineString","coordinates":[[0.2546969,51.5047826],[0.2543275,51.5047945]]}},
{"type":"Feature","properties":{"id":41814,"nach":0.26760753407341775},"geometry":{"type":"LineString","coordinates":[[0.2547132,51.50493250000001],[0.2547089,51.5048955],[0.2546989,51.5048083],[0.2546969,51.5047826]]}},
{"type":"Feature","properties":{"id":41817,"nach":0.56762328612819823},"geometry":{"type":"LineString","coordinates":[[0.254345,51.5049479],[0.2547132,51.50493250000001]]}},
{"type":"Feature","properties":{"id":41815,"nach":0.44289012157185687},"geometry":{"type":"LineString","coordinates":[[0.2547202,51.5049925],[0.2547132,51.50493250000001]]}},
{"type":"Feature","properties":{"id":41816,"nach":0.57548037958959686},"geometry":{"type":"LineString","coordinates":[[0.254345,51.5049479],[0.2540598,51.5049598]]}},
{"type":"Feature","properties":{"id":34805,"nach":0.55130557949822567},"geometry":{"type":"LineString","coordinates":[[0.2540599,51.5048032],[0.2540427,51.5048445],[0.2540598,51.5049598]]}},
{"type":"Feature","properties":{"id":34808,"nach":0.61585859772994267},"geometry":{"type":"LineString","coordinates":[[0.2536842,51.5051489],[0.2539471,51.505025],[0.2540598,51.5049598]]}},
{"type":"Feature","properties":{"id":41819,"nach":0.20386459082074618},"geometry":{"type":"LineString","coordinates":[[0.254345,51.5049479],[0.2543415,51.504907599999989],[0.2543305,51.504821100000015],[0.2543275,51.5047945]]}},
{"type":"Feature","properties":{"id":41820,"nach":0.44255124970838655},"geometry":{"type":"LineString","coordinates":[[0.25435,51.5050057],[0.254345,51.5049479]]}},
{"type":"Feature","properties":{"id":41793,"nach":0.47758555176011702},"geometry":{"type":"LineString","coordinates":[[0.2543275,51.5047945],[0.2540599,51.5048032]]}},
{"type":"Feature","properties":{"id":41799,"nach":0.51144247589586},"geometry":{"type":"LineString","coordinates":[[0.2543124,51.5046544],[0.2540514,51.5046643],[0.2540599,51.5048032]]}},
{"type":"Feature","properties":{"id":34811,"nach":0.42422716427150275},"geometry":{"type":"LineString","coordinates":[[0.2552427,51.5052863],[0.2551789,51.5051498],[0.2551244,51.5051206],[0.2550677,51.505108],[0.2549813,51.5051029],[0.2536842,51.5051489]]}},
{"type":"Feature","properties":{"id":41800,"nach":0.25177646341717402},"geometry":{"type":"LineString","coordinates":[[0.2543124,51.5046544],[0.2543144,51.5046818],[0.2543244,51.5047682],[0.2543275,51.5047945]]}},
{"type":"Feature","properties":{"id":41801,"nach":0.44289012157185687},"geometry":{"type":"LineString","coordinates":[[0.2543104,51.5046266],[0.2543124,51.5046544]]}},
{"type":"Feature","properties":{"id":42395,"nach":0.43882358651122172},"geometry":{"type":"LineString","coordinates":[[0.252819,51.504527],[0.2528223,51.50464310000001],[0.2528001,51.5048041]]}},
{"type":"Feature","properties":{"id":42017,"nach":0.35774438564888922},"geometry":{"type":"LineString","coordinates":[[0.2517798,51.5169798],[0.2517653,51.5168496]]}},
{"type":"Feature","properties":{"id":42016,"nach":0.30625162402865508},"geometry":{"type":"LineString","coordinates":[[0.2502543,51.5172515],[0.250458,51.5172425],[0.2504439,51.5171105],[0.2504646,51.516931700000015],[0.2517653,51.5168496]]}},
{"type":"Feature","properties":{"id":41985,"nach":0.42811432506564762},"geometry":{"type":"LineString","coordinates":[[0.2513277,51.5110888],[0.2512316,51.5111268]]}},
{"type":"Feature","properties":{"id":42216,"nach":0.37577841298492498},"geometry":{"type":"LineString","coordinates":[[0.2573624,51.5140805],[0.257173,51.5140946],[0.2566217,51.5141173],[0.2561109,51.5141267],[0.255504,51.5141456],[0.2548465,51.5142338],[0.2542194,51.5143187]]}},
{"type":"Feature","properties":{"id":41822,"nach":0.42558029710909528},"geometry":{"type":"LineString","coordinates":[[0.2520916,51.507409],[0.2519171,51.5075509],[0.2520102,51.507792],[0.2520008,51.5078435],[0.2519547,51.507871]]}},
{"type":"Feature","properties":{"id":41827,"nach":0.58060373798993659},"geometry":{"type":"LineString","coordinates":[[0.252774,51.5073778],[0.2523121,51.507424700000023],[0.2520916,51.507409]]}},
{"type":"Feature","properties":{"id":41842,"nach":0.58668499754462422},"geometry":{"type":"LineString","coordinates":[[0.2516509,51.5071178],[0.2516749,51.5071993],[0.2517323,51.5072762],[0.2518695,51.50735],[0.2520916,51.507409]]}},
{"type":"Feature","properties":{"id":41833,"nach":0.58062209958428923},"geometry":{"type":"LineString","coordinates":[[0.2528905,51.507366],[0.252844,51.50737070000001],[0.252774,51.5073778]]}},
{"type":"Feature","properties":{"id":41841,"nach":0.50284627859887232},"geometry":{"type":"LineString","coordinates":[[0.2516509,51.5071178],[0.2513339,51.5071929]]}},
{"type":"Feature","properties":{"id":41848,"nach":0.60070169388374128},"geometry":{"type":"LineString","coordinates":[[0.2516806,51.5068805],[0.2516779,51.5068961],[0.2516536,51.5070332],[0.2516509,51.5071178]]}},
{"type":"Feature","properties":{"id":41837,"nach":0.42685189708221882},"geometry":{"type":"LineString","coordinates":[[0.2513339,51.5071929],[0.2514238,51.5074059]]}},
{"type":"Feature","properties":{"id":41840,"nach":0.41906801441308855},"geometry":{"type":"LineString","coordinates":[[0.2508422,51.5069824],[0.2510328,51.507491499999986],[0.2512781,51.5072061],[0.2513339,51.5071929]]}},
{"type":"Feature","properties":{"id":41853,"nach":0.43047038680259736},"geometry":{"type":"LineString","coordinates":[[0.2521958,51.5062904],[0.2523094,51.50671830000001],[0.2526744,51.5066791]]}},
{"type":"Feature","properties":{"id":41866,"nach":0.43088445422503191},"geometry":{"type":"LineString","coordinates":[[0.2521288,51.505782599999989],[0.2521584,51.505924899999989]]}},
{"type":"Feature","properties":{"id":41867,"nach":0.43088445422503191},"geometry":{"type":"LineString","coordinates":[[0.2521861,51.5060578],[0.2521584,51.505924899999989]]}},
{"type":"Feature","properties":{"id":41878,"nach":0.54039390417082467},"geometry":{"type":"LineString","coordinates":[[0.2492868,51.5061016],[0.2492908,51.506115800000011]]}},
{"type":"Feature","properties":{"id":41880,"nach":0.6311202181272848},"geometry":{"type":"LineString","coordinates":[[0.2492567,51.50599290000001],[0.2492868,51.5061016]]}},
{"type":"Feature","properties":{"id":41890,"nach":0.51345766972094764},"geometry":{"type":"LineString","coordinates":[[0.2492908,51.506115800000011],[0.2490728,51.506138399999976]]}},
{"type":"Feature","properties":{"id":41882,"nach":0.46496195752890385},"geometry":{"type":"LineString","coordinates":[[0.2490728,51.506138399999976],[0.2492567,51.50599290000001]]}},
{"type":"Feature","properties":{"id":41885,"nach":0.54586064269179646},"geometry":{"type":"LineString","coordinates":[[0.2486143,51.5061858],[0.2490728,51.506138399999976]]}},
{"type":"Feature","properties":{"id":41891,"nach":0.55880487943066826},"geometry":{"type":"LineString","coordinates":[[0.2482548,51.506223],[0.2486143,51.5061858]]}},
{"type":"Feature","properties":{"id":41903,"nach":0.45511022569446569},"geometry":{"type":"LineString","coordinates":[[0.2485985,51.5061285],[0.2486143,51.5061858]]}},
{"type":"Feature","properties":{"id":41902,"nach":0.57790772573117344},"geometry":{"type":"LineString","coordinates":[[0.2480309,51.5054155],[0.2481112,51.5057293],[0.2481982,51.5060346],[0.2482548,51.506223]]}},
{"type":"Feature","properties":{"id":41919,"nach":0.42897543902006935},"geometry":{"type":"LineString","coordinates":[[0.2521441,51.5049445],[0.2521107,51.5052245]]}},
{"type":"Feature","properties":{"id":41920,"nach":0.43342110736095785},"geometry":{"type":"LineString","coordinates":[[0.2521042,51.5052782],[0.2521107,51.5052245]]}},
{"type":"Feature","properties":{"id":41970,"nach":0.43373927563585851},"geometry":{"type":"LineString","coordinates":[[0.2511059,51.5077368],[0.2508647,51.507779900000017]]}},
{"type":"Feature","properties":{"id":41969,"nach":0.43277878821543547},"geometry":{"type":"LineString","coordinates":[[0.2510482,51.5076003],[0.2507421,51.5076566],[0.2507954,51.507776],[0.2508196,51.50778780000001],[0.2508647,51.507779900000017]]}},
{"type":"Feature","properties":{"id":41987,"nach":0.40423172916832495},"geometry":{"type":"LineString","coordinates":[[0.2514859,51.5112471],[0.2515936,51.511355]]}},
{"type":"Feature","properties":{"id":41986,"nach":0.38175820670999161},"geometry":{"type":"LineString","coordinates":[[0.2514859,51.5112471],[0.2513277,51.5110888]]}},
{"type":"Feature","properties":{"id":41983,"nach":0.40704071470948883},"geometry":{"type":"LineString","coordinates":[[0.2513277,51.5110888],[0.2512105,51.5109714]]}}
]
}
