{
"type": "FeatureCollection",
"name": "COLCH_51_walking",
"crs": { "type": "name", "properties": { "name": "urn:ogc:def:crs:OGC:1.3:CRS84" } },
"features": [
{"type":"Feature","properties":{"highway":"footway","name":"Bridle Walk","category":"Footpath (pedestrian only)"},"geometry":{"type":"MultiLineString","coordinates":[[[0.846731,51.8857589],[0.8466344,51.8860368],[0.8465489,51.8862257]]]}},
{"type":"Feature","properties":{"highway":"footway","name":null,"category":"Footpath (pedestrian only)"},"geometry":{"type":"MultiLineString","coordinates":[[[0.8466344,51.8860368],[0.8471618,51.8860887]]]}},
{"type":"Feature","properties":{"highway":"footway","name":null,"category":"Footpath (pedestrian only)"},"geometry":{"type":"MultiLineString","coordinates":[[[0.8476811,51.8859647],[0.8474463,51.8859417],[0.8473997,51.8859675]]]}},
{"type":"Feature","properties":{"highway":"path","name":null,"category":"Shared path"},"geometry":{"type":"MultiLineString","coordinates":[[[0.8483114,51.883015],[0.8484568,51.8830607]]]}},
{"type":"Feature","properties":{"highway":"path","name":null,"category":"Shared path"},"geometry":{"type":"MultiLineString","coordinates":[[[0.8474439,51.8868988],[0.8476956,51.8869644]]]}},
{"type":"Feature","properties":{"highway":"path","name":null,"category":"Shared path"},"geometry":{"type":"MultiLineString","coordinates":[[[0.8484818,51.8829678],[0.8483114,51.883015],[0.8482542,51.883013],[0.8477749,51.8829174],[0.8474106,51.8828501],[0.8471526,51.8828141],[0.846967,51.882751],[0.8467913,51.8826376]]]}},
{"type":"Feature","properties":{"highway":"footway","name":"The Folley","category":"Footpath (pedestrian only)"},"geometry":{"type":"MultiLineString","coordinates":[[[0.8403238,51.8856279],[0.8401661,51.8854088],[0.838735,51.8836777],[0.8385787,51.8836642]]]}},
{"type":"Feature","properties":{"highway":"footway","name":"Stanway 32","category":"Footpath (pedestrian only)"},"geometry":{"type":"MultiLineString","coordinates":[[[0.8374013,51.8875822],[0.8373667,51.8876537],[0.8370658,51.8881752],[0.8370185,51.8881951]]]}},
{"type":"Feature","properties":{"highway":"path","name":null,"category":"Shared path"},"geometry":{"type":"MultiLineString","coordinates":[[[0.8425984,51.8898196],[0.8429091,51.8887548],[0.8429373,51.8886912]]]}},
{"type":"Feature","properties":{"highway":"path","name":null,"category":"Shared path"},"geometry":{"type":"MultiLineString","coordinates":[[[0.8363484,51.88628],[0.8366696,51.8863021],[0.836817,51.8863199],[0.8368692,51.8862692],[0.8372782,51.8862914]]]}},
{"type":"Feature","properties":{"highway":"path","name":null,"category":"Shared path"},"geometry":{"type":"MultiLineString","coordinates":[[[0.8395045,51.8807568],[0.8392939,51.8804359],[0.839168,51.8804219]]]}},
{"type":"Feature","properties":{"highway":"path","name":null,"category":"Shared path"},"geometry":{"type":"MultiLineString","coordinates":[[[0.8423398,51.8793447],[0.8424074,51.8793507],[0.8424666,51.879356],[0.8430372,51.8794427],[0.8431035,51.8794175],[0.843166,51.879392],[0.84329,51.8793465],[0.8433845,51.879328],[0.8434411,51.8793301],[0.8435142,51.8793511],[0.8436978,51.879431],[0.844062,51.8794515],[0.8444754,51.8794805],[0.8448781,51.8794293],[0.84511,51.8794045],[0.8451714,51.879416],[0.8452349,51.8794454],[0.8453498,51.8795551],[0.8454115,51.8795805],[0.845584,51.879601]]]}},
{"type":"Feature","properties":{"highway":"footway","name":null,"category":"Footpath (pedestrian only)"},"geometry":{"type":"MultiLineString","coordinates":[[[0.845717,51.8797464],[0.8456968,51.8798054],[0.8456871,51.8798314]]]}},
{"type":"Feature","properties":{"highway":"footway","name":null,"category":"Footpath (pedestrian only)"},"geometry":{"type":"MultiLineString","coordinates":[[[0.84511,51.8794045],[0.8451428,51.8793091],[0.845034,51.8792108]]]}},
{"type":"Feature","properties":{"highway":"footway","name":null,"category":"Footpath (pedestrian only)"},"geometry":{"type":"MultiLineString","coordinates":[[[0.8494678,51.8805871],[0.8484531,51.880797],[0.8484199,51.8808039]]]}},
{"type":"Feature","properties":{"highway":"footway","name":"Stanway 1","category":"Footpath (pedestrian only)"},"geometry":{"type":"MultiLineString","coordinates":[[[0.8400968,51.888134],[0.8400386,51.8882345],[0.8398909,51.8886223],[0.8397521,51.8889953],[0.8398492,51.8890047]]]}},
{"type":"Feature","properties":{"highway":"footway","name":null,"category":"Footpath (pedestrian only)"},"geometry":{"type":"MultiLineString","coordinates":[[[0.8384813,51.8880106],[0.8390717,51.8879329]]]}},
{"type":"Feature","properties":{"highway":"footway","name":null,"category":"Footpath (pedestrian only)"},"geometry":{"type":"MultiLineString","coordinates":[[[0.8483862,51.8814515],[0.8483595,51.8814456],[0.8478864,51.881411],[0.8478072,51.8814184],[0.8475549,51.8813933],[0.8474321,51.8813656]]]}},
{"type":"Feature","properties":{"highway":"footway","name":null,"category":"Footpath (pedestrian only)"},"geometry":{"type":"MultiLineString","coordinates":[[[0.8482429,51.8818405],[0.8483595,51.8814456],[0.8484979,51.8809552]]]}},
{"type":"Feature","properties":{"highway":"footway","name":null,"category":"Footpath (pedestrian only)"},"geometry":{"type":"MultiLineString","coordinates":[[[0.8482708,51.8818398],[0.8483035,51.8818421],[0.8485394,51.8810024],[0.8485214,51.8809177],[0.8484999,51.8808741],[0.8484531,51.880797]]]}},
{"type":"Feature","properties":{"highway":"footway","name":null,"category":"Footpath (pedestrian only)"},"geometry":{"type":"MultiLineString","coordinates":[[[0.8463415,51.8833769],[0.8464273,51.8833763],[0.8474106,51.8828501],[0.8481341,51.8823866],[0.8483293,51.8821382],[0.8483944,51.8818643],[0.8482708,51.8818398]]]}},
{"type":"Feature","properties":{"highway":"path","name":null,"category":"Shared path"},"geometry":{"type":"MultiLineString","coordinates":[[[0.8411179,51.877921],[0.8409729,51.8777304]]]}},
{"type":"Feature","properties":{"highway":"path","name":null,"category":"Shared path"},"geometry":{"type":"MultiLineString","coordinates":[[[0.8385096,51.87925],[0.8382873,51.8788905],[0.8383651,51.8788607],[0.8381512,51.8785479]]]}},
{"type":"Feature","properties":{"highway":"path","name":null,"category":"Shared path"},"geometry":{"type":"MultiLineString","coordinates":[[[0.8399381,51.8873167],[0.8398921,51.8872039],[0.8398152,51.8871345],[0.840008,51.8867423],[0.8402919,51.8862765],[0.8404214,51.886064],[0.8404706,51.8859833],[0.8404733,51.8858509],[0.8401851,51.8857004]]]}},
{"type":"Feature","properties":{"highway":"path","name":null,"category":"Shared path"},"geometry":{"type":"MultiLineString","coordinates":[[[0.8402919,51.8862765],[0.8401945,51.8862194],[0.8400569,51.8861654],[0.8397678,51.8861506],[0.839705,51.8861382],[0.8396643,51.8861233],[0.8396306,51.8860902],[0.8395669,51.886036]]]}},
{"type":"Feature","properties":{"highway":"path","name":null,"category":"Shared path"},"geometry":{"type":"MultiLineString","coordinates":[[[0.8407892,51.8864463],[0.8406718,51.8864154],[0.8404214,51.886064]]]}},
{"type":"Feature","properties":{"highway":"path","name":null,"category":"Shared path"},"geometry":{"type":"MultiLineString","coordinates":[[[0.8395572,51.8885332],[0.8398909,51.8886223]]]}},
{"type":"Feature","properties":{"highway":"footway","name":null,"category":"Footpath (pedestrian only)"},"geometry":{"type":"MultiLineString","coordinates":[[[0.8382103,51.8851615],[0.8372306,51.8851474]]]}},
{"type":"Feature","properties":{"highway":"footway","name":null,"category":"Footpath (pedestrian only)"},"geometry":{"type":"MultiLineString","coordinates":[[[0.8411218,51.8835063],[0.8414922,51.8835853],[0.8417199,51.883635],[0.8419854,51.8836927]]]}},
{"type":"Feature","properties":{"highway":"track","name":null,"category":"Track"},"geometry":{"type":"MultiLineString","coordinates":[[[0.840549,51.8870682],[0.8410079,51.8871203],[0.8419024,51.8872634],[0.8428491,51.8874098]]]}},
{"type":"Feature","properties":{"highway":"track","name":null,"category":"Track"},"geometry":{"type":"MultiLineString","coordinates":[[[0.8427854,51.8863569],[0.8426952,51.8863733],[0.8425642,51.8863634],[0.8423996,51.8863383],[0.8423819,51.8863547],[0.842343,51.8864388],[0.8422775,51.8865862],[0.8422404,51.8866944],[0.8422262,51.886761],[0.8422917,51.8867817],[0.8426368,51.8868298],[0.8430703,51.8868822],[0.8435623,51.8869467],[0.8436633,51.8869521],[0.8437056,51.8868855],[0.8437605,51.886749],[0.8437587,51.886714],[0.8436932,51.8866736],[0.8430101,51.8864519],[0.8428367,51.8864006],[0.8427854,51.8863569],[0.8429488,51.8860394]]]}},
{"type":"Feature","properties":{"highway":"track","name":null,"category":"Track"},"geometry":{"type":"MultiLineString","coordinates":[[[0.8422262,51.886761],[0.8421296,51.8867498],[0.8418539,51.8867099],[0.8415643,51.8866643],[0.841495,51.8866548],[0.8414734,51.8866234],[0.8415088,51.8865559],[0.8415627,51.8864209],[0.8416505,51.8862449],[0.8416721,51.886225],[0.8417075,51.8862231],[0.8423996,51.8863383]]]}},
{"type":"Feature","properties":{"highway":"path","name":null,"category":"Shared path"},"geometry":{"type":"MultiLineString","coordinates":[[[0.8495453,51.8796094],[0.8495078,51.8798026],[0.8493906,51.8805556]]]}},
{"type":"Feature","properties":{"highway":"footway","name":null,"category":"Footpath (pedestrian only)"},"geometry":{"type":"MultiLineString","coordinates":[[[0.8377353,51.8867755],[0.8382142,51.8868704]]]}},
{"type":"Feature","properties":{"highway":"footway","name":null,"category":"Footpath (pedestrian only)"},"geometry":{"type":"MultiLineString","coordinates":[[[0.8355732,51.8849721],[0.8367489,51.8851324]]]}},
{"type":"Feature","properties":{"highway":"footway","name":null,"category":"Footpath (pedestrian only)"},"geometry":{"type":"MultiLineString","coordinates":[[[0.8456784,51.8776645],[0.8456892,51.8775663]]]}},
{"type":"Feature","properties":{"highway":"footway","name":null,"category":"Footpath (pedestrian only)"},"geometry":{"type":"MultiLineString","coordinates":[[[0.8456784,51.8776645],[0.8456799,51.8777153]]]}},
{"type":"Feature","properties":{"highway":"footway","name":null,"category":"Footpath (pedestrian only)"},"geometry":{"type":"MultiLineString","coordinates":[[[0.8452914,51.8783641],[0.8452419,51.8783575],[0.8452529,51.8782971],[0.8452613,51.8781476],[0.845283,51.8776934]]]}},
{"type":"Feature","properties":{"highway":"footway","name":null,"category":"Footpath (pedestrian only)"},"geometry":{"type":"MultiLineString","coordinates":[[[0.844381,51.8776605],[0.8443332,51.8783314],[0.8452419,51.8783575]]]}}
]
}
