{
"type": "FeatureCollection",
"name": "PETER_82_cycling",
"crs": { "type": "name", "properties": { "name": "urn:ogc:def:crs:OGC:1.3:CRS84" } },
"features": [
{"type":"Feature","properties":{"highway":"bridleway","name":null,"category":"Bridleway"},"geometry":{"type":"MultiLineString","coordinates":[[[-0.2517341,52.53379],[-0.2514596,52.5339077],[-0.2511255,52.5340778],[-0.2507428,52.5344058],[-0.2505016,52.5345964],[-0.2500595,52.5348867],[-0.2495548,52.5352217],[-0.2492422,52.535445],[-0.2487241,52.5358871],[-0.2482641,52.5362578],[-0.2481346,52.5363471],[-0.2480453,52.5364588],[-0.2478979,52.5366776],[-0.2478303,52.5367355],[-0.2476451,52.5367648],[-0.2474804,52.5367728],[-0.2472986,52.5367778],[-0.2470467,52.5367493],[-0.2469051,52.5367896],[-0.2466942,52.536758],[-0.2463102,52.5367232],[-0.2460198,52.5367178],[-0.2457741,52.5367158],[-0.2453316,52.5366557],[-0.2450349,52.5366029],[-0.2447718,52.5365785],[-0.2446482,52.5365674],[-0.2445797,52.5365474],[-0.2445417,52.5365019],[-0.2445292,52.5364224],[-0.2445083,52.5362551],[-0.2445292,52.5361798],[-0.2445752,52.5356903],[-0.244571,52.5355523],[-0.2446589,52.5353975],[-0.2447342,52.5352385],[-0.2448095,52.5350544],[-0.2448387,52.5348829],[-0.2448513,52.5347365],[-0.2448262,52.5345943],[-0.2447844,52.5344939],[-0.24473,52.5344227],[-0.2446505,52.5343893],[-0.2445919,52.5343851],[-0.2445166,52.5344269],[-0.2444371,52.5344855],[-0.2444037,52.5345315],[-0.244412,52.5345775],[-0.2444497,52.5346319],[-0.2445166,52.5346863],[-0.2446003,52.5347449],[-0.2446428,52.5347742],[-0.2446702,52.5348016],[-0.2446867,52.5348225],[-0.2446977,52.5348477],[-0.2446988,52.5348762],[-0.2446955,52.5349036],[-0.2446823,52.5349365],[-0.2446428,52.5349935],[-0.2445924,52.5350484],[-0.2445408,52.5351043],[-0.2445003,52.5351262],[-0.2444323,52.5351372],[-0.244361,52.535146],[-0.2443072,52.5351427],[-0.2442656,52.5351284],[-0.2442447,52.535112],[-0.2442272,52.5350955],[-0.2442228,52.5350714],[-0.2442261,52.5350275],[-0.2442283,52.5349738],[-0.244214,52.5349234],[-0.2442118,52.5348905],[-0.2442129,52.5348389],[-0.2442042,52.5347972],[-0.2441822,52.5347753],[-0.2441537,52.5347687],[-0.2441131,52.5347621],[-0.2440682,52.53476],[-0.243975,52.534772]]]}},
{"type":"Feature","properties":{"highway":"cycleway","name":null,"category":"Dedicated cycleway"},"geometry":{"type":"MultiLineString","coordinates":[[[-0.2680849,52.5345974],[-0.2680864,52.5346294],[-0.2680899,52.5347382],[-0.2680785,52.5349438],[-0.2680644,52.5350829],[-0.2680241,52.5351272],[-0.2679483,52.5351701],[-0.2678756,52.5351861],[-0.2671754,52.5352665],[-0.2669196,52.5352958],[-0.266819,52.5353074],[-0.2667786,52.5353117],[-0.2656421,52.5354328],[-0.2654246,52.5354535],[-0.2652586,52.5354693],[-0.2649425,52.535474],[-0.2643584,52.5354827],[-0.2641286,52.5354844],[-0.2639994,52.5354853],[-0.2637775,52.5354896],[-0.2634946,52.5354924],[-0.2630282,52.5354914],[-0.2627485,52.5354959],[-0.2626209,52.535498]]]}},
{"type":"Feature","properties":{"highway":"cycleway","name":null,"category":"Dedicated cycleway"},"geometry":{"type":"MultiLineString","coordinates":[[[-0.2633189,52.5356007],[-0.2641344,52.535587],[-0.2644159,52.5355822],[-0.2645765,52.5355966],[-0.2648198,52.5356398],[-0.2648751,52.5356593],[-0.2648837,52.5356848],[-0.2648743,52.5357276],[-0.2648005,52.5358441],[-0.2642527,52.5366695],[-0.2642141,52.5367339],[-0.2635862,52.5377362],[-0.263529,52.5378032],[-0.2634701,52.5378642]]]}},
{"type":"Feature","properties":{"highway":"cycleway","name":null,"category":"Dedicated cycleway"},"geometry":{"type":"MultiLineString","coordinates":[[[-0.2648705,52.5355717],[-0.2649425,52.535474]]]}},
{"type":"Feature","properties":{"highway":"cycleway","name":null,"category":"Dedicated cycleway"},"geometry":{"type":"MultiLineString","coordinates":[[[-0.2610263,52.5393566],[-0.2606441,52.5394092],[-0.2605161,52.539425],[-0.2604097,52.5394315],[-0.2600887,52.5394705],[-0.2599042,52.539502],[-0.2597821,52.5395234],[-0.2596292,52.5395537],[-0.2594849,52.539568],[-0.2593502,52.5395709],[-0.259144,52.5395602],[-0.2586967,52.5395016],[-0.2585831,52.5394907],[-0.2584866,52.5394966],[-0.2583677,52.539513],[-0.2582423,52.5395417],[-0.2581519,52.5395772],[-0.2581013,52.539609],[-0.2580828,52.5396459],[-0.2581445,52.5402284],[-0.2582338,52.5406332],[-0.2582511,52.5407699],[-0.2582474,52.5408171],[-0.2582449,52.5408487],[-0.2581489,52.5413121],[-0.2580662,52.5415867]]]}},
{"type":"Feature","properties":{"highway":"cycleway","name":null,"category":"Dedicated cycleway"},"geometry":{"type":"MultiLineString","coordinates":[[[-0.2557437,52.5381199],[-0.2556935,52.538245],[-0.2551428,52.5388051],[-0.2547995,52.5392815],[-0.2546966,52.5394772],[-0.2546755,52.5397214]]]}},
{"type":"Feature","properties":{"highway":"cycleway","name":null,"category":"Dedicated cycleway"},"geometry":{"type":"MultiLineString","coordinates":[[[-0.2552212,52.5330249],[-0.254181,52.533414],[-0.2540229,52.5335269],[-0.2535302,52.5336946],[-0.2524664,52.5339681],[-0.2521769,52.5340457],[-0.2520288,52.5340983],[-0.2519146,52.5341742],[-0.2515687,52.534404],[-0.2508963,52.5348432],[-0.2505098,52.535111],[-0.2492937,52.5359535],[-0.2495581,52.536145]]]}},
{"type":"Feature","properties":{"highway":"path","name":null,"category":"Shared path"},"geometry":{"type":"MultiLineString","coordinates":[[[-0.2485314,52.539043],[-0.2484631,52.5390754],[-0.2483295,52.5391771],[-0.2481491,52.5392537],[-0.2479299,52.5393614],[-0.2477604,52.5394114],[-0.2476584,52.5394228],[-0.2475914,52.5393821],[-0.2475485,52.5393152],[-0.2475458,52.5392646],[-0.2475511,52.539183],[-0.2476021,52.5391161],[-0.2477239,52.5390015],[-0.2478623,52.5389546],[-0.2480018,52.5389318],[-0.2481788,52.5389269],[-0.248329,52.5389563],[-0.2483858,52.5389763],[-0.2484819,52.5390101],[-0.2485314,52.539043]]]}},
{"type":"Feature","properties":{"highway":"path","name":null,"category":"Shared path"},"geometry":{"type":"MultiLineString","coordinates":[[[-0.2486147,52.538938],[-0.2485314,52.539043]]]}},
{"type":"Feature","properties":{"highway":"path","name":null,"category":"Shared path"},"geometry":{"type":"MultiLineString","coordinates":[[[-0.2479685,52.5380644],[-0.2480205,52.5381685],[-0.2480318,52.5382624],[-0.2479716,52.5383357],[-0.2479226,52.5384045],[-0.2479113,52.5384595],[-0.2478887,52.538487],[-0.2478623,52.5385305],[-0.2478736,52.538668],[-0.2478698,52.5386955],[-0.2478133,52.5387802],[-0.2477267,52.538904],[-0.2477154,52.5389406],[-0.2477239,52.5390015]]]}},
{"type":"Feature","properties":{"highway":"path","name":null,"category":"Shared path"},"geometry":{"type":"MultiLineString","coordinates":[[[-0.2477239,52.5390015],[-0.2476777,52.5389796],[-0.2476099,52.5389773],[-0.2475082,52.5389911],[-0.2474479,52.5390117],[-0.2473876,52.53903],[-0.2473311,52.5390163],[-0.2472972,52.5389979],[-0.2472181,52.5389773],[-0.2471051,52.5389613],[-0.2469958,52.538975],[-0.2468446,52.5389735],[-0.2467749,52.5389284]]]}},
{"type":"Feature","properties":{"highway":"path","name":null,"category":"Shared path"},"geometry":{"type":"MultiLineString","coordinates":[[[-0.2483858,52.5389763],[-0.2484123,52.5389452],[-0.2484312,52.5388856],[-0.2483747,52.5388352],[-0.2482993,52.5387894],[-0.2482428,52.5386886],[-0.2481901,52.5385901],[-0.2481524,52.5385465],[-0.248062,52.5384824],[-0.2479791,52.538464],[-0.2479113,52.5384595]]]}},
{"type":"Feature","properties":{"highway":"cycleway","name":null,"category":"Dedicated cycleway"},"geometry":{"type":"MultiLineString","coordinates":[[[-0.2545202,52.5398944],[-0.2544755,52.5399259],[-0.2544488,52.5399868],[-0.2544359,52.5400103],[-0.2543167,52.5402276],[-0.2540914,52.5407301],[-0.2539122,52.5412147]]]}},
{"type":"Feature","properties":{"highway":"cycleway","name":null,"category":"Dedicated cycleway"},"geometry":{"type":"MultiLineString","coordinates":[[[-0.2539122,52.5412147],[-0.2538443,52.5413189],[-0.2537397,52.541668],[-0.2536859,52.5418244],[-0.2536368,52.5420633],[-0.2535005,52.5425189],[-0.2533695,52.542805],[-0.2532193,52.5430921],[-0.2530557,52.5433645],[-0.2528465,52.5436173],[-0.2525997,52.543862],[-0.2525179,52.5439616],[-0.2524487,52.5440458],[-0.2523042,52.5442347],[-0.2522778,52.5442913],[-0.2522458,52.5443581],[-0.2521491,52.5445676],[-0.2519913,52.5448185],[-0.2518867,52.5449251]]]}},
{"type":"Feature","properties":{"highway":"cycleway","name":null,"category":"Dedicated cycleway"},"geometry":{"type":"MultiLineString","coordinates":[[[-0.2565112,52.5413319],[-0.2565295,52.5412717],[-0.2565417,52.5411725],[-0.2564975,52.5411003],[-0.2561331,52.5408114],[-0.2559042,52.5406354],[-0.2557566,52.5405136],[-0.2556707,52.5404678],[-0.2555778,52.5404444],[-0.2554663,52.5404351],[-0.2553551,52.5404389],[-0.2552078,52.5404548],[-0.25507,52.5404821],[-0.2550089,52.5404957]]]}},
{"type":"Feature","properties":{"highway":"cycleway","name":null,"category":"Dedicated cycleway"},"geometry":{"type":"MultiLineString","coordinates":[[[-0.256058,52.5381025],[-0.2559843,52.538019]]]}},
{"type":"Feature","properties":{"highway":"cycleway","name":null,"category":"Dedicated cycleway"},"geometry":{"type":"MultiLineString","coordinates":[[[-0.2558498,52.538032],[-0.256049,52.537836]]]}},
{"type":"Feature","properties":{"highway":"cycleway","name":null,"category":"Dedicated cycleway"},"geometry":{"type":"MultiLineString","coordinates":[[[-0.2564181,52.5377261],[-0.2563179,52.5377003],[-0.2561994,52.5376728]]]}},
{"type":"Feature","properties":{"highway":"cycleway","name":null,"category":"Dedicated cycleway"},"geometry":{"type":"MultiLineString","coordinates":[[[-0.2546755,52.5397214],[-0.2548447,52.5397088],[-0.2550195,52.5396541],[-0.2551559,52.5395913],[-0.255287,52.5395141],[-0.2554058,52.5394181],[-0.2554938,52.5393087],[-0.2555606,52.5391656],[-0.2556123,52.538965],[-0.2557343,52.5386333],[-0.2558436,52.5383269],[-0.2559121,52.5381889],[-0.2559306,52.5381516],[-0.2559843,52.538019]]]}},
{"type":"Feature","properties":{"highway":"cycleway","name":null,"category":"Dedicated cycleway"},"geometry":{"type":"MultiLineString","coordinates":[[[-0.2565232,52.5375815],[-0.2564181,52.5377261],[-0.2563322,52.5378445],[-0.2563228,52.5378892],[-0.2563432,52.5379172],[-0.2563897,52.5379451],[-0.2564521,52.5379554],[-0.2566411,52.5379751]]]}},
{"type":"Feature","properties":{"highway":"cycleway","name":null,"category":"Dedicated cycleway"},"geometry":{"type":"MultiLineString","coordinates":[[[-0.2581431,52.5360107],[-0.2580808,52.5360299]]]}},
{"type":"Feature","properties":{"highway":"cycleway","name":null,"category":"Dedicated cycleway"},"geometry":{"type":"MultiLineString","coordinates":[[[-0.2581055,52.5356527],[-0.258182,52.5356829],[-0.2582295,52.5356963],[-0.2582596,52.5357036],[-0.2582127,52.5357555],[-0.2582402,52.5357648],[-0.2583059,52.5357872],[-0.2583495,52.5358016]]]}},
{"type":"Feature","properties":{"highway":"cycleway","name":null,"category":"Dedicated cycleway"},"geometry":{"type":"MultiLineString","coordinates":[[[-0.2590366,52.5349427],[-0.2588001,52.535261]]]}},
{"type":"Feature","properties":{"highway":"cycleway","name":null,"category":"Dedicated cycleway"},"geometry":{"type":"MultiLineString","coordinates":[[[-0.2587656,52.5356131],[-0.25878,52.5355711],[-0.2587929,52.5355456],[-0.2587972,52.5355351],[-0.2587101,52.5355199],[-0.2587161,52.5355096],[-0.2587352,52.5354814],[-0.2587627,52.5354359]]]}},
{"type":"Feature","properties":{"highway":"cycleway","name":null,"category":"Dedicated cycleway"},"geometry":{"type":"MultiLineString","coordinates":[[[-0.2646064,52.5296333],[-0.2642673,52.5299196],[-0.2636075,52.5303716],[-0.2627921,52.530959],[-0.2621617,52.5313938],[-0.2620974,52.5314382],[-0.2616146,52.5317895],[-0.2611989,52.5321207],[-0.2605873,52.5326249],[-0.259949,52.5332221],[-0.2594823,52.5337148],[-0.2588781,52.5346717],[-0.2585639,52.5350998],[-0.2585408,52.5351288],[-0.2584093,52.5352784],[-0.258339,52.5353011],[-0.2582308,52.5352977]]]}},
{"type":"Feature","properties":{"highway":"cycleway","name":null,"category":"Dedicated cycleway"},"geometry":{"type":"MultiLineString","coordinates":[[[-0.2498193,52.5446189],[-0.2501232,52.5446323],[-0.2504692,52.544623],[-0.2508442,52.5445615],[-0.2511642,52.5444579],[-0.2513675,52.5443852],[-0.2516023,52.5442769],[-0.2519273,52.5440634],[-0.2521438,52.5438781],[-0.2522012,52.5438355],[-0.2522854,52.5437304],[-0.2523113,52.5435752],[-0.2523406,52.5434327],[-0.2524117,52.5432775],[-0.2525833,52.5430357],[-0.2527046,52.5428296],[-0.2528739,52.5425305],[-0.2529803,52.5423301],[-0.2532715,52.5419171],[-0.2533053,52.5418921],[-0.2533364,52.5417202],[-0.2534352,52.5414214],[-0.253477,52.5412571],[-0.2535255,52.5410108],[-0.2535527,52.5408498],[-0.2535462,52.5406518],[-0.2534898,52.5404055],[-0.2533757,52.5401859]]]}},
{"type":"Feature","properties":{"highway":"cycleway","name":null,"category":"Dedicated cycleway"},"geometry":{"type":"MultiLineString","coordinates":[[[-0.2498193,52.5446189],[-0.249776,52.5445085],[-0.249525,52.5443559],[-0.2492488,52.5440811],[-0.2489225,52.543707],[-0.2486673,52.5433992],[-0.2483786,52.5430582],[-0.2479978,52.5426561],[-0.2476589,52.5422567],[-0.2473493,52.5419233],[-0.2469811,52.541618],[-0.2468222,52.5413966],[-0.2467427,52.541076],[-0.2467008,52.5407044],[-0.2468389,52.5403126],[-0.2470803,52.5399845],[-0.2474246,52.5396051],[-0.2476584,52.5394228]]]}},
{"type":"Feature","properties":{"highway":"cycleway","name":null,"category":"Dedicated cycleway"},"geometry":{"type":"MultiLineString","coordinates":[[[-0.2485314,52.539043],[-0.2489562,52.5388995],[-0.2493125,52.5388313],[-0.2497884,52.5387926],[-0.2501651,52.5387803],[-0.2507098,52.5388081],[-0.2510305,52.5388654],[-0.2514555,52.5389536],[-0.2518882,52.5390806],[-0.2522471,52.5392586],[-0.2526797,52.5395512],[-0.2531124,52.5398964],[-0.2533757,52.5401859]]]}},
{"type":"Feature","properties":{"highway":"cycleway","name":null,"category":"Dedicated cycleway"},"geometry":{"type":"MultiLineString","coordinates":[[[-0.2520288,52.5340983],[-0.2522195,52.5342716]]]}},
{"type":"Feature","properties":{"highway":"cycleway","name":null,"category":"Dedicated cycleway"},"geometry":{"type":"MultiLineString","coordinates":[[[-0.2505098,52.535111],[-0.2507168,52.5352297],[-0.2507523,52.5352754]]]}},
{"type":"Feature","properties":{"highway":"cycleway","name":null,"category":"Dedicated cycleway"},"geometry":{"type":"MultiLineString","coordinates":[[[-0.2539122,52.5412147],[-0.2540687,52.5410933],[-0.2542128,52.5409027],[-0.2543322,52.5407533],[-0.2544254,52.5406539],[-0.2545097,52.5405664],[-0.2546054,52.5404549],[-0.2546865,52.5403622],[-0.2547194,52.5403345],[-0.254739,52.5402851],[-0.2547387,52.540245],[-0.2547247,52.5402092],[-0.254696,52.5401585],[-0.2546349,52.5400428],[-0.2545939,52.5399778],[-0.2545641,52.5399361],[-0.2545202,52.5398944]]]}},
{"type":"Feature","properties":{"highway":"cycleway","name":null,"category":"Dedicated cycleway"},"geometry":{"type":"MultiLineString","coordinates":[[[-0.2545202,52.5398944],[-0.2545874,52.5398678],[-0.2546357,52.5398486],[-0.2546614,52.5398408],[-0.254668,52.5398043],[-0.2546736,52.5397755],[-0.2546755,52.5397214]]]}},
{"type":"Feature","properties":{"highway":"cycleway","name":null,"category":"Dedicated cycleway"},"geometry":{"type":"MultiLineString","coordinates":[[[-0.2550089,52.5404957],[-0.2549562,52.5404405],[-0.2549067,52.5403885],[-0.2547907,52.540354],[-0.2547194,52.5403345]]]}},
{"type":"Feature","properties":{"highway":"cycleway","name":null,"category":"Dedicated cycleway"},"geometry":{"type":"MultiLineString","coordinates":[[[-0.2576552,52.5361372],[-0.2572371,52.5365313],[-0.2568616,52.5369098],[-0.2568423,52.5369304],[-0.256271,52.5375908]]]}},
{"type":"Feature","properties":{"highway":"cycleway","name":null,"category":"Dedicated cycleway"},"geometry":{"type":"MultiLineString","coordinates":[[[-0.2479685,52.5380644],[-0.2479992,52.5380165],[-0.2479811,52.5379552],[-0.2479604,52.5379237],[-0.2479655,52.5378718],[-0.2479836,52.5377585],[-0.2479836,52.5376924],[-0.2479034,52.5375743],[-0.2478646,52.5374972],[-0.2478569,52.5374359],[-0.2478776,52.5373524],[-0.2479086,52.5372801],[-0.2479947,52.5371985],[-0.2480432,52.5371526],[-0.2483976,52.5368316],[-0.2492937,52.5359535]]]}},
{"type":"Feature","properties":{"highway":"cycleway","name":null,"category":"Dedicated cycleway"},"geometry":{"type":"MultiLineString","coordinates":[[[-0.2479947,52.5371985],[-0.2474826,52.5371208],[-0.2470798,52.537116],[-0.2467369,52.5370899],[-0.2462863,52.5370657],[-0.2458644,52.5370576],[-0.2456059,52.5370643],[-0.2453607,52.53711],[-0.2451597,52.5371812],[-0.2449984,52.5372551],[-0.2448372,52.5373613],[-0.2447201,52.5374231],[-0.2446074,52.5374768],[-0.2445063,52.5374885],[-0.2444556,52.5374802]]]}},
{"type":"Feature","properties":{"highway":"cycleway","name":null,"category":"Dedicated cycleway"},"geometry":{"type":"MultiLineString","coordinates":[[[-0.2588001,52.535261],[-0.2587291,52.5352456],[-0.2586746,52.5352321],[-0.2586517,52.5352264],[-0.2586923,52.5351682],[-0.2586721,52.5351618],[-0.2585886,52.5351407],[-0.2585408,52.5351288]]]}},
{"type":"Feature","properties":{"highway":"cycleway","name":null,"category":"Dedicated cycleway"},"geometry":{"type":"MultiLineString","coordinates":[[[-0.2581827,52.5354899],[-0.2581827,52.5355226],[-0.258164,52.5355694],[-0.2581055,52.5356527],[-0.2579212,52.5358601],[-0.2576552,52.5361372]]]}},
{"type":"Feature","properties":{"highway":"cycleway","name":null,"category":"Dedicated cycleway"},"geometry":{"type":"MultiLineString","coordinates":[[[-0.2582308,52.5352977],[-0.2581911,52.5353506],[-0.2581689,52.5353784],[-0.2581609,52.535389],[-0.2582649,52.5354132],[-0.2582302,52.5354466],[-0.2581827,52.5354899]]]}},
{"type":"Feature","properties":{"highway":"cycleway","name":null,"category":"Dedicated cycleway"},"geometry":{"type":"MultiLineString","coordinates":[[[-0.2579619,52.5362104],[-0.2579746,52.5361801],[-0.2581431,52.5360107],[-0.2583495,52.5358016],[-0.2583711,52.5357797],[-0.2585025,52.5356345],[-0.258591,52.5355872],[-0.2587656,52.5356131],[-0.2589598,52.5356354],[-0.2605322,52.5356099],[-0.2605763,52.5356144]]]}},
{"type":"Feature","properties":{"highway":"cycleway","name":null,"category":"Dedicated cycleway"},"geometry":{"type":"MultiLineString","coordinates":[[[-0.2605763,52.5356144],[-0.260627,52.535616],[-0.2606646,52.5356145]]]}},
{"type":"Feature","properties":{"highway":"cycleway","name":null,"category":"Dedicated cycleway"},"geometry":{"type":"MultiLineString","coordinates":[[[-0.2606646,52.5356145],[-0.2607054,52.5356022],[-0.2613185,52.5356004],[-0.2619069,52.535597]]]}},
{"type":"Feature","properties":{"highway":"cycleway","name":null,"category":"Dedicated cycleway"},"geometry":{"type":"MultiLineString","coordinates":[[[-0.2619069,52.535597],[-0.2619455,52.5355967],[-0.2619896,52.535596]]]}},
{"type":"Feature","properties":{"highway":"cycleway","name":null,"category":"Dedicated cycleway"},"geometry":{"type":"MultiLineString","coordinates":[[[-0.2622489,52.535497],[-0.2619404,52.5354952],[-0.2606243,52.5355112],[-0.2594715,52.5355179],[-0.2589807,52.5354832],[-0.2587627,52.5354359],[-0.2587455,52.5354195],[-0.2587366,52.5353863],[-0.2588001,52.535261]]]}},
{"type":"Feature","properties":{"highway":"cycleway","name":null,"category":"Dedicated cycleway"},"geometry":{"type":"MultiLineString","coordinates":[[[-0.2626209,52.535498],[-0.2623637,52.5354937],[-0.2622489,52.535497]]]}},
{"type":"Feature","properties":{"highway":"cycleway","name":null,"category":"Dedicated cycleway"},"geometry":{"type":"MultiLineString","coordinates":[[[-0.2619896,52.535596],[-0.2627552,52.5356001],[-0.2632235,52.5356026]]]}},
{"type":"Feature","properties":{"highway":"cycleway","name":null,"category":"Dedicated cycleway"},"geometry":{"type":"MultiLineString","coordinates":[[[-0.2632235,52.5356026],[-0.2632716,52.5356035],[-0.2633189,52.5356007]]]}},
{"type":"Feature","properties":{"highway":"cycleway","name":null,"category":"Dedicated cycleway"},"geometry":{"type":"MultiLineString","coordinates":[[[-0.2627552,52.5356001],[-0.2627474,52.5355437],[-0.2627485,52.5354959]]]}},
{"type":"Feature","properties":{"highway":"cycleway","name":null,"category":"Dedicated cycleway"},"geometry":{"type":"MultiLineString","coordinates":[[[-0.2648198,52.5356398],[-0.2648491,52.5356006],[-0.2648705,52.5355717]]]}},
{"type":"Feature","properties":{"highway":"cycleway","name":null,"category":"Dedicated cycleway"},"geometry":{"type":"MultiLineString","coordinates":[[[-0.2579036,52.5362534],[-0.2579619,52.5362104]]]}},
{"type":"Feature","properties":{"highway":"cycleway","name":null,"category":"Dedicated cycleway"},"geometry":{"type":"MultiLineString","coordinates":[[[-0.2576552,52.5361372],[-0.2577149,52.5361657]]]}},
{"type":"Feature","properties":{"highway":"cycleway","name":null,"category":"Dedicated cycleway"},"geometry":{"type":"MultiLineString","coordinates":[[[-0.2564415,52.5375271],[-0.2565232,52.5375815]]]}},
{"type":"Feature","properties":{"highway":"cycleway","name":null,"category":"Dedicated cycleway"},"geometry":{"type":"MultiLineString","coordinates":[[[-0.256271,52.5375908],[-0.2564415,52.5375271]]]}},
{"type":"Feature","properties":{"highway":"cycleway","name":null,"category":"Dedicated cycleway"},"geometry":{"type":"MultiLineString","coordinates":[[[-0.2558498,52.538032],[-0.2557437,52.5381199]]]}},
{"type":"Feature","properties":{"highway":"cycleway","name":null,"category":"Dedicated cycleway"},"geometry":{"type":"MultiLineString","coordinates":[[[-0.2559843,52.538019],[-0.256049,52.537836],[-0.2561994,52.5376728],[-0.256271,52.5375908]]]}},
{"type":"Feature","properties":{"highway":"path","name":null,"category":"Shared path"},"geometry":{"type":"MultiLineString","coordinates":[[[-0.2556935,52.538245],[-0.2558366,52.538226],[-0.2559121,52.5381889]]]}},
{"type":"Feature","properties":{"highway":"cycleway","name":null,"category":"Dedicated cycleway"},"geometry":{"type":"MultiLineString","coordinates":[[[-0.2566411,52.5379751],[-0.2568032,52.5379836]]]}},
{"type":"Feature","properties":{"highway":"cycleway","name":null,"category":"Dedicated cycleway"},"geometry":{"type":"MultiLineString","coordinates":[[[-0.2589833,52.5348999],[-0.2590366,52.5349427]]]}},
{"type":"Feature","properties":{"highway":"track","name":null,"category":"Track"},"geometry":{"type":"MultiLineString","coordinates":[[[-0.2572476,52.5395316],[-0.2579611,52.5392431],[-0.2583128,52.5391595]]]}}
]
}
