{
"type": "FeatureCollection",
"name": "TENDR_20",
"crs": { "type": "name", "properties": { "name": "urn:ogc:def:crs:OGC:1.3:CRS84" } },
"features": [
{ "type": "Feature", "properties": { "osm_id": 413333091, "name": null, "amenity": "bench", "man_made": null, "leisure": null, "playground": null, "memorial": null }, "geometry": { "type": "Point", "coordinates": [ 1.054688, 51.9457938 ] } },
{ "type": "Feature", "properties": { "osm_id": 413333092, "name": null, "amenity": "bench", "man_made": null, "leisure": null, "playground": null, "memorial": null }, "geometry": { "type": "Point", "coordinates": [ 1.0546755, 51.9459576 ] } }
]
}
