{
"type": "FeatureCollection",
"name": "WESSU_783",
"crs": { "type": "name", "properties": { "name": "urn:ogc:def:crs:OGC:1.3:CRS84" } },
"features": [
{ "type": "Feature", "properties": { "osm_id": 12326997278, "name": null, "amenity": "bench", "man_made": null, "leisure": null, "playground": null, "memorial": null }, "geometry": { "type": "Point", "coordinates": [ 0.5004566, 52.3433228 ] } },
{ "type": "Feature", "properties": { "osm_id": 12326997279, "name": null, "amenity": "bench", "man_made": null, "leisure": null, "playground": null, "memorial": null }, "geometry": { "type": "Point", "coordinates": [ 0.5004429, 52.3433376 ] } }
]
}
