{
"type": "FeatureCollection",
"name": "e7d8047f59ba_visibility",
"crs": { "type": "name", "properties": { "name": "urn:ogc:def:crs:OGC:1.3:CRS84" } },
"features": [
{ "type": "Feature", "properties": { "visible_points": 0, "total_points": 54, "visibility_pct": 0.0 }, "geometry": { "type": "Point", "coordinates": [ -0.467415765130935, 51.904072031454966 ] } },
{ "type": "Feature", "properties": { "visible_points": 14, "total_points": 61, "visibility_pct": 22.950819672131146 }, "geometry": { "type": "Point", "coordinates": [ -0.467214432103821, 51.904069411428488 ] } },
{ "type": "Feature", "properties": { "visible_points": 5, "total_points": 68, "visibility_pct": 7.3529411764705888 }, "geometry": { "type": "Point", "coordinates": [ -0.467013099107118, 51.904066791057495 ] } },
{ "type": "Feature", "properties": { "visible_points": 0, "total_points": 71, "visibility_pct": 0.0 }, "geometry": { "type": "Point", "coordinates": [ -0.466811766140833, 51.904064170341975 ] } },
{ "type": "Feature", "properties": { "visible_points": 13, "total_points": 62, "visibility_pct": 20.967741935483872 }, "geometry": { "type": "Point", "coordinates": [ -0.467311421162778, 51.904178571958433 ] } },
{ "type": "Feature", "properties": { "visible_points": 15, "total_points": 70, "visibility_pct": 21.428571428571427 }, "geometry": { "type": "Point", "coordinates": [ -0.467110087675167, 51.904175951753508 ] } },
{ "type": "Feature", "properties": { "visible_points": 13, "total_points": 77, "visibility_pct": 16.883116883116884 }, "geometry": { "type": "Point", "coordinates": [ -0.466908754217974, 51.904173331204042 ] } },
{ "type": "Feature", "properties": { "visible_points": 14, "total_points": 82, "visibility_pct": 17.073170731707318 }, "geometry": { "type": "Point", "coordinates": [ -0.466707420791203, 51.904170710310055 ] } },
{ "type": "Feature", "properties": { "visible_points": 0, "total_points": 80, "visibility_pct": 0.0 }, "geometry": { "type": "Point", "coordinates": [ -0.466506087394848, 51.904168089071561 ] } },
{ "type": "Feature", "properties": { "visible_points": 0, "total_points": 72, "visibility_pct": 0.0 }, "geometry": { "type": "Point", "coordinates": [ -0.466304754028935, 51.904165467488546 ] } },
{ "type": "Feature", "properties": { "visible_points": 11, "total_points": 61, "visibility_pct": 18.032786885245901 }, "geometry": { "type": "Point", "coordinates": [ -0.467408410682239, 51.904287732406424 ] } },
{ "type": "Feature", "properties": { "visible_points": 14, "total_points": 69, "visibility_pct": 20.289855072463769 }, "geometry": { "type": "Point", "coordinates": [ -0.467207076703718, 51.904285112367553 ] } },
{ "type": "Feature", "properties": { "visible_points": 16, "total_points": 77, "visibility_pct": 20.779220779220779 }, "geometry": { "type": "Point", "coordinates": [ -0.467005742755606, 51.904282491984148 ] } },
{ "type": "Feature", "properties": { "visible_points": 17, "total_points": 84, "visibility_pct": 20.238095238095237 }, "geometry": { "type": "Point", "coordinates": [ -0.466804408837923, 51.904279871256229 ] } },
{ "type": "Feature", "properties": { "visible_points": 13, "total_points": 86, "visibility_pct": 15.11627906976744 }, "geometry": { "type": "Point", "coordinates": [ -0.466603074950656, 51.904277250183789 ] } },
{ "type": "Feature", "properties": { "visible_points": 5, "total_points": 79, "visibility_pct": 6.3291139240506329 }, "geometry": { "type": "Point", "coordinates": [ -0.466401741093819, 51.904274628766835 ] } },
{ "type": "Feature", "properties": { "visible_points": 7, "total_points": 70, "visibility_pct": 10.0 }, "geometry": { "type": "Point", "coordinates": [ -0.466200407267412, 51.904272007005353 ] } },
{ "type": "Feature", "properties": { "visible_points": 6, "total_points": 60, "visibility_pct": 10.0 }, "geometry": { "type": "Point", "coordinates": [ -0.465999073471439, 51.904269384899344 ] } },
{ "type": "Feature", "properties": { "visible_points": 0, "total_points": 51, "visibility_pct": 0.0 }, "geometry": { "type": "Point", "coordinates": [ -0.465797739705907, 51.904266762448813 ] } },
{ "type": "Feature", "properties": { "visible_points": 9, "total_points": 57, "visibility_pct": 15.789473684210526 }, "geometry": { "type": "Point", "coordinates": [ -0.467505400662203, 51.904396892772468 ] } },
{ "type": "Feature", "properties": { "visible_points": 9, "total_points": 66, "visibility_pct": 13.636363636363635 }, "geometry": { "type": "Point", "coordinates": [ -0.467304066192767, 51.904394272899651 ] } },
{ "type": "Feature", "properties": { "visible_points": 12, "total_points": 74, "visibility_pct": 16.216216216216218 }, "geometry": { "type": "Point", "coordinates": [ -0.467102731753749, 51.904391652682314 ] } },
{ "type": "Feature", "properties": { "visible_points": 13, "total_points": 82, "visibility_pct": 15.853658536585366 }, "geometry": { "type": "Point", "coordinates": [ -0.46690139734514, 51.904389032120456 ] } },
{ "type": "Feature", "properties": { "visible_points": 17, "total_points": 89, "visibility_pct": 19.101123595505616 }, "geometry": { "type": "Point", "coordinates": [ -0.466700062966958, 51.90438641121407 ] } },
{ "type": "Feature", "properties": { "visible_points": 2, "total_points": 83, "visibility_pct": 2.4096385542168677 }, "geometry": { "type": "Point", "coordinates": [ -0.4664987286192, 51.90438378996317 ] } },
{ "type": "Feature", "properties": { "visible_points": 5, "total_points": 74, "visibility_pct": 6.756756756756757 }, "geometry": { "type": "Point", "coordinates": [ -0.466297394301874, 51.904381168367735 ] } },
{ "type": "Feature", "properties": { "visible_points": 10, "total_points": 65, "visibility_pct": 15.384615384615385 }, "geometry": { "type": "Point", "coordinates": [ -0.466096060014976, 51.904378546427779 ] } },
{ "type": "Feature", "properties": { "visible_points": 1, "total_points": 56, "visibility_pct": 1.7857142857142856 }, "geometry": { "type": "Point", "coordinates": [ -0.465894725758518, 51.904375924143302 ] } },
{ "type": "Feature", "properties": { "visible_points": 0, "total_points": 61, "visibility_pct": 0.0 }, "geometry": { "type": "Point", "coordinates": [ -0.46740105614233, 51.904503433349802 ] } },
{ "type": "Feature", "properties": { "visible_points": 18, "total_points": 70, "visibility_pct": 25.714285714285712 }, "geometry": { "type": "Point", "coordinates": [ -0.467199721212387, 51.904500813298526 ] } },
{ "type": "Feature", "properties": { "visible_points": 15, "total_points": 78, "visibility_pct": 19.230769230769234 }, "geometry": { "type": "Point", "coordinates": [ -0.466998386312865, 51.904498192902714 ] } },
{ "type": "Feature", "properties": { "visible_points": 13, "total_points": 85, "visibility_pct": 15.294117647058824 }, "geometry": { "type": "Point", "coordinates": [ -0.466797051443763, 51.904495572162396 ] } },
{ "type": "Feature", "properties": { "visible_points": 16, "total_points": 84, "visibility_pct": 19.047619047619047 }, "geometry": { "type": "Point", "coordinates": [ -0.466595716605078, 51.904492951077543 ] } },
{ "type": "Feature", "properties": { "visible_points": 18, "total_points": 76, "visibility_pct": 23.684210526315788 }, "geometry": { "type": "Point", "coordinates": [ -0.46639438179683, 51.904490329648176 ] } },
{ "type": "Feature", "properties": { "visible_points": 14, "total_points": 68, "visibility_pct": 20.588235294117645 }, "geometry": { "type": "Point", "coordinates": [ -0.466193047019004, 51.904487707874281 ] } },
{ "type": "Feature", "properties": { "visible_points": 13, "total_points": 60, "visibility_pct": 21.666666666666668 }, "geometry": { "type": "Point", "coordinates": [ -0.465991712271618, 51.904485085755859 ] } },
{ "type": "Feature", "properties": { "visible_points": 0, "total_points": 51, "visibility_pct": 0.0 }, "geometry": { "type": "Point", "coordinates": [ -0.465790377554676, 51.904482463292908 ] } },
{ "type": "Feature", "properties": { "visible_points": 0, "total_points": 77, "visibility_pct": 0.0 }, "geometry": { "type": "Point", "coordinates": [ -0.466894040381068, 51.904604733028776 ] } },
{ "type": "Feature", "properties": { "visible_points": 14, "total_points": 81, "visibility_pct": 17.283950617283949 }, "geometry": { "type": "Point", "coordinates": [ -0.466692705051463, 51.90460211210997 ] } },
{ "type": "Feature", "properties": { "visible_points": 15, "total_points": 76, "visibility_pct": 19.736842105263158 }, "geometry": { "type": "Point", "coordinates": [ -0.466491369752284, 51.904599490846671 ] } },
{ "type": "Feature", "properties": { "visible_points": 14, "total_points": 69, "visibility_pct": 20.289855072463769 }, "geometry": { "type": "Point", "coordinates": [ -0.466290034483537, 51.904596869238837 ] } },
{ "type": "Feature", "properties": { "visible_points": 15, "total_points": 61, "visibility_pct": 24.590163934426229 }, "geometry": { "type": "Point", "coordinates": [ -0.466088699245218, 51.904594247286461 ] } },
{ "type": "Feature", "properties": { "visible_points": 9, "total_points": 53, "visibility_pct": 16.981132075471699 }, "geometry": { "type": "Point", "coordinates": [ -0.465887364037338, 51.904591624989578 ] } },
{ "type": "Feature", "properties": { "visible_points": 0, "total_points": 67, "visibility_pct": 0.0 }, "geometry": { "type": "Point", "coordinates": [ -0.466387022408564, 51.904706030521432 ] } },
{ "type": "Feature", "properties": { "visible_points": 0, "total_points": 60, "visibility_pct": 0.0 }, "geometry": { "type": "Point", "coordinates": [ -0.466185686679315, 51.904703408735124 ] } },
{ "type": "Feature", "properties": { "visible_points": 12, "total_points": 53, "visibility_pct": 22.641509433962266 }, "geometry": { "type": "Point", "coordinates": [ -0.465984350980504, 51.904700786604273 ] } }
]
}
