{
"type": "FeatureCollection",
"name": "49c257d4596a_visibility",
"crs": { "type": "name", "properties": { "name": "urn:ogc:def:crs:OGC:1.3:CRS84" } },
"features": [
{ "type": "Feature", "properties": { "visible_points": 0, "total_points": 62, "visibility_pct": 0.0 }, "geometry": { "type": "Point", "coordinates": [ 0.890229595588357, 51.858839611869328 ] } },
{ "type": "Feature", "properties": { "visible_points": 5, "total_points": 65, "visibility_pct": 7.6923076923076925 }, "geometry": { "type": "Point", "coordinates": [ 0.890430542751686, 51.858834672540489 ] } },
{ "type": "Feature", "properties": { "visible_points": 5, "total_points": 65, "visibility_pct": 7.6923076923076925 }, "geometry": { "type": "Point", "coordinates": [ 0.890631489857212, 51.858829732869175 ] } },
{ "type": "Feature", "properties": { "visible_points": 0, "total_points": 64, "visibility_pct": 0.0 }, "geometry": { "type": "Point", "coordinates": [ 0.89083243690493, 51.85882479285533 ] } },
{ "type": "Feature", "properties": { "visible_points": 0, "total_points": 61, "visibility_pct": 0.0 }, "geometry": { "type": "Point", "coordinates": [ 0.891033383894841, 51.85881985249901 ] } },
{ "type": "Feature", "properties": { "visible_points": 1, "total_points": 73, "visibility_pct": 1.3698630136986301 }, "geometry": { "type": "Point", "coordinates": [ 0.89033697870996, 51.858944898701708 ] } },
{ "type": "Feature", "properties": { "visible_points": 9, "total_points": 75, "visibility_pct": 12.0 }, "geometry": { "type": "Point", "coordinates": [ 0.890537926330893, 51.858939959158469 ] } },
{ "type": "Feature", "properties": { "visible_points": 9, "total_points": 74, "visibility_pct": 12.162162162162163 }, "geometry": { "type": "Point", "coordinates": [ 0.890738873893731, 51.858935019273211 ] } },
{ "type": "Feature", "properties": { "visible_points": 3, "total_points": 72, "visibility_pct": 4.1666666666666661 }, "geometry": { "type": "Point", "coordinates": [ 0.89093982139848, 51.858930079045905 ] } },
{ "type": "Feature", "properties": { "visible_points": 0, "total_points": 79, "visibility_pct": 0.0 }, "geometry": { "type": "Point", "coordinates": [ 0.890243414183162, 51.859055124980088 ] } },
{ "type": "Feature", "properties": { "visible_points": 8, "total_points": 84, "visibility_pct": 9.5238095238095237 }, "geometry": { "type": "Point", "coordinates": [ 0.890444362316688, 51.859050185579278 ] } },
{ "type": "Feature", "properties": { "visible_points": 9, "total_points": 85, "visibility_pct": 10.588235294117647 }, "geometry": { "type": "Point", "coordinates": [ 0.890645310392138, 51.859045245836413 ] } },
{ "type": "Feature", "properties": { "visible_points": 8, "total_points": 83, "visibility_pct": 9.6385542168674707 }, "geometry": { "type": "Point", "coordinates": [ 0.890846258409491, 51.859040305751499 ] } },
{ "type": "Feature", "properties": { "visible_points": 0, "total_points": 78, "visibility_pct": 0.0 }, "geometry": { "type": "Point", "coordinates": [ 0.891047206368749, 51.859035365324551 ] } },
{ "type": "Feature", "properties": { "visible_points": 0, "total_points": 81, "visibility_pct": 0.0 }, "geometry": { "type": "Point", "coordinates": [ 0.890149849201848, 51.859165351198293 ] } },
{ "type": "Feature", "properties": { "visible_points": 7, "total_points": 90, "visibility_pct": 7.7777777777777777 }, "geometry": { "type": "Point", "coordinates": [ 0.890350797847986, 51.859160411939889 ] } },
{ "type": "Feature", "properties": { "visible_points": 9, "total_points": 93, "visibility_pct": 9.67741935483871 }, "geometry": { "type": "Point", "coordinates": [ 0.890551746436035, 51.85915547233941 ] } },
{ "type": "Feature", "properties": { "visible_points": 10, "total_points": 93, "visibility_pct": 10.75268817204301 }, "geometry": { "type": "Point", "coordinates": [ 0.890752694966002, 51.85915053239691 ] } },
{ "type": "Feature", "properties": { "visible_points": 6, "total_points": 88, "visibility_pct": 6.8181818181818175 }, "geometry": { "type": "Point", "coordinates": [ 0.890953643437869, 51.85914559211237 ] } },
{ "type": "Feature", "properties": { "visible_points": 0, "total_points": 78, "visibility_pct": 0.0 }, "geometry": { "type": "Point", "coordinates": [ 0.891154591851641, 51.859140651485781 ] } },
{ "type": "Feature", "properties": { "visible_points": 0, "total_points": 79, "visibility_pct": 0.0 }, "geometry": { "type": "Point", "coordinates": [ 0.890056283766026, 51.859275577356321 ] } },
{ "type": "Feature", "properties": { "visible_points": 1, "total_points": 89, "visibility_pct": 1.1235955056179776 }, "geometry": { "type": "Point", "coordinates": [ 0.890257232924767, 51.859270638240311 ] } },
{ "type": "Feature", "properties": { "visible_points": 0, "total_points": 98, "visibility_pct": 0.0 }, "geometry": { "type": "Point", "coordinates": [ 0.890458182025434, 51.859265698782231 ] } },
{ "type": "Feature", "properties": { "visible_points": 0, "total_points": 100, "visibility_pct": 0.0 }, "geometry": { "type": "Point", "coordinates": [ 0.890659131068004, 51.859260758982131 ] } },
{ "type": "Feature", "properties": { "visible_points": 0, "total_points": 95, "visibility_pct": 0.0 }, "geometry": { "type": "Point", "coordinates": [ 0.890860080052486, 51.859255818839983 ] } },
{ "type": "Feature", "properties": { "visible_points": 3, "total_points": 85, "visibility_pct": 3.5294117647058822 }, "geometry": { "type": "Point", "coordinates": [ 0.891061028978871, 51.859250878355809 ] } },
{ "type": "Feature", "properties": { "visible_points": 0, "total_points": 73, "visibility_pct": 0.0 }, "geometry": { "type": "Point", "coordinates": [ 0.891261977847158, 51.859245937529572 ] } },
{ "type": "Feature", "properties": { "visible_points": 0, "total_points": 73, "visibility_pct": 0.0 }, "geometry": { "type": "Point", "coordinates": [ 0.889962717875684, 51.859385803454146 ] } },
{ "type": "Feature", "properties": { "visible_points": 0, "total_points": 83, "visibility_pct": 0.0 }, "geometry": { "type": "Point", "coordinates": [ 0.89016366754704, 51.859380864480535 ] } },
{ "type": "Feature", "properties": { "visible_points": 0, "total_points": 93, "visibility_pct": 0.0 }, "geometry": { "type": "Point", "coordinates": [ 0.890364617160311, 51.859375925164869 ] } },
{ "type": "Feature", "properties": { "visible_points": 0, "total_points": 76, "visibility_pct": 0.0 }, "geometry": { "type": "Point", "coordinates": [ 0.891168415032503, 51.859356164481802 ] } },
{ "type": "Feature", "properties": { "visible_points": 0, "total_points": 72, "visibility_pct": 0.0 }, "geometry": { "type": "Point", "coordinates": [ 0.890070101714793, 51.859491090660576 ] } },
{ "type": "Feature", "properties": { "visible_points": 3, "total_points": 82, "visibility_pct": 3.6585365853658534 }, "geometry": { "type": "Point", "coordinates": [ 0.890271051840678, 51.85948615148731 ] } },
{ "type": "Feature", "properties": { "visible_points": 3, "total_points": 92, "visibility_pct": 3.2608695652173911 }, "geometry": { "type": "Point", "coordinates": [ 0.890472001908482, 51.85948121197201 ] } },
{ "type": "Feature", "properties": { "visible_points": 2, "total_points": 89, "visibility_pct": 2.2471910112359552 }, "geometry": { "type": "Point", "coordinates": [ 0.890873901869816, 51.85947133191528 ] } },
{ "type": "Feature", "properties": { "visible_points": 0, "total_points": 77, "visibility_pct": 0.0 }, "geometry": { "type": "Point", "coordinates": [ 0.891074851763339, 51.859466391373843 ] } },
{ "type": "Feature", "properties": { "visible_points": 0, "total_points": 65, "visibility_pct": 0.0 }, "geometry": { "type": "Point", "coordinates": [ 0.891275801598766, 51.859461450490386 ] } },
{ "type": "Feature", "properties": { "visible_points": 0, "total_points": 62, "visibility_pct": 0.0 }, "geometry": { "type": "Point", "coordinates": [ 0.889976535428022, 51.85960131678042 ] } },
{ "type": "Feature", "properties": { "visible_points": 1, "total_points": 71, "visibility_pct": 1.4084507042253522 }, "geometry": { "type": "Point", "coordinates": [ 0.890177486066528, 51.859596377749583 ] } },
{ "type": "Feature", "properties": { "visible_points": 3, "total_points": 80, "visibility_pct": 3.75 }, "geometry": { "type": "Point", "coordinates": [ 0.890378436646945, 51.859591438376675 ] } },
{ "type": "Feature", "properties": { "visible_points": 0, "total_points": 77, "visibility_pct": 0.0 }, "geometry": { "type": "Point", "coordinates": [ 0.890981288039671, 51.859576618205715 ] } },
{ "type": "Feature", "properties": { "visible_points": 0, "total_points": 66, "visibility_pct": 0.0 }, "geometry": { "type": "Point", "coordinates": [ 0.891182238387715, 51.85957167746465 ] } },
{ "type": "Feature", "properties": { "visible_points": 0, "total_points": 55, "visibility_pct": 0.0 }, "geometry": { "type": "Point", "coordinates": [ 0.891383188677661, 51.859566736381517 ] } },
{ "type": "Feature", "properties": { "visible_points": 0, "total_points": 45, "visibility_pct": 0.0 }, "geometry": { "type": "Point", "coordinates": [ 0.891584138909498, 51.859561794956356 ] } },
{ "type": "Feature", "properties": { "visible_points": 0, "total_points": 60, "visibility_pct": 0.0 }, "geometry": { "type": "Point", "coordinates": [ 0.890083919837851, 51.859706603951636 ] } },
{ "type": "Feature", "properties": { "visible_points": 0, "total_points": 68, "visibility_pct": 0.0 }, "geometry": { "type": "Point", "coordinates": [ 0.89028487093089, 51.859701664721157 ] } },
{ "type": "Feature", "properties": { "visible_points": 0, "total_points": 50, "visibility_pct": 0.0 }, "geometry": { "type": "Point", "coordinates": [ 0.889990353154643, 51.859816830093507 ] } },
{ "type": "Feature", "properties": { "visible_points": 0, "total_points": 57, "visibility_pct": 0.0 }, "geometry": { "type": "Point", "coordinates": [ 0.890191304760312, 51.859811891005421 ] } },
{ "type": "Feature", "properties": { "visible_points": 0, "total_points": 41, "visibility_pct": 0.0 }, "geometry": { "type": "Point", "coordinates": [ 0.889896786016909, 51.859927056175188 ] } },
{ "type": "Feature", "properties": { "visible_points": 0, "total_points": 47, "visibility_pct": 0.0 }, "geometry": { "type": "Point", "coordinates": [ 0.890097738135199, 51.859922117229516 ] } }
]
}
