{
"type": "FeatureCollection",
"name": "HUNTI_508_walking",
"crs": { "type": "name", "properties": { "name": "urn:ogc:def:crs:OGC:1.3:CRS84" } },
"features": [
{"type":"Feature","properties":{"highway":"footway","name":"Cranesbrook","category":"Footpath (pedestrian only)"},"geometry":{"type":"MultiLineString","coordinates":[[[-0.0588018,52.3003156],[-0.0589453,52.3003306],[-0.0589962,52.3003366],[-0.0590933,52.3003614],[-0.0595474,52.3004589],[-0.0599021,52.3005323],[-0.0610612,52.3007823],[-0.0613614,52.3008394],[-0.0621605,52.3010016],[-0.0623667,52.3010082]]]}},
{"type":"Feature","properties":{"highway":"footway","name":null,"category":"Footpath (pedestrian only)"},"geometry":{"type":"MultiLineString","coordinates":[[[-0.0645505,52.3013666],[-0.0641149,52.30125],[-0.0640967,52.3011724]]]}},
{"type":"Feature","properties":{"highway":"footway","name":null,"category":"Footpath (pedestrian only)"},"geometry":{"type":"MultiLineString","coordinates":[[[-0.0757176,52.3039203],[-0.0756536,52.3039126],[-0.0755992,52.303887],[-0.0752249,52.3037111],[-0.0742438,52.3031344],[-0.0739294,52.302947],[-0.0735825,52.302745],[-0.0732429,52.3025378],[-0.0722842,52.3019561],[-0.0720953,52.3018566],[-0.0720117,52.3017998]]]}},
{"type":"Feature","properties":{"highway":"footway","name":null,"category":"Footpath (pedestrian only)"},"geometry":{"type":"MultiLineString","coordinates":[[[-0.065292,52.3014003],[-0.0654247,52.3014378],[-0.0655154,52.3014635]]]}},
{"type":"Feature","properties":{"highway":"footway","name":null,"category":"Footpath (pedestrian only)"},"geometry":{"type":"MultiLineString","coordinates":[[[-0.0691037,52.2962616],[-0.0692432,52.2960663]]]}},
{"type":"Feature","properties":{"highway":"footway","name":null,"category":"Footpath (pedestrian only)"},"geometry":{"type":"MultiLineString","coordinates":[[[-0.0661963,52.2963817],[-0.066183,52.2964521],[-0.0660394,52.2966144]]]}},
{"type":"Feature","properties":{"highway":"bridleway","name":null,"category":"Bridleway"},"geometry":{"type":"MultiLineString","coordinates":[[[-0.0749263,52.2978546],[-0.0746911,52.2978341],[-0.0743783,52.2975887]]]}},
{"type":"Feature","properties":{"highway":"bridleway","name":null,"category":"Bridleway"},"geometry":{"type":"MultiLineString","coordinates":[[[-0.0743361,52.2976126],[-0.0740294,52.2977863]]]}},
{"type":"Feature","properties":{"highway":"bridleway","name":null,"category":"Bridleway"},"geometry":{"type":"MultiLineString","coordinates":[[[-0.0740294,52.2977863],[-0.0740157,52.2980463]]]}},
{"type":"Feature","properties":{"highway":"footway","name":null,"category":"Footpath (pedestrian only)"},"geometry":{"type":"MultiLineString","coordinates":[[[-0.0645505,52.3013666],[-0.0643736,52.3016033],[-0.0639157,52.301485],[-0.0632557,52.3013788],[-0.062986,52.3020282],[-0.0628851,52.3023744],[-0.0627825,52.3026622],[-0.0633411,52.3027487],[-0.0636765,52.3027926],[-0.0632852,52.3038515],[-0.0627967,52.3049953],[-0.0628142,52.3051552]]]}},
{"type":"Feature","properties":{"highway":"footway","name":null,"category":"Footpath (pedestrian only)"},"geometry":{"type":"MultiLineString","coordinates":[[[-0.0611428,52.3005353],[-0.0611991,52.3005674],[-0.0610612,52.3007823]]]}},
{"type":"Feature","properties":{"highway":"footway","name":null,"category":"Footpath (pedestrian only)"},"geometry":{"type":"MultiLineString","coordinates":[[[-0.0625746,52.3006592],[-0.06259,52.300707],[-0.0624408,52.3009406],[-0.0623985,52.3009436]]]}},
{"type":"Feature","properties":{"highway":"footway","name":null,"category":"Footpath (pedestrian only)"},"geometry":{"type":"MultiLineString","coordinates":[[[-0.0641397,52.2990827],[-0.0640874,52.299002],[-0.0638701,52.2989318],[-0.0639348,52.2988397],[-0.0641084,52.2986156],[-0.0642522,52.2984376],[-0.0642861,52.2984046],[-0.0644148,52.2982227],[-0.0646183,52.297978],[-0.0646383,52.2979477],[-0.0652477,52.2971595],[-0.0652376,52.2970666]]]}},
{"type":"Feature","properties":{"highway":"footway","name":null,"category":"Footpath (pedestrian only)"},"geometry":{"type":"MultiLineString","coordinates":[[[-0.0646183,52.297978],[-0.0649162,52.2980675],[-0.0650305,52.2981273]]]}},
{"type":"Feature","properties":{"highway":"footway","name":null,"category":"Footpath (pedestrian only)"},"geometry":{"type":"MultiLineString","coordinates":[[[-0.0642522,52.2984376],[-0.0643025,52.2984917]]]}},
{"type":"Feature","properties":{"highway":"footway","name":null,"category":"Footpath (pedestrian only)"},"geometry":{"type":"MultiLineString","coordinates":[[[-0.0647834,52.2993449],[-0.0648792,52.2992163],[-0.0650625,52.298955],[-0.0650837,52.2988212],[-0.0650851,52.2986532]]]}},
{"type":"Feature","properties":{"highway":"footway","name":null,"category":"Footpath (pedestrian only)"},"geometry":{"type":"MultiLineString","coordinates":[[[-0.0639348,52.2988397],[-0.0634572,52.2987073],[-0.0632739,52.2986663],[-0.0630995,52.2985997],[-0.0626195,52.2984676],[-0.0615707,52.2981646]]]}},
{"type":"Feature","properties":{"highway":"footway","name":null,"category":"Footpath (pedestrian only)"},"geometry":{"type":"MultiLineString","coordinates":[[[-0.0632739,52.2986663],[-0.0632159,52.2987386],[-0.0632295,52.2988152]]]}},
{"type":"Feature","properties":{"highway":"footway","name":null,"category":"Footpath (pedestrian only)"},"geometry":{"type":"MultiLineString","coordinates":[[[-0.0622649,52.2986941],[-0.0624086,52.2987266],[-0.0625647,52.2985347],[-0.0626195,52.2984676]]]}},
{"type":"Feature","properties":{"highway":"footway","name":null,"category":"Footpath (pedestrian only)"},"geometry":{"type":"MultiLineString","coordinates":[[[-0.0626195,52.2984676],[-0.0626964,52.2983654]]]}},
{"type":"Feature","properties":{"highway":"bridleway","name":"Fen Lane","category":"Bridleway"},"geometry":{"type":"MultiLineString","coordinates":[[[-0.0651121,52.3035297],[-0.0650247,52.3037869],[-0.0649424,52.3041638],[-0.0648087,52.3043966],[-0.0645345,52.3047141],[-0.0643709,52.3048199],[-0.0639887,52.3049455],[-0.0635453,52.305029],[-0.0628142,52.3051552],[-0.0627294,52.3051838],[-0.0624901,52.3052241],[-0.0618141,52.3053432],[-0.060186,52.3056338],[-0.0588851,52.3058733],[-0.0583307,52.305975],[-0.0581601,52.3060534],[-0.0579949,52.3061806],[-0.057671,52.3064719],[-0.0555192,52.3083856],[-0.0537618,52.3099639],[-0.0532865,52.3103908],[-0.0514342,52.3120228],[-0.0513311,52.3120933]]]}},
{"type":"Feature","properties":{"highway":"footway","name":null,"category":"Footpath (pedestrian only)"},"geometry":{"type":"MultiLineString","coordinates":[[[-0.0635573,52.2981473],[-0.0638198,52.2982085],[-0.064103,52.2983175],[-0.0642861,52.2984046]]]}},
{"type":"Feature","properties":{"highway":"footway","name":null,"category":"Footpath (pedestrian only)"},"geometry":{"type":"MultiLineString","coordinates":[[[-0.0638198,52.2982085],[-0.0636193,52.2984743],[-0.0634572,52.2987073]]]}},
{"type":"Feature","properties":{"highway":"footway","name":null,"category":"Footpath (pedestrian only)"},"geometry":{"type":"MultiLineString","coordinates":[[[-0.0641185,52.2978009],[-0.0646383,52.2979477]]]}},
{"type":"Feature","properties":{"highway":"footway","name":null,"category":"Footpath (pedestrian only)"},"geometry":{"type":"MultiLineString","coordinates":[[[-0.0646166,52.2965729],[-0.0647103,52.2967896],[-0.0651534,52.2969344],[-0.0652376,52.2970666]]]}},
{"type":"Feature","properties":{"highway":"footway","name":null,"category":"Footpath (pedestrian only)"},"geometry":{"type":"MultiLineString","coordinates":[[[-0.0633906,52.2959879],[-0.0634454,52.2960663],[-0.0638037,52.296174],[-0.0639378,52.2963701]]]}},
{"type":"Feature","properties":{"highway":"footway","name":null,"category":"Footpath (pedestrian only)"},"geometry":{"type":"MultiLineString","coordinates":[[[-0.062655,52.296392],[-0.0625662,52.2964403],[-0.0625384,52.2964799],[-0.062243,52.2968881],[-0.0624127,52.2970621]]]}},
{"type":"Feature","properties":{"highway":"footway","name":null,"category":"Footpath (pedestrian only)"},"geometry":{"type":"MultiLineString","coordinates":[[[-0.0674501,52.2973421],[-0.0675231,52.2972188]]]}},
{"type":"Feature","properties":{"highway":"footway","name":null,"category":"Footpath (pedestrian only)"},"geometry":{"type":"MultiLineString","coordinates":[[[-0.069877,52.2950128],[-0.0659578,52.2938393],[-0.0665286,52.2928633],[-0.0671062,52.2918975],[-0.0669706,52.2914217]]]}},
{"type":"Feature","properties":{"highway":"footway","name":null,"category":"Footpath (pedestrian only)"},"geometry":{"type":"MultiLineString","coordinates":[[[-0.0720117,52.3017998],[-0.07195,52.301756]]]}},
{"type":"Feature","properties":{"highway":"footway","name":null,"category":"Footpath (pedestrian only)"},"geometry":{"type":"MultiLineString","coordinates":[[[-0.07195,52.301756],[-0.071725,52.301643],[-0.0715412,52.3015469],[-0.0712079,52.3013513]]]}},
{"type":"Feature","properties":{"highway":"bridleway","name":"Conington Road","category":"Bridleway"},"geometry":{"type":"MultiLineString","coordinates":[[[-0.0700092,52.2948713],[-0.069877,52.2950128],[-0.0697681,52.2951535]]]}},
{"type":"Feature","properties":{"highway":"track","name":null,"category":"Track"},"geometry":{"type":"MultiLineString","coordinates":[[[-0.0639518,52.2923992],[-0.0639413,52.2923355],[-0.0639011,52.292283],[-0.0638492,52.2922321],[-0.0637714,52.2922025],[-0.063665,52.2921928],[-0.0635443,52.2922075],[-0.06342,52.2922829],[-0.0629453,52.2926143],[-0.062728,52.2927439],[-0.0625331,52.2928441],[-0.0623766,52.292908],[-0.0622059,52.2929572],[-0.0620772,52.2929802],[-0.061977,52.2929916],[-0.0617955,52.2930114],[-0.0615407,52.2930015],[-0.0613422,52.2929753],[-0.0610794,52.2929146],[-0.0604142,52.2927505],[-0.0598214,52.2925996],[-0.0594986,52.2925191],[-0.0593601,52.2924733],[-0.0592662,52.2924224]]]}},
{"type":"Feature","properties":{"highway":"track","name":null,"category":"Track"},"geometry":{"type":"MultiLineString","coordinates":[[[-0.0641925,52.2941646],[-0.0636094,52.2952678],[-0.0635579,52.29539],[-0.0634864,52.2954599]]]}},
{"type":"Feature","properties":{"highway":"footway","name":null,"category":"Footpath (pedestrian only)"},"geometry":{"type":"MultiLineString","coordinates":[[[-0.0705575,52.2988764],[-0.0704848,52.2988982],[-0.0703064,52.299181],[-0.0703839,52.2992022],[-0.070304,52.2993043],[-0.0703911,52.2993368],[-0.07017,52.2995422]]]}},
{"type":"Feature","properties":{"highway":"footway","name":null,"category":"Footpath (pedestrian only)"},"geometry":{"type":"MultiLineString","coordinates":[[[-0.065292,52.3014003],[-0.0649937,52.3012909],[-0.0646973,52.3011794],[-0.0645505,52.3013666]]]}},
{"type":"Feature","properties":{"highway":"footway","name":null,"category":"Footpath (pedestrian only)"},"geometry":{"type":"MultiLineString","coordinates":[[[-0.0656356,52.3007163],[-0.0656167,52.3007355],[-0.0655481,52.300805],[-0.0655495,52.3008849],[-0.0655166,52.3010345],[-0.0653709,52.3012782],[-0.065292,52.3014003]]]}},
{"type":"Feature","properties":{"highway":"bridleway","name":null,"category":"Bridleway"},"geometry":{"type":"MultiLineString","coordinates":[[[-0.0692432,52.2960663],[-0.0696165,52.2954534]]]}},
{"type":"Feature","properties":{"highway":"track","name":null,"category":"Track"},"geometry":{"type":"MultiLineString","coordinates":[[[-0.0712079,52.3013513],[-0.0713466,52.3012812],[-0.07136,52.3012271],[-0.0710918,52.3010565]]]}},
{"type":"Feature","properties":{"highway":"footway","name":null,"category":"Footpath (pedestrian only)"},"geometry":{"type":"MultiLineString","coordinates":[[[-0.0766218,52.2998933],[-0.0762888,52.3000352],[-0.0762352,52.3000581],[-0.0757229,52.3002771],[-0.0754399,52.3004042],[-0.0752166,52.3005002],[-0.0738869,52.3011046],[-0.0730822,52.3014605],[-0.072738,52.3015963],[-0.0722072,52.3018182],[-0.0720953,52.3018566]]]}},
{"type":"Feature","properties":{"highway":"footway","name":null,"category":"Footpath (pedestrian only)"},"geometry":{"type":"MultiLineString","coordinates":[[[-0.0720953,52.3018566],[-0.0710601,52.3022778],[-0.0699977,52.3027532],[-0.0688679,52.3032518],[-0.0681995,52.3036153],[-0.0676931,52.3038934],[-0.0670223,52.3043168],[-0.0660348,52.3047793],[-0.0659909,52.3048372],[-0.0659367,52.3049318],[-0.0659075,52.3050667],[-0.065792,52.3053767],[-0.0657711,52.3060397],[-0.0656958,52.3062853],[-0.065571,52.3063604],[-0.0655365,52.306485],[-0.0655326,52.3066017],[-0.0656033,52.3068782],[-0.0656451,52.3071234],[-0.0656024,52.3074019],[-0.0655292,52.307707],[-0.0653028,52.3081238],[-0.0649748,52.3086793],[-0.0647852,52.3092206],[-0.0647218,52.3097037],[-0.064575,52.3100954],[-0.0644041,52.3105514],[-0.0643419,52.3106138],[-0.0642621,52.3106849]]]}},
{"type":"Feature","properties":{"highway":"path","name":null,"category":"Shared path"},"geometry":{"type":"MultiLineString","coordinates":[[[-0.0619289,52.2963538],[-0.0617713,52.2959717],[-0.0618067,52.2959075]]]}},
{"type":"Feature","properties":{"highway":"footway","name":null,"category":"Footpath (pedestrian only)"},"geometry":{"type":"MultiLineString","coordinates":[[[-0.0755457,52.2974715],[-0.0746911,52.2978341]]]}},
{"type":"Feature","properties":{"highway":"path","name":null,"category":"Shared path"},"geometry":{"type":"MultiLineString","coordinates":[[[-0.0613614,52.3008394],[-0.0612654,52.3009299],[-0.0611737,52.3009321],[-0.0608207,52.3009121],[-0.0601356,52.3009231],[-0.0595748,52.3009202],[-0.059441,52.3009844],[-0.0593171,52.3010541],[-0.059258,52.3011678],[-0.0592315,52.3013162],[-0.0592841,52.3014597],[-0.0592658,52.3015098],[-0.059206,52.3015666],[-0.0590723,52.3016203],[-0.0589557,52.3016313],[-0.0586291,52.3015457],[-0.0584534,52.3014563],[-0.0583365,52.3014205],[-0.058222,52.3014412]]]}},
{"type":"Feature","properties":{"highway":"track","name":null,"category":"Track"},"geometry":{"type":"MultiLineString","coordinates":[[[-0.0773586,52.299107],[-0.0770857,52.2990216],[-0.0767054,52.2988508],[-0.076613,52.2987785],[-0.0766044,52.2987089],[-0.0766345,52.2986708],[-0.0767204,52.2986104]]]}},
{"type":"Feature","properties":{"highway":"footway","name":null,"category":"Footpath (pedestrian only)"},"geometry":{"type":"MultiLineString","coordinates":[[[-0.0719469,52.2975504],[-0.0719704,52.2975873],[-0.0718329,52.2978305],[-0.0717175,52.2979015]]]}},
{"type":"Feature","properties":{"highway":"path","name":"Wrights Way","category":"Shared path"},"geometry":{"type":"MultiLineString","coordinates":[[[-0.0696871,52.2968102],[-0.069659,52.2967864],[-0.0695838,52.2967766],[-0.0695242,52.2967843]]]}},
{"type":"Feature","properties":{"highway":"path","name":"Burgess Walk","category":"Shared path"},"geometry":{"type":"MultiLineString","coordinates":[[[-0.067359,52.2954072],[-0.0673121,52.295276],[-0.0672598,52.2952358],[-0.0671028,52.2951919]]]}},
{"type":"Feature","properties":{"highway":"path","name":"Burgess Walk","category":"Shared path"},"geometry":{"type":"MultiLineString","coordinates":[[[-0.0669881,52.2954545],[-0.0669881,52.2953495],[-0.067023,52.2952757],[-0.0671028,52.2951919],[-0.0671665,52.295069],[-0.0672698,52.2949861],[-0.0673786,52.2948352]]]}},
{"type":"Feature","properties":{"highway":"footway","name":null,"category":"Footpath (pedestrian only)"},"geometry":{"type":"MultiLineString","coordinates":[[[-0.0658664,52.2953441],[-0.0658114,52.2954286],[-0.0657363,52.2955205],[-0.065651,52.295861]]]}},
{"type":"Feature","properties":{"highway":"path","name":null,"category":"Shared path"},"geometry":{"type":"MultiLineString","coordinates":[[[-0.0619289,52.2963538],[-0.0617268,52.2966501],[-0.0616262,52.29676],[-0.0602726,52.2985097],[-0.0595216,52.2994435],[-0.0594775,52.2996157],[-0.0589453,52.3003306]]]}},
{"type":"Feature","properties":{"highway":"footway","name":null,"category":"Footpath (pedestrian only)"},"geometry":{"type":"MultiLineString","coordinates":[[[-0.0622636,52.3010442],[-0.062109,52.3010608],[-0.061535,52.300946],[-0.0612654,52.3009299]]]}},
{"type":"Feature","properties":{"highway":"footway","name":null,"category":"Footpath (pedestrian only)"},"geometry":{"type":"MultiLineString","coordinates":[[[-0.0656613,52.3006796],[-0.0650817,52.3005439]]]}},
{"type":"Feature","properties":{"highway":"track","name":null,"category":"Track"},"geometry":{"type":"MultiLineString","coordinates":[[[-0.072237,52.2999274],[-0.0721317,52.299834]]]}},
{"type":"Feature","properties":{"highway":"track","name":null,"category":"Track"},"geometry":{"type":"MultiLineString","coordinates":[[[-0.0722707,52.2997714],[-0.0723608,52.2998313],[-0.072414,52.2998454]]]}},
{"type":"Feature","properties":{"highway":"track","name":null,"category":"Track"},"geometry":{"type":"MultiLineString","coordinates":[[[-0.0721753,52.2949309],[-0.0718159,52.2948227],[-0.0714726,52.2948424],[-0.0711561,52.2949834],[-0.0709683,52.2949834],[-0.0706947,52.2948456],[-0.0704211,52.2947505],[-0.0704086,52.2946726],[-0.0704759,52.2945959],[-0.0704922,52.2945615],[-0.0704942,52.294523]]]}},
{"type":"Feature","properties":{"highway":"track","name":null,"category":"Track"},"geometry":{"type":"MultiLineString","coordinates":[[[-0.073621,52.2970405],[-0.0743264,52.2974916],[-0.0743783,52.2975887]]]}},
{"type":"Feature","properties":{"highway":"track","name":null,"category":"Track"},"geometry":{"type":"MultiLineString","coordinates":[[[-0.0648334,52.2924826],[-0.0647241,52.2925637],[-0.0646651,52.2926277]]]}},
{"type":"Feature","properties":{"highway":"footway","name":null,"category":"Footpath (pedestrian only)"},"geometry":{"type":"MultiLineString","coordinates":[[[-0.0691018,52.2913151],[-0.0690594,52.2913851],[-0.068641,52.2913227],[-0.0681314,52.2912867],[-0.0677205,52.2912922],[-0.0673375,52.2913162],[-0.0670016,52.2913579],[-0.0669706,52.2914217]]]}},
{"type":"Feature","properties":{"highway":"footway","name":null,"category":"Footpath (pedestrian only)"},"geometry":{"type":"MultiLineString","coordinates":[[[-0.0654342,52.2976346],[-0.0655071,52.2975533]]]}},
{"type":"Feature","properties":{"highway":"footway","name":null,"category":"Footpath (pedestrian only)"},"geometry":{"type":"MultiLineString","coordinates":[[[-0.0654431,52.297486],[-0.0654325,52.2975]]]}},
{"type":"Feature","properties":{"highway":"footway","name":null,"category":"Footpath (pedestrian only)"},"geometry":{"type":"MultiLineString","coordinates":[[[-0.0653587,52.2974619],[-0.0653481,52.2974759]]]}},
{"type":"Feature","properties":{"highway":"footway","name":null,"category":"Footpath (pedestrian only)"},"geometry":{"type":"MultiLineString","coordinates":[[[-0.0652742,52.2974379],[-0.0652636,52.2974519]]]}},
{"type":"Feature","properties":{"highway":"footway","name":null,"category":"Footpath (pedestrian only)"},"geometry":{"type":"MultiLineString","coordinates":[[[-0.0651897,52.2974138],[-0.0651791,52.2974278]]]}},
{"type":"Feature","properties":{"highway":"footway","name":null,"category":"Footpath (pedestrian only)"},"geometry":{"type":"MultiLineString","coordinates":[[[-0.065517,52.297524],[-0.0654325,52.2975],[-0.0653481,52.2974759],[-0.0652636,52.2974519],[-0.0651791,52.2974278]]]}},
{"type":"Feature","properties":{"highway":"footway","name":null,"category":"Footpath (pedestrian only)"},"geometry":{"type":"MultiLineString","coordinates":[[[-0.0671062,52.2918975],[-0.06677,52.2914653]]]}},
{"type":"Feature","properties":{"highway":"bridleway","name":null,"category":"Bridleway"},"geometry":{"type":"MultiLineString","coordinates":[[[-0.0743783,52.2975887],[-0.0743361,52.2976126]]]}},
{"type":"Feature","properties":{"highway":"footway","name":null,"category":"Footpath (pedestrian only)"},"geometry":{"type":"MultiLineString","coordinates":[[[-0.0731709,52.2988231],[-0.0732399,52.2987921],[-0.0732983,52.2987657]]]}}
]
}
