{
"type": "FeatureCollection",
"name": "HUNTI_455_walking",
"crs": { "type": "name", "properties": { "name": "urn:ogc:def:crs:OGC:1.3:CRS84" } },
"features": [
{"type":"Feature","properties":{"highway":"footway","name":null,"category":"Footpath (pedestrian only)"},"geometry":{"type":"MultiLineString","coordinates":[[[-0.2312517,52.3213275],[-0.2312443,52.3212466]]]}},
{"type":"Feature","properties":{"highway":"footway","name":null,"category":"Footpath (pedestrian only)"},"geometry":{"type":"MultiLineString","coordinates":[[[-0.2312075,52.3215879],[-0.2312559,52.3214222],[-0.2312517,52.3213275]]]}},
{"type":"Feature","properties":{"highway":"footway","name":null,"category":"Footpath (pedestrian only)"},"geometry":{"type":"MultiLineString","coordinates":[[[-0.2281655,52.3113137],[-0.2282166,52.3112758],[-0.2348718,52.3116524]]]}},
{"type":"Feature","properties":{"highway":"footway","name":null,"category":"Footpath (pedestrian only)"},"geometry":{"type":"MultiLineString","coordinates":[[[-0.2349536,52.311667],[-0.2338497,52.3141605],[-0.2339944,52.3142046],[-0.2376298,52.3144165]]]}},
{"type":"Feature","properties":{"highway":"footway","name":null,"category":"Footpath (pedestrian only)"},"geometry":{"type":"MultiLineString","coordinates":[[[-0.2328455,52.3186064],[-0.2326008,52.3188215],[-0.2325436,52.3188777],[-0.2324307,52.3190587],[-0.2323326,52.3191822],[-0.2320322,52.3197527],[-0.2319422,52.3200741],[-0.2318704,52.3202016],[-0.2312443,52.3212466]]]}},
{"type":"Feature","properties":{"highway":"track","name":null,"category":"Track"},"geometry":{"type":"MultiLineString","coordinates":[[[-0.2188018,52.3154615],[-0.219589,52.3143384],[-0.2197141,52.3143613],[-0.2205902,52.3145214]]]}},
{"type":"Feature","properties":{"highway":"track","name":null,"category":"Track"},"geometry":{"type":"MultiLineString","coordinates":[[[-0.218892,52.3154768],[-0.2188075,52.3156017],[-0.2185229,52.3156763],[-0.2181448,52.3157458],[-0.2178684,52.315716],[-0.2172857,52.3156169]]]}},
{"type":"Feature","properties":{"highway":"track","name":null,"category":"Track"},"geometry":{"type":"MultiLineString","coordinates":[[[-0.2174438,52.315251],[-0.2172857,52.3156169],[-0.2169455,52.3164044]]]}},
{"type":"Feature","properties":{"highway":"footway","name":null,"category":"Footpath (pedestrian only)"},"geometry":{"type":"MultiLineString","coordinates":[[[-0.2324307,52.3190587],[-0.232368,52.3190402],[-0.232242,52.3190354],[-0.2321159,52.3190536],[-0.2319078,52.3190657],[-0.2317304,52.3190576],[-0.2316845,52.3190298],[-0.2316883,52.3189933]]]}},
{"type":"Feature","properties":{"highway":"footway","name":null,"category":"Footpath (pedestrian only)"},"geometry":{"type":"MultiLineString","coordinates":[[[-0.2317542,52.3189107],[-0.2317559,52.3188781],[-0.2316829,52.3188248],[-0.2311605,52.3186816],[-0.230925,52.3185682],[-0.2307587,52.3184658],[-0.2306155,52.3183646],[-0.2304912,52.3181443],[-0.2303838,52.3180591],[-0.2303349,52.3177722]]]}},
{"type":"Feature","properties":{"highway":"footway","name":null,"category":"Footpath (pedestrian only)"},"geometry":{"type":"MultiLineString","coordinates":[[[-0.2316883,52.3189933],[-0.2317542,52.3189107]]]}},
{"type":"Feature","properties":{"highway":"footway","name":null,"category":"Footpath (pedestrian only)"},"geometry":{"type":"MultiLineString","coordinates":[[[-0.2287352,52.3139727],[-0.2287081,52.3145882],[-0.2285342,52.3145786]]]}},
{"type":"Feature","properties":{"highway":"footway","name":null,"category":"Footpath (pedestrian only)"},"geometry":{"type":"MultiLineString","coordinates":[[[-0.2370871,52.3209171],[-0.2368362,52.3208933],[-0.2371859,52.3200405],[-0.2347537,52.3194949],[-0.23425,52.3194283],[-0.2325436,52.3188777]]]}},
{"type":"Feature","properties":{"highway":"footway","name":null,"category":"Footpath (pedestrian only)"},"geometry":{"type":"MultiLineString","coordinates":[[[-0.2338497,52.3141605],[-0.2337464,52.3141501]]]}},
{"type":"Feature","properties":{"highway":"footway","name":null,"category":"Footpath (pedestrian only)"},"geometry":{"type":"MultiLineString","coordinates":[[[-0.233581,52.3143302],[-0.2327835,52.3142566]]]}},
{"type":"Feature","properties":{"highway":"track","name":null,"category":"Track"},"geometry":{"type":"MultiLineString","coordinates":[[[-0.233581,52.3143302],[-0.2333221,52.3149694],[-0.2331872,52.3153124],[-0.2328624,52.3155502]]]}},
{"type":"Feature","properties":{"highway":"footway","name":null,"category":"Footpath (pedestrian only)"},"geometry":{"type":"MultiLineString","coordinates":[[[-0.2317559,52.3188781],[-0.2319016,52.3188397],[-0.2322967,52.3184651],[-0.2322887,52.3183679],[-0.23232,52.3182238],[-0.232358,52.3181915]]]}},
{"type":"Feature","properties":{"highway":"footway","name":null,"category":"Footpath (pedestrian only)"},"geometry":{"type":"MultiLineString","coordinates":[[[-0.2243385,52.3136238],[-0.2243755,52.3136675],[-0.2243403,52.3137209],[-0.2241629,52.3139589]]]}},
{"type":"Feature","properties":{"highway":"footway","name":null,"category":"Footpath (pedestrian only)"},"geometry":{"type":"MultiLineString","coordinates":[[[-0.2256606,52.3164155],[-0.2261585,52.316384]]]}},
{"type":"Feature","properties":{"highway":"footway","name":null,"category":"Footpath (pedestrian only)"},"geometry":{"type":"MultiLineString","coordinates":[[[-0.2266084,52.3160725],[-0.2263114,52.3160877]]]}},
{"type":"Feature","properties":{"highway":"footway","name":null,"category":"Footpath (pedestrian only)"},"geometry":{"type":"MultiLineString","coordinates":[[[-0.2261706,52.3152912],[-0.2261502,52.315174]]]}},
{"type":"Feature","properties":{"highway":"footway","name":null,"category":"Footpath (pedestrian only)"},"geometry":{"type":"MultiLineString","coordinates":[[[-0.2337465,52.3137212],[-0.2337948,52.3137703],[-0.2337236,52.3139725],[-0.2336933,52.3140991],[-0.2336847,52.3141442],[-0.2336794,52.3141716],[-0.2336586,52.3142217],[-0.2336243,52.3142403],[-0.2335818,52.3142539],[-0.233497,52.3142566],[-0.2334425,52.3142544],[-0.2331758,52.3142307],[-0.2330998,52.3142032]]]}},
{"type":"Feature","properties":{"highway":"footway","name":"Walston Way","category":"Footpath (pedestrian only)"},"geometry":{"type":"MultiLineString","coordinates":[[[-0.2313647,52.3123856],[-0.231253,52.3123501],[-0.2309526,52.3123393],[-0.2309322,52.3123546],[-0.2309067,52.3125022]]]}},
{"type":"Feature","properties":{"highway":"footway","name":"Eagle Walk","category":"Footpath (pedestrian only)"},"geometry":{"type":"MultiLineString","coordinates":[[[-0.2219842,52.3172171],[-0.2213942,52.3172064],[-0.2211915,52.3172308],[-0.2210898,52.3172804],[-0.2209677,52.3173556],[-0.2208934,52.3174142],[-0.2208751,52.3174819],[-0.2208604,52.3176212],[-0.2208305,52.317725],[-0.2208325,52.3178062],[-0.2206325,52.3178218]]]}},
{"type":"Feature","properties":{"highway":"path","name":null,"category":"Shared path"},"geometry":{"type":"MultiLineString","coordinates":[[[-0.2396771,52.3173535],[-0.2395921,52.3172572],[-0.2395837,52.3171435],[-0.2396817,52.3170331],[-0.2399274,52.3167583],[-0.240121,52.3165106],[-0.2403072,52.3161936],[-0.2405523,52.3157325],[-0.2408833,52.3150803],[-0.2410856,52.314814],[-0.2413114,52.3145621]]]}},
{"type":"Feature","properties":{"highway":"footway","name":null,"category":"Footpath (pedestrian only)"},"geometry":{"type":"MultiLineString","coordinates":[[[-0.2413114,52.3145621],[-0.2379857,52.3145517],[-0.2376298,52.3144165]]]}},
{"type":"Feature","properties":{"highway":"footway","name":null,"category":"Footpath (pedestrian only)"},"geometry":{"type":"MultiLineString","coordinates":[[[-0.2307587,52.3184658],[-0.2302956,52.3183125],[-0.2297806,52.3182075],[-0.2295049,52.3180933],[-0.229051,52.3180557],[-0.2288059,52.3180933],[-0.2285637,52.3180857],[-0.2281621,52.3181139],[-0.2280272,52.3180764],[-0.2276195,52.3179583],[-0.2273497,52.3179059],[-0.2270954,52.3178458],[-0.2266601,52.3177824],[-0.2263903,52.3177862],[-0.2261009,52.3176417]]]}},
{"type":"Feature","properties":{"highway":"footway","name":null,"category":"Footpath (pedestrian only)"},"geometry":{"type":"MultiLineString","coordinates":[[[-0.2261009,52.3176417],[-0.2257833,52.3176868],[-0.2253756,52.3176755],[-0.2253265,52.3177017],[-0.2250108,52.3176493],[-0.2245666,52.3175391],[-0.2242005,52.3175227],[-0.2240858,52.3174834],[-0.2236587,52.3174448]]]}},
{"type":"Feature","properties":{"highway":"path","name":null,"category":"Shared path"},"geometry":{"type":"MultiLineString","coordinates":[[[-0.2413114,52.3145621],[-0.2415394,52.3144018],[-0.2416697,52.3142487],[-0.2416887,52.3141298],[-0.2417073,52.3140128],[-0.2416987,52.3136747],[-0.2416946,52.3132868],[-0.2417467,52.3128803],[-0.2419264,52.3126859],[-0.2421161,52.3124798],[-0.2422059,52.3122518],[-0.2421678,52.3118843],[-0.2421157,52.3115868],[-0.241984,52.3112946],[-0.2418022,52.3110973],[-0.2415645,52.3109247],[-0.240957,52.310575],[-0.2404608,52.3103051],[-0.2401357,52.3100463],[-0.2396947,52.3096636],[-0.2395472,52.3094694],[-0.2393637,52.3091762],[-0.2392409,52.3090112],[-0.239081,52.3089108],[-0.2384572,52.3087799],[-0.2373108,52.3085596],[-0.2366811,52.3084356],[-0.2366124,52.308417],[-0.2363602,52.3082919]]]}},
{"type":"Feature","properties":{"highway":"footway","name":null,"category":"Footpath (pedestrian only)"},"geometry":{"type":"MultiLineString","coordinates":[[[-0.2274591,52.3116944],[-0.2276223,52.311581],[-0.2278999,52.3113528],[-0.2280229,52.311252]]]}},
{"type":"Feature","properties":{"highway":"footway","name":null,"category":"Footpath (pedestrian only)"},"geometry":{"type":"MultiLineString","coordinates":[[[-0.2337464,52.3141501],[-0.2336847,52.3141442]]]}},
{"type":"Feature","properties":{"highway":"footway","name":null,"category":"Footpath (pedestrian only)"},"geometry":{"type":"MultiLineString","coordinates":[[[-0.2336933,52.3140991],[-0.2334483,52.3142197],[-0.2334425,52.3142544]]]}},
{"type":"Feature","properties":{"highway":"footway","name":null,"category":"Footpath (pedestrian only)"},"geometry":{"type":"MultiLineString","coordinates":[[[-0.2242005,52.3175227],[-0.2241421,52.3175449],[-0.2239437,52.3175961],[-0.2237438,52.3176256],[-0.2236084,52.3176264]]]}},
{"type":"Feature","properties":{"highway":"footway","name":null,"category":"Footpath (pedestrian only)"},"geometry":{"type":"MultiLineString","coordinates":[[[-0.2295475,52.317533],[-0.2295629,52.3176305],[-0.2295025,52.317635],[-0.2294281,52.3176633]]]}},
{"type":"Feature","properties":{"highway":"footway","name":null,"category":"Footpath (pedestrian only)"},"geometry":{"type":"MultiLineString","coordinates":[[[-0.2309331,52.3172249],[-0.230228,52.3172733],[-0.2295121,52.3173175]]]}},
{"type":"Feature","properties":{"highway":"footway","name":null,"category":"Footpath (pedestrian only)"},"geometry":{"type":"MultiLineString","coordinates":[[[-0.230902,52.3174375],[-0.2302675,52.3174798],[-0.2295488,52.3175281],[-0.2295121,52.3173175],[-0.2294824,52.3171477],[-0.2295455,52.317096],[-0.2301871,52.3170597],[-0.2308369,52.317021],[-0.2309,52.317055],[-0.2309331,52.3172249],[-0.230967,52.3173985],[-0.230902,52.3174375]]]}},
{"type":"Feature","properties":{"highway":"footway","name":null,"category":"Footpath (pedestrian only)"},"geometry":{"type":"MultiLineString","coordinates":[[[-0.2218766,52.3156238],[-0.2217892,52.3155868]]]}},
{"type":"Feature","properties":{"highway":"footway","name":null,"category":"Footpath (pedestrian only)"},"geometry":{"type":"MultiLineString","coordinates":[[[-0.2236024,52.3149055],[-0.2235369,52.314874],[-0.2234656,52.3148417]]]}},
{"type":"Feature","properties":{"highway":"footway","name":null,"category":"Footpath (pedestrian only)"},"geometry":{"type":"MultiLineString","coordinates":[[[-0.2206357,52.3177717],[-0.2206325,52.3178218],[-0.2206312,52.3178758]]]}},
{"type":"Feature","properties":{"highway":"footway","name":null,"category":"Footpath (pedestrian only)"},"geometry":{"type":"MultiLineString","coordinates":[[[-0.2206308,52.3179812],[-0.2206312,52.3178758]]]}},
{"type":"Feature","properties":{"highway":"footway","name":null,"category":"Footpath (pedestrian only)"},"geometry":{"type":"MultiLineString","coordinates":[[[-0.2206308,52.3179812],[-0.22061,52.3180917],[-0.2205776,52.3182262],[-0.220575,52.3182612],[-0.2205228,52.3184039],[-0.2205041,52.3184485],[-0.2203295,52.3189313],[-0.220287,52.3190775],[-0.2202691,52.3191635],[-0.2202736,52.3191997]]]}},
{"type":"Feature","properties":{"highway":"footway","name":null,"category":"Footpath (pedestrian only)"},"geometry":{"type":"MultiLineString","coordinates":[[[-0.2202378,52.319337],[-0.220263,52.3192735],[-0.2202736,52.3191997]]]}},
{"type":"Feature","properties":{"highway":"footway","name":null,"category":"Footpath (pedestrian only)"},"geometry":{"type":"MultiLineString","coordinates":[[[-0.2252602,52.3131945],[-0.2251794,52.3131725],[-0.2251369,52.3131607]]]}},
{"type":"Feature","properties":{"highway":"footway","name":null,"category":"Footpath (pedestrian only)"},"geometry":{"type":"MultiLineString","coordinates":[[[-0.2251369,52.3131607],[-0.2251774,52.3131056],[-0.2251668,52.3130505],[-0.2251091,52.3130149],[-0.2250473,52.3130055]]]}},
{"type":"Feature","properties":{"highway":"footway","name":null,"category":"Footpath (pedestrian only)"},"geometry":{"type":"MultiLineString","coordinates":[[[-0.2266752,52.3121545],[-0.2259646,52.3125486],[-0.2254445,52.3128881],[-0.2253878,52.3129364],[-0.2253136,52.3129783],[-0.2252082,52.3129765],[-0.2251305,52.3129387]]]}},
{"type":"Feature","properties":{"highway":"footway","name":null,"category":"Footpath (pedestrian only)"},"geometry":{"type":"MultiLineString","coordinates":[[[-0.2268365,52.3120666],[-0.2273749,52.311753]]]}},
{"type":"Feature","properties":{"highway":"footway","name":null,"category":"Footpath (pedestrian only)"},"geometry":{"type":"MultiLineString","coordinates":[[[-0.2234656,52.3148417],[-0.2235159,52.3147888],[-0.2235125,52.3147626],[-0.2235046,52.3147433],[-0.2234889,52.3147192],[-0.2234404,52.3146958],[-0.2233995,52.3146776]]]}},
{"type":"Feature","properties":{"highway":"footway","name":null,"category":"Footpath (pedestrian only)"},"geometry":{"type":"MultiLineString","coordinates":[[[-0.2208956,52.3173158],[-0.2208328,52.3172966],[-0.2207906,52.3172857],[-0.2207478,52.3172754],[-0.2207078,52.317265],[-0.220651,52.3172547]]]}},
{"type":"Feature","properties":{"highway":"footway","name":null,"category":"Footpath (pedestrian only)"},"geometry":{"type":"MultiLineString","coordinates":[[[-0.2303179,52.3176432],[-0.2302878,52.3175854],[-0.2302675,52.3174798],[-0.230228,52.3172733],[-0.2301871,52.3170597],[-0.2301832,52.317039]]]}},
{"type":"Feature","properties":{"highway":"path","name":null,"category":"Shared path"},"geometry":{"type":"MultiLineString","coordinates":[[[-0.2206296,52.3182157],[-0.2206063,52.3182401],[-0.220575,52.3182612],[-0.2204825,52.3182615]]]}}
]
}
