{
"type": "FeatureCollection",
"name": "56747d2b56a5_visibility",
"crs": { "type": "name", "properties": { "name": "urn:ogc:def:crs:OGC:1.3:CRS84" } },
"features": [
{ "type": "Feature", "properties": { "visible_points": 1, "total_points": 61, "visibility_pct": 1.639344262295082 }, "geometry": { "type": "Point", "coordinates": [ 1.236850289814768, 52.606303588865025 ] } },
{ "type": "Feature", "properties": { "visible_points": 0, "total_points": 62, "visibility_pct": 0.0 }, "geometry": { "type": "Point", "coordinates": [ 1.237054577296376, 52.606298001904349 ] } },
{ "type": "Feature", "properties": { "visible_points": 2, "total_points": 70, "visibility_pct": 2.8571428571428572 }, "geometry": { "type": "Point", "coordinates": [ 1.236756088223357, 52.606414087959763 ] } },
{ "type": "Feature", "properties": { "visible_points": 1, "total_points": 72, "visibility_pct": 1.3888888888888888 }, "geometry": { "type": "Point", "coordinates": [ 1.236960376239745, 52.606408501154888 ] } },
{ "type": "Feature", "properties": { "visible_points": 0, "total_points": 72, "visibility_pct": 0.0 }, "geometry": { "type": "Point", "coordinates": [ 1.237164664188735, 52.606402913997947 ] } },
{ "type": "Feature", "properties": { "visible_points": 0, "total_points": 70, "visibility_pct": 0.0 }, "geometry": { "type": "Point", "coordinates": [ 1.237368952070327, 52.606397326488917 ] } },
{ "type": "Feature", "properties": { "visible_points": 0, "total_points": 78, "visibility_pct": 0.0 }, "geometry": { "type": "Point", "coordinates": [ 1.236661886164582, 52.606524586984015 ] } },
{ "type": "Feature", "properties": { "visible_points": 0, "total_points": 82, "visibility_pct": 0.0 }, "geometry": { "type": "Point", "coordinates": [ 1.236866174715757, 52.606519000334949 ] } },
{ "type": "Feature", "properties": { "visible_points": 10, "total_points": 83, "visibility_pct": 12.048192771084338 }, "geometry": { "type": "Point", "coordinates": [ 1.237070463199532, 52.606513413333793 ] } },
{ "type": "Feature", "properties": { "visible_points": 0, "total_points": 82, "visibility_pct": 0.0 }, "geometry": { "type": "Point", "coordinates": [ 1.237274751615911, 52.606507825980579 ] } },
{ "type": "Feature", "properties": { "visible_points": 0, "total_points": 78, "visibility_pct": 0.0 }, "geometry": { "type": "Point", "coordinates": [ 1.237479039964885, 52.606502238275304 ] } },
{ "type": "Feature", "properties": { "visible_points": 18, "total_points": 85, "visibility_pct": 21.176470588235293 }, "geometry": { "type": "Point", "coordinates": [ 1.236567683638446, 52.606635085937782 ] } },
{ "type": "Feature", "properties": { "visible_points": 0, "total_points": 91, "visibility_pct": 0.0 }, "geometry": { "type": "Point", "coordinates": [ 1.2367719727244, 52.60662949944453 ] } },
{ "type": "Feature", "properties": { "visible_points": 0, "total_points": 94, "visibility_pct": 0.0 }, "geometry": { "type": "Point", "coordinates": [ 1.236976261742968, 52.606623912599169 ] } },
{ "type": "Feature", "properties": { "visible_points": 21, "total_points": 94, "visibility_pct": 22.340425531914892 }, "geometry": { "type": "Point", "coordinates": [ 1.237180550694131, 52.606618325401755 ] } },
{ "type": "Feature", "properties": { "visible_points": 0, "total_points": 91, "visibility_pct": 0.0 }, "geometry": { "type": "Point", "coordinates": [ 1.237384839577901, 52.606612737852274 ] } },
{ "type": "Feature", "properties": { "visible_points": 0, "total_points": 83, "visibility_pct": 0.0 }, "geometry": { "type": "Point", "coordinates": [ 1.23758912839426, 52.606607149950733 ] } },
{ "type": "Feature", "properties": { "visible_points": 39, "total_points": 88, "visibility_pct": 44.31818181818182 }, "geometry": { "type": "Point", "coordinates": [ 1.236473480644937, 52.60674558482107 ] } },
{ "type": "Feature", "properties": { "visible_points": 35, "total_points": 98, "visibility_pct": 35.714285714285715 }, "geometry": { "type": "Point", "coordinates": [ 1.236677770265678, 52.606739998483604 ] } },
{ "type": "Feature", "properties": { "visible_points": 33, "total_points": 104, "visibility_pct": 31.73076923076923 }, "geometry": { "type": "Point", "coordinates": [ 1.236882059819035, 52.606734411794079 ] } },
{ "type": "Feature", "properties": { "visible_points": 34, "total_points": 106, "visibility_pct": 32.075471698113205 }, "geometry": { "type": "Point", "coordinates": [ 1.237086349304993, 52.606728824752452 ] } },
{ "type": "Feature", "properties": { "visible_points": 29, "total_points": 103, "visibility_pct": 28.155339805825243 }, "geometry": { "type": "Point", "coordinates": [ 1.237290638723557, 52.606723237358771 ] } },
{ "type": "Feature", "properties": { "visible_points": 0, "total_points": 95, "visibility_pct": 0.0 }, "geometry": { "type": "Point", "coordinates": [ 1.237494928074708, 52.60671764961301 ] } },
{ "type": "Feature", "properties": { "visible_points": 0, "total_points": 86, "visibility_pct": 0.0 }, "geometry": { "type": "Point", "coordinates": [ 1.237699217358461, 52.606712061515189 ] } },
{ "type": "Feature", "properties": { "visible_points": 45, "total_points": 88, "visibility_pct": 51.136363636363633 }, "geometry": { "type": "Point", "coordinates": [ 1.236379277184048, 52.606856083633893 ] } },
{ "type": "Feature", "properties": { "visible_points": 44, "total_points": 98, "visibility_pct": 44.897959183673471 }, "geometry": { "type": "Point", "coordinates": [ 1.236583567339582, 52.606850497452228 ] } },
{ "type": "Feature", "properties": { "visible_points": 37, "total_points": 107, "visibility_pct": 34.579439252336449 }, "geometry": { "type": "Point", "coordinates": [ 1.236787857427735, 52.606844910918483 ] } },
{ "type": "Feature", "properties": { "visible_points": 36, "total_points": 114, "visibility_pct": 31.578947368421051 }, "geometry": { "type": "Point", "coordinates": [ 1.236992147448486, 52.60683932403267 ] } },
{ "type": "Feature", "properties": { "visible_points": 39, "total_points": 113, "visibility_pct": 34.513274336283182 }, "geometry": { "type": "Point", "coordinates": [ 1.237196437401845, 52.606833736794783 ] } },
{ "type": "Feature", "properties": { "visible_points": 36, "total_points": 106, "visibility_pct": 33.962264150943398 }, "geometry": { "type": "Point", "coordinates": [ 1.237400727287795, 52.606828149204823 ] } },
{ "type": "Feature", "properties": { "visible_points": 0, "total_points": 98, "visibility_pct": 0.0 }, "geometry": { "type": "Point", "coordinates": [ 1.237605017106346, 52.606822561262796 ] } },
{ "type": "Feature", "properties": { "visible_points": 0, "total_points": 89, "visibility_pct": 0.0 }, "geometry": { "type": "Point", "coordinates": [ 1.237809306857481, 52.606816972968687 ] } },
{ "type": "Feature", "properties": { "visible_points": 45, "total_points": 88, "visibility_pct": 51.136363636363633 }, "geometry": { "type": "Point", "coordinates": [ 1.236285073255783, 52.606966582376231 ] } },
{ "type": "Feature", "properties": { "visible_points": 44, "total_points": 98, "visibility_pct": 44.897959183673471 }, "geometry": { "type": "Point", "coordinates": [ 1.236489363946111, 52.606960996350367 ] } },
{ "type": "Feature", "properties": { "visible_points": 43, "total_points": 107, "visibility_pct": 40.186915887850468 }, "geometry": { "type": "Point", "coordinates": [ 1.236693654569056, 52.606955409972421 ] } },
{ "type": "Feature", "properties": { "visible_points": 43, "total_points": 115, "visibility_pct": 37.391304347826086 }, "geometry": { "type": "Point", "coordinates": [ 1.236897945124608, 52.606949823242417 ] } },
{ "type": "Feature", "properties": { "visible_points": 41, "total_points": 120, "visibility_pct": 34.166666666666664 }, "geometry": { "type": "Point", "coordinates": [ 1.237102235612764, 52.606944236160331 ] } },
{ "type": "Feature", "properties": { "visible_points": 42, "total_points": 114, "visibility_pct": 36.84210526315789 }, "geometry": { "type": "Point", "coordinates": [ 1.23730652603352, 52.606938648726164 ] } },
{ "type": "Feature", "properties": { "visible_points": 35, "total_points": 108, "visibility_pct": 32.407407407407405 }, "geometry": { "type": "Point", "coordinates": [ 1.237510816386872, 52.606933060939937 ] } },
{ "type": "Feature", "properties": { "visible_points": 13, "total_points": 100, "visibility_pct": 13.0 }, "geometry": { "type": "Point", "coordinates": [ 1.23771510667281, 52.60692747280163 ] } },
{ "type": "Feature", "properties": { "visible_points": 0, "total_points": 89, "visibility_pct": 0.0 }, "geometry": { "type": "Point", "coordinates": [ 1.237919396891334, 52.606921884311248 ] } },
{ "type": "Feature", "properties": { "visible_points": 0, "total_points": 76, "visibility_pct": 0.0 }, "geometry": { "type": "Point", "coordinates": [ 1.238123687042449, 52.6069162954688 ] } },
{ "type": "Feature", "properties": { "visible_points": 42, "total_points": 87, "visibility_pct": 48.275862068965516 }, "geometry": { "type": "Point", "coordinates": [ 1.236190868860131, 52.607077081048054 ] } },
{ "type": "Feature", "properties": { "visible_points": 46, "total_points": 98, "visibility_pct": 46.938775510204081 }, "geometry": { "type": "Point", "coordinates": [ 1.236395160085257, 52.607071495178005 ] } },
{ "type": "Feature", "properties": { "visible_points": 42, "total_points": 107, "visibility_pct": 39.252336448598129 }, "geometry": { "type": "Point", "coordinates": [ 1.236599451243003, 52.607065908955875 ] } },
{ "type": "Feature", "properties": { "visible_points": 44, "total_points": 115, "visibility_pct": 38.260869565217391 }, "geometry": { "type": "Point", "coordinates": [ 1.236803742333354, 52.607060322381663 ] } },
{ "type": "Feature", "properties": { "visible_points": 46, "total_points": 120, "visibility_pct": 38.333333333333336 }, "geometry": { "type": "Point", "coordinates": [ 1.237008033356313, 52.607054735455378 ] } },
{ "type": "Feature", "properties": { "visible_points": 42, "total_points": 120, "visibility_pct": 35.0 }, "geometry": { "type": "Point", "coordinates": [ 1.237212324311868, 52.607049148177033 ] } },
{ "type": "Feature", "properties": { "visible_points": 42, "total_points": 116, "visibility_pct": 36.206896551724135 }, "geometry": { "type": "Point", "coordinates": [ 1.237416615200026, 52.607043560546586 ] } },
{ "type": "Feature", "properties": { "visible_points": 12, "total_points": 110, "visibility_pct": 10.909090909090908 }, "geometry": { "type": "Point", "coordinates": [ 1.23762090602077, 52.607037972564079 ] } },
{ "type": "Feature", "properties": { "visible_points": 13, "total_points": 98, "visibility_pct": 13.26530612244898 }, "geometry": { "type": "Point", "coordinates": [ 1.237825196774107, 52.607032384229498 ] } },
{ "type": "Feature", "properties": { "visible_points": 10, "total_points": 85, "visibility_pct": 11.76470588235294 }, "geometry": { "type": "Point", "coordinates": [ 1.238029487460027, 52.607026795542843 ] } },
{ "type": "Feature", "properties": { "visible_points": 0, "total_points": 72, "visibility_pct": 0.0 }, "geometry": { "type": "Point", "coordinates": [ 1.238233778078526, 52.607021206504108 ] } },
{ "type": "Feature", "properties": { "visible_points": 45, "total_points": 82, "visibility_pct": 54.878048780487809 }, "geometry": { "type": "Point", "coordinates": [ 1.236096663997091, 52.60718757964942 ] } },
{ "type": "Feature", "properties": { "visible_points": 44, "total_points": 95, "visibility_pct": 46.315789473684212 }, "geometry": { "type": "Point", "coordinates": [ 1.236300955757022, 52.607181993935164 ] } },
{ "type": "Feature", "properties": { "visible_points": 44, "total_points": 107, "visibility_pct": 41.121495327102799 }, "geometry": { "type": "Point", "coordinates": [ 1.236505247449565, 52.607176407868842 ] } },
{ "type": "Feature", "properties": { "visible_points": 43, "total_points": 115, "visibility_pct": 37.391304347826086 }, "geometry": { "type": "Point", "coordinates": [ 1.236709539074719, 52.607170821450438 ] } },
{ "type": "Feature", "properties": { "visible_points": 48, "total_points": 120, "visibility_pct": 40.0 }, "geometry": { "type": "Point", "coordinates": [ 1.236913830632482, 52.607165234679954 ] } },
{ "type": "Feature", "properties": { "visible_points": 44, "total_points": 120, "visibility_pct": 36.666666666666664 }, "geometry": { "type": "Point", "coordinates": [ 1.237118122122846, 52.607159647557403 ] } },
{ "type": "Feature", "properties": { "visible_points": 28, "total_points": 120, "visibility_pct": 23.333333333333332 }, "geometry": { "type": "Point", "coordinates": [ 1.237322413545809, 52.60715406008277 ] } },
{ "type": "Feature", "properties": { "visible_points": 19, "total_points": 116, "visibility_pct": 16.379310344827587 }, "geometry": { "type": "Point", "coordinates": [ 1.237526704901365, 52.607148472256057 ] } },
{ "type": "Feature", "properties": { "visible_points": 16, "total_points": 105, "visibility_pct": 15.238095238095239 }, "geometry": { "type": "Point", "coordinates": [ 1.237730996189507, 52.607142884077277 ] } },
{ "type": "Feature", "properties": { "visible_points": 13, "total_points": 92, "visibility_pct": 14.130434782608695 }, "geometry": { "type": "Point", "coordinates": [ 1.237935287410243, 52.607137295546416 ] } },
{ "type": "Feature", "properties": { "visible_points": 9, "total_points": 79, "visibility_pct": 11.39240506329114 }, "geometry": { "type": "Point", "coordinates": [ 1.238139578563553, 52.607131706663466 ] } },
{ "type": "Feature", "properties": { "visible_points": 0, "total_points": 66, "visibility_pct": 0.0 }, "geometry": { "type": "Point", "coordinates": [ 1.238343869649447, 52.607126117428464 ] } },
{ "type": "Feature", "properties": { "visible_points": 43, "total_points": 76, "visibility_pct": 56.578947368421048 }, "geometry": { "type": "Point", "coordinates": [ 1.236002458666663, 52.607298078180278 ] } },
{ "type": "Feature", "properties": { "visible_points": 44, "total_points": 89, "visibility_pct": 49.438202247191008 }, "geometry": { "type": "Point", "coordinates": [ 1.236206750961393, 52.607292492621838 ] } },
{ "type": "Feature", "properties": { "visible_points": 43, "total_points": 102, "visibility_pct": 42.156862745098039 }, "geometry": { "type": "Point", "coordinates": [ 1.236411043188744, 52.60728690671133 ] } },
{ "type": "Feature", "properties": { "visible_points": 44, "total_points": 114, "visibility_pct": 38.596491228070171 }, "geometry": { "type": "Point", "coordinates": [ 1.236615335348701, 52.607281320448735 ] } },
{ "type": "Feature", "properties": { "visible_points": 48, "total_points": 120, "visibility_pct": 40.0 }, "geometry": { "type": "Point", "coordinates": [ 1.23681962744127, 52.607275733834051 ] } },
{ "type": "Feature", "properties": { "visible_points": 47, "total_points": 120, "visibility_pct": 39.166666666666664 }, "geometry": { "type": "Point", "coordinates": [ 1.237023919466443, 52.607270146867293 ] } },
{ "type": "Feature", "properties": { "visible_points": 12, "total_points": 120, "visibility_pct": 10.0 }, "geometry": { "type": "Point", "coordinates": [ 1.237228211424213, 52.607264559548462 ] } },
{ "type": "Feature", "properties": { "visible_points": 4, "total_points": 117, "visibility_pct": 3.4188034188034191 }, "geometry": { "type": "Point", "coordinates": [ 1.237432503314584, 52.607258971877556 ] } },
{ "type": "Feature", "properties": { "visible_points": 13, "total_points": 110, "visibility_pct": 11.818181818181818 }, "geometry": { "type": "Point", "coordinates": [ 1.237636795137542, 52.607253383854562 ] } },
{ "type": "Feature", "properties": { "visible_points": 12, "total_points": 97, "visibility_pct": 12.371134020618557 }, "geometry": { "type": "Point", "coordinates": [ 1.237841086893086, 52.607247795479495 ] } },
{ "type": "Feature", "properties": { "visible_points": 11, "total_points": 84, "visibility_pct": 13.095238095238097 }, "geometry": { "type": "Point", "coordinates": [ 1.238045378581218, 52.60724220675236 ] } },
{ "type": "Feature", "properties": { "visible_points": 0, "total_points": 71, "visibility_pct": 0.0 }, "geometry": { "type": "Point", "coordinates": [ 1.238249670201926, 52.607236617673138 ] } },
{ "type": "Feature", "properties": { "visible_points": 1, "total_points": 59, "visibility_pct": 1.6949152542372881 }, "geometry": { "type": "Point", "coordinates": [ 1.238453961755209, 52.607231028241856 ] } },
{ "type": "Feature", "properties": { "visible_points": 34, "total_points": 69, "visibility_pct": 49.275362318840585 }, "geometry": { "type": "Point", "coordinates": [ 1.235908252868835, 52.607408576640651 ] } },
{ "type": "Feature", "properties": { "visible_points": 38, "total_points": 82, "visibility_pct": 46.341463414634148 }, "geometry": { "type": "Point", "coordinates": [ 1.236112545698374, 52.607402991238033 ] } },
{ "type": "Feature", "properties": { "visible_points": 38, "total_points": 95, "visibility_pct": 40.0 }, "geometry": { "type": "Point", "coordinates": [ 1.236316838460527, 52.607397405483326 ] } },
{ "type": "Feature", "properties": { "visible_points": 46, "total_points": 108, "visibility_pct": 42.592592592592595 }, "geometry": { "type": "Point", "coordinates": [ 1.236521131155294, 52.607391819376517 ] } },
{ "type": "Feature", "properties": { "visible_points": 51, "total_points": 118, "visibility_pct": 43.220338983050851 }, "geometry": { "type": "Point", "coordinates": [ 1.236725423782675, 52.607386232917669 ] } },
{ "type": "Feature", "properties": { "visible_points": 49, "total_points": 120, "visibility_pct": 40.833333333333336 }, "geometry": { "type": "Point", "coordinates": [ 1.236929716342655, 52.607380646106712 ] } },
{ "type": "Feature", "properties": { "visible_points": 0, "total_points": 118, "visibility_pct": 0.0 }, "geometry": { "type": "Point", "coordinates": [ 1.237134008835242, 52.607375058943681 ] } },
{ "type": "Feature", "properties": { "visible_points": 0, "total_points": 114, "visibility_pct": 0.0 }, "geometry": { "type": "Point", "coordinates": [ 1.237338301260423, 52.607369471428576 ] } },
{ "type": "Feature", "properties": { "visible_points": 9, "total_points": 108, "visibility_pct": 8.3333333333333321 }, "geometry": { "type": "Point", "coordinates": [ 1.2375425936182, 52.607363883561383 ] } },
{ "type": "Feature", "properties": { "visible_points": 0, "total_points": 100, "visibility_pct": 0.0 }, "geometry": { "type": "Point", "coordinates": [ 1.237746885908562, 52.607358295342124 ] } },
{ "type": "Feature", "properties": { "visible_points": 8, "total_points": 87, "visibility_pct": 9.1954022988505741 }, "geometry": { "type": "Point", "coordinates": [ 1.23795117813151, 52.607352706770769 ] } },
{ "type": "Feature", "properties": { "visible_points": 0, "total_points": 75, "visibility_pct": 0.0 }, "geometry": { "type": "Point", "coordinates": [ 1.238155470287039, 52.60734711784734 ] } },
{ "type": "Feature", "properties": { "visible_points": 0, "total_points": 61, "visibility_pct": 0.0 }, "geometry": { "type": "Point", "coordinates": [ 1.235814046603612, 52.607519075030552 ] } },
{ "type": "Feature", "properties": { "visible_points": 27, "total_points": 73, "visibility_pct": 36.986301369863014 }, "geometry": { "type": "Point", "coordinates": [ 1.236018339967952, 52.60751348978372 ] } },
{ "type": "Feature", "properties": { "visible_points": 37, "total_points": 86, "visibility_pct": 43.02325581395349 }, "geometry": { "type": "Point", "coordinates": [ 1.236222633264917, 52.607507904184828 ] } },
{ "type": "Feature", "properties": { "visible_points": 39, "total_points": 99, "visibility_pct": 39.393939393939391 }, "geometry": { "type": "Point", "coordinates": [ 1.236426926494496, 52.607502318233855 ] } },
{ "type": "Feature", "properties": { "visible_points": 42, "total_points": 111, "visibility_pct": 37.837837837837839 }, "geometry": { "type": "Point", "coordinates": [ 1.236631219656685, 52.607496731930787 ] } },
{ "type": "Feature", "properties": { "visible_points": 42, "total_points": 115, "visibility_pct": 36.521739130434781 }, "geometry": { "type": "Point", "coordinates": [ 1.236835512751484, 52.607491145275645 ] } },
{ "type": "Feature", "properties": { "visible_points": 36, "total_points": 116, "visibility_pct": 31.03448275862069 }, "geometry": { "type": "Point", "coordinates": [ 1.237039805778883, 52.607485558268415 ] } },
{ "type": "Feature", "properties": { "visible_points": 0, "total_points": 111, "visibility_pct": 0.0 }, "geometry": { "type": "Point", "coordinates": [ 1.237244098738883, 52.607479970909118 ] } },
{ "type": "Feature", "properties": { "visible_points": 7, "total_points": 105, "visibility_pct": 6.666666666666667 }, "geometry": { "type": "Point", "coordinates": [ 1.237448391631474, 52.607474383197726 ] } },
{ "type": "Feature", "properties": { "visible_points": 9, "total_points": 98, "visibility_pct": 9.183673469387756 }, "geometry": { "type": "Point", "coordinates": [ 1.237652684456661, 52.60746879513426 ] } },
{ "type": "Feature", "properties": { "visible_points": 7, "total_points": 89, "visibility_pct": 7.8651685393258424 }, "geometry": { "type": "Point", "coordinates": [ 1.237856977214433, 52.607463206718705 ] } },
{ "type": "Feature", "properties": { "visible_points": 1, "total_points": 77, "visibility_pct": 1.2987012987012987 }, "geometry": { "type": "Point", "coordinates": [ 1.23806126990478, 52.607457617951084 ] } },
{ "type": "Feature", "properties": { "visible_points": 0, "total_points": 76, "visibility_pct": 0.0 }, "geometry": { "type": "Point", "coordinates": [ 1.236128427601906, 52.607618402815859 ] } },
{ "type": "Feature", "properties": { "visible_points": 29, "total_points": 88, "visibility_pct": 32.954545454545453 }, "geometry": { "type": "Point", "coordinates": [ 1.2363327213663, 52.607612817020687 ] } },
{ "type": "Feature", "properties": { "visible_points": 37, "total_points": 99, "visibility_pct": 37.373737373737377 }, "geometry": { "type": "Point", "coordinates": [ 1.236537015063304, 52.607607230873427 ] } },
{ "type": "Feature", "properties": { "visible_points": 40, "total_points": 103, "visibility_pct": 38.834951456310677 }, "geometry": { "type": "Point", "coordinates": [ 1.236741308692919, 52.607601644374093 ] } },
{ "type": "Feature", "properties": { "visible_points": 35, "total_points": 105, "visibility_pct": 33.333333333333329 }, "geometry": { "type": "Point", "coordinates": [ 1.236945602255138, 52.607596057522677 ] } },
{ "type": "Feature", "properties": { "visible_points": 20, "total_points": 104, "visibility_pct": 19.230769230769234 }, "geometry": { "type": "Point", "coordinates": [ 1.237149895749956, 52.607590470319188 ] } },
{ "type": "Feature", "properties": { "visible_points": 6, "total_points": 100, "visibility_pct": 6.0 }, "geometry": { "type": "Point", "coordinates": [ 1.237354189177368, 52.607584882763604 ] } },
{ "type": "Feature", "properties": { "visible_points": 9, "total_points": 93, "visibility_pct": 9.67741935483871 }, "geometry": { "type": "Point", "coordinates": [ 1.237558482537377, 52.60757929485591 ] } },
{ "type": "Feature", "properties": { "visible_points": 2, "total_points": 86, "visibility_pct": 2.3255813953488373 }, "geometry": { "type": "Point", "coordinates": [ 1.237762775829971, 52.607573706596163 ] } },
{ "type": "Feature", "properties": { "visible_points": 0, "total_points": 77, "visibility_pct": 0.0 }, "geometry": { "type": "Point", "coordinates": [ 1.23796706905515, 52.607568117984357 ] } },
{ "type": "Feature", "properties": { "visible_points": 0, "total_points": 86, "visibility_pct": 0.0 }, "geometry": { "type": "Point", "coordinates": [ 1.236442810002525, 52.607717729745595 ] } },
{ "type": "Feature", "properties": { "visible_points": 34, "total_points": 91, "visibility_pct": 37.362637362637365 }, "geometry": { "type": "Point", "coordinates": [ 1.236647104166958, 52.607712143402061 ] } },
{ "type": "Feature", "properties": { "visible_points": 30, "total_points": 93, "visibility_pct": 32.258064516129032 }, "geometry": { "type": "Point", "coordinates": [ 1.236851398263993, 52.607706556706439 ] } },
{ "type": "Feature", "properties": { "visible_points": 21, "total_points": 93, "visibility_pct": 22.58064516129032 }, "geometry": { "type": "Point", "coordinates": [ 1.237055692293642, 52.607700969658744 ] } },
{ "type": "Feature", "properties": { "visible_points": 0, "total_points": 92, "visibility_pct": 0.0 }, "geometry": { "type": "Point", "coordinates": [ 1.237259986255877, 52.607695382258981 ] } },
{ "type": "Feature", "properties": { "visible_points": 0, "total_points": 87, "visibility_pct": 0.0 }, "geometry": { "type": "Point", "coordinates": [ 1.237464280150709, 52.60768979450711 ] } },
{ "type": "Feature", "properties": { "visible_points": 0, "total_points": 80, "visibility_pct": 0.0 }, "geometry": { "type": "Point", "coordinates": [ 1.237668573978128, 52.607684206403157 ] } },
{ "type": "Feature", "properties": { "visible_points": 8, "total_points": 78, "visibility_pct": 10.256410256410255 }, "geometry": { "type": "Point", "coordinates": [ 1.236552899173599, 52.607822642359537 ] } },
{ "type": "Feature", "properties": { "visible_points": 22, "total_points": 80, "visibility_pct": 27.5 }, "geometry": { "type": "Point", "coordinates": [ 1.236757193805461, 52.60781705581973 ] } },
{ "type": "Feature", "properties": { "visible_points": 11, "total_points": 82, "visibility_pct": 13.414634146341465 }, "geometry": { "type": "Point", "coordinates": [ 1.236961488369925, 52.607811468927835 ] } },
{ "type": "Feature", "properties": { "visible_points": 0, "total_points": 81, "visibility_pct": 0.0 }, "geometry": { "type": "Point", "coordinates": [ 1.237165782866993, 52.607805881683866 ] } },
{ "type": "Feature", "properties": { "visible_points": 0, "total_points": 79, "visibility_pct": 0.0 }, "geometry": { "type": "Point", "coordinates": [ 1.237370077296653, 52.607800294087809 ] } },
{ "type": "Feature", "properties": { "visible_points": 0, "total_points": 68, "visibility_pct": 0.0 }, "geometry": { "type": "Point", "coordinates": [ 1.236662988879522, 52.607927554862528 ] } },
{ "type": "Feature", "properties": { "visible_points": 12, "total_points": 70, "visibility_pct": 17.142857142857142 }, "geometry": { "type": "Point", "coordinates": [ 1.236867283978818, 52.607921968126455 ] } },
{ "type": "Feature", "properties": { "visible_points": 0, "total_points": 70, "visibility_pct": 0.0 }, "geometry": { "type": "Point", "coordinates": [ 1.237071579010709, 52.607916381038287 ] } },
{ "type": "Feature", "properties": { "visible_points": 0, "total_points": 59, "visibility_pct": 0.0 }, "geometry": { "type": "Point", "coordinates": [ 1.236977374687027, 52.608026880322228 ] } }
]
}
