{
"type": "FeatureCollection",
"name": "9185a10b403d_visibility",
"crs": { "type": "name", "properties": { "name": "urn:ogc:def:crs:OGC:1.3:CRS84" } },
"features": [
{ "type": "Feature", "properties": { "visible_points": 4, "total_points": 51, "visibility_pct": 7.8431372549019605 }, "geometry": { "type": "Point", "coordinates": [ 1.157711056367023, 52.650966140057214 ] } },
{ "type": "Feature", "properties": { "visible_points": 0, "total_points": 60, "visibility_pct": 0.0 }, "geometry": { "type": "Point", "coordinates": [ 1.1579155621917, 52.650960686842986 ] } },
{ "type": "Feature", "properties": { "visible_points": 0, "total_points": 65, "visibility_pct": 0.0 }, "geometry": { "type": "Point", "coordinates": [ 1.158120067952574, 52.65095523327642 ] } },
{ "type": "Feature", "properties": { "visible_points": 15, "total_points": 68, "visibility_pct": 22.058823529411764 }, "geometry": { "type": "Point", "coordinates": [ 1.158324573649651, 52.650949779357553 ] } },
{ "type": "Feature", "properties": { "visible_points": 7, "total_points": 69, "visibility_pct": 10.144927536231885 }, "geometry": { "type": "Point", "coordinates": [ 1.15852907928292, 52.650944325086357 ] } },
{ "type": "Feature", "properties": { "visible_points": 1, "total_points": 64, "visibility_pct": 1.5625 }, "geometry": { "type": "Point", "coordinates": [ 1.158733584852381, 52.650938870462838 ] } },
{ "type": "Feature", "properties": { "visible_points": 0, "total_points": 60, "visibility_pct": 0.0 }, "geometry": { "type": "Point", "coordinates": [ 1.157821075583562, 52.651071127433383 ] } },
{ "type": "Feature", "properties": { "visible_points": 13, "total_points": 69, "visibility_pct": 18.840579710144929 }, "geometry": { "type": "Point", "coordinates": [ 1.158025581857827, 52.651065674019485 ] } },
{ "type": "Feature", "properties": { "visible_points": 16, "total_points": 74, "visibility_pct": 21.621621621621621 }, "geometry": { "type": "Point", "coordinates": [ 1.158230088068292, 52.65106022025325 ] } },
{ "type": "Feature", "properties": { "visible_points": 13, "total_points": 77, "visibility_pct": 16.883116883116884 }, "geometry": { "type": "Point", "coordinates": [ 1.15843459421495, 52.651054766134699 ] } },
{ "type": "Feature", "properties": { "visible_points": 2, "total_points": 75, "visibility_pct": 2.666666666666667 }, "geometry": { "type": "Point", "coordinates": [ 1.158639100297802, 52.651049311663847 ] } },
{ "type": "Feature", "properties": { "visible_points": 5, "total_points": 67, "visibility_pct": 7.4626865671641784 }, "geometry": { "type": "Point", "coordinates": [ 1.157931095313504, 52.651176114694998 ] } },
{ "type": "Feature", "properties": { "visible_points": 11, "total_points": 75, "visibility_pct": 14.666666666666666 }, "geometry": { "type": "Point", "coordinates": [ 1.158135602037361, 52.651170661081437 ] } },
{ "type": "Feature", "properties": { "visible_points": 12, "total_points": 77, "visibility_pct": 15.584415584415584 }, "geometry": { "type": "Point", "coordinates": [ 1.158340108697409, 52.651165207115532 ] } },
{ "type": "Feature", "properties": { "visible_points": 13, "total_points": 77, "visibility_pct": 16.883116883116884 }, "geometry": { "type": "Point", "coordinates": [ 1.158544615293654, 52.651159752797312 ] } },
{ "type": "Feature", "properties": { "visible_points": 0, "total_points": 72, "visibility_pct": 0.0 }, "geometry": { "type": "Point", "coordinates": [ 1.158749121826089, 52.651154298126784 ] } },
{ "type": "Feature", "properties": { "visible_points": 9, "total_points": 72, "visibility_pct": 12.5 }, "geometry": { "type": "Point", "coordinates": [ 1.158041115556851, 52.651281101842088 ] } },
{ "type": "Feature", "properties": { "visible_points": 8, "total_points": 77, "visibility_pct": 10.38961038961039 }, "geometry": { "type": "Point", "coordinates": [ 1.1582456227303, 52.65127564802885 ] } },
{ "type": "Feature", "properties": { "visible_points": 11, "total_points": 77, "visibility_pct": 14.285714285714285 }, "geometry": { "type": "Point", "coordinates": [ 1.158450129839936, 52.651270193863276 ] } },
{ "type": "Feature", "properties": { "visible_points": 12, "total_points": 74, "visibility_pct": 16.216216216216218 }, "geometry": { "type": "Point", "coordinates": [ 1.158654636885771, 52.651264739345407 ] } },
{ "type": "Feature", "properties": { "visible_points": 0, "total_points": 67, "visibility_pct": 0.0 }, "geometry": { "type": "Point", "coordinates": [ 1.158859143867783, 52.651259284475174 ] } },
{ "type": "Feature", "properties": { "visible_points": 1, "total_points": 57, "visibility_pct": 1.7543859649122806 }, "geometry": { "type": "Point", "coordinates": [ 1.159063650785984, 52.651253829252646 ] } },
{ "type": "Feature", "properties": { "visible_points": 5, "total_points": 65, "visibility_pct": 7.6923076923076925 }, "geometry": { "type": "Point", "coordinates": [ 1.157946628626766, 52.651391542535208 ] } },
{ "type": "Feature", "properties": { "visible_points": 7, "total_points": 74, "visibility_pct": 9.4594594594594597 }, "geometry": { "type": "Point", "coordinates": [ 1.158151136313607, 52.651386088874631 ] } },
{ "type": "Feature", "properties": { "visible_points": 11, "total_points": 75, "visibility_pct": 14.666666666666666 }, "geometry": { "type": "Point", "coordinates": [ 1.158355643936648, 52.651380634861717 ] } },
{ "type": "Feature", "properties": { "visible_points": 11, "total_points": 73, "visibility_pct": 15.068493150684931 }, "geometry": { "type": "Point", "coordinates": [ 1.158560151495879, 52.651375180496473 ] } },
{ "type": "Feature", "properties": { "visible_points": 11, "total_points": 68, "visibility_pct": 16.176470588235293 }, "geometry": { "type": "Point", "coordinates": [ 1.158764658991297, 52.651369725778906 ] } },
{ "type": "Feature", "properties": { "visible_points": 9, "total_points": 60, "visibility_pct": 15.0 }, "geometry": { "type": "Point", "coordinates": [ 1.158969166422899, 52.651364270709024 ] } },
{ "type": "Feature", "properties": { "visible_points": 5, "total_points": 62, "visibility_pct": 8.064516129032258 }, "geometry": { "type": "Point", "coordinates": [ 1.158056649447338, 52.651496529652867 ] } },
{ "type": "Feature", "properties": { "visible_points": 0, "total_points": 67, "visibility_pct": 0.0 }, "geometry": { "type": "Point", "coordinates": [ 1.158261157583778, 52.651491075792634 ] } },
{ "type": "Feature", "properties": { "visible_points": 0, "total_points": 66, "visibility_pct": 0.0 }, "geometry": { "type": "Point", "coordinates": [ 1.158465665656414, 52.651485621580051 ] } },
{ "type": "Feature", "properties": { "visible_points": 2, "total_points": 63, "visibility_pct": 3.1746031746031744 }, "geometry": { "type": "Point", "coordinates": [ 1.158670173665237, 52.651480167015137 ] } },
{ "type": "Feature", "properties": { "visible_points": 6, "total_points": 58, "visibility_pct": 10.344827586206897 }, "geometry": { "type": "Point", "coordinates": [ 1.158874681610242, 52.651474712097887 ] } }
]
}
