{
"type": "FeatureCollection",
"name": "9d0f3dd8656c_foliage",
"crs": { "type": "name", "properties": { "name": "urn:ogc:def:crs:OGC:1.3:CRS84" } },
"features": [
{ "type": "Feature", "properties": { "max_height": 10.542003631591797, "mean_height": 3.0246772766113281, "std_height": 3.5555012226104736, "count_pixels": 40, "percent_cover": 0.46248121170077461, "percent_above_0.1m": 60.0, "low_level_<0.5": 5.0, "mid_level_0.5-2": 10.0, "tall_2+": 42.5 }, "geometry": { "type": "Point", "coordinates": [ 1.114597680322462, 52.570695818386682 ] } },
{ "type": "Feature", "properties": { "max_height": 10.899753570556641, "mean_height": 6.113868236541748, "std_height": 3.658674955368042, "count_pixels": 43, "percent_cover": 0.4971673025783328, "percent_above_0.1m": 88.372093023255815, "low_level_<0.5": 4.6511627906976747, "mid_level_0.5-2": 4.6511627906976747, "tall_2+": 79.069767441860463 }, "geometry": { "type": "Point", "coordinates": [ 1.114801822010909, 52.570690445643912 ] } },
{ "type": "Feature", "properties": { "max_height": 4.3782539367675781, "mean_height": 1.4582340717315674, "std_height": 1.3068662881851196, "count_pixels": 42, "percent_cover": 0.48560527228581341, "percent_above_0.1m": 78.571428571428569, "low_level_<0.5": 9.5238095238095237, "mid_level_0.5-2": 38.095238095238095, "tall_2+": 28.571428571428569 }, "geometry": { "type": "Point", "coordinates": [ 1.115005963784275, 52.570685072468166 ] } },
{ "type": "Feature", "properties": { "max_height": 6.5902519226074219, "mean_height": 2.9598236083984375, "std_height": 1.6976709365844727, "count_pixels": 42, "percent_cover": 0.48560527228581341, "percent_above_0.1m": 97.61904761904762, "low_level_<0.5": 2.3809523809523809, "mid_level_0.5-2": 23.809523809523807, "tall_2+": 71.428571428571431 }, "geometry": { "type": "Point", "coordinates": [ 1.115210105631145, 52.570679698871096 ] } },
{ "type": "Feature", "properties": { "max_height": 0.73200225830078125, "mean_height": 0.07830810546875, "std_height": 0.18024545907974243, "count_pixels": 40, "percent_cover": 0.46248121170077461, "percent_above_0.1m": 17.5, "low_level_<0.5": 10.0, "mid_level_0.5-2": 5.0, "tall_2+": 0.0 }, "geometry": { "type": "Point", "coordinates": [ 1.114503246443581, 52.57080622425601 ] } },
{ "type": "Feature", "properties": { "max_height": 6.5132484436035156, "mean_height": 0.50041377544403076, "std_height": 1.3691607713699341, "count_pixels": 40, "percent_cover": 0.46248121170077461, "percent_above_0.1m": 22.5, "low_level_<0.5": 5.0, "mid_level_0.5-2": 7.5, "tall_2+": 10.0 }, "geometry": { "type": "Point", "coordinates": [ 1.114707388662679, 52.570800851667727 ] } },
{ "type": "Feature", "properties": { "max_height": 4.6822547912597656, "mean_height": 0.77945888042449951, "std_height": 1.4070891141891479, "count_pixels": 41, "percent_cover": 0.47404324199329401, "percent_above_0.1m": 29.268292682926827, "low_level_<0.5": 0.0, "mid_level_0.5-2": 12.195121951219512, "tall_2+": 17.073170731707318 }, "geometry": { "type": "Point", "coordinates": [ 1.114911530897178, 52.570795478700191 ] } },
{ "type": "Feature", "properties": { "max_height": 4.993499755859375, "mean_height": 3.8201980590820312, "std_height": 1.0893707275390625, "count_pixels": 42, "percent_cover": 0.48560527228581341, "percent_above_0.1m": 97.61904761904762, "low_level_<0.5": 2.3809523809523809, "mid_level_0.5-2": 0.0, "tall_2+": 95.238095238095227 }, "geometry": { "type": "Point", "coordinates": [ 1.115115673226718, 52.57079010527044 ] } },
{ "type": "Feature", "properties": { "max_height": 5.0245018005371094, "mean_height": 1.8446863889694214, "std_height": 1.7888567447662354, "count_pixels": 42, "percent_cover": 0.48560527228581341, "percent_above_0.1m": 69.047619047619051, "low_level_<0.5": 2.3809523809523809, "mid_level_0.5-2": 23.809523809523807, "tall_2+": 42.857142857142854 }, "geometry": { "type": "Point", "coordinates": [ 1.115319815545381, 52.570784731475044 ] } },
{ "type": "Feature", "properties": { "max_height": 7.364501953125, "mean_height": 3.3890311717987061, "std_height": 2.1106991767883301, "count_pixels": 42, "percent_cover": 0.48560527228581341, "percent_above_0.1m": 97.61904761904762, "low_level_<0.5": 9.5238095238095237, "mid_level_0.5-2": 11.904761904761903, "tall_2+": 73.80952380952381 }, "geometry": { "type": "Point", "coordinates": [ 1.115523957798885, 52.570779357328256 ] } },
{ "type": "Feature", "properties": { "max_height": 0.15525054931640625, "mean_height": 0.0074390931986272335, "std_height": 0.023631419986486435, "count_pixels": 44, "percent_cover": 0.50872933287085209, "percent_above_0.1m": 2.2727272727272729, "low_level_<0.5": 2.2727272727272729, "mid_level_0.5-2": 0.0, "tall_2+": 0.0 }, "geometry": { "type": "Point", "coordinates": [ 1.114408812092873, 52.570916630057241 ] } },
{ "type": "Feature", "properties": { "max_height": 0.0540008544921875, "mean_height": 0.0059829712845385075, "std_height": 0.010635701939463615, "count_pixels": 40, "percent_cover": 0.46248121170077461, "percent_above_0.1m": 0.0, "low_level_<0.5": 0.0, "mid_level_0.5-2": 0.0, "tall_2+": 0.0 }, "geometry": { "type": "Point", "coordinates": [ 1.114612954848972, 52.570911257622051 ] } },
{ "type": "Feature", "properties": { "max_height": 0.02425384521484375, "mean_height": 0.0026935311034321785, "std_height": 0.0056754858233034611, "count_pixels": 43, "percent_cover": 0.4971673025783328, "percent_above_0.1m": 0.0, "low_level_<0.5": 0.0, "mid_level_0.5-2": 0.0, "tall_2+": 0.0 }, "geometry": { "type": "Point", "coordinates": [ 1.114817097556238, 52.570905884831376 ] } },
{ "type": "Feature", "properties": { "max_height": 0.65900421142578125, "mean_height": 0.022335235029459, "std_height": 0.10004987567663193, "count_pixels": 42, "percent_cover": 0.48560527228581341, "percent_above_0.1m": 2.3809523809523809, "low_level_<0.5": 0.0, "mid_level_0.5-2": 2.3809523809523809, "tall_2+": 0.0 }, "geometry": { "type": "Point", "coordinates": [ 1.115021240350502, 52.570900511601657 ] } },
{ "type": "Feature", "properties": { "max_height": 3.3787498474121094, "mean_height": 0.23120453953742981, "std_height": 0.72293776273727417, "count_pixels": 42, "percent_cover": 0.48560527228581341, "percent_above_0.1m": 14.285714285714285, "low_level_<0.5": 2.3809523809523809, "mid_level_0.5-2": 7.1428571428571423, "tall_2+": 4.7619047619047619 }, "geometry": { "type": "Point", "coordinates": [ 1.115225383206141, 52.570895137959361 ] } },
{ "type": "Feature", "properties": { "max_height": 0.35425186157226562, "mean_height": 0.03053756058216095, "std_height": 0.076176926493644714, "count_pixels": 42, "percent_cover": 0.48560527228581341, "percent_above_0.1m": 9.5238095238095237, "low_level_<0.5": 7.1428571428571423, "mid_level_0.5-2": 0.0, "tall_2+": 0.0 }, "geometry": { "type": "Point", "coordinates": [ 1.115429525996606, 52.570889763965646 ] } },
{ "type": "Feature", "properties": { "max_height": 4.6142539978027344, "mean_height": 1.2932389974594116, "std_height": 1.4295289516448975, "count_pixels": 40, "percent_cover": 0.46248121170077461, "percent_above_0.1m": 75.0, "low_level_<0.5": 17.5, "mid_level_0.5-2": 20.0, "tall_2+": 32.5 }, "geometry": { "type": "Point", "coordinates": [ 1.115633668721902, 52.570884389620538 ] } },
{ "type": "Feature", "properties": { "max_height": 0.39000320434570312, "mean_height": 0.01093902625143528, "std_height": 0.061134021729230881, "count_pixels": 40, "percent_cover": 0.46248121170077461, "percent_above_0.1m": 2.5, "low_level_<0.5": 2.5, "mid_level_0.5-2": 0.0, "tall_2+": 0.0 }, "geometry": { "type": "Point", "coordinates": [ 1.114314377270344, 52.57102703579033 ] } },
{ "type": "Feature", "properties": { "max_height": 0.017002105712890625, "mean_height": 0.0033518790733069181, "std_height": 0.0049898452125489712, "count_pixels": 40, "percent_cover": 0.46248121170077461, "percent_above_0.1m": 0.0, "low_level_<0.5": 0.0, "mid_level_0.5-2": 0.0, "tall_2+": 0.0 }, "geometry": { "type": "Point", "coordinates": [ 1.114518520563437, 52.571021663508233 ] } },
{ "type": "Feature", "properties": { "max_height": 0.069499969482421875, "mean_height": 0.0057890890166163445, "std_height": 0.01175041776150465, "count_pixels": 40, "percent_cover": 0.46248121170077461, "percent_above_0.1m": 0.0, "low_level_<0.5": 0.0, "mid_level_0.5-2": 0.0, "tall_2+": 0.0 }, "geometry": { "type": "Point", "coordinates": [ 1.114722663791381, 52.571016290874724 ] } },
{ "type": "Feature", "properties": { "max_height": 0.014251708984375, "mean_height": 0.0043250294402241707, "std_height": 0.004344649612903595, "count_pixels": 41, "percent_cover": 0.47404324199329401, "percent_above_0.1m": 0.0, "low_level_<0.5": 0.0, "mid_level_0.5-2": 0.0, "tall_2+": 0.0 }, "geometry": { "type": "Point", "coordinates": [ 1.114926807046795, 52.571010917853201 ] } },
{ "type": "Feature", "properties": { "max_height": 0.017002105712890625, "mean_height": 0.0044600167311728001, "std_height": 0.0042920233681797981, "count_pixels": 42, "percent_cover": 0.48560527228581341, "percent_above_0.1m": 0.0, "low_level_<0.5": 0.0, "mid_level_0.5-2": 0.0, "tall_2+": 0.0 }, "geometry": { "type": "Point", "coordinates": [ 1.115130950395112, 52.571005544375545 ] } },
{ "type": "Feature", "properties": { "max_height": 0.45800018310546875, "mean_height": 0.027085531502962112, "std_height": 0.089531771838665009, "count_pixels": 42, "percent_cover": 0.48560527228581341, "percent_above_0.1m": 4.7619047619047619, "low_level_<0.5": 4.7619047619047619, "mid_level_0.5-2": 0.0, "tall_2+": 0.0 }, "geometry": { "type": "Point", "coordinates": [ 1.115335093722547, 52.571000170534937 ] } },
{ "type": "Feature", "properties": { "max_height": 0.5885009765625, "mean_height": 0.038620539009571075, "std_height": 0.10908075422048569, "count_pixels": 42, "percent_cover": 0.48560527228581341, "percent_above_0.1m": 9.5238095238095237, "low_level_<0.5": 4.7619047619047619, "mid_level_0.5-2": 2.3809523809523809, "tall_2+": 0.0 }, "geometry": { "type": "Point", "coordinates": [ 1.115539236984814, 52.570994796342909 ] } },
{ "type": "Feature", "properties": { "max_height": 10.756504058837891, "mean_height": 1.4073313474655151, "std_height": 2.510582447052002, "count_pixels": 44, "percent_cover": 0.50872933287085209, "percent_above_0.1m": 54.54545454545454, "low_level_<0.5": 6.8181818181818175, "mid_level_0.5-2": 25.0, "tall_2+": 20.454545454545457 }, "geometry": { "type": "Point", "coordinates": [ 1.115743380181908, 52.570989421799482 ] } },
{ "type": "Feature", "properties": { "max_height": 15.932750701904297, "mean_height": 10.875246047973633, "std_height": 4.1020011901855469, "count_pixels": 40, "percent_cover": 0.46248121170077461, "percent_above_0.1m": 100.0, "low_level_<0.5": 2.5, "mid_level_0.5-2": 0.0, "tall_2+": 97.5 }, "geometry": { "type": "Point", "coordinates": [ 1.115947523313819, 52.570984046904634 ] } },
{ "type": "Feature", "properties": { "max_height": 12.245498657226562, "mean_height": 4.8931841850280762, "std_height": 3.2601151466369629, "count_pixels": 44, "percent_cover": 0.50872933287085209, "percent_above_0.1m": 88.63636363636364, "low_level_<0.5": 4.5454545454545459, "mid_level_0.5-2": 6.8181818181818175, "tall_2+": 75.0 }, "geometry": { "type": "Point", "coordinates": [ 1.116151666380546, 52.570978671658409 ] } },
{ "type": "Feature", "properties": { "max_height": 3.6152534484863281, "mean_height": 0.45338299870491028, "std_height": 0.90253204107284546, "count_pixels": 44, "percent_cover": 0.50872933287085209, "percent_above_0.1m": 29.545454545454547, "low_level_<0.5": 9.0909090909090917, "mid_level_0.5-2": 11.363636363636363, "tall_2+": 9.0909090909090917 }, "geometry": { "type": "Point", "coordinates": [ 1.11442408580608, 52.571132069326296 ] } },
{ "type": "Feature", "properties": { "max_height": 1.4150047302246094, "mean_height": 0.10995206981897354, "std_height": 0.28096777200698853, "count_pixels": 40, "percent_cover": 0.46248121170077461, "percent_above_0.1m": 20.0, "low_level_<0.5": 7.5, "mid_level_0.5-2": 7.5, "tall_2+": 0.0 }, "geometry": { "type": "Point", "coordinates": [ 1.114628229571022, 52.571126696845873 ] } },
{ "type": "Feature", "properties": { "max_height": 0.02625274658203125, "mean_height": 0.004902862012386322, "std_height": 0.0060560796409845352, "count_pixels": 43, "percent_cover": 0.4971673025783328, "percent_above_0.1m": 0.0, "low_level_<0.5": 0.0, "mid_level_0.5-2": 0.0, "tall_2+": 0.0 }, "geometry": { "type": "Point", "coordinates": [ 1.114832373297116, 52.57112132400735 ] } },
{ "type": "Feature", "properties": { "max_height": 0.014255523681640625, "mean_height": 0.0042103356681764126, "std_height": 0.0045927860774099827, "count_pixels": 42, "percent_cover": 0.48560527228581341, "percent_above_0.1m": 0.0, "low_level_<0.5": 0.0, "mid_level_0.5-2": 0.0, "tall_2+": 0.0 }, "geometry": { "type": "Point", "coordinates": [ 1.115036517112291, 52.571115950723616 ] } },
{ "type": "Feature", "properties": { "max_height": 0.0252532958984375, "mean_height": 0.0041330428794026375, "std_height": 0.0061708451248705387, "count_pixels": 42, "percent_cover": 0.48560527228581341, "percent_above_0.1m": 0.0, "low_level_<0.5": 0.0, "mid_level_0.5-2": 0.0, "tall_2+": 0.0 }, "geometry": { "type": "Point", "coordinates": [ 1.115240660976702, 52.571110577036102 ] } },
{ "type": "Feature", "properties": { "max_height": 0.01775360107421875, "mean_height": 0.0039066132158041, "std_height": 0.0055508916266262531, "count_pixels": 42, "percent_cover": 0.48560527228581341, "percent_above_0.1m": 0.0, "low_level_<0.5": 0.0, "mid_level_0.5-2": 0.0, "tall_2+": 0.0 }, "geometry": { "type": "Point", "coordinates": [ 1.115444804775946, 52.57110520299716 ] } },
{ "type": "Feature", "properties": { "max_height": 0.022251129150390625, "mean_height": 0.0053647039458155632, "std_height": 0.0056471987627446651, "count_pixels": 40, "percent_cover": 0.46248121170077461, "percent_above_0.1m": 0.0, "low_level_<0.5": 0.0, "mid_level_0.5-2": 0.0, "tall_2+": 0.0 }, "geometry": { "type": "Point", "coordinates": [ 1.115648948510012, 52.571099828606833 ] } },
{ "type": "Feature", "properties": { "max_height": 3.4734992980957031, "mean_height": 0.19920787215232849, "std_height": 0.68481165170669556, "count_pixels": 40, "percent_cover": 0.46248121170077461, "percent_above_0.1m": 12.5, "low_level_<0.5": 5.0, "mid_level_0.5-2": 2.5, "tall_2+": 5.0 }, "geometry": { "type": "Point", "coordinates": [ 1.115853092178907, 52.571094453865086 ] } },
{ "type": "Feature", "properties": { "max_height": 1.1967544555664062, "mean_height": 0.076639369130134583, "std_height": 0.24357415735721588, "count_pixels": 40, "percent_cover": 0.46248121170077461, "percent_above_0.1m": 10.0, "low_level_<0.5": 2.5, "mid_level_0.5-2": 7.5, "tall_2+": 0.0 }, "geometry": { "type": "Point", "coordinates": [ 1.116057235782611, 52.571089078771926 ] } },
{ "type": "Feature", "properties": { "max_height": 6.9290008544921875, "mean_height": 1.6300392150878906, "std_height": 2.36173415184021, "count_pixels": 40, "percent_cover": 0.46248121170077461, "percent_above_0.1m": 52.5, "low_level_<0.5": 10.0, "mid_level_0.5-2": 7.5, "tall_2+": 30.0 }, "geometry": { "type": "Point", "coordinates": [ 1.116261379321134, 52.571083703327353 ] } },
{ "type": "Feature", "properties": { "max_height": 7.8310050964355469, "mean_height": 4.0624189376831055, "std_height": 2.1254770755767822, "count_pixels": 42, "percent_cover": 0.48560527228581341, "percent_above_0.1m": 100.0, "low_level_<0.5": 4.7619047619047619, "mid_level_0.5-2": 14.285714285714285, "tall_2+": 78.571428571428569 }, "geometry": { "type": "Point", "coordinates": [ 1.116465522794464, 52.571078327531389 ] } },
{ "type": "Feature", "properties": { "max_height": 6.7925033569335938, "mean_height": 1.659083366394043, "std_height": 2.1966776847839355, "count_pixels": 40, "percent_cover": 0.46248121170077461, "percent_above_0.1m": 50.0, "low_level_<0.5": 2.5, "mid_level_0.5-2": 15.0, "tall_2+": 32.5 }, "geometry": { "type": "Point", "coordinates": [ 1.114329650576888, 52.571242475076232 ] } },
{ "type": "Feature", "properties": { "max_height": 0.32750320434570312, "mean_height": 0.016701508313417435, "std_height": 0.056138649582862854, "count_pixels": 40, "percent_cover": 0.46248121170077461, "percent_above_0.1m": 5.0, "low_level_<0.5": 5.0, "mid_level_0.5-2": 0.0, "tall_2+": 0.0 }, "geometry": { "type": "Point", "coordinates": [ 1.114533794878836, 52.571237102748917 ] } },
{ "type": "Feature", "properties": { "max_height": 0.62874984741210938, "mean_height": 0.018782997503876686, "std_height": 0.09782072901725769, "count_pixels": 40, "percent_cover": 0.46248121170077461, "percent_above_0.1m": 2.5, "low_level_<0.5": 0.0, "mid_level_0.5-2": 2.5, "tall_2+": 0.0 }, "geometry": { "type": "Point", "coordinates": [ 1.114737939115625, 52.571231730070195 ] } },
{ "type": "Feature", "properties": { "max_height": 0.015254974365234375, "mean_height": 0.0033675404265522957, "std_height": 0.004248972050845623, "count_pixels": 41, "percent_cover": 0.47404324199329401, "percent_above_0.1m": 0.0, "low_level_<0.5": 0.0, "mid_level_0.5-2": 0.0, "tall_2+": 0.0 }, "geometry": { "type": "Point", "coordinates": [ 1.114942083391971, 52.571226356994693 ] } },
{ "type": "Feature", "properties": { "max_height": 0.0200042724609375, "mean_height": 0.0048590162768959999, "std_height": 0.0060242828913033009, "count_pixels": 42, "percent_cover": 0.48560527228581341, "percent_above_0.1m": 0.0, "low_level_<0.5": 0.0, "mid_level_0.5-2": 0.0, "tall_2+": 0.0 }, "geometry": { "type": "Point", "coordinates": [ 1.115146227759067, 52.571220983469132 ] } },
{ "type": "Feature", "properties": { "max_height": 0.021503448486328125, "mean_height": 0.0053890771232545376, "std_height": 0.0057959174737334251, "count_pixels": 42, "percent_cover": 0.48560527228581341, "percent_above_0.1m": 0.0, "low_level_<0.5": 0.0, "mid_level_0.5-2": 0.0, "tall_2+": 0.0 }, "geometry": { "type": "Point", "coordinates": [ 1.11535037209529, 52.571215609583305 ] } },
{ "type": "Feature", "properties": { "max_height": 0.040752410888671875, "mean_height": 0.0064068748615682125, "std_height": 0.0080173928290605545, "count_pixels": 42, "percent_cover": 0.48560527228581341, "percent_above_0.1m": 0.0, "low_level_<0.5": 0.0, "mid_level_0.5-2": 0.0, "tall_2+": 0.0 }, "geometry": { "type": "Point", "coordinates": [ 1.115554516366339, 52.571210235346058 ] } },
{ "type": "Feature", "properties": { "max_height": 0.02325439453125, "mean_height": 0.0063542453572154045, "std_height": 0.006207883358001709, "count_pixels": 44, "percent_cover": 0.50872933287085209, "percent_above_0.1m": 0.0, "low_level_<0.5": 0.0, "mid_level_0.5-2": 0.0, "tall_2+": 0.0 }, "geometry": { "type": "Point", "coordinates": [ 1.115758660572206, 52.571204860757391 ] } },
{ "type": "Feature", "properties": { "max_height": 0.0175018310546875, "mean_height": 0.0049520493485033512, "std_height": 0.0053802928887307644, "count_pixels": 40, "percent_cover": 0.46248121170077461, "percent_above_0.1m": 0.0, "low_level_<0.5": 0.0, "mid_level_0.5-2": 0.0, "tall_2+": 0.0 }, "geometry": { "type": "Point", "coordinates": [ 1.115962804712901, 52.571199485817331 ] } },
{ "type": "Feature", "properties": { "max_height": 0.028003692626953125, "mean_height": 0.0062406715005636215, "std_height": 0.0071925045922398567, "count_pixels": 44, "percent_cover": 0.50872933287085209, "percent_above_0.1m": 0.0, "low_level_<0.5": 0.0, "mid_level_0.5-2": 0.0, "tall_2+": 0.0 }, "geometry": { "type": "Point", "coordinates": [ 1.116166948788405, 52.571194110525845 ] } },
{ "type": "Feature", "properties": { "max_height": 5.9457511901855469, "mean_height": 0.82284080982208252, "std_height": 1.6056925058364868, "count_pixels": 42, "percent_cover": 0.48560527228581341, "percent_above_0.1m": 30.952380952380953, "low_level_<0.5": 0.0, "mid_level_0.5-2": 11.904761904761903, "tall_2+": 16.666666666666664 }, "geometry": { "type": "Point", "coordinates": [ 1.116371092798722, 52.571188734882952 ] } },
{ "type": "Feature", "properties": { "max_height": 10.591503143310547, "mean_height": 2.3589048385620117, "std_height": 3.5681381225585938, "count_pixels": 44, "percent_cover": 0.50872933287085209, "percent_above_0.1m": 40.909090909090914, "low_level_<0.5": 0.0, "mid_level_0.5-2": 11.363636363636363, "tall_2+": 29.545454545454547 }, "geometry": { "type": "Point", "coordinates": [ 1.114439359714816, 52.571347508583841 ] } },
{ "type": "Feature", "properties": { "max_height": 0.015003204345703125, "mean_height": 0.004745197482407093, "std_height": 0.0042762761004269123, "count_pixels": 40, "percent_cover": 0.46248121170077461, "percent_above_0.1m": 0.0, "low_level_<0.5": 0.0, "mid_level_0.5-2": 0.0, "tall_2+": 0.0 }, "geometry": { "type": "Point", "coordinates": [ 1.114643504488613, 52.571342136058213 ] } },
{ "type": "Feature", "properties": { "max_height": 0.0155029296875, "mean_height": 0.0053796102292835712, "std_height": 0.0046837367117404938, "count_pixels": 43, "percent_cover": 0.4971673025783328, "percent_above_0.1m": 0.0, "low_level_<0.5": 0.0, "mid_level_0.5-2": 0.0, "tall_2+": 0.0 }, "geometry": { "type": "Point", "coordinates": [ 1.11484764923355, 52.571336763171765 ] } },
{ "type": "Feature", "properties": { "max_height": 0.03025054931640625, "mean_height": 0.0063532874919474125, "std_height": 0.007122446782886982, "count_pixels": 42, "percent_cover": 0.48560527228581341, "percent_above_0.1m": 0.0, "low_level_<0.5": 0.0, "mid_level_0.5-2": 0.0, "tall_2+": 0.0 }, "geometry": { "type": "Point", "coordinates": [ 1.115051794069635, 52.571331389834057 ] } },
{ "type": "Feature", "properties": { "max_height": 0.019252777099609375, "mean_height": 0.005989347118884325, "std_height": 0.0059536169283092022, "count_pixels": 42, "percent_cover": 0.48560527228581341, "percent_above_0.1m": 0.0, "low_level_<0.5": 0.0, "mid_level_0.5-2": 0.0, "tall_2+": 0.0 }, "geometry": { "type": "Point", "coordinates": [ 1.115255938942838, 52.571326016101324 ] } },
{ "type": "Feature", "properties": { "max_height": 0.02850341796875, "mean_height": 0.0056446618400514126, "std_height": 0.0074747679755091667, "count_pixels": 42, "percent_cover": 0.48560527228581341, "percent_above_0.1m": 0.0, "low_level_<0.5": 0.0, "mid_level_0.5-2": 0.0, "tall_2+": 0.0 }, "geometry": { "type": "Point", "coordinates": [ 1.115460083750873, 52.571320642017163 ] } },
{ "type": "Feature", "properties": { "max_height": 0.019756317138671875, "mean_height": 0.0046584131196141243, "std_height": 0.0058437874540686607, "count_pixels": 40, "percent_cover": 0.46248121170077461, "percent_above_0.1m": 0.0, "low_level_<0.5": 0.0, "mid_level_0.5-2": 0.0, "tall_2+": 0.0 }, "geometry": { "type": "Point", "coordinates": [ 1.115664228493724, 52.571315267581596 ] } },
{ "type": "Feature", "properties": { "max_height": 0.02625274658203125, "mean_height": 0.0066392896696925163, "std_height": 0.0068818195722997189, "count_pixels": 40, "percent_cover": 0.46248121170077461, "percent_above_0.1m": 0.0, "low_level_<0.5": 0.0, "mid_level_0.5-2": 0.0, "tall_2+": 0.0 }, "geometry": { "type": "Point", "coordinates": [ 1.115868373171403, 52.571309892794609 ] } },
{ "type": "Feature", "properties": { "max_height": 1.7872505187988281, "mean_height": 0.052126694470643997, "std_height": 0.27805957198143005, "count_pixels": 40, "percent_cover": 0.46248121170077461, "percent_above_0.1m": 2.5, "low_level_<0.5": 0.0, "mid_level_0.5-2": 2.5, "tall_2+": 0.0 }, "geometry": { "type": "Point", "coordinates": [ 1.116072517783898, 52.571304517656237 ] } },
{ "type": "Feature", "properties": { "max_height": 0.02225494384765625, "mean_height": 0.007564258761703968, "std_height": 0.0061369119212031364, "count_pixels": 40, "percent_cover": 0.46248121170077461, "percent_above_0.1m": 0.0, "low_level_<0.5": 0.0, "mid_level_0.5-2": 0.0, "tall_2+": 0.0 }, "geometry": { "type": "Point", "coordinates": [ 1.1162766623312, 52.571299142166438 ] } },
{ "type": "Feature", "properties": { "max_height": 5.4680023193359375, "mean_height": 1.6130073070526123, "std_height": 1.5685409307479858, "count_pixels": 42, "percent_cover": 0.48560527228581341, "percent_above_0.1m": 80.952380952380949, "low_level_<0.5": 7.1428571428571423, "mid_level_0.5-2": 38.095238095238095, "tall_2+": 30.952380952380953 }, "geometry": { "type": "Point", "coordinates": [ 1.116480806813314, 52.571293766325219 ] } },
{ "type": "Feature", "properties": { "max_height": 8.8707504272460938, "mean_height": 3.1764769554138184, "std_height": 3.0502007007598877, "count_pixels": 40, "percent_cover": 0.46248121170077461, "percent_above_0.1m": 77.5, "low_level_<0.5": 2.5, "mid_level_0.5-2": 22.5, "tall_2+": 50.0 }, "geometry": { "type": "Point", "coordinates": [ 1.114344924078959, 52.571457914350624 ] } },
{ "type": "Feature", "properties": { "max_height": 7.5747489929199219, "mean_height": 1.0194895267486572, "std_height": 2.223984956741333, "count_pixels": 40, "percent_cover": 0.46248121170077461, "percent_above_0.1m": 22.5, "low_level_<0.5": 0.0, "mid_level_0.5-2": 5.0, "tall_2+": 17.5 }, "geometry": { "type": "Point", "coordinates": [ 1.114549069389771, 52.571452541978111 ] } },
{ "type": "Feature", "properties": { "max_height": 0.015254974365234375, "mean_height": 0.0026956559158861637, "std_height": 0.0049490882083773613, "count_pixels": 40, "percent_cover": 0.46248121170077461, "percent_above_0.1m": 0.0, "low_level_<0.5": 0.0, "mid_level_0.5-2": 0.0, "tall_2+": 0.0 }, "geometry": { "type": "Point", "coordinates": [ 1.114753214635425, 52.571447169254171 ] } },
{ "type": "Feature", "properties": { "max_height": 9.3160018920898438, "mean_height": 0.25806844234466553, "std_height": 1.4410843849182129, "count_pixels": 41, "percent_cover": 0.47404324199329401, "percent_above_0.1m": 4.8780487804878048, "low_level_<0.5": 0.0, "mid_level_0.5-2": 2.4390243902439024, "tall_2+": 2.4390243902439024 }, "geometry": { "type": "Point", "coordinates": [ 1.114957359932707, 52.571441796124645 ] } },
{ "type": "Feature", "properties": { "max_height": 0.017002105712890625, "mean_height": 0.0048002516850829124, "std_height": 0.0047614206559956074, "count_pixels": 42, "percent_cover": 0.48560527228581341, "percent_above_0.1m": 0.0, "low_level_<0.5": 0.0, "mid_level_0.5-2": 0.0, "tall_2+": 0.0 }, "geometry": { "type": "Point", "coordinates": [ 1.11516150531859, 52.571436422551201 ] } },
{ "type": "Feature", "properties": { "max_height": 0.017253875732421875, "mean_height": 0.0038887206465005875, "std_height": 0.0048154699616134167, "count_pixels": 42, "percent_cover": 0.48560527228581341, "percent_above_0.1m": 0.0, "low_level_<0.5": 0.0, "mid_level_0.5-2": 0.0, "tall_2+": 0.0 }, "geometry": { "type": "Point", "coordinates": [ 1.11536565066361, 52.571431048620155 ] } },
{ "type": "Feature", "properties": { "max_height": 0.018253326416015625, "mean_height": 0.003638767171651125, "std_height": 0.0047820848412811756, "count_pixels": 42, "percent_cover": 0.48560527228581341, "percent_above_0.1m": 0.0, "low_level_<0.5": 0.0, "mid_level_0.5-2": 0.0, "tall_2+": 0.0 }, "geometry": { "type": "Point", "coordinates": [ 1.115569795943451, 52.571425674337668 ] } },
{ "type": "Feature", "properties": { "max_height": 0.019500732421875, "mean_height": 0.0035074406769126654, "std_height": 0.0046968981623649597, "count_pixels": 44, "percent_cover": 0.50872933287085209, "percent_above_0.1m": 0.0, "low_level_<0.5": 0.0, "mid_level_0.5-2": 0.0, "tall_2+": 0.0 }, "geometry": { "type": "Point", "coordinates": [ 1.115773941158119, 52.571420299703782 ] } },
{ "type": "Feature", "properties": { "max_height": 1.582000732421875, "mean_height": 0.10165176540613174, "std_height": 0.30004850029945374, "count_pixels": 40, "percent_cover": 0.46248121170077461, "percent_above_0.1m": 15.0, "low_level_<0.5": 7.5, "mid_level_0.5-2": 7.5, "tall_2+": 0.0 }, "geometry": { "type": "Point", "coordinates": [ 1.1159780863076, 52.571414924718489 ] } },
{ "type": "Feature", "properties": { "max_height": 0.023998260498046875, "mean_height": 0.0065474077127873898, "std_height": 0.0058237756602466106, "count_pixels": 44, "percent_cover": 0.50872933287085209, "percent_above_0.1m": 0.0, "low_level_<0.5": 0.0, "mid_level_0.5-2": 0.0, "tall_2+": 0.0 }, "geometry": { "type": "Point", "coordinates": [ 1.116182231391899, 52.571409549381777 ] } },
{ "type": "Feature", "properties": { "max_height": 3.833251953125, "mean_height": 0.84027570486068726, "std_height": 1.1218210458755493, "count_pixels": 42, "percent_cover": 0.48560527228581341, "percent_above_0.1m": 50.0, "low_level_<0.5": 4.7619047619047619, "mid_level_0.5-2": 21.428571428571427, "tall_2+": 19.047619047619047 }, "geometry": { "type": "Point", "coordinates": [ 1.116386376411, 52.571404173693658 ] } },
{ "type": "Feature", "properties": { "max_height": 8.0770034790039062, "mean_height": 2.0961804389953613, "std_height": 2.2174532413482666, "count_pixels": 42, "percent_cover": 0.48560527228581341, "percent_above_0.1m": 85.714285714285708, "low_level_<0.5": 21.428571428571427, "mid_level_0.5-2": 23.809523809523807, "tall_2+": 40.476190476190474 }, "geometry": { "type": "Point", "coordinates": [ 1.114250487971257, 52.571568320049266 ] } },
{ "type": "Feature", "properties": { "max_height": 8.4657554626464844, "mean_height": 4.3352856636047363, "std_height": 2.6896152496337891, "count_pixels": 44, "percent_cover": 0.50872933287085209, "percent_above_0.1m": 90.909090909090907, "low_level_<0.5": 0.0, "mid_level_0.5-2": 11.363636363636363, "tall_2+": 79.545454545454547 }, "geometry": { "type": "Point", "coordinates": [ 1.114454633819087, 52.571562947829854 ] } },
{ "type": "Feature", "properties": { "max_height": 7.6820030212402344, "mean_height": 0.80393922328948975, "std_height": 1.9187042713165283, "count_pixels": 40, "percent_cover": 0.46248121170077461, "percent_above_0.1m": 30.0, "low_level_<0.5": 7.5, "mid_level_0.5-2": 7.5, "tall_2+": 12.5 }, "geometry": { "type": "Point", "coordinates": [ 1.114658779601755, 52.571557575259021 ] } },
{ "type": "Feature", "properties": { "max_height": 12.235248565673828, "mean_height": 5.1338329315185547, "std_height": 4.5642900466918945, "count_pixels": 43, "percent_cover": 0.4971673025783328, "percent_above_0.1m": 65.116279069767444, "low_level_<0.5": 0.0, "mid_level_0.5-2": 4.6511627906976747, "tall_2+": 60.465116279069761 }, "geometry": { "type": "Point", "coordinates": [ 1.114862925365536, 52.571552202324668 ] } },
{ "type": "Feature", "properties": { "max_height": 12.077754974365234, "mean_height": 2.389495849609375, "std_height": 3.7506165504455566, "count_pixels": 42, "percent_cover": 0.48560527228581341, "percent_above_0.1m": 40.476190476190474, "low_level_<0.5": 2.3809523809523809, "mid_level_0.5-2": 2.3809523809523809, "tall_2+": 35.714285714285715 }, "geometry": { "type": "Point", "coordinates": [ 1.115067071222545, 52.571546828932973 ] } },
{ "type": "Feature", "properties": { "max_height": 0.22500228881835938, "mean_height": 0.0084779830649495125, "std_height": 0.034021615982055664, "count_pixels": 42, "percent_cover": 0.48560527228581341, "percent_above_0.1m": 2.3809523809523809, "low_level_<0.5": 2.3809523809523809, "mid_level_0.5-2": 0.0, "tall_2+": 0.0 }, "geometry": { "type": "Point", "coordinates": [ 1.115271217104548, 52.571541455155021 ] } },
{ "type": "Feature", "properties": { "max_height": 0.022998809814453125, "mean_height": 0.0048532029613852501, "std_height": 0.0053780274465680122, "count_pixels": 42, "percent_cover": 0.48560527228581341, "percent_above_0.1m": 0.0, "low_level_<0.5": 0.0, "mid_level_0.5-2": 0.0, "tall_2+": 0.0 }, "geometry": { "type": "Point", "coordinates": [ 1.115475362921381, 52.571536081025634 ] } },
{ "type": "Feature", "properties": { "max_height": 0.01399993896484375, "mean_height": 0.0030515671242028475, "std_height": 0.004429907537996769, "count_pixels": 40, "percent_cover": 0.46248121170077461, "percent_above_0.1m": 0.0, "low_level_<0.5": 0.0, "mid_level_0.5-2": 0.0, "tall_2+": 0.0 }, "geometry": { "type": "Point", "coordinates": [ 1.11567950867304, 52.571530706544834 ] } },
{ "type": "Feature", "properties": { "max_height": 0.019500732421875, "mean_height": 0.0032705306075513363, "std_height": 0.0049991379491984844, "count_pixels": 40, "percent_cover": 0.46248121170077461, "percent_above_0.1m": 0.0, "low_level_<0.5": 0.0, "mid_level_0.5-2": 0.0, "tall_2+": 0.0 }, "geometry": { "type": "Point", "coordinates": [ 1.115883654359516, 52.571525331712635 ] } },
{ "type": "Feature", "properties": { "max_height": 0.0187530517578125, "mean_height": 0.0038209916092455387, "std_height": 0.0055076819844543934, "count_pixels": 40, "percent_cover": 0.46248121170077461, "percent_above_0.1m": 0.0, "low_level_<0.5": 0.0, "mid_level_0.5-2": 0.0, "tall_2+": 0.0 }, "geometry": { "type": "Point", "coordinates": [ 1.116087799980806, 52.571519956529023 ] } },
{ "type": "Feature", "properties": { "max_height": 5.5780029296875, "mean_height": 0.50043916702270508, "std_height": 1.327912449836731, "count_pixels": 40, "percent_cover": 0.46248121170077461, "percent_above_0.1m": 17.5, "low_level_<0.5": 0.0, "mid_level_0.5-2": 5.0, "tall_2+": 10.0 }, "geometry": { "type": "Point", "coordinates": [ 1.116291945536904, 52.571514580993977 ] } },
{ "type": "Feature", "properties": { "max_height": 4.1365013122558594, "mean_height": 0.25220221281051636, "std_height": 0.7578776478767395, "count_pixels": 40, "percent_cover": 0.46248121170077461, "percent_above_0.1m": 15.0, "low_level_<0.5": 2.5, "mid_level_0.5-2": 10.0, "tall_2+": 2.5 }, "geometry": { "type": "Point", "coordinates": [ 1.114768490350779, 52.5716626084266 ] } },
{ "type": "Feature", "properties": { "max_height": 9.2725028991699219, "mean_height": 0.83259963989257812, "std_height": 2.0369410514831543, "count_pixels": 41, "percent_cover": 0.47404324199329401, "percent_above_0.1m": 39.024390243902438, "low_level_<0.5": 17.073170731707318, "mid_level_0.5-2": 7.3170731707317067, "tall_2+": 12.195121951219512 }, "geometry": { "type": "Point", "coordinates": [ 1.114972636669005, 52.571657235243102 ] } },
{ "type": "Feature", "properties": { "max_height": 0.15200424194335938, "mean_height": 0.0102397371083498, "std_height": 0.028924824669957161, "count_pixels": 42, "percent_cover": 0.48560527228581341, "percent_above_0.1m": 4.7619047619047619, "low_level_<0.5": 2.3809523809523809, "mid_level_0.5-2": 0.0, "tall_2+": 0.0 }, "geometry": { "type": "Point", "coordinates": [ 1.115176783073684, 52.57165186162176 ] } },
{ "type": "Feature", "properties": { "max_height": 0.76124954223632812, "mean_height": 0.046609062701463699, "std_height": 0.15888693928718567, "count_pixels": 42, "percent_cover": 0.48560527228581341, "percent_above_0.1m": 7.1428571428571423, "low_level_<0.5": 2.3809523809523809, "mid_level_0.5-2": 4.7619047619047619, "tall_2+": 0.0 }, "geometry": { "type": "Point", "coordinates": [ 1.115380929427515, 52.571646487645474 ] } },
{ "type": "Feature", "properties": { "max_height": 0.0175018310546875, "mean_height": 0.0041630156338214874, "std_height": 0.0060808155685663223, "count_pixels": 42, "percent_cover": 0.48560527228581341, "percent_above_0.1m": 0.0, "low_level_<0.5": 0.0, "mid_level_0.5-2": 0.0, "tall_2+": 0.0 }, "geometry": { "type": "Point", "coordinates": [ 1.115585075716162, 52.571641113317774 ] } },
{ "type": "Feature", "properties": { "max_height": 0.059253692626953125, "mean_height": 0.0055189132690429688, "std_height": 0.0096343550831079483, "count_pixels": 44, "percent_cover": 0.50872933287085209, "percent_above_0.1m": 0.0, "low_level_<0.5": 0.0, "mid_level_0.5-2": 0.0, "tall_2+": 0.0 }, "geometry": { "type": "Point", "coordinates": [ 1.115789221939635, 52.571635738638662 ] } },
{ "type": "Feature", "properties": { "max_height": 0.01525115966796875, "mean_height": 0.0044760704040527344, "std_height": 0.0045592384412884712, "count_pixels": 40, "percent_cover": 0.46248121170077461, "percent_above_0.1m": 0.0, "low_level_<0.5": 0.0, "mid_level_0.5-2": 0.0, "tall_2+": 0.0 }, "geometry": { "type": "Point", "coordinates": [ 1.115993368097924, 52.571630363608136 ] } },
{ "type": "Feature", "properties": { "max_height": 0.019504547119140625, "mean_height": 0.004325606394559145, "std_height": 0.0045698578469455242, "count_pixels": 44, "percent_cover": 0.50872933287085209, "percent_above_0.1m": 0.0, "low_level_<0.5": 0.0, "mid_level_0.5-2": 0.0, "tall_2+": 0.0 }, "geometry": { "type": "Point", "coordinates": [ 1.116197514191023, 52.571624988226176 ] } },
{ "type": "Feature", "properties": { "max_height": 14.871002197265625, "mean_height": 6.1732168197631836, "std_height": 5.301081657409668, "count_pixels": 42, "percent_cover": 0.48560527228581341, "percent_above_0.1m": 80.952380952380949, "low_level_<0.5": 2.3809523809523809, "mid_level_0.5-2": 7.1428571428571423, "tall_2+": 71.428571428571431 }, "geometry": { "type": "Point", "coordinates": [ 1.11640166021893, 52.571619612492825 ] } },
{ "type": "Feature", "properties": { "max_height": 3.8935012817382812, "mean_height": 0.52727651596069336, "std_height": 1.0145349502563477, "count_pixels": 40, "percent_cover": 0.46248121170077461, "percent_above_0.1m": 37.5, "low_level_<0.5": 12.5, "mid_level_0.5-2": 15.0, "tall_2+": 10.0 }, "geometry": { "type": "Point", "coordinates": [ 1.114674054910451, 52.571773014448297 ] } },
{ "type": "Feature", "properties": { "max_height": 4.9225006103515625, "mean_height": 0.33848473429679871, "std_height": 0.99569034576416016, "count_pixels": 43, "percent_cover": 0.4971673025783328, "percent_above_0.1m": 16.279069767441861, "low_level_<0.5": 4.6511627906976747, "mid_level_0.5-2": 2.3255813953488373, "tall_2+": 9.3023255813953494 }, "geometry": { "type": "Point", "coordinates": [ 1.11487820169308, 52.571767641466067 ] } },
{ "type": "Feature", "properties": { "max_height": 8.3050003051757812, "mean_height": 3.0790431499481201, "std_height": 2.9061965942382812, "count_pixels": 42, "percent_cover": 0.48560527228581341, "percent_above_0.1m": 80.952380952380949, "low_level_<0.5": 7.1428571428571423, "mid_level_0.5-2": 23.809523809523807, "tall_2+": 47.619047619047613 }, "geometry": { "type": "Point", "coordinates": [ 1.115082348571017, 52.571762268020379 ] } },
{ "type": "Feature", "properties": { "max_height": 14.707004547119141, "mean_height": 5.4725432395935059, "std_height": 5.6530447006225586, "count_pixels": 42, "percent_cover": 0.48560527228581341, "percent_above_0.1m": 69.047619047619051, "low_level_<0.5": 11.904761904761903, "mid_level_0.5-2": 2.3809523809523809, "tall_2+": 52.380952380952387 }, "geometry": { "type": "Point", "coordinates": [ 1.11528649546184, 52.571756894197186 ] } },
{ "type": "Feature", "properties": { "max_height": 12.994754791259766, "mean_height": 2.2010142803192139, "std_height": 3.7834982872009277, "count_pixels": 42, "percent_cover": 0.48560527228581341, "percent_above_0.1m": 47.619047619047613, "low_level_<0.5": 4.7619047619047619, "mid_level_0.5-2": 14.285714285714285, "tall_2+": 28.571428571428569 }, "geometry": { "type": "Point", "coordinates": [ 1.115490642287489, 52.57175152002258 ] } },
{ "type": "Feature", "properties": { "max_height": 8.5602493286132812, "mean_height": 1.4482704401016235, "std_height": 2.7532608509063721, "count_pixels": 40, "percent_cover": 0.46248121170077461, "percent_above_0.1m": 42.5, "low_level_<0.5": 2.5, "mid_level_0.5-2": 7.5, "tall_2+": 22.5 }, "geometry": { "type": "Point", "coordinates": [ 1.115694789047955, 52.571746145496562 ] } },
{ "type": "Feature", "properties": { "max_height": 11.146999359130859, "mean_height": 1.0544393062591553, "std_height": 2.6316370964050293, "count_pixels": 40, "percent_cover": 0.46248121170077461, "percent_above_0.1m": 22.5, "low_level_<0.5": 2.5, "mid_level_0.5-2": 5.0, "tall_2+": 15.0 }, "geometry": { "type": "Point", "coordinates": [ 1.115898935743245, 52.571740770619122 ] } },
{ "type": "Feature", "properties": { "max_height": 0.0110015869140625, "mean_height": 0.0025460242759436369, "std_height": 0.003402946051210165, "count_pixels": 40, "percent_cover": 0.46248121170077461, "percent_above_0.1m": 0.0, "low_level_<0.5": 0.0, "mid_level_0.5-2": 0.0, "tall_2+": 0.0 }, "geometry": { "type": "Point", "coordinates": [ 1.116103082373344, 52.57173539539027 ] } },
{ "type": "Feature", "properties": { "max_height": 10.820755004882812, "mean_height": 5.0932831764221191, "std_height": 3.9449520111083984, "count_pixels": 40, "percent_cover": 0.46248121170077461, "percent_above_0.1m": 80.0, "low_level_<0.5": 5.0, "mid_level_0.5-2": 10.0, "tall_2+": 65.0 }, "geometry": { "type": "Point", "coordinates": [ 1.116307228938256, 52.571730019809991 ] } },
{ "type": "Feature", "properties": { "max_height": 11.402252197265625, "mean_height": 2.9990077018737793, "std_height": 3.4140250682830811, "count_pixels": 40, "percent_cover": 0.46248121170077461, "percent_above_0.1m": 67.5, "low_level_<0.5": 0.0, "mid_level_0.5-2": 22.5, "tall_2+": 45.0 }, "geometry": { "type": "Point", "coordinates": [ 1.114783766261689, 52.571878047587525 ] } },
{ "type": "Feature", "properties": { "max_height": 7.0337486267089844, "mean_height": 2.4988796710968018, "std_height": 2.0693576335906982, "count_pixels": 41, "percent_cover": 0.47404324199329401, "percent_above_0.1m": 82.926829268292678, "low_level_<0.5": 14.634146341463413, "mid_level_0.5-2": 9.7560975609756095, "tall_2+": 58.536585365853654 }, "geometry": { "type": "Point", "coordinates": [ 1.114987913600872, 52.571872674350018 ] } },
{ "type": "Feature", "properties": { "max_height": 8.0885009765625, "mean_height": 1.5518413782119751, "std_height": 1.9341686964035034, "count_pixels": 42, "percent_cover": 0.48560527228581341, "percent_above_0.1m": 66.666666666666657, "low_level_<0.5": 11.904761904761903, "mid_level_0.5-2": 28.571428571428569, "tall_2+": 26.190476190476193 }, "geometry": { "type": "Point", "coordinates": [ 1.115192061024357, 52.571867300680793 ] } },
{ "type": "Feature", "properties": { "max_height": 15.010753631591797, "mean_height": 5.3073234558105469, "std_height": 5.6822967529296875, "count_pixels": 42, "percent_cover": 0.48560527228581341, "percent_above_0.1m": 78.571428571428569, "low_level_<0.5": 11.904761904761903, "mid_level_0.5-2": 11.904761904761903, "tall_2+": 52.380952380952387 }, "geometry": { "type": "Point", "coordinates": [ 1.115396208387005, 52.571861926659274 ] } },
{ "type": "Feature", "properties": { "max_height": 11.271999359130859, "mean_height": 2.256049633026123, "std_height": 3.2366814613342285, "count_pixels": 42, "percent_cover": 0.48560527228581341, "percent_above_0.1m": 76.19047619047619, "low_level_<0.5": 14.285714285714285, "mid_level_0.5-2": 30.952380952380953, "tall_2+": 28.571428571428569 }, "geometry": { "type": "Point", "coordinates": [ 1.115600355684473, 52.571856552286349 ] } },
{ "type": "Feature", "properties": { "max_height": 13.9375, "mean_height": 10.6339111328125, "std_height": 2.5335667133331299, "count_pixels": 44, "percent_cover": 0.50872933287085209, "percent_above_0.1m": 100.0, "low_level_<0.5": 0.0, "mid_level_0.5-2": 0.0, "tall_2+": 100.0 }, "geometry": { "type": "Point", "coordinates": [ 1.115804502916766, 52.571851177562003 ] } },
{ "type": "Feature", "properties": { "max_height": 12.826251983642578, "mean_height": 6.7513084411621094, "std_height": 3.8389692306518555, "count_pixels": 40, "percent_cover": 0.46248121170077461, "percent_above_0.1m": 92.5, "low_level_<0.5": 5.0, "mid_level_0.5-2": 5.0, "tall_2+": 80.0 }, "geometry": { "type": "Point", "coordinates": [ 1.116008650083868, 52.571845802486237 ] } },
{ "type": "Feature", "properties": { "max_height": 12.171253204345703, "mean_height": 2.706939697265625, "std_height": 4.0914144515991211, "count_pixels": 44, "percent_cover": 0.50872933287085209, "percent_above_0.1m": 50.0, "low_level_<0.5": 9.0909090909090917, "mid_level_0.5-2": 4.5454545454545459, "tall_2+": 31.818181818181817 }, "geometry": { "type": "Point", "coordinates": [ 1.116212797185788, 52.571840427059058 ] } },
{ "type": "Feature", "properties": { "max_height": 6.80450439453125, "mean_height": 2.1306643486022949, "std_height": 2.0924360752105713, "count_pixels": 40, "percent_cover": 0.46248121170077461, "percent_above_0.1m": 82.5, "low_level_<0.5": 10.0, "mid_level_0.5-2": 30.0, "tall_2+": 40.0 }, "geometry": { "type": "Point", "coordinates": [ 1.115914217322595, 52.571956209514084 ] } },
{ "type": "Feature", "properties": { "max_height": 11.233005523681641, "mean_height": 2.9474644660949707, "std_height": 3.0115184783935547, "count_pixels": 40, "percent_cover": 0.46248121170077461, "percent_above_0.1m": 77.5, "low_level_<0.5": 10.0, "mid_level_0.5-2": 15.0, "tall_2+": 52.5 }, "geometry": { "type": "Point", "coordinates": [ 1.116118364961517, 52.571950834240013 ] } }
]
}
