{
"type": "FeatureCollection",
"name": "e1e9e39825ce_visibility",
"crs": { "type": "name", "properties": { "name": "urn:ogc:def:crs:OGC:1.3:CRS84" } },
"features": [
{ "type": "Feature", "properties": { "visible_points": 8, "total_points": 53, "visibility_pct": 15.09433962264151 }, "geometry": { "type": "Point", "coordinates": [ 1.472877258811201, 52.535520453423551 ] } },
{ "type": "Feature", "properties": { "visible_points": 14, "total_points": 54, "visibility_pct": 25.925925925925924 }, "geometry": { "type": "Point", "coordinates": [ 1.47308116228315, 52.535514465261663 ] } },
{ "type": "Feature", "properties": { "visible_points": 11, "total_points": 53, "visibility_pct": 20.754716981132077 }, "geometry": { "type": "Point", "coordinates": [ 1.473285065683157, 52.535508476749122 ] } },
{ "type": "Feature", "properties": { "visible_points": 11, "total_points": 60, "visibility_pct": 18.333333333333332 }, "geometry": { "type": "Point", "coordinates": [ 1.472783808726279, 52.535631129272055 ] } },
{ "type": "Feature", "properties": { "visible_points": 13, "total_points": 62, "visibility_pct": 20.967741935483872 }, "geometry": { "type": "Point", "coordinates": [ 1.472987712732226, 52.535625141261299 ] } },
{ "type": "Feature", "properties": { "visible_points": 14, "total_points": 61, "visibility_pct": 22.950819672131146 }, "geometry": { "type": "Point", "coordinates": [ 1.473191616666216, 52.535619152899869 ] } },
{ "type": "Feature", "properties": { "visible_points": 5, "total_points": 66, "visibility_pct": 7.5757575757575761 }, "geometry": { "type": "Point", "coordinates": [ 1.472690358179342, 52.535741805054094 ] } },
{ "type": "Feature", "properties": { "visible_points": 17, "total_points": 69, "visibility_pct": 24.637681159420293 }, "geometry": { "type": "Point", "coordinates": [ 1.472894262719281, 52.535735817194457 ] } },
{ "type": "Feature", "properties": { "visible_points": 17, "total_points": 70, "visibility_pct": 24.285714285714285 }, "geometry": { "type": "Point", "coordinates": [ 1.473098167187259, 52.535729828984152 ] } },
{ "type": "Feature", "properties": { "visible_points": 11, "total_points": 68, "visibility_pct": 16.176470588235293 }, "geometry": { "type": "Point", "coordinates": [ 1.473302071583296, 52.535723840423138 ] } },
{ "type": "Feature", "properties": { "visible_points": 17, "total_points": 76, "visibility_pct": 22.368421052631579 }, "geometry": { "type": "Point", "coordinates": [ 1.472800812244312, 52.535846493061122 ] } },
{ "type": "Feature", "properties": { "visible_points": 16, "total_points": 78, "visibility_pct": 20.512820512820511 }, "geometry": { "type": "Point", "coordinates": [ 1.473004717246293, 52.535840505001943 ] } },
{ "type": "Feature", "properties": { "visible_points": 17, "total_points": 77, "visibility_pct": 22.077922077922079 }, "geometry": { "type": "Point", "coordinates": [ 1.473208622176321, 52.535834516592054 ] } },
{ "type": "Feature", "properties": { "visible_points": 12, "total_points": 73, "visibility_pct": 16.43835616438356 }, "geometry": { "type": "Point", "coordinates": [ 1.473412527034386, 52.535828527831512 ] } },
{ "type": "Feature", "properties": { "visible_points": 12, "total_points": 76, "visibility_pct": 15.789473684210526 }, "geometry": { "type": "Point", "coordinates": [ 1.472707361307323, 52.535957168861337 ] } },
{ "type": "Feature", "properties": { "visible_points": 16, "total_points": 80, "visibility_pct": 20.0 }, "geometry": { "type": "Point", "coordinates": [ 1.472911266843299, 52.535951180953276 ] } },
{ "type": "Feature", "properties": { "visible_points": 18, "total_points": 80, "visibility_pct": 22.5 }, "geometry": { "type": "Point", "coordinates": [ 1.473115172307326, 52.53594519269452 ] } },
{ "type": "Feature", "properties": { "visible_points": 17, "total_points": 78, "visibility_pct": 21.794871794871796 }, "geometry": { "type": "Point", "coordinates": [ 1.473319077699396, 52.535939204085089 ] } },
{ "type": "Feature", "properties": { "visible_points": 13, "total_points": 71, "visibility_pct": 18.30985915492958 }, "geometry": { "type": "Point", "coordinates": [ 1.473522983019504, 52.535933215124956 ] } },
{ "type": "Feature", "properties": { "visible_points": 12, "total_points": 67, "visibility_pct": 17.910447761194028 }, "geometry": { "type": "Point", "coordinates": [ 1.4726139099083, 52.536067844595088 ] } },
{ "type": "Feature", "properties": { "visible_points": 14, "total_points": 76, "visibility_pct": 18.421052631578945 }, "geometry": { "type": "Point", "coordinates": [ 1.472817815978281, 52.536061856838124 ] } },
{ "type": "Feature", "properties": { "visible_points": 18, "total_points": 77, "visibility_pct": 23.376623376623375 }, "geometry": { "type": "Point", "coordinates": [ 1.473021721976311, 52.5360558687305 ] } },
{ "type": "Feature", "properties": { "visible_points": 18, "total_points": 76, "visibility_pct": 23.684210526315788 }, "geometry": { "type": "Point", "coordinates": [ 1.473225627902382, 52.536049880272181 ] } },
{ "type": "Feature", "properties": { "visible_points": 15, "total_points": 72, "visibility_pct": 20.833333333333336 }, "geometry": { "type": "Point", "coordinates": [ 1.473429533756496, 52.536043891463187 ] } },
{ "type": "Feature", "properties": { "visible_points": 14, "total_points": 67, "visibility_pct": 20.8955223880597 }, "geometry": { "type": "Point", "coordinates": [ 1.472724364651232, 52.536172532656508 ] } },
{ "type": "Feature", "properties": { "visible_points": 16, "total_points": 71, "visibility_pct": 22.535211267605636 }, "geometry": { "type": "Point", "coordinates": [ 1.472928271183267, 52.536166544700009 ] } },
{ "type": "Feature", "properties": { "visible_points": 15, "total_points": 71, "visibility_pct": 21.12676056338028 }, "geometry": { "type": "Point", "coordinates": [ 1.473132177643344, 52.536160556392822 ] } },
{ "type": "Feature", "properties": { "visible_points": 11, "total_points": 70, "visibility_pct": 15.714285714285714 }, "geometry": { "type": "Point", "coordinates": [ 1.473336084031467, 52.536154567734954 ] } },
{ "type": "Feature", "properties": { "visible_points": 7, "total_points": 63, "visibility_pct": 11.111111111111111 }, "geometry": { "type": "Point", "coordinates": [ 1.473539990347623, 52.536148578726383 ] } },
{ "type": "Feature", "properties": { "visible_points": 15, "total_points": 56, "visibility_pct": 26.785714285714285 }, "geometry": { "type": "Point", "coordinates": [ 1.472630912862148, 52.536283208408413 ] } },
{ "type": "Feature", "properties": { "visible_points": 15, "total_points": 62, "visibility_pct": 24.193548387096776 }, "geometry": { "type": "Point", "coordinates": [ 1.472834819928188, 52.536277220603054 ] } },
{ "type": "Feature", "properties": { "visible_points": 11, "total_points": 65, "visibility_pct": 16.923076923076923 }, "geometry": { "type": "Point", "coordinates": [ 1.47303872692228, 52.536271232446992 ] } },
{ "type": "Feature", "properties": { "visible_points": 11, "total_points": 65, "visibility_pct": 16.923076923076923 }, "geometry": { "type": "Point", "coordinates": [ 1.473242633844411, 52.536265243940228 ] } },
{ "type": "Feature", "properties": { "visible_points": 9, "total_points": 62, "visibility_pct": 14.516129032258066 }, "geometry": { "type": "Point", "coordinates": [ 1.473446540694579, 52.536259255082797 ] } },
{ "type": "Feature", "properties": { "visible_points": 0, "total_points": 53, "visibility_pct": 0.0 }, "geometry": { "type": "Point", "coordinates": [ 1.472741368211076, 52.536387896439599 ] } },
{ "type": "Feature", "properties": { "visible_points": 0, "total_points": 57, "visibility_pct": 0.0 }, "geometry": { "type": "Point", "coordinates": [ 1.472945275739179, 52.536381908434663 ] } },
{ "type": "Feature", "properties": { "visible_points": 0, "total_points": 58, "visibility_pct": 0.0 }, "geometry": { "type": "Point", "coordinates": [ 1.473149183195323, 52.536375920079053 ] } },
{ "type": "Feature", "properties": { "visible_points": 4, "total_points": 57, "visibility_pct": 7.0175438596491224 }, "geometry": { "type": "Point", "coordinates": [ 1.473353090579509, 52.536369931372725 ] } }
]
}
