{
"type": "FeatureCollection",
"name": "HERTS_35_cycling",
"crs": { "type": "name", "properties": { "name": "urn:ogc:def:crs:OGC:1.3:CRS84" } },
"features": [
{"type":"Feature","properties":{"highway":"cycleway","name":null,"category":"Dedicated cycleway"},"geometry":{"type":"MultiLineString","coordinates":[[[-0.3895705,51.6554876],[-0.3895856,51.6557314],[-0.3897444,51.6568591]]]}},
{"type":"Feature","properties":{"highway":"path","name":null,"category":"Shared path"},"geometry":{"type":"MultiLineString","coordinates":[[[-0.3858175,51.6520304],[-0.3858945,51.6521494],[-0.385955,51.6522401],[-0.3860056,51.6523205],[-0.3860953,51.6524469],[-0.3861791,51.6525737],[-0.3862335,51.6526561],[-0.3862811,51.6527273],[-0.3863655,51.6528638],[-0.3864544,51.652988],[-0.3865495,51.6531253],[-0.3866535,51.6532534],[-0.3867435,51.6533389],[-0.3868569,51.6534508],[-0.3869269,51.6535134],[-0.386922,51.6535598],[-0.3869087,51.6536372]]]}},
{"type":"Feature","properties":{"highway":"path","name":null,"category":"Shared path"},"geometry":{"type":"MultiLineString","coordinates":[[[-0.3897692,51.6530861],[-0.389853,51.6530543],[-0.3900429,51.6529821]]]}},
{"type":"Feature","properties":{"highway":"path","name":null,"category":"Shared path"},"geometry":{"type":"MultiLineString","coordinates":[[[-0.3926232,51.6534364],[-0.3931073,51.6531543],[-0.3931761,51.6530485]]]}},
{"type":"Feature","properties":{"highway":"cycleway","name":null,"category":"Dedicated cycleway"},"geometry":{"type":"MultiLineString","coordinates":[[[-0.3915704,51.6530994],[-0.3914926,51.6529446],[-0.3914577,51.652898]]]}},
{"type":"Feature","properties":{"highway":"cycleway","name":null,"category":"Dedicated cycleway"},"geometry":{"type":"MultiLineString","coordinates":[[[-0.3917461,51.6530643],[-0.3917292,51.6530867],[-0.3916676,51.6530898],[-0.3915704,51.6530994]]]}},
{"type":"Feature","properties":{"highway":"cycleway","name":null,"category":"Dedicated cycleway"},"geometry":{"type":"MultiLineString","coordinates":[[[-0.3914577,51.652898],[-0.3912839,51.6527425]]]}},
{"type":"Feature","properties":{"highway":"cycleway","name":null,"category":"Dedicated cycleway"},"geometry":{"type":"MultiLineString","coordinates":[[[-0.3919647,51.6531375],[-0.3918732,51.6531065],[-0.3917996,51.6530844]]]}},
{"type":"Feature","properties":{"highway":"cycleway","name":"Colne Valley Cycle Route","category":"Dedicated cycleway"},"geometry":{"type":"MultiLineString","coordinates":[[[-0.3869896,51.6624174],[-0.3870114,51.6623729],[-0.386965,51.6622546],[-0.386809,51.6619627],[-0.3865813,51.6616148],[-0.386343,51.6612788],[-0.3861106,51.6609732],[-0.3860353,51.6608053],[-0.3860177,51.660418],[-0.3860327,51.660198],[-0.3860417,51.660139],[-0.3860646,51.6600451],[-0.3860962,51.6599643],[-0.3861476,51.6598593],[-0.3865358,51.6592002],[-0.3865699,51.6591298],[-0.3865868,51.6590935],[-0.3867857,51.6584336],[-0.3867967,51.6582571],[-0.3867991,51.6580475],[-0.3867689,51.657879],[-0.3867507,51.6577772],[-0.3867407,51.6576871],[-0.3867809,51.6576098],[-0.3869469,51.6573795],[-0.387041,51.6571248],[-0.3873721,51.6569237],[-0.387526,51.6568598],[-0.3877893,51.6567548],[-0.388004,51.6565393]]]}},
{"type":"Feature","properties":{"highway":"cycleway","name":"Colne Valley Cycle Route","category":"Dedicated cycleway"},"geometry":{"type":"MultiLineString","coordinates":[[[-0.3885031,51.6530348],[-0.3885268,51.6531698],[-0.3887104,51.6534942],[-0.3888627,51.6536953],[-0.3889798,51.6537925],[-0.3890515,51.6537766]]]}},
{"type":"Feature","properties":{"highway":"cycleway","name":"Colne Valley Cycle Route","category":"Dedicated cycleway"},"geometry":{"type":"MultiLineString","coordinates":[[[-0.3895705,51.6554876],[-0.389264,51.6547166],[-0.3892091,51.6545889],[-0.3890304,51.6542532],[-0.3890046,51.6541712],[-0.3889866,51.6540874],[-0.3889821,51.6540643]]]}},
{"type":"Feature","properties":{"highway":"path","name":null,"category":"Shared path"},"geometry":{"type":"MultiLineString","coordinates":[[[-0.3884785,51.6593642],[-0.3889581,51.6595576],[-0.3894169,51.6595814],[-0.3896291,51.6596756]]]}},
{"type":"Feature","properties":{"highway":"cycleway","name":null,"category":"Dedicated cycleway"},"geometry":{"type":"MultiLineString","coordinates":[[[-0.3895705,51.6554876],[-0.3895211,51.6549382],[-0.3894916,51.6548084],[-0.3894514,51.6546603]]]}},
{"type":"Feature","properties":{"highway":"cycleway","name":null,"category":"Dedicated cycleway"},"geometry":{"type":"MultiLineString","coordinates":[[[-0.3893799,51.6557234],[-0.3895856,51.6557314]]]}},
{"type":"Feature","properties":{"highway":"cycleway","name":"The Avenue","category":"Dedicated cycleway"},"geometry":{"type":"MultiLineString","coordinates":[[[-0.37509,51.6538516],[-0.3750918,51.6538088],[-0.3750891,51.6537846],[-0.3750794,51.6537626],[-0.3750477,51.6537325],[-0.374993,51.6536871],[-0.3744436,51.6533921],[-0.3735772,51.6529697],[-0.3723268,51.6523593],[-0.3710061,51.651741]]]}},
{"type":"Feature","properties":{"highway":"path","name":null,"category":"Shared path"},"geometry":{"type":"MultiLineString","coordinates":[[[-0.3897543,51.6569589],[-0.3877893,51.6567548]]]}},
{"type":"Feature","properties":{"highway":"cycleway","name":null,"category":"Dedicated cycleway"},"geometry":{"type":"MultiLineString","coordinates":[[[-0.3918882,51.6529345],[-0.3918372,51.6529567],[-0.3918176,51.6529767],[-0.3917736,51.6530268],[-0.3917605,51.6530417],[-0.3917461,51.6530643]]]}},
{"type":"Feature","properties":{"highway":"cycleway","name":null,"category":"Dedicated cycleway"},"geometry":{"type":"MultiLineString","coordinates":[[[-0.3758347,51.6541376],[-0.375758,51.6541392],[-0.3756218,51.6541421],[-0.3755459,51.6541438]]]}},
{"type":"Feature","properties":{"highway":"cycleway","name":null,"category":"Dedicated cycleway"},"geometry":{"type":"MultiLineString","coordinates":[[[-0.3753857,51.6541021],[-0.3753589,51.6540443],[-0.3753336,51.6539898],[-0.3753264,51.653961]]]}},
{"type":"Feature","properties":{"highway":"cycleway","name":null,"category":"Dedicated cycleway"},"geometry":{"type":"MultiLineString","coordinates":[[[-0.3753619,51.6538754],[-0.3753821,51.6538622],[-0.3754548,51.6538043],[-0.375487,51.6537778]]]}},
{"type":"Feature","properties":{"highway":"cycleway","name":null,"category":"Dedicated cycleway"},"geometry":{"type":"MultiLineString","coordinates":[[[-0.3757326,51.6537545],[-0.3758034,51.6537776],[-0.375899,51.6538087],[-0.3760347,51.653853]]]}},
{"type":"Feature","properties":{"highway":"cycleway","name":null,"category":"Dedicated cycleway"},"geometry":{"type":"MultiLineString","coordinates":[[[-0.3760527,51.6539053],[-0.3759966,51.6539801],[-0.3759275,51.6540721],[-0.3758832,51.6541312]]]}},
{"type":"Feature","properties":{"highway":"cycleway","name":null,"category":"Dedicated cycleway"},"geometry":{"type":"MultiLineString","coordinates":[[[-0.3752268,51.6538551],[-0.3751735,51.6538538],[-0.3751478,51.6538531]]]}},
{"type":"Feature","properties":{"highway":"cycleway","name":"Colne Valley Cycle Route","category":"Dedicated cycleway"},"geometry":{"type":"MultiLineString","coordinates":[[[-0.3848193,51.6655618],[-0.3847735,51.6655362],[-0.3847314,51.6654956],[-0.3846973,51.6654643],[-0.3847028,51.6654211],[-0.384736,51.6653934],[-0.3848224,51.6653656],[-0.3849272,51.6653345],[-0.385284,51.6652996],[-0.3854478,51.6652804],[-0.3855592,51.6652594],[-0.3856622,51.6652134],[-0.385913,51.6649202],[-0.3859399,51.6648301],[-0.3859167,51.6647292],[-0.3857316,51.6644581],[-0.3857119,51.6643134],[-0.3857233,51.6642403],[-0.3858025,51.6641797],[-0.386572,51.6639298],[-0.3867463,51.6637792],[-0.386903,51.6635265],[-0.3870108,51.663066],[-0.3869562,51.6626452],[-0.3869498,51.6625141],[-0.3869644,51.6624765]]]}},
{"type":"Feature","properties":{"highway":"cycleway","name":null,"category":"Dedicated cycleway"},"geometry":{"type":"MultiLineString","coordinates":[[[-0.3920087,51.6531486],[-0.3919647,51.6531375]]]}},
{"type":"Feature","properties":{"highway":"cycleway","name":null,"category":"Dedicated cycleway"},"geometry":{"type":"MultiLineString","coordinates":[[[-0.3917996,51.6530844],[-0.3917461,51.6530643]]]}},
{"type":"Feature","properties":{"highway":"cycleway","name":null,"category":"Dedicated cycleway"},"geometry":{"type":"MultiLineString","coordinates":[[[-0.3759796,51.653652],[-0.3760035,51.6537314]]]}},
{"type":"Feature","properties":{"highway":"cycleway","name":null,"category":"Dedicated cycleway"},"geometry":{"type":"MultiLineString","coordinates":[[[-0.3760035,51.6537314],[-0.3760204,51.6537558],[-0.3760347,51.653853],[-0.3760527,51.6539053],[-0.3760812,51.653969],[-0.3761051,51.6539942],[-0.3761526,51.654019]]]}},
{"type":"Feature","properties":{"highway":"cycleway","name":null,"category":"Dedicated cycleway"},"geometry":{"type":"MultiLineString","coordinates":[[[-0.3761526,51.654019],[-0.376199,51.6540815]]]}},
{"type":"Feature","properties":{"highway":"cycleway","name":null,"category":"Dedicated cycleway"},"geometry":{"type":"MultiLineString","coordinates":[[[-0.376199,51.6540815],[-0.3760797,51.654127]]]}},
{"type":"Feature","properties":{"highway":"cycleway","name":null,"category":"Dedicated cycleway"},"geometry":{"type":"MultiLineString","coordinates":[[[-0.3760797,51.654127],[-0.3759612,51.6541307],[-0.3758832,51.6541312],[-0.3758347,51.6541376],[-0.3757985,51.6541787],[-0.37575,51.6542604]]]}},
{"type":"Feature","properties":{"highway":"cycleway","name":null,"category":"Dedicated cycleway"},"geometry":{"type":"MultiLineString","coordinates":[[[-0.37575,51.6542604],[-0.3756528,51.6542796]]]}},
{"type":"Feature","properties":{"highway":"cycleway","name":null,"category":"Dedicated cycleway"},"geometry":{"type":"MultiLineString","coordinates":[[[-0.3755816,51.6544122],[-0.3755427,51.6543822]]]}},
{"type":"Feature","properties":{"highway":"cycleway","name":null,"category":"Dedicated cycleway"},"geometry":{"type":"MultiLineString","coordinates":[[[-0.3755427,51.6543822],[-0.3755917,51.6542773],[-0.3756004,51.6542457],[-0.3756004,51.6542187],[-0.3755876,51.6541916],[-0.3755695,51.6541683],[-0.3755459,51.6541438]]]}},
{"type":"Feature","properties":{"highway":"cycleway","name":"Aldenham Road","category":"Dedicated cycleway"},"geometry":{"type":"MultiLineString","coordinates":[[[-0.3753319,51.6540958],[-0.3753021,51.6540798],[-0.3752584,51.6540769],[-0.3752058,51.6540834],[-0.37511,51.6540617]]]}},
{"type":"Feature","properties":{"highway":"cycleway","name":null,"category":"Dedicated cycleway"},"geometry":{"type":"MultiLineString","coordinates":[[[-0.3753319,51.6540958],[-0.3753857,51.6541021],[-0.3754434,51.6541123],[-0.3755131,51.6541286],[-0.3755459,51.6541438]]]}},
{"type":"Feature","properties":{"highway":"cycleway","name":null,"category":"Dedicated cycleway"},"geometry":{"type":"MultiLineString","coordinates":[[[-0.375313,51.6539071],[-0.375256,51.6538594],[-0.3752268,51.6538551]]]}},
{"type":"Feature","properties":{"highway":"cycleway","name":null,"category":"Dedicated cycleway"},"geometry":{"type":"MultiLineString","coordinates":[[[-0.3751922,51.6537091],[-0.3753287,51.6537005]]]}},
{"type":"Feature","properties":{"highway":"cycleway","name":null,"category":"Dedicated cycleway"},"geometry":{"type":"MultiLineString","coordinates":[[[-0.3751983,51.6536341],[-0.3752427,51.6536543],[-0.3752861,51.6536742]]]}},
{"type":"Feature","properties":{"highway":"cycleway","name":null,"category":"Dedicated cycleway"},"geometry":{"type":"MultiLineString","coordinates":[[[-0.3752861,51.6536742],[-0.3753287,51.6537005],[-0.375487,51.6537778],[-0.3755297,51.6537819],[-0.3755912,51.6537806],[-0.3756486,51.6537767],[-0.3756935,51.6537675],[-0.3757326,51.6537545],[-0.3757804,51.6537368],[-0.3758247,51.6537123]]]}},
{"type":"Feature","properties":{"highway":"cycleway","name":null,"category":"Dedicated cycleway"},"geometry":{"type":"MultiLineString","coordinates":[[[-0.3758247,51.6537123],[-0.3759414,51.6536964]]]}},
{"type":"Feature","properties":{"highway":"cycleway","name":null,"category":"Dedicated cycleway"},"geometry":{"type":"MultiLineString","coordinates":[[[-0.3751478,51.6538531],[-0.37509,51.6538516]]]}},
{"type":"Feature","properties":{"highway":"cycleway","name":null,"category":"Dedicated cycleway"},"geometry":{"type":"MultiLineString","coordinates":[[[-0.375313,51.6539071],[-0.3753619,51.6538754]]]}},
{"type":"Feature","properties":{"highway":"cycleway","name":null,"category":"Dedicated cycleway"},"geometry":{"type":"MultiLineString","coordinates":[[[-0.3753264,51.653961],[-0.375313,51.6539071]]]}},
{"type":"Feature","properties":{"highway":"cycleway","name":"The Avenue","category":"Dedicated cycleway"},"geometry":{"type":"MultiLineString","coordinates":[[[-0.3749839,51.6540135],[-0.3750293,51.6539914],[-0.3750679,51.6539597],[-0.3750812,51.6539405],[-0.37509,51.6538516]]]}},
{"type":"Feature","properties":{"highway":"cycleway","name":null,"category":"Dedicated cycleway"},"geometry":{"type":"MultiLineString","coordinates":[[[-0.3769825,51.6623084],[-0.3769258,51.6623535],[-0.3768507,51.6623654],[-0.3767669,51.6623499]]]}},
{"type":"Feature","properties":{"highway":"cycleway","name":null,"category":"Dedicated cycleway"},"geometry":{"type":"MultiLineString","coordinates":[[[-0.3756818,51.6626318],[-0.375642,51.6626802],[-0.3755723,51.6626987],[-0.3754839,51.6626904]]]}},
{"type":"Feature","properties":{"highway":"cycleway","name":null,"category":"Dedicated cycleway"},"geometry":{"type":"MultiLineString","coordinates":[[[-0.374124,51.6632245],[-0.3741145,51.6632719],[-0.3740565,51.6633014],[-0.3739622,51.6633023]]]}},
{"type":"Feature","properties":{"highway":"cycleway","name":null,"category":"Dedicated cycleway"},"geometry":{"type":"MultiLineString","coordinates":[[[-0.3730055,51.6637371],[-0.3729883,51.6637847],[-0.372926,51.6638101],[-0.3728326,51.6638064]]]}},
{"type":"Feature","properties":{"highway":"track","name":null,"category":"Track"},"geometry":{"type":"MultiLineString","coordinates":[[[-0.3780126,51.6684898],[-0.3782545,51.668196],[-0.3803332,51.6643198],[-0.3818876,51.6627551]]]}},
{"type":"Feature","properties":{"highway":"cycleway","name":null,"category":"Dedicated cycleway"},"geometry":{"type":"MultiLineString","coordinates":[[[-0.3767669,51.6623499],[-0.3768289,51.6622957],[-0.376894,51.6622853],[-0.3769825,51.6623084]]]}},
{"type":"Feature","properties":{"highway":"cycleway","name":null,"category":"Dedicated cycleway"},"geometry":{"type":"MultiLineString","coordinates":[[[-0.3754839,51.6626904],[-0.3755274,51.6626361],[-0.3755907,51.6626178],[-0.3756818,51.6626318]]]}},
{"type":"Feature","properties":{"highway":"cycleway","name":null,"category":"Dedicated cycleway"},"geometry":{"type":"MultiLineString","coordinates":[[[-0.3739622,51.6633023],[-0.3739851,51.6632444],[-0.3740451,51.6632172],[-0.374124,51.6632245]]]}},
{"type":"Feature","properties":{"highway":"cycleway","name":null,"category":"Dedicated cycleway"},"geometry":{"type":"MultiLineString","coordinates":[[[-0.3728326,51.6638064],[-0.3728606,51.6637527],[-0.3729229,51.6637298],[-0.3730055,51.6637371]]]}},
{"type":"Feature","properties":{"highway":"path","name":null,"category":"Shared path"},"geometry":{"type":"MultiLineString","coordinates":[[[-0.3819152,51.6600112],[-0.3817077,51.6599007],[-0.3815953,51.6598191],[-0.3813802,51.6595786],[-0.3813474,51.6594809],[-0.3813816,51.6592412],[-0.3814446,51.6591478],[-0.3816392,51.6590441],[-0.3817844,51.6589999]]]}},
{"type":"Feature","properties":{"highway":"cycleway","name":null,"category":"Dedicated cycleway"},"geometry":{"type":"MultiLineString","coordinates":[[[-0.3885268,51.6531698],[-0.3886419,51.6531579],[-0.3886812,51.6532626],[-0.3886974,51.6532965],[-0.3887319,51.6533235],[-0.3887798,51.6533414],[-0.3888364,51.6533478],[-0.3889492,51.6533403],[-0.3896815,51.6531901],[-0.3898816,51.6531422],[-0.389853,51.6530543]]]}},
{"type":"Feature","properties":{"highway":"track","name":null,"category":"Track"},"geometry":{"type":"MultiLineString","coordinates":[[[-0.3873192,51.664091],[-0.386922,51.6640214],[-0.3873786,51.6628668],[-0.3876105,51.6629017]]]}},
{"type":"Feature","properties":{"highway":"track","name":null,"category":"Track"},"geometry":{"type":"MultiLineString","coordinates":[[[-0.3873786,51.6628668],[-0.3870994,51.662808]]]}},
{"type":"Feature","properties":{"highway":"track","name":null,"category":"Track"},"geometry":{"type":"MultiLineString","coordinates":[[[-0.386922,51.6640214],[-0.3867433,51.6640571],[-0.3865132,51.6644221],[-0.3859426,51.6653276]]]}},
{"type":"Feature","properties":{"highway":"track","name":null,"category":"Track"},"geometry":{"type":"MultiLineString","coordinates":[[[-0.3858798,51.6642621],[-0.3865132,51.6644221]]]}},
{"type":"Feature","properties":{"highway":"path","name":null,"category":"Shared path"},"geometry":{"type":"MultiLineString","coordinates":[[[-0.3817844,51.6589999],[-0.3818666,51.6588367],[-0.381909,51.6586906],[-0.3818994,51.6583948],[-0.3818789,51.6583289],[-0.3817186,51.6580995],[-0.3816421,51.6579745],[-0.3816106,51.6578934]]]}},
{"type":"Feature","properties":{"highway":"cycleway","name":"Colne Valley Cycle Route","category":"Dedicated cycleway"},"geometry":{"type":"MultiLineString","coordinates":[[[-0.3890515,51.6537766],[-0.3890653,51.6537973]]]}},
{"type":"Feature","properties":{"highway":"cycleway","name":"Colne Valley Cycle Route","category":"Dedicated cycleway"},"geometry":{"type":"MultiLineString","coordinates":[[[-0.3890801,51.6538338],[-0.3890653,51.6537973]]]}},
{"type":"Feature","properties":{"highway":"cycleway","name":null,"category":"Dedicated cycleway"},"geometry":{"type":"MultiLineString","coordinates":[[[-0.3921699,51.6532229],[-0.3920938,51.6531773],[-0.3920087,51.6531486]]]}},
{"type":"Feature","properties":{"highway":"cycleway","name":null,"category":"Dedicated cycleway"},"geometry":{"type":"MultiLineString","coordinates":[[[-0.3920087,51.6531486],[-0.3920508,51.6530947],[-0.3920926,51.6530561]]]}},
{"type":"Feature","properties":{"highway":"cycleway","name":"Colne Valley Cycle Route","category":"Dedicated cycleway"},"geometry":{"type":"MultiLineString","coordinates":[[[-0.3869644,51.6624765],[-0.3869803,51.6624437]]]}},
{"type":"Feature","properties":{"highway":"cycleway","name":"Colne Valley Cycle Route","category":"Dedicated cycleway"},"geometry":{"type":"MultiLineString","coordinates":[[[-0.3869803,51.6624437],[-0.3869896,51.6624174]]]}},
{"type":"Feature","properties":{"highway":"cycleway","name":"Colne Valley Cycle Route","category":"Dedicated cycleway"},"geometry":{"type":"MultiLineString","coordinates":[[[-0.3891316,51.6538389],[-0.389088,51.6538449],[-0.3890801,51.6538338]]]}},
{"type":"Feature","properties":{"highway":"cycleway","name":"Colne Valley Cycle Route","category":"Dedicated cycleway"},"geometry":{"type":"MultiLineString","coordinates":[[[-0.388004,51.6565393],[-0.3893799,51.6557234],[-0.3895705,51.6554876]]]}},
{"type":"Feature","properties":{"highway":"cycleway","name":"Colne Valley Cycle Route","category":"Dedicated cycleway"},"geometry":{"type":"MultiLineString","coordinates":[[[-0.3883889,51.6520042],[-0.3884242,51.6523746],[-0.3884236,51.6524209],[-0.3884186,51.6528179],[-0.3884701,51.6529617],[-0.3885031,51.6530348]]]}},
{"type":"Feature","properties":{"highway":"cycleway","name":"Colne Valley Cycle Route","category":"Dedicated cycleway"},"geometry":{"type":"MultiLineString","coordinates":[[[-0.3891688,51.6538337],[-0.3891316,51.6538389]]]}}
]
}
