{
"type": "FeatureCollection",
"name": "3a30b00725c2_visibility",
"crs": { "type": "name", "properties": { "name": "urn:ogc:def:crs:OGC:1.3:CRS84" } },
"features": [
{ "type": "Feature", "properties": { "visible_points": 2, "total_points": 61, "visibility_pct": 3.278688524590164 }, "geometry": { "type": "Point", "coordinates": [ -0.180472971673538, 51.816394183117033 ] } },
{ "type": "Feature", "properties": { "visible_points": 6, "total_points": 55, "visibility_pct": 10.909090909090908 }, "geometry": { "type": "Point", "coordinates": [ -0.18027205072114, 51.816391073457062 ] } },
{ "type": "Feature", "properties": { "visible_points": 0, "total_points": 48, "visibility_pct": 0.0 }, "geometry": { "type": "Point", "coordinates": [ -0.18007112980315, 51.816387963454424 ] } },
{ "type": "Feature", "properties": { "visible_points": 0, "total_points": 75, "visibility_pct": 0.0 }, "geometry": { "type": "Point", "coordinates": [ -0.180970930638344, 51.816509794941666 ] } },
{ "type": "Feature", "properties": { "visible_points": 0, "total_points": 75, "visibility_pct": 0.0 }, "geometry": { "type": "Point", "coordinates": [ -0.180770009152728, 51.81650668611848 ] } },
{ "type": "Feature", "properties": { "visible_points": 5, "total_points": 69, "visibility_pct": 7.2463768115942031 }, "geometry": { "type": "Point", "coordinates": [ -0.180569087701513, 51.816503576952648 ] } },
{ "type": "Feature", "properties": { "visible_points": 7, "total_points": 62, "visibility_pct": 11.29032258064516 }, "geometry": { "type": "Point", "coordinates": [ -0.18036816628471, 51.816500467444158 ] } },
{ "type": "Feature", "properties": { "visible_points": 8, "total_points": 55, "visibility_pct": 14.545454545454545 }, "geometry": { "type": "Point", "coordinates": [ -0.180167244902315, 51.816497357593001 ] } },
{ "type": "Feature", "properties": { "visible_points": 0, "total_points": 64, "visibility_pct": 0.0 }, "geometry": { "type": "Point", "coordinates": [ -0.181267970009544, 51.81662229673492 ] } },
{ "type": "Feature", "properties": { "visible_points": 5, "total_points": 72, "visibility_pct": 6.9444444444444446 }, "geometry": { "type": "Point", "coordinates": [ -0.181067048025122, 51.816619188405916 ] } },
{ "type": "Feature", "properties": { "visible_points": 3, "total_points": 80, "visibility_pct": 3.75 }, "geometry": { "type": "Point", "coordinates": [ -0.180866126075104, 51.816616079734239 ] } },
{ "type": "Feature", "properties": { "visible_points": 0, "total_points": 75, "visibility_pct": 0.0 }, "geometry": { "type": "Point", "coordinates": [ -0.18066520415948, 51.816612970719881 ] } },
{ "type": "Feature", "properties": { "visible_points": 6, "total_points": 69, "visibility_pct": 8.695652173913043 }, "geometry": { "type": "Point", "coordinates": [ -0.180464282278271, 51.816609861362871 ] } },
{ "type": "Feature", "properties": { "visible_points": 15, "total_points": 62, "visibility_pct": 24.193548387096776 }, "geometry": { "type": "Point", "coordinates": [ -0.180263360431462, 51.816606751663187 ] } },
{ "type": "Feature", "properties": { "visible_points": 0, "total_points": 54, "visibility_pct": 0.0 }, "geometry": { "type": "Point", "coordinates": [ -0.180062438619072, 51.81660364162083 ] } },
{ "type": "Feature", "properties": { "visible_points": 1, "total_points": 51, "visibility_pct": 1.9607843137254901 }, "geometry": { "type": "Point", "coordinates": [ -0.181565010773944, 51.816734797814135 ] } },
{ "type": "Feature", "properties": { "visible_points": 5, "total_points": 59, "visibility_pct": 8.4745762711864394 }, "geometry": { "type": "Point", "coordinates": [ -0.181364088290727, 51.816731689979278 ] } },
{ "type": "Feature", "properties": { "visible_points": 6, "total_points": 67, "visibility_pct": 8.9552238805970141 }, "geometry": { "type": "Point", "coordinates": [ -0.181163165841901, 51.816728581801769 ] } },
{ "type": "Feature", "properties": { "visible_points": 3, "total_points": 75, "visibility_pct": 4.0 }, "geometry": { "type": "Point", "coordinates": [ -0.180962243427473, 51.816725473281586 ] } },
{ "type": "Feature", "properties": { "visible_points": 0, "total_points": 80, "visibility_pct": 0.0 }, "geometry": { "type": "Point", "coordinates": [ -0.180761321047443, 51.816722364418695 ] } },
{ "type": "Feature", "properties": { "visible_points": 10, "total_points": 74, "visibility_pct": 13.513513513513514 }, "geometry": { "type": "Point", "coordinates": [ -0.180560398701822, 51.816719255213172 ] } },
{ "type": "Feature", "properties": { "visible_points": 18, "total_points": 67, "visibility_pct": 26.865671641791046 }, "geometry": { "type": "Point", "coordinates": [ -0.180359476390601, 51.816716145664955 ] } },
{ "type": "Feature", "properties": { "visible_points": 16, "total_points": 59, "visibility_pct": 27.118644067796609 }, "geometry": { "type": "Point", "coordinates": [ -0.180158554113796, 51.816713035774093 ] } },
{ "type": "Feature", "properties": { "visible_points": 11, "total_points": 51, "visibility_pct": 21.568627450980394 }, "geometry": { "type": "Point", "coordinates": [ -0.179957631871406, 51.816709925540536 ] } },
{ "type": "Feature", "properties": { "visible_points": 0, "total_points": 54, "visibility_pct": 0.0 }, "geometry": { "type": "Point", "coordinates": [ -0.181460207001914, 51.816841083155268 ] } },
{ "type": "Feature", "properties": { "visible_points": 4, "total_points": 61, "visibility_pct": 6.557377049180328 }, "geometry": { "type": "Point", "coordinates": [ -0.181259284088681, 51.816837975129218 ] } },
{ "type": "Feature", "properties": { "visible_points": 0, "total_points": 68, "visibility_pct": 0.0 }, "geometry": { "type": "Point", "coordinates": [ -0.181058361209843, 51.816834866760516 ] } },
{ "type": "Feature", "properties": { "visible_points": 6, "total_points": 75, "visibility_pct": 8.0 }, "geometry": { "type": "Point", "coordinates": [ -0.180857438365401, 51.816831758049126 ] } },
{ "type": "Feature", "properties": { "visible_points": 15, "total_points": 77, "visibility_pct": 19.480519480519483 }, "geometry": { "type": "Point", "coordinates": [ -0.180656515555367, 51.816828648995084 ] } },
{ "type": "Feature", "properties": { "visible_points": 19, "total_points": 71, "visibility_pct": 26.760563380281688 }, "geometry": { "type": "Point", "coordinates": [ -0.180455592779734, 51.816825539598355 ] } },
{ "type": "Feature", "properties": { "visible_points": 1, "total_points": 48, "visibility_pct": 2.083333333333333 }, "geometry": { "type": "Point", "coordinates": [ -0.18155632614311, 51.816950476262832 ] } },
{ "type": "Feature", "properties": { "visible_points": 5, "total_points": 54, "visibility_pct": 9.2592592592592595 }, "geometry": { "type": "Point", "coordinates": [ -0.181355402765468, 51.816947368388291 ] } },
{ "type": "Feature", "properties": { "visible_points": 0, "total_points": 61, "visibility_pct": 0.0 }, "geometry": { "type": "Point", "coordinates": [ -0.181154479422213, 51.816944260171063 ] } },
{ "type": "Feature", "properties": { "visible_points": 8, "total_points": 68, "visibility_pct": 11.76470588235294 }, "geometry": { "type": "Point", "coordinates": [ -0.180953556113363, 51.816941151611161 ] } },
{ "type": "Feature", "properties": { "visible_points": 13, "total_points": 72, "visibility_pct": 18.055555555555554 }, "geometry": { "type": "Point", "coordinates": [ -0.180752632838912, 51.8169380427086 ] } },
{ "type": "Feature", "properties": { "visible_points": 0, "total_points": 48, "visibility_pct": 0.0 }, "geometry": { "type": "Point", "coordinates": [ -0.18145152187226, 51.817056761578947 ] } },
{ "type": "Feature", "properties": { "visible_points": 8, "total_points": 54, "visibility_pct": 14.814814814814813 }, "geometry": { "type": "Point", "coordinates": [ -0.181250598064598, 51.817053653513206 ] } },
{ "type": "Feature", "properties": { "visible_points": 8, "total_points": 60, "visibility_pct": 13.333333333333334 }, "geometry": { "type": "Point", "coordinates": [ -0.181049674291325, 51.817050545104799 ] } }
]
}
