{
"type": "FeatureCollection",
"name": "CENBE_26_walking",
"crs": { "type": "name", "properties": { "name": "urn:ogc:def:crs:OGC:1.3:CRS84" } },
"features": [
{"type":"Feature","properties":{"highway":"footway","name":null,"category":"Footpath (pedestrian only)"},"geometry":{"type":"MultiLineString","coordinates":[[[-0.2462898,52.0860197],[-0.2461935,52.0860201],[-0.2460973,52.0860577],[-0.2460516,52.0861047],[-0.245839,52.0861747],[-0.2454684,52.0862838]]]}},
{"type":"Feature","properties":{"highway":"footway","name":null,"category":"Footpath (pedestrian only)"},"geometry":{"type":"MultiLineString","coordinates":[[[-0.2460934,52.0847713],[-0.2457333,52.0850219]]]}},
{"type":"Feature","properties":{"highway":"footway","name":null,"category":"Footpath (pedestrian only)"},"geometry":{"type":"MultiLineString","coordinates":[[[-0.2463148,52.0847236],[-0.2463818,52.0847247],[-0.2465424,52.0846078]]]}},
{"type":"Feature","properties":{"highway":"footway","name":null,"category":"Footpath (pedestrian only)"},"geometry":{"type":"MultiLineString","coordinates":[[[-0.2489157,52.0858131],[-0.2490829,52.0861007]]]}},
{"type":"Feature","properties":{"highway":"footway","name":"East Walk","category":"Footpath (pedestrian only)"},"geometry":{"type":"MultiLineString","coordinates":[[[-0.252088,52.0910496],[-0.2523328,52.0913932],[-0.252493,52.0916507],[-0.2524927,52.0916759]]]}},
{"type":"Feature","properties":{"highway":"footway","name":"South Walk","category":"Footpath (pedestrian only)"},"geometry":{"type":"MultiLineString","coordinates":[[[-0.252088,52.0910496],[-0.2521619,52.0910448],[-0.2527316,52.0909226]]]}},
{"type":"Feature","properties":{"highway":"footway","name":null,"category":"Footpath (pedestrian only)"},"geometry":{"type":"MultiLineString","coordinates":[[[-0.2507815,52.0928433],[-0.2502496,52.093005],[-0.2492102,52.0933275],[-0.2485829,52.0935116],[-0.248233,52.0936548],[-0.2464506,52.0941955],[-0.2463543,52.0941601],[-0.2462062,52.0941655],[-0.2460487,52.0942059],[-0.2458213,52.0942407],[-0.2457409,52.0942728],[-0.2456346,52.0943044],[-0.2454902,52.0943275],[-0.2451702,52.0943595],[-0.2450153,52.0944032],[-0.2446138,52.094552],[-0.2439745,52.0948232],[-0.2436337,52.0950212],[-0.243448,52.095168],[-0.2432614,52.0952538],[-0.2431019,52.0953295],[-0.2426671,52.0954676],[-0.242588,52.0955423],[-0.2422828,52.095627],[-0.2420426,52.0956937],[-0.2416609,52.0957997],[-0.2416035,52.0958149],[-0.2415537,52.0958296],[-0.2405277,52.0961321],[-0.2403206,52.0961818],[-0.2401737,52.0961913],[-0.2399989,52.0962409],[-0.2399357,52.0962679]]]}},
{"type":"Feature","properties":{"highway":"path","name":"Asp","category":"Shared path"},"geometry":{"type":"MultiLineString","coordinates":[[[-0.2485567,52.0898215],[-0.247993,52.0898666],[-0.2458701,52.0900759],[-0.2457642,52.0901213],[-0.2457457,52.090165],[-0.2457628,52.0902139],[-0.2459674,52.0905152],[-0.2461726,52.0907376],[-0.2461965,52.0908106],[-0.2461765,52.0908625],[-0.2461109,52.0908991],[-0.2460299,52.0909296],[-0.2459068,52.0909567]]]}},
{"type":"Feature","properties":{"highway":"footway","name":null,"category":"Footpath (pedestrian only)"},"geometry":{"type":"MultiLineString","coordinates":[[[-0.2485829,52.0935116],[-0.2503664,52.0955905],[-0.2505392,52.0957942]]]}},
{"type":"Feature","properties":{"highway":"footway","name":null,"category":"Footpath (pedestrian only)"},"geometry":{"type":"MultiLineString","coordinates":[[[-0.2298175,52.0882047],[-0.2309297,52.0882833],[-0.2319138,52.0883767],[-0.2331941,52.0885144],[-0.2339222,52.0885537],[-0.2354024,52.0884751],[-0.2369293,52.0883184],[-0.2377266,52.0882355],[-0.2378509,52.0882322],[-0.2379699,52.0882153],[-0.2383722,52.0881504],[-0.2386585,52.0881098],[-0.2387465,52.0881344]]]}},
{"type":"Feature","properties":{"highway":"footway","name":null,"category":"Footpath (pedestrian only)"},"geometry":{"type":"MultiLineString","coordinates":[[[-0.2549257,52.0893983],[-0.2538205,52.0896371],[-0.2538818,52.0897695],[-0.253664,52.0898217],[-0.253585,52.0897091],[-0.2528824,52.0898711],[-0.2525367,52.0899548],[-0.2520707,52.090095]]]}},
{"type":"Feature","properties":{"highway":"footway","name":null,"category":"Footpath (pedestrian only)"},"geometry":{"type":"MultiLineString","coordinates":[[[-0.2477219,52.0923884],[-0.2473494,52.092506]]]}},
{"type":"Feature","properties":{"highway":"footway","name":null,"category":"Footpath (pedestrian only)"},"geometry":{"type":"MultiLineString","coordinates":[[[-0.248686,52.0934579],[-0.2482733,52.0935936]]]}},
{"type":"Feature","properties":{"highway":"footway","name":null,"category":"Footpath (pedestrian only)"},"geometry":{"type":"MultiLineString","coordinates":[[[-0.2481406,52.0928994],[-0.2481578,52.0928696],[-0.2482015,52.0928448],[-0.2482744,52.0928374],[-0.2483308,52.0928534],[-0.2483602,52.0928767],[-0.2483719,52.0929091],[-0.2483482,52.092951],[-0.2482948,52.092975],[-0.2482409,52.0929785],[-0.2481828,52.0929632],[-0.2481521,52.0929398],[-0.2481406,52.0928994]]]}},
{"type":"Feature","properties":{"highway":"footway","name":null,"category":"Footpath (pedestrian only)"},"geometry":{"type":"MultiLineString","coordinates":[[[-0.2483602,52.0928767],[-0.2487371,52.0927647]]]}},
{"type":"Feature","properties":{"highway":"footway","name":null,"category":"Footpath (pedestrian only)"},"geometry":{"type":"MultiLineString","coordinates":[[[-0.2481521,52.0929398],[-0.2478002,52.0930427]]]}},
{"type":"Feature","properties":{"highway":"footway","name":null,"category":"Footpath (pedestrian only)"},"geometry":{"type":"MultiLineString","coordinates":[[[-0.2477104,52.092348],[-0.2477277,52.0923182],[-0.2477616,52.092299],[-0.2477714,52.0922934],[-0.2478443,52.0922861],[-0.2479006,52.092302],[-0.2479301,52.0923253],[-0.2479417,52.0923577],[-0.2479181,52.0923996],[-0.2478647,52.0924236],[-0.2478573,52.0924241],[-0.2478108,52.0924272],[-0.2477526,52.0924119],[-0.2477219,52.0923884],[-0.2477104,52.092348]]]}},
{"type":"Feature","properties":{"highway":"footway","name":null,"category":"Footpath (pedestrian only)"},"geometry":{"type":"MultiLineString","coordinates":[[[-0.2482948,52.092975],[-0.248686,52.0934579],[-0.2491773,52.093315]]]}},
{"type":"Feature","properties":{"highway":"footway","name":null,"category":"Footpath (pedestrian only)"},"geometry":{"type":"MultiLineString","coordinates":[[[-0.2479301,52.0923253],[-0.2483018,52.0922222]]]}},
{"type":"Feature","properties":{"highway":"footway","name":null,"category":"Footpath (pedestrian only)"},"geometry":{"type":"MultiLineString","coordinates":[[[-0.2478647,52.0924236],[-0.2482015,52.0928448]]]}},
{"type":"Feature","properties":{"highway":"footway","name":null,"category":"Footpath (pedestrian only)"},"geometry":{"type":"MultiLineString","coordinates":[[[-0.2473861,52.0918101],[-0.2477616,52.092299],[-0.2478573,52.0924241]]]}},
{"type":"Feature","properties":{"highway":"footway","name":"Barnstaple Walk","category":"Footpath (pedestrian only)"},"geometry":{"type":"MultiLineString","coordinates":[[[-0.2477561,52.097378],[-0.2473824,52.0973806],[-0.2470068,52.0973751]]]}},
{"type":"Feature","properties":{"highway":"path","name":null,"category":"Shared path"},"geometry":{"type":"MultiLineString","coordinates":[[[-0.2387465,52.0881344],[-0.2388437,52.0881634],[-0.2389611,52.0880956],[-0.2389949,52.0881158],[-0.240088,52.0879733],[-0.240835,52.0878864],[-0.2410296,52.0878502],[-0.241844,52.0877547],[-0.2422015,52.0876993],[-0.2422166,52.0877479],[-0.2423143,52.0877344],[-0.2424068,52.0877214],[-0.2424626,52.0876752],[-0.2449929,52.0873529],[-0.2453924,52.087302],[-0.2459656,52.08723],[-0.2461883,52.0872216],[-0.2464252,52.0872009],[-0.2468141,52.0871233],[-0.2473828,52.0868638],[-0.2484639,52.0864341]]]}},
{"type":"Feature","properties":{"highway":"footway","name":null,"category":"Footpath (pedestrian only)"},"geometry":{"type":"MultiLineString","coordinates":[[[-0.2461883,52.0872216],[-0.2443368,52.0850475]]]}},
{"type":"Feature","properties":{"highway":"footway","name":null,"category":"Footpath (pedestrian only)"},"geometry":{"type":"MultiLineString","coordinates":[[[-0.2285551,52.0842867],[-0.2316473,52.0841908],[-0.2329939,52.0843029],[-0.2323308,52.0859331],[-0.231535,52.0858976],[-0.2307354,52.0870612],[-0.2298175,52.0882047],[-0.2293186,52.0892764],[-0.2257317,52.0892432],[-0.2251523,52.0892247],[-0.222958,52.0892219],[-0.2227948,52.0893015],[-0.2204842,52.0893091],[-0.2204499,52.0892918],[-0.2156372,52.0890017],[-0.2154486,52.0880796],[-0.2156372,52.0871171],[-0.2156372,52.0868148],[-0.2122585,52.0868652],[-0.2124056,52.0861617],[-0.2123766,52.0861162],[-0.2122968,52.0860896],[-0.2103903,52.0863333],[-0.2101894,52.0859554],[-0.2096892,52.0858672],[-0.2090823,52.0858571],[-0.2061711,52.0845419],[-0.206033,52.0844863]]]}},
{"type":"Feature","properties":{"highway":"path","name":null,"category":"Shared path"},"geometry":{"type":"MultiLineString","coordinates":[[[-0.2419808,52.0904066],[-0.2419144,52.0904014],[-0.2418639,52.0904451],[-0.2417974,52.0904568],[-0.2416149,52.0904991],[-0.239892,52.090796],[-0.239827,52.0907965],[-0.2397945,52.090785],[-0.2397825,52.0907184],[-0.2397691,52.0905997],[-0.2396473,52.0902803],[-0.239605,52.0902657],[-0.2394521,52.0902574],[-0.2394294,52.0901805]]]}},
{"type":"Feature","properties":{"highway":"footway","name":"Mercury Lane","category":"Footpath (pedestrian only)"},"geometry":{"type":"MultiLineString","coordinates":[[[-0.2391195,52.0882739],[-0.2391565,52.088259],[-0.2392323,52.0881819],[-0.239298,52.0881737],[-0.2393396,52.0881506]]]}},
{"type":"Feature","properties":{"highway":"track","name":null,"category":"Track"},"geometry":{"type":"MultiLineString","coordinates":[[[-0.2377266,52.0882355],[-0.2377156,52.0881623],[-0.2377452,52.0880926],[-0.2378232,52.0879579],[-0.23783,52.0879461],[-0.2378958,52.0878536],[-0.2380359,52.0877148],[-0.2381522,52.0876375],[-0.2383695,52.0874922],[-0.2385078,52.0873715],[-0.2386107,52.0871993],[-0.2387052,52.0871046],[-0.237193,52.0868219],[-0.2323308,52.0859331]]]}},
{"type":"Feature","properties":{"highway":"track","name":null,"category":"Track"},"geometry":{"type":"MultiLineString","coordinates":[[[-0.2396872,52.0817901],[-0.2395787,52.0818163],[-0.2371,52.0822759],[-0.2372273,52.0845895],[-0.237193,52.0868219]]]}},
{"type":"Feature","properties":{"highway":"path","name":null,"category":"Shared path"},"geometry":{"type":"MultiLineString","coordinates":[[[-0.2453862,52.0840871],[-0.2452554,52.0841607],[-0.2450408,52.0842639],[-0.2449355,52.0843138],[-0.2448252,52.0843761],[-0.2447835,52.0844302],[-0.2447341,52.0845078],[-0.2446261,52.0845849],[-0.2445296,52.0846839],[-0.2444762,52.0847361],[-0.2444286,52.0847777],[-0.2442842,52.0848718]]]}},
{"type":"Feature","properties":{"highway":"footway","name":null,"category":"Footpath (pedestrian only)"},"geometry":{"type":"MultiLineString","coordinates":[[[-0.2387015,52.098444],[-0.2383909,52.0985663],[-0.238327,52.0985994],[-0.2380437,52.0987462],[-0.2379811,52.0987786],[-0.2378845,52.0988319],[-0.2377607,52.0988654],[-0.2376625,52.0988935],[-0.2375847,52.0989455],[-0.2375223,52.0989374],[-0.2370861,52.0988064],[-0.2369638,52.0987853],[-0.2368423,52.0987818],[-0.2366465,52.09881],[-0.2363889,52.098847],[-0.2362134,52.0988733],[-0.2361467,52.0988827]]]}},
{"type":"Feature","properties":{"highway":"path","name":null,"category":"Shared path"},"geometry":{"type":"MultiLineString","coordinates":[[[-0.2442842,52.0848718],[-0.244088,52.0849611],[-0.2439673,52.0850132],[-0.2438382,52.0850643],[-0.2436505,52.085118],[-0.2434525,52.0851762],[-0.243317,52.0852137],[-0.242913,52.0853023],[-0.2426457,52.0853597],[-0.2421249,52.0854624],[-0.2416367,52.0855781],[-0.2414056,52.0856218],[-0.241162,52.0856613],[-0.2409508,52.0857055],[-0.2408605,52.0857129],[-0.240766,52.085828],[-0.2406192,52.0859592],[-0.240592,52.0859964],[-0.2405561,52.0861119],[-0.2404538,52.0861466],[-0.2403526,52.086195],[-0.2402638,52.0862714],[-0.240181,52.0863458],[-0.2401158,52.0864123],[-0.2400243,52.0865239],[-0.2399909,52.0866165],[-0.2398992,52.0867173],[-0.239804,52.0868069],[-0.2396429,52.0869116],[-0.2394772,52.0870205],[-0.2393911,52.0870506],[-0.2390988,52.0871061],[-0.238872,52.0871634],[-0.2387814,52.0872495],[-0.2386546,52.0874118],[-0.2385107,52.0875441],[-0.238389,52.0876295],[-0.2382066,52.0877474],[-0.2380522,52.0878757],[-0.2380137,52.0879275],[-0.2379867,52.0879676],[-0.2379731,52.0880479],[-0.2379762,52.0881566],[-0.2379749,52.0881749],[-0.2379699,52.0882153],[-0.2379683,52.0882354],[-0.2379629,52.0883275],[-0.2379623,52.0884365],[-0.2379657,52.0885278],[-0.2379409,52.0886008],[-0.2378768,52.0887366],[-0.2378201,52.0888222],[-0.2376705,52.0890392],[-0.2376399,52.0890873],[-0.2376005,52.0891422],[-0.2375652,52.0892199],[-0.23752,52.0893582],[-0.2374424,52.0894963],[-0.2373201,52.0897429],[-0.2372965,52.0898393],[-0.237286,52.0899472],[-0.237286,52.0900606],[-0.2372797,52.0901596],[-0.2372741,52.0902447],[-0.2372681,52.0903191],[-0.2371871,52.0906909],[-0.2371732,52.0907701],[-0.2371787,52.0908501],[-0.2371835,52.0909255],[-0.2371914,52.0909953],[-0.2371927,52.0910717],[-0.2371935,52.0911112]]]}},
{"type":"Feature","properties":{"highway":"footway","name":null,"category":"Footpath (pedestrian only)"},"geometry":{"type":"MultiLineString","coordinates":[[[-0.2332444,52.0942192],[-0.2329592,52.0962645],[-0.2326945,52.0983349]]]}},
{"type":"Feature","properties":{"highway":"path","name":null,"category":"Shared path"},"geometry":{"type":"MultiLineString","coordinates":[[[-0.2377646,52.0911766],[-0.2378116,52.0911781],[-0.2379773,52.0910944],[-0.2388716,52.0909218],[-0.2395526,52.0907874],[-0.2396899,52.0907805],[-0.2397945,52.090785]]]}},
{"type":"Feature","properties":{"highway":"footway","name":null,"category":"Footpath (pedestrian only)"},"geometry":{"type":"MultiLineString","coordinates":[[[-0.2460945,52.0909155],[-0.2464228,52.0913074],[-0.2467687,52.0917919],[-0.2467751,52.0918856],[-0.2472746,52.0925368],[-0.248233,52.0936548]]]}},
{"type":"Feature","properties":{"highway":"footway","name":null,"category":"Footpath (pedestrian only)"},"geometry":{"type":"MultiLineString","coordinates":[[[-0.23749,52.0936046],[-0.237465,52.0935637],[-0.2374337,52.0935124],[-0.2370046,52.092918],[-0.2368073,52.0927262],[-0.2367277,52.0925758],[-0.2367355,52.0925079],[-0.2368956,52.0922787],[-0.2369711,52.0921231],[-0.2370032,52.091969],[-0.237023,52.0917843],[-0.2370948,52.0915066],[-0.2371772,52.0912964],[-0.2371841,52.0912783],[-0.2371928,52.0912554],[-0.2371935,52.0911112]]]}},
{"type":"Feature","properties":{"highway":"footway","name":null,"category":"Footpath (pedestrian only)"},"geometry":{"type":"MultiLineString","coordinates":[[[-0.2451635,52.0839875],[-0.2450469,52.0841177],[-0.2448252,52.0843761]]]}},
{"type":"Feature","properties":{"highway":"footway","name":null,"category":"Footpath (pedestrian only)"},"geometry":{"type":"MultiLineString","coordinates":[[[-0.246238,52.093944],[-0.2462745,52.0940252],[-0.2464506,52.0941955]]]}},
{"type":"Feature","properties":{"highway":"footway","name":null,"category":"Footpath (pedestrian only)"},"geometry":{"type":"MultiLineString","coordinates":[[[-0.2467687,52.0917919],[-0.2469025,52.0917897]]]}},
{"type":"Feature","properties":{"highway":"footway","name":null,"category":"Footpath (pedestrian only)"},"geometry":{"type":"MultiLineString","coordinates":[[[-0.2415442,52.0957297],[-0.2414935,52.0957345],[-0.2414289,52.0957406],[-0.2412982,52.0957653],[-0.2412164,52.0957942],[-0.2411708,52.0958502],[-0.2410877,52.0959054],[-0.2410515,52.0958802],[-0.240977,52.0959078],[-0.2409368,52.095912],[-0.2408877,52.0959359],[-0.2406652,52.0959956],[-0.2403816,52.0960051],[-0.2401435,52.0959668],[-0.2400436,52.0959338],[-0.2398331,52.0958296],[-0.2397184,52.0957373],[-0.2396567,52.0957595],[-0.2395281,52.0956332],[-0.2395538,52.0956259],[-0.2395333,52.095601]]]}},
{"type":"Feature","properties":{"highway":"path","name":null,"category":"Shared path"},"geometry":{"type":"MultiLineString","coordinates":[[[-0.241456,52.0922929],[-0.2412686,52.0923646],[-0.2411648,52.0924486],[-0.2411411,52.0924316],[-0.2410541,52.0923541],[-0.2409759,52.0922542],[-0.2408417,52.0921027],[-0.2407808,52.0918754],[-0.2407594,52.0918631],[-0.2405762,52.0917571],[-0.2404659,52.0917425],[-0.2404749,52.0916469],[-0.2404324,52.0914099],[-0.24039,52.0913349],[-0.2402632,52.0911671],[-0.2400844,52.0910243],[-0.2398246,52.0909159],[-0.239892,52.090796]]]}},
{"type":"Feature","properties":{"highway":"footway","name":null,"category":"Footpath (pedestrian only)"},"geometry":{"type":"MultiLineString","coordinates":[[[-0.2449889,52.0934658],[-0.2453034,52.0932735]]]}},
{"type":"Feature","properties":{"highway":"path","name":null,"category":"Shared path"},"geometry":{"type":"MultiLineString","coordinates":[[[-0.2383813,52.0939552],[-0.2384524,52.0941381]]]}},
{"type":"Feature","properties":{"highway":"footway","name":"Mercury Lane","category":"Footpath (pedestrian only)"},"geometry":{"type":"MultiLineString","coordinates":[[[-0.2418696,52.0878519],[-0.2422166,52.0878181],[-0.2423177,52.0878082]]]}},
{"type":"Feature","properties":{"highway":"footway","name":null,"category":"Footpath (pedestrian only)"},"geometry":{"type":"MultiLineString","coordinates":[[[-0.2403752,52.0928031],[-0.2403144,52.092825],[-0.2402326,52.0928489],[-0.2394413,52.0930417],[-0.2384022,52.0933059],[-0.2380831,52.0933961]]]}},
{"type":"Feature","properties":{"highway":"footway","name":"Whittle Drive","category":"Footpath (pedestrian only)"},"geometry":{"type":"MultiLineString","coordinates":[[[-0.2446477,52.0875423],[-0.2446175,52.0875429],[-0.2445867,52.0875458]]]}},
{"type":"Feature","properties":{"highway":"footway","name":null,"category":"Footpath (pedestrian only)"},"geometry":{"type":"MultiLineString","coordinates":[[[-0.2457642,52.0901213],[-0.2443178,52.0902716],[-0.244208,52.0902485],[-0.2441826,52.0902345],[-0.2434709,52.0903064],[-0.2431646,52.0902978],[-0.2428272,52.0902883],[-0.242744,52.0903043],[-0.2421432,52.0904201],[-0.2420914,52.0904144],[-0.2419808,52.0904066]]]}},
{"type":"Feature","properties":{"highway":"path","name":null,"category":"Shared path"},"geometry":{"type":"MultiLineString","coordinates":[[[-0.2402632,52.0911671],[-0.240342,52.0911304],[-0.2407166,52.0911279],[-0.2407995,52.0911142]]]}},
{"type":"Feature","properties":{"highway":"footway","name":null,"category":"Footpath (pedestrian only)"},"geometry":{"type":"MultiLineString","coordinates":[[[-0.2417408,52.0970415],[-0.2416644,52.0970259],[-0.2415087,52.0969602],[-0.241492,52.0969331]]]}},
{"type":"Feature","properties":{"highway":"footway","name":"Chamberlain Park","category":"Footpath (pedestrian only)"},"geometry":{"type":"MultiLineString","coordinates":[[[-0.2445576,52.0913587],[-0.2446866,52.0915418]]]}},
{"type":"Feature","properties":{"highway":"footway","name":"Bantock Way","category":"Footpath (pedestrian only)"},"geometry":{"type":"MultiLineString","coordinates":[[[-0.2396278,52.0930357],[-0.2395216,52.0930624]]]}},
{"type":"Feature","properties":{"highway":"path","name":null,"category":"Shared path"},"geometry":{"type":"MultiLineString","coordinates":[[[-0.2414299,52.0863703],[-0.2415597,52.0865083],[-0.2415793,52.08663],[-0.2415538,52.0867263],[-0.2415658,52.0868416],[-0.2415989,52.0869262],[-0.2416673,52.0870157],[-0.2416873,52.0870312],[-0.2419385,52.0872261],[-0.2420173,52.0873937],[-0.2420006,52.0874775],[-0.2418643,52.0875948],[-0.2418294,52.0876953],[-0.241844,52.0877547]]]}},
{"type":"Feature","properties":{"highway":"path","name":null,"category":"Shared path"},"geometry":{"type":"MultiLineString","coordinates":[[[-0.2385744,52.0902003],[-0.2385417,52.0901935],[-0.2383695,52.0902077],[-0.2382701,52.0901664],[-0.2382577,52.0901065],[-0.2382917,52.0899914],[-0.2382489,52.089884],[-0.2383258,52.0897235],[-0.2383082,52.0896531],[-0.2382757,52.0896204]]]}},
{"type":"Feature","properties":{"highway":"path","name":null,"category":"Shared path"},"geometry":{"type":"MultiLineString","coordinates":[[[-0.2493596,52.0906045],[-0.2491171,52.090673],[-0.2489213,52.0906796],[-0.2488095,52.0906833],[-0.2487202,52.0907069],[-0.2485716,52.0907905],[-0.2484521,52.0908218]]]}},
{"type":"Feature","properties":{"highway":"footway","name":null,"category":"Footpath (pedestrian only)"},"geometry":{"type":"MultiLineString","coordinates":[[[-0.249103,52.0902157],[-0.2487588,52.0902819],[-0.2487003,52.0903185],[-0.2486504,52.0903978],[-0.2485728,52.0904981],[-0.2482804,52.0905697]]]}},
{"type":"Feature","properties":{"highway":"footway","name":null,"category":"Footpath (pedestrian only)"},"geometry":{"type":"MultiLineString","coordinates":[[[-0.2486504,52.0903978],[-0.2487895,52.090472],[-0.2489213,52.0906796],[-0.2489561,52.0907578],[-0.2490857,52.0909491],[-0.2490766,52.0909882]]]}},
{"type":"Feature","properties":{"highway":"footway","name":null,"category":"Footpath (pedestrian only)"},"geometry":{"type":"MultiLineString","coordinates":[[[-0.2495627,52.0909192],[-0.2491728,52.0910198],[-0.2490766,52.0909882],[-0.2489849,52.0909705],[-0.2488584,52.0909914],[-0.2486008,52.0910571]]]}},
{"type":"Feature","properties":{"highway":"path","name":null,"category":"Shared path"},"geometry":{"type":"MultiLineString","coordinates":[[[-0.2487985,52.0913366],[-0.2486008,52.0910571],[-0.2484521,52.0908218],[-0.2482804,52.0905697],[-0.248112,52.0903145],[-0.2483489,52.0902447],[-0.2483245,52.0902064],[-0.2481517,52.0899348]]]}},
{"type":"Feature","properties":{"highway":"footway","name":null,"category":"Footpath (pedestrian only)"},"geometry":{"type":"MultiLineString","coordinates":[[[-0.2487003,52.0903185],[-0.2485567,52.0902253],[-0.2483245,52.0902064]]]}},
{"type":"Feature","properties":{"highway":"footway","name":null,"category":"Footpath (pedestrian only)"},"geometry":{"type":"MultiLineString","coordinates":[[[-0.243279,52.0981489],[-0.2430543,52.0982078],[-0.2429044,52.0982405],[-0.2425499,52.0983989],[-0.2419071,52.0986373],[-0.2413189,52.0988746],[-0.2409797,52.0990582],[-0.2406018,52.0992305]]]}},
{"type":"Feature","properties":{"highway":"footway","name":null,"category":"Footpath (pedestrian only)"},"geometry":{"type":"MultiLineString","coordinates":[[[-0.24869,52.0964333],[-0.2482224,52.0960046],[-0.2474648,52.0953793],[-0.2470451,52.0950312],[-0.2467867,52.0947447],[-0.2463589,52.0942388],[-0.2463543,52.0941601]]]}},
{"type":"Feature","properties":{"highway":"footway","name":null,"category":"Footpath (pedestrian only)"},"geometry":{"type":"MultiLineString","coordinates":[[[-0.2473781,52.0968578],[-0.2472809,52.0967754],[-0.2466777,52.0959768],[-0.2455965,52.0945204],[-0.2463589,52.0942388]]]}},
{"type":"Feature","properties":{"highway":"footway","name":null,"category":"Footpath (pedestrian only)"},"geometry":{"type":"MultiLineString","coordinates":[[[-0.2471859,52.0969204],[-0.247057,52.096912],[-0.2470435,52.0969141],[-0.2469173,52.0969335],[-0.2467369,52.0969658],[-0.2460228,52.0971599],[-0.2453938,52.0973288],[-0.2449925,52.0974202],[-0.2446451,52.0975367],[-0.2445492,52.097527],[-0.2444651,52.0974956],[-0.2444245,52.0974569],[-0.2443368,52.0973467],[-0.2439783,52.0969605],[-0.2433623,52.0962592],[-0.2429813,52.09567],[-0.2430862,52.0954356],[-0.2434024,52.0953302],[-0.2442591,52.0950003],[-0.244494,52.0949108],[-0.2447244,52.0949003],[-0.2450881,52.0949372],[-0.2454382,52.0950114],[-0.2461532,52.0960159],[-0.2468176,52.0968836],[-0.2469173,52.0969335]]]}},
{"type":"Feature","properties":{"highway":"footway","name":null,"category":"Footpath (pedestrian only)"},"geometry":{"type":"MultiLineString","coordinates":[[[-0.2492143,52.0965021],[-0.2491873,52.0965083],[-0.2490199,52.0963212]]]}},
{"type":"Feature","properties":{"highway":"footway","name":null,"category":"Footpath (pedestrian only)"},"geometry":{"type":"MultiLineString","coordinates":[[[-0.2407439,52.0944454],[-0.2406873,52.0944629],[-0.2406287,52.09448]]]}},
{"type":"Feature","properties":{"highway":"footway","name":null,"category":"Footpath (pedestrian only)"},"geometry":{"type":"MultiLineString","coordinates":[[[-0.2411225,52.0948548],[-0.241068,52.0948738],[-0.2409996,52.0949]]]}},
{"type":"Feature","properties":{"highway":"footway","name":null,"category":"Footpath (pedestrian only)"},"geometry":{"type":"MultiLineString","coordinates":[[[-0.2414951,52.0952221],[-0.2414475,52.09524],[-0.2413733,52.0952693]]]}},
{"type":"Feature","properties":{"highway":"footway","name":null,"category":"Footpath (pedestrian only)"},"geometry":{"type":"MultiLineString","coordinates":[[[-0.2408852,52.0947869],[-0.240841,52.0948019],[-0.2406548,52.0948648],[-0.2405087,52.0948679],[-0.2404712,52.0948634],[-0.2403149,52.0948446],[-0.2401187,52.0948668],[-0.2399585,52.0949305],[-0.2399635,52.0949579],[-0.2399271,52.094974]]]}},
{"type":"Feature","properties":{"highway":"footway","name":null,"category":"Footpath (pedestrian only)"},"geometry":{"type":"MultiLineString","coordinates":[[[-0.2397056,52.0957752],[-0.2396567,52.0957595]]]}},
{"type":"Feature","properties":{"highway":"footway","name":null,"category":"Footpath (pedestrian only)"},"geometry":{"type":"MultiLineString","coordinates":[[[-0.2410139,52.0959079],[-0.2410877,52.0959054]]]}},
{"type":"Feature","properties":{"highway":"footway","name":null,"category":"Footpath (pedestrian only)"},"geometry":{"type":"MultiLineString","coordinates":[[[-0.2423208,52.0954139],[-0.2423208,52.0953612],[-0.2420278,52.0953562],[-0.2419198,52.0953587],[-0.2417589,52.0954024],[-0.2417379,52.0954041],[-0.2416771,52.0953962],[-0.2414951,52.0952221],[-0.2413485,52.0950819],[-0.24137,52.0950292],[-0.2413516,52.0950088],[-0.2413177,52.0949768],[-0.2412372,52.0949661],[-0.2411225,52.0948548],[-0.2410277,52.0947626],[-0.2408255,52.0945484],[-0.2407439,52.0944454],[-0.2406511,52.0943284],[-0.2406807,52.0942934],[-0.240743,52.094274],[-0.2407205,52.094251],[-0.2407034,52.0942221],[-0.2406257,52.0942378],[-0.2405616,52.0942212],[-0.2403963,52.0939857],[-0.2403957,52.093839],[-0.2404553,52.0937447],[-0.2405841,52.0936701],[-0.2409817,52.0934905],[-0.2411306,52.0934435],[-0.2414893,52.0933203],[-0.2415302,52.0933261],[-0.2416208,52.0932968],[-0.2416335,52.0932713],[-0.242178,52.0930909],[-0.2422906,52.0930872],[-0.2424811,52.0932927],[-0.2426159,52.0934048],[-0.2427004,52.0934662],[-0.2428365,52.0935494],[-0.2428224,52.0936104],[-0.2428525,52.0936273],[-0.2428941,52.0936516],[-0.24298,52.09364],[-0.2431215,52.0937232],[-0.2431248,52.0937558],[-0.2435694,52.0940339],[-0.2436264,52.0940372],[-0.2436727,52.0940676],[-0.2436579,52.0941138],[-0.2436923,52.0941427],[-0.2437169,52.094162],[-0.243794,52.0941504],[-0.2439556,52.094258],[-0.2440636,52.0943898]]]}},
{"type":"Feature","properties":{"highway":"footway","name":null,"category":"Footpath (pedestrian only)"},"geometry":{"type":"MultiLineString","coordinates":[[[-0.241664,52.0960833],[-0.2416476,52.0960557],[-0.2416335,52.0960253],[-0.2416798,52.0959977],[-0.2416925,52.0959528],[-0.2415537,52.0958296],[-0.2414935,52.0957345],[-0.2414779,52.0956351],[-0.2415135,52.0955157],[-0.241553,52.0954638],[-0.2415591,52.0954127],[-0.2415141,52.0953665],[-0.2414659,52.0953608],[-0.2413733,52.0952693],[-0.2409996,52.0949],[-0.2408852,52.0947869],[-0.2408966,52.0947634],[-0.2407799,52.0946394],[-0.2407068,52.0946308],[-0.2406873,52.094606],[-0.2406733,52.0945789],[-0.24069,52.0945521],[-0.2406287,52.09448],[-0.2404463,52.0942656],[-0.2404252,52.0942407],[-0.2404332,52.0942077],[-0.2403139,52.094054],[-0.2402683,52.0940359],[-0.2401523,52.094047],[-0.2400725,52.0940409],[-0.2399598,52.0940223],[-0.2398364,52.0940273],[-0.2394502,52.0940676],[-0.2394006,52.0941187],[-0.2393576,52.0941237],[-0.239248,52.0940928],[-0.2389962,52.0941342],[-0.2389657,52.094163],[-0.2388034,52.094196],[-0.2387635,52.0941853],[-0.2386542,52.0942103]]]}},
{"type":"Feature","properties":{"highway":"footway","name":null,"category":"Footpath (pedestrian only)"},"geometry":{"type":"MultiLineString","coordinates":[[[-0.2401737,52.0961913],[-0.2401818,52.0960648],[-0.2402006,52.0960137]]]}},
{"type":"Feature","properties":{"highway":"footway","name":null,"category":"Footpath (pedestrian only)"},"geometry":{"type":"MultiLineString","coordinates":[[[-0.241037,52.0963017],[-0.2405821,52.0961703],[-0.2405277,52.0961321]]]}},
{"type":"Feature","properties":{"highway":"footway","name":null,"category":"Footpath (pedestrian only)"},"geometry":{"type":"MultiLineString","coordinates":[[[-0.2415087,52.0969602],[-0.2415507,52.0969204],[-0.2413257,52.0968238],[-0.2413371,52.0967618],[-0.2413108,52.0967512],[-0.2412583,52.0967305],[-0.2411812,52.0967437],[-0.2411272,52.0967225],[-0.2410484,52.0966458],[-0.2410015,52.0964957],[-0.2410192,52.0964386],[-0.2410454,52.0963845],[-0.2410974,52.0963216],[-0.241037,52.0963017],[-0.2411205,52.096208],[-0.2411809,52.0962302],[-0.241251,52.0961799],[-0.2414159,52.0961134],[-0.2415068,52.0960945],[-0.241664,52.0960833],[-0.2417829,52.0960479],[-0.2418442,52.0960444],[-0.2419524,52.0961135],[-0.2419545,52.096155],[-0.2419192,52.0961874],[-0.2419571,52.0962066],[-0.2419845,52.0962185],[-0.242013,52.0961995],[-0.2420657,52.0961931],[-0.2422383,52.0962679],[-0.2423899,52.0963155],[-0.2424053,52.0963439],[-0.2424928,52.0963758],[-0.2425327,52.0963705],[-0.2426859,52.0964246],[-0.2427074,52.0964584],[-0.2426799,52.0964918],[-0.2427005,52.0964987],[-0.2427657,52.0965227],[-0.2428026,52.0964928],[-0.2428546,52.0964856],[-0.2430684,52.0965591],[-0.2430966,52.0965688],[-0.2431047,52.0965909],[-0.2431889,52.0966222],[-0.2432301,52.0966154],[-0.2433065,52.0966452],[-0.2433729,52.0966833],[-0.2433897,52.0967097],[-0.2433813,52.0967239],[-0.2434722,52.0969525],[-0.243509,52.0969707],[-0.2434105,52.0970699],[-0.2433541,52.0970683],[-0.2432217,52.0971941],[-0.2431593,52.0972623],[-0.2431094,52.0973435]]]}},
{"type":"Feature","properties":{"highway":"footway","name":null,"category":"Footpath (pedestrian only)"},"geometry":{"type":"MultiLineString","coordinates":[[[-0.2421783,52.096076],[-0.2421459,52.0960592],[-0.2420997,52.0960352]]]}},
{"type":"Feature","properties":{"highway":"footway","name":null,"category":"Footpath (pedestrian only)"},"geometry":{"type":"MultiLineString","coordinates":[[[-0.2433964,52.0973657],[-0.2434178,52.0972891],[-0.2434681,52.0972018],[-0.2435526,52.0971227],[-0.2435499,52.0970666],[-0.2435817,52.0970389],[-0.2435882,52.0970333],[-0.243625,52.0969797],[-0.2436297,52.0969052],[-0.243609,52.0968434],[-0.2434574,52.0966349],[-0.2434252,52.0966205],[-0.2432465,52.0963608],[-0.243208,52.09634],[-0.2431788,52.0963287],[-0.2430507,52.0964512],[-0.242989,52.0964531],[-0.242747,52.0963693],[-0.2425464,52.0962972],[-0.2422816,52.0962003],[-0.2421616,52.0961466],[-0.2421485,52.0960971],[-0.2421783,52.096076],[-0.2426588,52.0957352],[-0.2425897,52.0956978],[-0.2424911,52.0957666],[-0.2424442,52.0957682],[-0.2422635,52.0958957],[-0.2422662,52.0959274],[-0.2421378,52.0960162],[-0.2421217,52.0960201],[-0.2420997,52.0960352],[-0.2420798,52.0960489],[-0.2420114,52.096051],[-0.2418764,52.0959585],[-0.2416871,52.0958288],[-0.2416609,52.0957997],[-0.2415973,52.0956885],[-0.2415991,52.0956621],[-0.2416037,52.0955929],[-0.241655,52.0954949],[-0.2416771,52.0954785],[-0.2417756,52.095457],[-0.2417562,52.0954289],[-0.2417379,52.0954041]]]}},
{"type":"Feature","properties":{"highway":"footway","name":null,"category":"Footpath (pedestrian only)"},"geometry":{"type":"MultiLineString","coordinates":[[[-0.245406,52.0982143],[-0.2453142,52.0982126],[-0.2451646,52.0981826],[-0.245052,52.0981401],[-0.2448253,52.0979667],[-0.2446745,52.0978712],[-0.2445062,52.0977933],[-0.2443746,52.097753]]]}},
{"type":"Feature","properties":{"highway":"footway","name":null,"category":"Footpath (pedestrian only)"},"geometry":{"type":"MultiLineString","coordinates":[[[-0.2453879,52.0983529],[-0.2453437,52.0983494],[-0.2452813,52.0983465],[-0.2451123,52.0983218],[-0.2449239,52.0982526],[-0.2447207,52.0981216],[-0.2446912,52.0980973],[-0.2446597,52.098066],[-0.24459,52.0980071],[-0.2445343,52.0979663],[-0.2441635,52.0978304],[-0.2441492,52.0978269],[-0.2440052,52.0977916],[-0.2439288,52.0977624],[-0.2439133,52.0977624]]]}},
{"type":"Feature","properties":{"highway":"footway","name":null,"category":"Footpath (pedestrian only)"},"geometry":{"type":"MultiLineString","coordinates":[[[-0.2458878,52.0988979],[-0.2458566,52.0988931],[-0.2455723,52.0985739],[-0.2455013,52.0985321],[-0.2454215,52.0985121],[-0.2453859,52.098482],[-0.2453879,52.0983529],[-0.2454664,52.0983475]]]}},
{"type":"Feature","properties":{"highway":"footway","name":null,"category":"Footpath (pedestrian only)"},"geometry":{"type":"MultiLineString","coordinates":[[[-0.2443438,52.0989043],[-0.2443345,52.0989483],[-0.2444324,52.0990769],[-0.2447784,52.0992824],[-0.2448387,52.0993034],[-0.244932,52.0993001],[-0.2449192,52.0992808]]]}},
{"type":"Feature","properties":{"highway":"path","name":null,"category":"Shared path"},"geometry":{"type":"MultiLineString","coordinates":[[[-0.2404659,52.0917425],[-0.2403514,52.09174],[-0.2402922,52.0917471],[-0.2402756,52.0917491],[-0.2402033,52.091764],[-0.2397222,52.0918952],[-0.2397555,52.0919509],[-0.2397716,52.0919446],[-0.2398255,52.091917],[-0.2398887,52.091898],[-0.2399805,52.0918867],[-0.2400827,52.0918818],[-0.2401585,52.0918606],[-0.2402125,52.0918282],[-0.2402423,52.0917964],[-0.2402522,52.0917867],[-0.2402922,52.0917471]]]}},
{"type":"Feature","properties":{"highway":"path","name":null,"category":"Shared path"},"geometry":{"type":"MultiLineString","coordinates":[[[-0.2407594,52.0918631],[-0.240754,52.0918337],[-0.2407491,52.0918067]]]}},
{"type":"Feature","properties":{"highway":"path","name":null,"category":"Shared path"},"geometry":{"type":"MultiLineString","coordinates":[[[-0.2371935,52.0911112],[-0.2372185,52.0911446],[-0.237255,52.0911791],[-0.2372922,52.0911935],[-0.2373372,52.0912039],[-0.2373844,52.091212]]]}},
{"type":"Feature","properties":{"highway":"path","name":null,"category":"Shared path"},"geometry":{"type":"MultiLineString","coordinates":[[[-0.2387455,52.0894276],[-0.2390169,52.0894259]]]}},
{"type":"Feature","properties":{"highway":"footway","name":null,"category":"Footpath (pedestrian only)"},"geometry":{"type":"MultiLineString","coordinates":[[[-0.2390169,52.0894259],[-0.2390573,52.0894261],[-0.2390906,52.0894263]]]}},
{"type":"Feature","properties":{"highway":"path","name":null,"category":"Shared path"},"geometry":{"type":"MultiLineString","coordinates":[[[-0.2390906,52.0894263],[-0.2395881,52.0894221],[-0.2397944,52.0894203]]]}},
{"type":"Feature","properties":{"highway":"footway","name":null,"category":"Footpath (pedestrian only)"},"geometry":{"type":"MultiLineString","coordinates":[[[-0.2397944,52.0894203],[-0.2398586,52.0894198],[-0.2399069,52.0894203]]]}},
{"type":"Feature","properties":{"highway":"path","name":null,"category":"Shared path"},"geometry":{"type":"MultiLineString","coordinates":[[[-0.2399069,52.0894203],[-0.240399,52.0894164],[-0.2405352,52.0894153],[-0.2410077,52.0894129],[-0.2410051,52.0894464]]]}},
{"type":"Feature","properties":{"highway":"footway","name":null,"category":"Footpath (pedestrian only)"},"geometry":{"type":"MultiLineString","coordinates":[[[-0.2410051,52.0894464],[-0.2410064,52.0894856],[-0.2410073,52.0895125]]]}},
{"type":"Feature","properties":{"highway":"footway","name":null,"category":"Footpath (pedestrian only)"},"geometry":{"type":"MultiLineString","coordinates":[[[-0.2408229,52.0895434],[-0.2408653,52.0895431],[-0.2409336,52.0895437]]]}},
{"type":"Feature","properties":{"highway":"path","name":null,"category":"Shared path"},"geometry":{"type":"MultiLineString","coordinates":[[[-0.240399,52.0894164],[-0.2404004,52.0894504]]]}},
{"type":"Feature","properties":{"highway":"footway","name":null,"category":"Footpath (pedestrian only)"},"geometry":{"type":"MultiLineString","coordinates":[[[-0.2404004,52.0894504],[-0.2404018,52.089485],[-0.2404017,52.0895]]]}},
{"type":"Feature","properties":{"highway":"path","name":null,"category":"Shared path"},"geometry":{"type":"MultiLineString","coordinates":[[[-0.2404017,52.0895],[-0.2403991,52.0895462]]]}},
{"type":"Feature","properties":{"highway":"path","name":null,"category":"Shared path"},"geometry":{"type":"MultiLineString","coordinates":[[[-0.2395881,52.0894221],[-0.2395871,52.0894595]]]}},
{"type":"Feature","properties":{"highway":"footway","name":null,"category":"Footpath (pedestrian only)"},"geometry":{"type":"MultiLineString","coordinates":[[[-0.2395871,52.0894595],[-0.2395891,52.0894938],[-0.2395911,52.0895232]]]}},
{"type":"Feature","properties":{"highway":"path","name":null,"category":"Shared path"},"geometry":{"type":"MultiLineString","coordinates":[[[-0.2395911,52.0895232],[-0.2395931,52.0895515]]]}},
{"type":"Feature","properties":{"highway":"path","name":null,"category":"Shared path"},"geometry":{"type":"MultiLineString","coordinates":[[[-0.2413325,52.0895519],[-0.2413519,52.0895227]]]}},
{"type":"Feature","properties":{"highway":"footway","name":null,"category":"Footpath (pedestrian only)"},"geometry":{"type":"MultiLineString","coordinates":[[[-0.2413519,52.0895227],[-0.2413638,52.0894928],[-0.2413782,52.0894505]]]}},
{"type":"Feature","properties":{"highway":"path","name":null,"category":"Shared path"},"geometry":{"type":"MultiLineString","coordinates":[[[-0.2413782,52.0894505],[-0.2413957,52.0894214],[-0.2413176,52.0893614],[-0.2413031,52.0893595],[-0.2412762,52.0893558]]]}},
{"type":"Feature","properties":{"highway":"footway","name":null,"category":"Footpath (pedestrian only)"},"geometry":{"type":"MultiLineString","coordinates":[[[-0.2412762,52.0893558],[-0.2412,52.0893445],[-0.2411475,52.0893332]]]}},
{"type":"Feature","properties":{"highway":"path","name":null,"category":"Shared path"},"geometry":{"type":"MultiLineString","coordinates":[[[-0.2411475,52.0893332],[-0.2411086,52.0893236],[-0.2411116,52.0892798],[-0.2411319,52.0892317],[-0.2411391,52.0892178],[-0.2413288,52.0889431],[-0.2413491,52.0889149],[-0.241416,52.0889334]]]}},
{"type":"Feature","properties":{"highway":"footway","name":null,"category":"Footpath (pedestrian only)"},"geometry":{"type":"MultiLineString","coordinates":[[[-0.241416,52.0889334],[-0.2414577,52.0889416],[-0.2414885,52.0889505]]]}},
{"type":"Feature","properties":{"highway":"path","name":null,"category":"Shared path"},"geometry":{"type":"MultiLineString","coordinates":[[[-0.2414885,52.0889505],[-0.241547,52.0889679],[-0.2414932,52.0890572],[-0.2413964,52.0891901],[-0.2413773,52.0892164],[-0.2413031,52.0893595]]]}},
{"type":"Feature","properties":{"highway":"path","name":null,"category":"Shared path"},"geometry":{"type":"MultiLineString","coordinates":[[[-0.2413957,52.0894214],[-0.2415686,52.0894547],[-0.2414578,52.0892068],[-0.2413964,52.0891901]]]}},
{"type":"Feature","properties":{"highway":"path","name":null,"category":"Shared path"},"geometry":{"type":"MultiLineString","coordinates":[[[-0.2415686,52.0894547],[-0.2417568,52.0895215],[-0.2419281,52.089624],[-0.2419844,52.0896767]]]}},
{"type":"Feature","properties":{"highway":"footway","name":null,"category":"Footpath (pedestrian only)"},"geometry":{"type":"MultiLineString","coordinates":[[[-0.2419844,52.0896767],[-0.2420059,52.0897041],[-0.2420343,52.089736]]]}},
{"type":"Feature","properties":{"highway":"path","name":null,"category":"Shared path"},"geometry":{"type":"MultiLineString","coordinates":[[[-0.2410077,52.0894129],[-0.2410956,52.0894138],[-0.2411097,52.0893864],[-0.2411086,52.0893236]]]}},
{"type":"Feature","properties":{"highway":"path","name":null,"category":"Shared path"},"geometry":{"type":"MultiLineString","coordinates":[[[-0.2413491,52.0889149],[-0.2414233,52.0888085]]]}},
{"type":"Feature","properties":{"highway":"footway","name":null,"category":"Footpath (pedestrian only)"},"geometry":{"type":"MultiLineString","coordinates":[[[-0.2414233,52.0888085],[-0.2414461,52.0887744],[-0.2414666,52.0887449]]]}},
{"type":"Feature","properties":{"highway":"path","name":null,"category":"Shared path"},"geometry":{"type":"MultiLineString","coordinates":[[[-0.241547,52.0889679],[-0.2417305,52.0887102]]]}},
{"type":"Feature","properties":{"highway":"footway","name":null,"category":"Footpath (pedestrian only)"},"geometry":{"type":"MultiLineString","coordinates":[[[-0.2417305,52.0887102],[-0.2417579,52.0886752],[-0.2417804,52.0886465]]]}},
{"type":"Feature","properties":{"highway":"path","name":null,"category":"Shared path"},"geometry":{"type":"MultiLineString","coordinates":[[[-0.2417804,52.0886465],[-0.2419358,52.0884744],[-0.2420605,52.0883406],[-0.2421938,52.0882127]]]}},
{"type":"Feature","properties":{"highway":"footway","name":null,"category":"Footpath (pedestrian only)"},"geometry":{"type":"MultiLineString","coordinates":[[[-0.2421938,52.0882127],[-0.2422284,52.0881774],[-0.24226,52.0881485]]]}},
{"type":"Feature","properties":{"highway":"path","name":null,"category":"Shared path"},"geometry":{"type":"MultiLineString","coordinates":[[[-0.2419358,52.0884744],[-0.2418782,52.0884526]]]}},
{"type":"Feature","properties":{"highway":"footway","name":null,"category":"Footpath (pedestrian only)"},"geometry":{"type":"MultiLineString","coordinates":[[[-0.2418782,52.0884526],[-0.2418404,52.0884404],[-0.2418082,52.0884261]]]}},
{"type":"Feature","properties":{"highway":"path","name":null,"category":"Shared path"},"geometry":{"type":"MultiLineString","coordinates":[[[-0.2418082,52.0884261],[-0.2417401,52.0884072],[-0.24165,52.0885098],[-0.2414666,52.0887449]]]}},
{"type":"Feature","properties":{"highway":"path","name":null,"category":"Shared path"},"geometry":{"type":"MultiLineString","coordinates":[[[-0.2420914,52.0904144],[-0.2421044,52.0903222]]]}},
{"type":"Feature","properties":{"highway":"footway","name":null,"category":"Footpath (pedestrian only)"},"geometry":{"type":"MultiLineString","coordinates":[[[-0.2421044,52.0903222],[-0.2421121,52.0902903],[-0.2421146,52.0902561]]]}},
{"type":"Feature","properties":{"highway":"path","name":null,"category":"Shared path"},"geometry":{"type":"MultiLineString","coordinates":[[[-0.2418639,52.0904451],[-0.2418587,52.0904828]]]}},
{"type":"Feature","properties":{"highway":"footway","name":null,"category":"Footpath (pedestrian only)"},"geometry":{"type":"MultiLineString","coordinates":[[[-0.2418587,52.0904828],[-0.2418552,52.0905126],[-0.2418512,52.0905463]]]}},
{"type":"Feature","properties":{"highway":"path","name":null,"category":"Shared path"},"geometry":{"type":"MultiLineString","coordinates":[[[-0.2418512,52.0905463],[-0.2418429,52.0906133],[-0.2418804,52.0906174]]]}},
{"type":"Feature","properties":{"highway":"footway","name":null,"category":"Footpath (pedestrian only)"},"geometry":{"type":"MultiLineString","coordinates":[[[-0.2418804,52.0906174],[-0.2419272,52.0906221],[-0.2419961,52.0906281]]]}},
{"type":"Feature","properties":{"highway":"path","name":null,"category":"Shared path"},"geometry":{"type":"MultiLineString","coordinates":[[[-0.2419961,52.0906281],[-0.2420419,52.0906307],[-0.2420914,52.0904144]]]}},
{"type":"Feature","properties":{"highway":"path","name":null,"category":"Shared path"},"geometry":{"type":"MultiLineString","coordinates":[[[-0.242744,52.0903043],[-0.2428101,52.0904186]]]}},
{"type":"Feature","properties":{"highway":"path","name":null,"category":"Shared path"},"geometry":{"type":"MultiLineString","coordinates":[[[-0.2431646,52.0902978],[-0.243252,52.0902789],[-0.2433503,52.0902422],[-0.2434354,52.0901994],[-0.2435194,52.0901492],[-0.2435735,52.0901139],[-0.2436078,52.0900963],[-0.2436475,52.0900874],[-0.2436995,52.0900915],[-0.243758,52.090101],[-0.2438144,52.0901092],[-0.2438597,52.0901119],[-0.2438752,52.0901067],[-0.2439006,52.0900983],[-0.2439458,52.0900644],[-0.244,52.0900162],[-0.2440442,52.0899972],[-0.2441049,52.0899843],[-0.2441679,52.0899843],[-0.2442187,52.0899938],[-0.2442629,52.0900121],[-0.2442939,52.0900426],[-0.2443049,52.0900684],[-0.2443171,52.0901092],[-0.2443127,52.0901424],[-0.2442873,52.0901648],[-0.2442469,52.090187],[-0.2441922,52.0902171],[-0.2441826,52.0902345]]]}},
{"type":"Feature","properties":{"highway":"path","name":null,"category":"Shared path"},"geometry":{"type":"MultiLineString","coordinates":[[[-0.2441826,52.0902345],[-0.2442895,52.0902232]]]}},
{"type":"Feature","properties":{"highway":"path","name":null,"category":"Shared path"},"geometry":{"type":"MultiLineString","coordinates":[[[-0.2442469,52.090187],[-0.2442077,52.090154],[-0.2441657,52.0901302],[-0.2441359,52.0901227],[-0.244095,52.0901268],[-0.2440552,52.0901377],[-0.2439911,52.0901343],[-0.2439525,52.0901288],[-0.2439149,52.0901193],[-0.2438752,52.0901067]]]}},
{"type":"Feature","properties":{"highway":"path","name":null,"category":"Shared path"},"geometry":{"type":"MultiLineString","coordinates":[[[-0.2420343,52.089736],[-0.2420838,52.0898192],[-0.2421233,52.0899634],[-0.2421263,52.0900408],[-0.2421263,52.0900732],[-0.2421146,52.0902561]]]}},
{"type":"Feature","properties":{"highway":"path","name":null,"category":"Shared path"},"geometry":{"type":"MultiLineString","coordinates":[[[-0.2421263,52.0900732],[-0.2420662,52.0900705]]]}},
{"type":"Feature","properties":{"highway":"footway","name":null,"category":"Footpath (pedestrian only)"},"geometry":{"type":"MultiLineString","coordinates":[[[-0.2420662,52.0900705],[-0.2420208,52.0900705],[-0.2419899,52.0900669]]]}},
{"type":"Feature","properties":{"highway":"path","name":null,"category":"Shared path"},"geometry":{"type":"MultiLineString","coordinates":[[[-0.2419899,52.0900669],[-0.2419078,52.090066],[-0.2419049,52.0900001]]]}},
{"type":"Feature","properties":{"highway":"path","name":null,"category":"Shared path"},"geometry":{"type":"MultiLineString","coordinates":[[[-0.2420006,52.0874775],[-0.2420564,52.0874827],[-0.2421165,52.0875079],[-0.2421532,52.0875503],[-0.2421781,52.0876007],[-0.2422265,52.0875894]]]}},
{"type":"Feature","properties":{"highway":"path","name":null,"category":"Shared path"},"geometry":{"type":"MultiLineString","coordinates":[[[-0.2410296,52.0878502],[-0.2409343,52.0877971],[-0.2407463,52.0877087],[-0.2406187,52.0876268],[-0.2404854,52.0875048],[-0.2404403,52.0874058],[-0.2404278,52.0873068],[-0.2404249,52.0872467],[-0.2403894,52.0871871],[-0.2403463,52.0871583],[-0.2402371,52.0871052]]]}},
{"type":"Feature","properties":{"highway":"path","name":null,"category":"Shared path"},"geometry":{"type":"MultiLineString","coordinates":[[[-0.2404854,52.0875048],[-0.2404307,52.0875225],[-0.2403261,52.0875472],[-0.2402187,52.0875472],[-0.2401621,52.0875378],[-0.2400902,52.0875101],[-0.2399089,52.0874199],[-0.2398227,52.0873815]]]}},
{"type":"Feature","properties":{"highway":"path","name":null,"category":"Shared path"},"geometry":{"type":"MultiLineString","coordinates":[[[-0.2416873,52.0870312],[-0.2418482,52.086947],[-0.2419371,52.0869304]]]}},
{"type":"Feature","properties":{"highway":"path","name":null,"category":"Shared path"},"geometry":{"type":"MultiLineString","coordinates":[[[-0.2416092,52.0862883],[-0.2416637,52.0863301],[-0.2416846,52.0863514],[-0.241794,52.0864668],[-0.2419034,52.0866203],[-0.2419243,52.086644],[-0.2419652,52.0866501]]]}},
{"type":"Feature","properties":{"highway":"footway","name":null,"category":"Footpath (pedestrian only)"},"geometry":{"type":"MultiLineString","coordinates":[[[-0.2419652,52.0866501],[-0.241981,52.0866947]]]}},
{"type":"Feature","properties":{"highway":"path","name":null,"category":"Shared path"},"geometry":{"type":"MultiLineString","coordinates":[[[-0.2416637,52.0863301],[-0.2417896,52.0861593],[-0.2418658,52.086181],[-0.2419192,52.0862009]]]}},
{"type":"Feature","properties":{"highway":"footway","name":null,"category":"Footpath (pedestrian only)"},"geometry":{"type":"MultiLineString","coordinates":[[[-0.2424292,52.0877949],[-0.2424233,52.087768]]]}},
{"type":"Feature","properties":{"highway":"path","name":null,"category":"Shared path"},"geometry":{"type":"MultiLineString","coordinates":[[[-0.2424233,52.087768],[-0.2424068,52.0877214],[-0.2423936,52.0876707]]]}},
{"type":"Feature","properties":{"highway":"footway","name":null,"category":"Footpath (pedestrian only)"},"geometry":{"type":"MultiLineString","coordinates":[[[-0.2423936,52.0876707],[-0.2423875,52.0876434]]]}},
{"type":"Feature","properties":{"highway":"path","name":null,"category":"Shared path"},"geometry":{"type":"MultiLineString","coordinates":[[[-0.2449929,52.0873529],[-0.2450231,52.0874175],[-0.2450002,52.0874527],[-0.2449897,52.087467]]]}},
{"type":"Feature","properties":{"highway":"path","name":null,"category":"Shared path"},"geometry":{"type":"MultiLineString","coordinates":[[[-0.2422166,52.0877479],[-0.2422166,52.0878181]]]}},
{"type":"Feature","properties":{"highway":"path","name":null,"category":"Shared path"},"geometry":{"type":"MultiLineString","coordinates":[[[-0.2422166,52.0878181],[-0.2422218,52.087895],[-0.2422046,52.0879453],[-0.2421347,52.0880304],[-0.2419248,52.0882299],[-0.2417401,52.0884072]]]}},
{"type":"Feature","properties":{"highway":"path","name":null,"category":"Shared path"},"geometry":{"type":"MultiLineString","coordinates":[[[-0.2441492,52.0978269],[-0.2440134,52.0980081],[-0.2440055,52.0980617],[-0.2440134,52.0981178],[-0.244028,52.0981503],[-0.2440875,52.0982226],[-0.2441936,52.0983037]]]}},
{"type":"Feature","properties":{"highway":"footway","name":null,"category":"Footpath (pedestrian only)"},"geometry":{"type":"MultiLineString","coordinates":[[[-0.2435249,52.0981086],[-0.2434388,52.0981082],[-0.2433818,52.098112]]]}},
{"type":"Feature","properties":{"highway":"path","name":null,"category":"Shared path"},"geometry":{"type":"MultiLineString","coordinates":[[[-0.2433818,52.098112],[-0.243327,52.0981273]]]}},
{"type":"Feature","properties":{"highway":"footway","name":null,"category":"Footpath (pedestrian only)"},"geometry":{"type":"MultiLineString","coordinates":[[[-0.243327,52.0981273],[-0.243279,52.0981489]]]}},
{"type":"Feature","properties":{"highway":"path","name":null,"category":"Shared path"},"geometry":{"type":"MultiLineString","coordinates":[[[-0.2441105,52.0976733],[-0.2441139,52.0976213],[-0.2440989,52.0975429],[-0.2440282,52.0974394],[-0.2439803,52.0973941],[-0.2439763,52.0973819]]]}},
{"type":"Feature","properties":{"highway":"path","name":null,"category":"Shared path"},"geometry":{"type":"MultiLineString","coordinates":[[[-0.2415991,52.0956621],[-0.2417081,52.095621],[-0.24176,52.0956008],[-0.2418367,52.0955812],[-0.2419035,52.0955702],[-0.2420022,52.0955604],[-0.2421278,52.0955641],[-0.2421896,52.0955733],[-0.2422434,52.0955892],[-0.2422654,52.0956008],[-0.2422828,52.095627]]]}},
{"type":"Feature","properties":{"highway":"path","name":null,"category":"Shared path"},"geometry":{"type":"MultiLineString","coordinates":[[[-0.2420426,52.0956937],[-0.2420869,52.0957466],[-0.2420899,52.0957845],[-0.2420829,52.0958188],[-0.242058,52.0958537],[-0.2419992,52.0958991],[-0.2419374,52.0959321],[-0.2418764,52.0959585]]]}},
{"type":"Feature","properties":{"highway":"path","name":null,"category":"Shared path"},"geometry":{"type":"MultiLineString","coordinates":[[[-0.240841,52.0948019],[-0.2408211,52.0947814],[-0.240764,52.0947569],[-0.2406746,52.0947449],[-0.2405927,52.0947564],[-0.2405334,52.0947841],[-0.2405011,52.0948072],[-0.2404823,52.0948261],[-0.2404712,52.0948634]]]}},
{"type":"Feature","properties":{"highway":"path","name":null,"category":"Shared path"},"geometry":{"type":"MultiLineString","coordinates":[[[-0.2400778,52.0943151],[-0.2401217,52.0943469],[-0.2401576,52.0943457],[-0.2404463,52.0942656]]]}},
{"type":"Feature","properties":{"highway":"footway","name":null,"category":"Footpath (pedestrian only)"},"geometry":{"type":"MultiLineString","coordinates":[[[-0.2453862,52.0840871],[-0.2453845,52.0840384],[-0.2455252,52.0839915],[-0.2455709,52.0839608],[-0.2456166,52.0839301]]]}},
{"type":"Feature","properties":{"highway":"path","name":null,"category":"Shared path"},"geometry":{"type":"MultiLineString","coordinates":[[[-0.2378588,52.0933111],[-0.2377088,52.093323],[-0.2375987,52.0933284]]]}},
{"type":"Feature","properties":{"highway":"path","name":null,"category":"Shared path"},"geometry":{"type":"MultiLineString","coordinates":[[[-0.2378588,52.0933111],[-0.2378709,52.093349],[-0.2379447,52.0933746]]]}},
{"type":"Feature","properties":{"highway":"path","name":null,"category":"Shared path"},"geometry":{"type":"MultiLineString","coordinates":[[[-0.2375987,52.0933284],[-0.2375638,52.0934108]]]}},
{"type":"Feature","properties":{"highway":"path","name":null,"category":"Shared path"},"geometry":{"type":"MultiLineString","coordinates":[[[-0.2410073,52.0895125],[-0.2410083,52.0895425]]]}},
{"type":"Feature","properties":{"highway":"footway","name":null,"category":"Footpath (pedestrian only)"},"geometry":{"type":"MultiLineString","coordinates":[[[-0.2284802,52.0823724],[-0.2317033,52.0826234],[-0.2351707,52.0832176],[-0.2372273,52.0845895],[-0.2408358,52.084521],[-0.2445331,52.0836488],[-0.2447826,52.0836165],[-0.2450598,52.0836067]]]}},
{"type":"Feature","properties":{"highway":"path","name":null,"category":"Shared path"},"geometry":{"type":"MultiLineString","coordinates":[[[-0.2371928,52.0912554],[-0.2373766,52.0912138],[-0.2373844,52.091212],[-0.2374368,52.0912001],[-0.2375198,52.0911729],[-0.2375565,52.0911732],[-0.2376114,52.0911737]]]}},
{"type":"Feature","properties":{"highway":"footway","name":null,"category":"Footpath (pedestrian only)"},"geometry":{"type":"MultiLineString","coordinates":[[[-0.2376114,52.0911737],[-0.2376936,52.0911744],[-0.2377646,52.0911766]]]}},
{"type":"Feature","properties":{"highway":"footway","name":null,"category":"Footpath (pedestrian only)"},"geometry":{"type":"MultiLineString","coordinates":[[[-0.2398031,52.0963188],[-0.238872,52.0965824]]]}},
{"type":"Feature","properties":{"highway":"footway","name":null,"category":"Footpath (pedestrian only)"},"geometry":{"type":"MultiLineString","coordinates":[[[-0.2399357,52.0962679],[-0.2399046,52.0962811],[-0.2398904,52.0962872],[-0.2398612,52.0962997],[-0.2398425,52.0963076],[-0.2398031,52.0963188]]]}},
{"type":"Feature","properties":{"highway":"bridleway","name":null,"category":"Bridleway"},"geometry":{"type":"MultiLineString","coordinates":[[[-0.2387015,52.098444],[-0.2386323,52.0983564],[-0.2386671,52.0982914],[-0.2386931,52.09824],[-0.2386992,52.0981333],[-0.2386905,52.098074],[-0.2386729,52.0980211],[-0.238636,52.0978452],[-0.238616,52.0977385],[-0.2386095,52.0976224],[-0.2386324,52.097401],[-0.2386739,52.0971694],[-0.2387001,52.0970513],[-0.2387083,52.0970146],[-0.2387508,52.0968664],[-0.2387993,52.0967133],[-0.238872,52.0965824],[-0.2388553,52.0964841],[-0.2388062,52.0962695],[-0.2386951,52.0958304],[-0.2385951,52.0954361],[-0.2385052,52.095198],[-0.2378649,52.0944048],[-0.2377725,52.0943144],[-0.2377349,52.0941727],[-0.2376946,52.09397],[-0.2375552,52.0936923],[-0.23749,52.0936046]]]}},
{"type":"Feature","properties":{"highway":"bridleway","name":null,"category":"Bridleway"},"geometry":{"type":"MultiLineString","coordinates":[[[-0.2406018,52.0992305],[-0.2401682,52.099103],[-0.2399169,52.0990255],[-0.239682,52.0989346],[-0.2394335,52.0988381],[-0.2393128,52.0987891],[-0.2392018,52.0987329],[-0.2387015,52.098444]]]}},
{"type":"Feature","properties":{"highway":"pedestrian","name":"Gemini Lane","category":"Pedestrian area/street"},"geometry":{"type":"MultiLineString","coordinates":[[[-0.2399018,52.0906441],[-0.2398963,52.0906756],[-0.2399102,52.0907271],[-0.240731,52.0905853]]]}},
{"type":"Feature","properties":{"highway":"pedestrian","name":"Gemini Lane","category":"Pedestrian area/street"},"geometry":{"type":"MultiLineString","coordinates":[[[-0.2410881,52.0905114],[-0.2414824,52.0904467]]]}}
]
}
