{
"type": "FeatureCollection",
"name": "DACOR_186_walking",
"crs": { "type": "name", "properties": { "name": "urn:ogc:def:crs:OGC:1.3:CRS84" } },
"features": [
{"type":"Feature","properties":{"highway":"footway","name":"Kiln Ground","category":"Footpath (pedestrian only)"},"geometry":{"type":"MultiLineString","coordinates":[[[-0.4446058,51.7443346],[-0.4449055,51.744377]]]}},
{"type":"Feature","properties":{"highway":"footway","name":"The Cloisters","category":"Footpath (pedestrian only)"},"geometry":{"type":"MultiLineString","coordinates":[[[-0.4484319,51.7414545],[-0.4487503,51.7415204]]]}},
{"type":"Feature","properties":{"highway":"footway","name":null,"category":"Footpath (pedestrian only)"},"geometry":{"type":"MultiLineString","coordinates":[[[-0.4487893,51.7352114],[-0.4486064,51.7348535],[-0.448505,51.7347285],[-0.4482097,51.7345179],[-0.4482242,51.7343012],[-0.4488883,51.7338869]]]}},
{"type":"Feature","properties":{"highway":"footway","name":null,"category":"Footpath (pedestrian only)"},"geometry":{"type":"MultiLineString","coordinates":[[[-0.4483405,51.7353757],[-0.448422,51.7351257],[-0.4485948,51.7350626],[-0.4486064,51.7348535],[-0.4488182,51.7347702]]]}},
{"type":"Feature","properties":{"highway":"footway","name":"Candlefield Walk","category":"Footpath (pedestrian only)"},"geometry":{"type":"MultiLineString","coordinates":[[[-0.4508115,51.7396281],[-0.4501389,51.7395602],[-0.4505223,51.7396628]]]}},
{"type":"Feature","properties":{"highway":"footway","name":"Candlefield Walk","category":"Footpath (pedestrian only)"},"geometry":{"type":"MultiLineString","coordinates":[[[-0.4505223,51.7396628],[-0.4501035,51.7396312],[-0.4507175,51.7397411]]]}},
{"type":"Feature","properties":{"highway":"footway","name":"Candlefield Close","category":"Footpath (pedestrian only)"},"geometry":{"type":"MultiLineString","coordinates":[[[-0.4501601,51.7402943],[-0.4497977,51.7401296],[-0.4497371,51.7401312]]]}},
{"type":"Feature","properties":{"highway":"footway","name":"Candlefield Close","category":"Footpath (pedestrian only)"},"geometry":{"type":"MultiLineString","coordinates":[[[-0.4497371,51.7401312],[-0.4496487,51.7402246],[-0.4500422,51.7403898]]]}},
{"type":"Feature","properties":{"highway":"footway","name":null,"category":"Footpath (pedestrian only)"},"geometry":{"type":"MultiLineString","coordinates":[[[-0.4594783,51.7329062],[-0.4595852,51.7329432],[-0.4597636,51.7328677],[-0.45995,51.7328826]]]}},
{"type":"Feature","properties":{"highway":"footway","name":null,"category":"Footpath (pedestrian only)"},"geometry":{"type":"MultiLineString","coordinates":[[[-0.4655537,51.7381371],[-0.4655287,51.7381462],[-0.4655048,51.7381253],[-0.4654865,51.7381036],[-0.465366,51.7380211],[-0.4652033,51.737865],[-0.4648432,51.7375204],[-0.4643138,51.7370272],[-0.4637545,51.7364609],[-0.4635628,51.7362731],[-0.463462,51.7361847],[-0.4634091,51.7361413],[-0.4633175,51.7360693],[-0.4631316,51.7359629],[-0.4630276,51.7359151],[-0.4629869,51.7358998],[-0.4628767,51.7358584],[-0.4626204,51.7357665],[-0.4624481,51.7357042],[-0.4623391,51.735642],[-0.4622625,51.7355769],[-0.4621519,51.7354616],[-0.4621092,51.7354223],[-0.4620797,51.7353691],[-0.46206,51.7353122],[-0.4620116,51.7351788],[-0.4617797,51.7346006],[-0.4617536,51.7345018],[-0.4617007,51.7344048],[-0.4615282,51.7341807],[-0.4613352,51.7339794],[-0.4612324,51.7338384],[-0.4610212,51.7336146],[-0.4607409,51.7334439]]]}},
{"type":"Feature","properties":{"highway":"footway","name":null,"category":"Footpath (pedestrian only)"},"geometry":{"type":"MultiLineString","coordinates":[[[-0.4507846,51.7405917],[-0.4508563,51.7404954],[-0.450816,51.7402512],[-0.4512736,51.7398738],[-0.4509295,51.7397479],[-0.4507175,51.7397411]]]}},
{"type":"Feature","properties":{"highway":"footway","name":null,"category":"Footpath (pedestrian only)"},"geometry":{"type":"MultiLineString","coordinates":[[[-0.4512736,51.7398738],[-0.451456,51.739721],[-0.4514989,51.7396014],[-0.4514119,51.739333],[-0.4514024,51.7392161],[-0.4514697,51.7390853],[-0.45157,51.7388271],[-0.4515278,51.7386834]]]}},
{"type":"Feature","properties":{"highway":"footway","name":null,"category":"Footpath (pedestrian only)"},"geometry":{"type":"MultiLineString","coordinates":[[[-0.4508563,51.7404954],[-0.4511375,51.7402608],[-0.452028,51.7399818],[-0.4525108,51.7397957],[-0.4528434,51.7396363],[-0.4529721,51.7394768],[-0.4529399,51.7393905],[-0.4529187,51.7393734],[-0.4528431,51.7393125]]]}},
{"type":"Feature","properties":{"highway":"footway","name":null,"category":"Footpath (pedestrian only)"},"geometry":{"type":"MultiLineString","coordinates":[[[-0.4541675,51.7409096],[-0.4540236,51.7408947],[-0.4533566,51.7408971],[-0.4531876,51.7409137],[-0.4528711,51.7409868],[-0.4525116,51.7411178],[-0.4522216,51.7412027],[-0.4517566,51.7412575],[-0.4515493,51.7412606],[-0.4513216,51.741264],[-0.4502412,51.7412738],[-0.4501422,51.7413063]]]}},
{"type":"Feature","properties":{"highway":"footway","name":null,"category":"Footpath (pedestrian only)"},"geometry":{"type":"MultiLineString","coordinates":[[[-0.4533566,51.7408971],[-0.4532441,51.7409996],[-0.4532226,51.7411368],[-0.4534442,51.7414793],[-0.4536073,51.7417745],[-0.4536739,51.741946]]]}},
{"type":"Feature","properties":{"highway":"footway","name":null,"category":"Footpath (pedestrian only)"},"geometry":{"type":"MultiLineString","coordinates":[[[-0.4517566,51.7412575],[-0.451783,51.7413841],[-0.4522212,51.7417849],[-0.4526176,51.7420553],[-0.452798,51.7421866]]]}},
{"type":"Feature","properties":{"highway":"footway","name":null,"category":"Footpath (pedestrian only)"},"geometry":{"type":"MultiLineString","coordinates":[[[-0.4502412,51.7412738],[-0.4507846,51.7405917],[-0.4502516,51.7403887],[-0.4502371,51.7403258],[-0.4501601,51.7402943]]]}},
{"type":"Feature","properties":{"highway":"footway","name":null,"category":"Footpath (pedestrian only)"},"geometry":{"type":"MultiLineString","coordinates":[[[-0.4435217,51.7410289],[-0.4435877,51.7410601]]]}},
{"type":"Feature","properties":{"highway":"footway","name":null,"category":"Footpath (pedestrian only)"},"geometry":{"type":"MultiLineString","coordinates":[[[-0.443766,51.7409078],[-0.4435877,51.7410601],[-0.44342,51.7412034],[-0.4431496,51.7413701],[-0.443046,51.7414478],[-0.4430329,51.7414576],[-0.4429242,51.7415391],[-0.4427628,51.7416602]]]}},
{"type":"Feature","properties":{"highway":"footway","name":null,"category":"Footpath (pedestrian only)"},"geometry":{"type":"MultiLineString","coordinates":[[[-0.4429597,51.7415571],[-0.4429242,51.7415391]]]}},
{"type":"Feature","properties":{"highway":"footway","name":null,"category":"Footpath (pedestrian only)"},"geometry":{"type":"MultiLineString","coordinates":[[[-0.4445452,51.7403265],[-0.4441281,51.740667],[-0.4438142,51.7409045],[-0.4437961,51.7409057],[-0.443766,51.7409078]]]}},
{"type":"Feature","properties":{"highway":"footway","name":null,"category":"Footpath (pedestrian only)"},"geometry":{"type":"MultiLineString","coordinates":[[[-0.4433904,51.7407367],[-0.443766,51.7409078]]]}},
{"type":"Feature","properties":{"highway":"footway","name":null,"category":"Footpath (pedestrian only)"},"geometry":{"type":"MultiLineString","coordinates":[[[-0.4427555,51.7408371],[-0.4427815,51.7408486]]]}},
{"type":"Feature","properties":{"highway":"footway","name":null,"category":"Footpath (pedestrian only)"},"geometry":{"type":"MultiLineString","coordinates":[[[-0.4428316,51.7407798],[-0.4428578,51.7407891]]]}},
{"type":"Feature","properties":{"highway":"footway","name":null,"category":"Footpath (pedestrian only)"},"geometry":{"type":"MultiLineString","coordinates":[[[-0.4430042,51.7406437],[-0.4430301,51.7406547]]]}},
{"type":"Feature","properties":{"highway":"footway","name":null,"category":"Footpath (pedestrian only)"},"geometry":{"type":"MultiLineString","coordinates":[[[-0.442865,51.7410206],[-0.4429041,51.7410357]]]}},
{"type":"Feature","properties":{"highway":"footway","name":null,"category":"Footpath (pedestrian only)"},"geometry":{"type":"MultiLineString","coordinates":[[[-0.4429667,51.7409867],[-0.4429041,51.7410357],[-0.4428746,51.7410588],[-0.4427119,51.7411852],[-0.4431496,51.7413701]]]}},
{"type":"Feature","properties":{"highway":"footway","name":null,"category":"Footpath (pedestrian only)"},"geometry":{"type":"MultiLineString","coordinates":[[[-0.4431128,51.7406188],[-0.44309,51.740608],[-0.4430301,51.7406547],[-0.4428578,51.7407891],[-0.4427815,51.7408486],[-0.4427039,51.7409092],[-0.44263,51.7409667],[-0.4424651,51.7410971]]]}},
{"type":"Feature","properties":{"highway":"footway","name":null,"category":"Footpath (pedestrian only)"},"geometry":{"type":"MultiLineString","coordinates":[[[-0.4429667,51.7409867],[-0.4429144,51.7409908],[-0.4427039,51.7409092]]]}},
{"type":"Feature","properties":{"highway":"footway","name":null,"category":"Footpath (pedestrian only)"},"geometry":{"type":"MultiLineString","coordinates":[[[-0.4433904,51.7407367],[-0.4431128,51.7406188],[-0.4427521,51.740902],[-0.4429667,51.7409867],[-0.4433542,51.7411544],[-0.44342,51.7412034]]]}},
{"type":"Feature","properties":{"highway":"footway","name":null,"category":"Footpath (pedestrian only)"},"geometry":{"type":"MultiLineString","coordinates":[[[-0.4606667,51.7343544],[-0.4607271,51.7343313],[-0.4609002,51.7342589],[-0.4608306,51.7341879],[-0.4609452,51.7341428],[-0.4611999,51.7340511],[-0.4613352,51.7339794]]]}},
{"type":"Feature","properties":{"highway":"footway","name":null,"category":"Footpath (pedestrian only)"},"geometry":{"type":"MultiLineString","coordinates":[[[-0.4611155,51.7347619],[-0.4612328,51.7347193],[-0.4613062,51.7346915],[-0.4614124,51.7346385],[-0.461542,51.7345932],[-0.4615856,51.7345709],[-0.4616386,51.7345533],[-0.4617536,51.7345018]]]}},
{"type":"Feature","properties":{"highway":"footway","name":null,"category":"Footpath (pedestrian only)"},"geometry":{"type":"MultiLineString","coordinates":[[[-0.4615856,51.7345709],[-0.4614744,51.7344902],[-0.4614461,51.7344058],[-0.4614322,51.7343232],[-0.4613944,51.7342442],[-0.461307,51.7341396],[-0.4611999,51.7340511]]]}},
{"type":"Feature","properties":{"highway":"footway","name":null,"category":"Footpath (pedestrian only)"},"geometry":{"type":"MultiLineString","coordinates":[[[-0.4532441,51.7409996],[-0.4531876,51.7409137]]]}},
{"type":"Feature","properties":{"highway":"footway","name":null,"category":"Footpath (pedestrian only)"},"geometry":{"type":"MultiLineString","coordinates":[[[-0.451783,51.7413841],[-0.4515493,51.7412606]]]}},
{"type":"Feature","properties":{"highway":"footway","name":null,"category":"Footpath (pedestrian only)"},"geometry":{"type":"MultiLineString","coordinates":[[[-0.4509295,51.7397479],[-0.4508115,51.7396281]]]}},
{"type":"Feature","properties":{"highway":"footway","name":null,"category":"Footpath (pedestrian only)"},"geometry":{"type":"MultiLineString","coordinates":[[[-0.4502516,51.7403887],[-0.4501308,51.7404179],[-0.4500422,51.7403898]]]}},
{"type":"Feature","properties":{"highway":"footway","name":null,"category":"Footpath (pedestrian only)"},"geometry":{"type":"MultiLineString","coordinates":[[[-0.4611999,51.7340511],[-0.461191,51.7340411],[-0.4611534,51.734007],[-0.4610662,51.7339364],[-0.4610086,51.7338891],[-0.4608986,51.733826]]]}},
{"type":"Feature","properties":{"highway":"path","name":null,"category":"Shared path"},"geometry":{"type":"MultiLineString","coordinates":[[[-0.4576495,51.7328494],[-0.4575858,51.7328799],[-0.4568533,51.7332668]]]}},
{"type":"Feature","properties":{"highway":"footway","name":null,"category":"Footpath (pedestrian only)"},"geometry":{"type":"MultiLineString","coordinates":[[[-0.4511993,51.7326005],[-0.4512324,51.7325783],[-0.4514052,51.7324804],[-0.4517056,51.7322811],[-0.4518394,51.7322213],[-0.4518024,51.7321836],[-0.4517914,51.7320553],[-0.4516693,51.731991]]]}},
{"type":"Feature","properties":{"highway":"footway","name":null,"category":"Footpath (pedestrian only)"},"geometry":{"type":"MultiLineString","coordinates":[[[-0.4482242,51.7343012],[-0.447607,51.7326864],[-0.4474144,51.732331]]]}},
{"type":"Feature","properties":{"highway":"footway","name":null,"category":"Footpath (pedestrian only)"},"geometry":{"type":"MultiLineString","coordinates":[[[-0.4487488,51.731025],[-0.4488566,51.7310914]]]}},
{"type":"Feature","properties":{"highway":"footway","name":null,"category":"Footpath (pedestrian only)"},"geometry":{"type":"MultiLineString","coordinates":[[[-0.4501304,51.7445761],[-0.4499714,51.744596],[-0.4497188,51.7445849],[-0.4489314,51.7445244]]]}},
{"type":"Feature","properties":{"highway":"footway","name":null,"category":"Footpath (pedestrian only)"},"geometry":{"type":"MultiLineString","coordinates":[[[-0.4604957,51.7333149],[-0.4602259,51.733493],[-0.4602841,51.7335608]]]}},
{"type":"Feature","properties":{"highway":"footway","name":null,"category":"Footpath (pedestrian only)"},"geometry":{"type":"MultiLineString","coordinates":[[[-0.4478358,51.7397246],[-0.4474064,51.7396691],[-0.4469957,51.7395897],[-0.4466364,51.7394766]]]}},
{"type":"Feature","properties":{"highway":"footway","name":null,"category":"Footpath (pedestrian only)"},"geometry":{"type":"MultiLineString","coordinates":[[[-0.4568681,51.7378337],[-0.456848,51.7379146],[-0.4567222,51.7379784],[-0.4565665,51.7380646],[-0.4563604,51.738205],[-0.4560381,51.7383442],[-0.4558331,51.7384281],[-0.4557081,51.7384793],[-0.4553084,51.738653],[-0.4547334,51.7389793]]]}},
{"type":"Feature","properties":{"highway":"footway","name":null,"category":"Footpath (pedestrian only)"},"geometry":{"type":"MultiLineString","coordinates":[[[-0.4529187,51.7393734],[-0.4540258,51.7389452]]]}},
{"type":"Feature","properties":{"highway":"footway","name":null,"category":"Footpath (pedestrian only)"},"geometry":{"type":"MultiLineString","coordinates":[[[-0.4537893,51.7335726],[-0.4538055,51.7336323],[-0.454072,51.733769],[-0.4541548,51.7338661],[-0.4541967,51.7339152],[-0.4540988,51.7340656],[-0.4540827,51.7341785],[-0.4541033,51.7345678]]]}},
{"type":"Feature","properties":{"highway":"footway","name":null,"category":"Footpath (pedestrian only)"},"geometry":{"type":"MultiLineString","coordinates":[[[-0.4526008,51.7352625],[-0.4528872,51.7354825],[-0.4527851,51.7358461]]]}},
{"type":"Feature","properties":{"highway":"footway","name":null,"category":"Footpath (pedestrian only)"},"geometry":{"type":"MultiLineString","coordinates":[[[-0.4526172,51.7366856],[-0.4525669,51.7367105],[-0.4525709,51.7369422],[-0.4524962,51.7370027],[-0.4523595,51.7370659],[-0.4523219,51.737178],[-0.4521704,51.7371954],[-0.4521164,51.7372514]]]}},
{"type":"Feature","properties":{"highway":"footway","name":null,"category":"Footpath (pedestrian only)"},"geometry":{"type":"MultiLineString","coordinates":[[[-0.4525709,51.7369422],[-0.452673,51.7370116],[-0.453316,51.7373401]]]}},
{"type":"Feature","properties":{"highway":"footway","name":null,"category":"Footpath (pedestrian only)"},"geometry":{"type":"MultiLineString","coordinates":[[[-0.4534958,51.7371946],[-0.452685,51.7368671],[-0.4527588,51.7366353],[-0.4528768,51.7363262]]]}},
{"type":"Feature","properties":{"highway":"footway","name":null,"category":"Footpath (pedestrian only)"},"geometry":{"type":"MultiLineString","coordinates":[[[-0.4507073,51.7328302],[-0.4507683,51.7326192]]]}},
{"type":"Feature","properties":{"highway":"footway","name":null,"category":"Footpath (pedestrian only)"},"geometry":{"type":"MultiLineString","coordinates":[[[-0.4461983,51.7441617],[-0.4457126,51.7447637]]]}},
{"type":"Feature","properties":{"highway":"footway","name":null,"category":"Footpath (pedestrian only)"},"geometry":{"type":"MultiLineString","coordinates":[[[-0.4459785,51.7448452],[-0.4464863,51.7442623]]]}},
{"type":"Feature","properties":{"highway":"footway","name":null,"category":"Footpath (pedestrian only)"},"geometry":{"type":"MultiLineString","coordinates":[[[-0.4513925,51.7428226],[-0.451404,51.7429093],[-0.4510919,51.7431545],[-0.4510322,51.7431779]]]}},
{"type":"Feature","properties":{"highway":"path","name":null,"category":"Shared path"},"geometry":{"type":"MultiLineString","coordinates":[[[-0.4485149,51.7454038],[-0.4486844,51.7453004],[-0.4487171,51.7452165],[-0.4487609,51.7450769],[-0.4494667,51.7448253],[-0.4497178,51.7446907],[-0.4497188,51.7445849]]]}},
{"type":"Feature","properties":{"highway":"footway","name":null,"category":"Footpath (pedestrian only)"},"geometry":{"type":"MultiLineString","coordinates":[[[-0.4578512,51.7397029],[-0.4568673,51.740115],[-0.4567493,51.7401515],[-0.4567466,51.740176],[-0.4568606,51.7402225],[-0.4571436,51.7403899]]]}},
{"type":"Feature","properties":{"highway":"footway","name":null,"category":"Footpath (pedestrian only)"},"geometry":{"type":"MultiLineString","coordinates":[[[-0.4593071,51.7349304],[-0.4594229,51.734986],[-0.4595869,51.7350826],[-0.4598175,51.7352184],[-0.4599348,51.7352924],[-0.4599753,51.735332],[-0.4599874,51.7353419],[-0.4600692,51.7354086],[-0.4602121,51.7355103],[-0.4603463,51.7355919],[-0.460354,51.7356405],[-0.4602749,51.7356972]]]}},
{"type":"Feature","properties":{"highway":"footway","name":null,"category":"Footpath (pedestrian only)"},"geometry":{"type":"MultiLineString","coordinates":[[[-0.4603982,51.7350809],[-0.4601886,51.735233],[-0.4600393,51.7353162],[-0.4599874,51.7353419]]]}},
{"type":"Feature","properties":{"highway":"footway","name":null,"category":"Footpath (pedestrian only)"},"geometry":{"type":"MultiLineString","coordinates":[[[-0.4595869,51.7350826],[-0.4597492,51.7349661],[-0.4599488,51.7348459]]]}},
{"type":"Feature","properties":{"highway":"footway","name":null,"category":"Footpath (pedestrian only)"},"geometry":{"type":"MultiLineString","coordinates":[[[-0.4603315,51.7340719],[-0.4601971,51.7339587]]]}},
{"type":"Feature","properties":{"highway":"footway","name":null,"category":"Footpath (pedestrian only)"},"geometry":{"type":"MultiLineString","coordinates":[[[-0.4601971,51.7339587],[-0.4601097,51.7338698]]]}},
{"type":"Feature","properties":{"highway":"footway","name":null,"category":"Footpath (pedestrian only)"},"geometry":{"type":"MultiLineString","coordinates":[[[-0.4601097,51.7338698],[-0.4599945,51.7337602]]]}},
{"type":"Feature","properties":{"highway":"footway","name":null,"category":"Footpath (pedestrian only)"},"geometry":{"type":"MultiLineString","coordinates":[[[-0.4599945,51.7337602],[-0.4599456,51.7337065]]]}},
{"type":"Feature","properties":{"highway":"footway","name":null,"category":"Footpath (pedestrian only)"},"geometry":{"type":"MultiLineString","coordinates":[[[-0.4501096,51.7363815],[-0.4495858,51.7360598],[-0.4494836,51.7359892],[-0.4484767,51.735322]]]}},
{"type":"Feature","properties":{"highway":"footway","name":null,"category":"Footpath (pedestrian only)"},"geometry":{"type":"MultiLineString","coordinates":[[[-0.4485334,51.7362887],[-0.448802,51.7364463],[-0.448852,51.7364744],[-0.4489903,51.7365519],[-0.4496555,51.7368484]]]}},
{"type":"Feature","properties":{"highway":"footway","name":null,"category":"Footpath (pedestrian only)"},"geometry":{"type":"MultiLineString","coordinates":[[[-0.4510627,51.7367258],[-0.4510414,51.7366951],[-0.4507725,51.7366841],[-0.4504929,51.7366162],[-0.4501048,51.7364696]]]}},
{"type":"Feature","properties":{"highway":"footway","name":null,"category":"Footpath (pedestrian only)"},"geometry":{"type":"MultiLineString","coordinates":[[[-0.4510627,51.7367258],[-0.4510945,51.7367828],[-0.4512101,51.7367607]]]}},
{"type":"Feature","properties":{"highway":"footway","name":null,"category":"Footpath (pedestrian only)"},"geometry":{"type":"MultiLineString","coordinates":[[[-0.4518698,51.7350664],[-0.452046,51.7351627],[-0.452207,51.7353072],[-0.4522501,51.7353742]]]}},
{"type":"Feature","properties":{"highway":"footway","name":null,"category":"Footpath (pedestrian only)"},"geometry":{"type":"MultiLineString","coordinates":[[[-0.4501048,51.7364696],[-0.4503732,51.736846],[-0.4510627,51.7367258]]]}},
{"type":"Feature","properties":{"highway":"footway","name":null,"category":"Footpath (pedestrian only)"},"geometry":{"type":"MultiLineString","coordinates":[[[-0.4516685,51.7386296],[-0.4511795,51.7383871],[-0.4510872,51.7381215],[-0.450835,51.737653],[-0.4508203,51.7376257],[-0.4503732,51.736846]]]}},
{"type":"Feature","properties":{"highway":"footway","name":null,"category":"Footpath (pedestrian only)"},"geometry":{"type":"MultiLineString","coordinates":[[[-0.4501048,51.7364696],[-0.4500437,51.736441]]]}},
{"type":"Feature","properties":{"highway":"footway","name":null,"category":"Footpath (pedestrian only)"},"geometry":{"type":"MultiLineString","coordinates":[[[-0.4457581,51.7437905],[-0.445108,51.7431475]]]}},
{"type":"Feature","properties":{"highway":"footway","name":null,"category":"Footpath (pedestrian only)"},"geometry":{"type":"MultiLineString","coordinates":[[[-0.4473753,51.7441998],[-0.4474868,51.7443227],[-0.4478392,51.7444133]]]}},
{"type":"Feature","properties":{"highway":"footway","name":null,"category":"Footpath (pedestrian only)"},"geometry":{"type":"MultiLineString","coordinates":[[[-0.4478615,51.7436015],[-0.4480282,51.7434601]]]}},
{"type":"Feature","properties":{"highway":"footway","name":null,"category":"Footpath (pedestrian only)"},"geometry":{"type":"MultiLineString","coordinates":[[[-0.4451543,51.7423191],[-0.4455105,51.7417202],[-0.4459265,51.7411712],[-0.4461254,51.7409432],[-0.4463763,51.7406556],[-0.446688,51.7404777]]]}},
{"type":"Feature","properties":{"highway":"footway","name":null,"category":"Footpath (pedestrian only)"},"geometry":{"type":"MultiLineString","coordinates":[[[-0.4477954,51.740462],[-0.4482059,51.7406504],[-0.4482432,51.7406689],[-0.4485213,51.7406898]]]}},
{"type":"Feature","properties":{"highway":"footway","name":null,"category":"Footpath (pedestrian only)"},"geometry":{"type":"MultiLineString","coordinates":[[[-0.4482059,51.7406504],[-0.4474194,51.7412572]]]}},
{"type":"Feature","properties":{"highway":"footway","name":null,"category":"Footpath (pedestrian only)"},"geometry":{"type":"MultiLineString","coordinates":[[[-0.4457245,51.7407668],[-0.4461254,51.7409432]]]}},
{"type":"Feature","properties":{"highway":"footway","name":null,"category":"Footpath (pedestrian only)"},"geometry":{"type":"MultiLineString","coordinates":[[[-0.4490935,51.7388777],[-0.4483717,51.7383407]]]}},
{"type":"Feature","properties":{"highway":"footway","name":null,"category":"Footpath (pedestrian only)"},"geometry":{"type":"MultiLineString","coordinates":[[[-0.4501282,51.7414325],[-0.4506336,51.7416652],[-0.4516528,51.7423761],[-0.4516793,51.7425867]]]}},
{"type":"Feature","properties":{"highway":"footway","name":null,"category":"Footpath (pedestrian only)"},"geometry":{"type":"MultiLineString","coordinates":[[[-0.451915,51.7350177],[-0.4515723,51.7348619],[-0.4510627,51.7347755],[-0.4506119,51.7344931]]]}},
{"type":"Feature","properties":{"highway":"footway","name":null,"category":"Footpath (pedestrian only)"},"geometry":{"type":"MultiLineString","coordinates":[[[-0.4547603,51.7339141],[-0.4544272,51.7338936],[-0.4541593,51.7339902]]]}},
{"type":"Feature","properties":{"highway":"footway","name":null,"category":"Footpath (pedestrian only)"},"geometry":{"type":"MultiLineString","coordinates":[[[-0.4558132,51.7372381],[-0.4555408,51.7373874],[-0.4548122,51.7369239]]]}},
{"type":"Feature","properties":{"highway":"path","name":null,"category":"Shared path"},"geometry":{"type":"MultiLineString","coordinates":[[[-0.4474107,51.7318939],[-0.4473879,51.7318526],[-0.4473773,51.7318449],[-0.4473351,51.7318141],[-0.4472741,51.7317864],[-0.4472131,51.7317663],[-0.447144,51.7317474],[-0.4470647,51.7317348],[-0.4470281,51.7317348],[-0.4469977,51.7317348],[-0.4469326,51.7317462],[-0.4468716,51.7317625],[-0.4467924,51.7317852],[-0.446705,51.7318255],[-0.4464021,51.7319979],[-0.4456378,51.7324864],[-0.4454519,51.7326145],[-0.445076,51.7328734],[-0.4448592,51.7330227],[-0.4440339,51.7336534],[-0.4433083,51.7341343],[-0.4428895,51.7343761],[-0.4426354,51.7345296],[-0.4421862,51.7347323],[-0.4418223,51.7348746],[-0.4406616,51.735358],[-0.4397103,51.7358527],[-0.4392164,51.7361775],[-0.4390273,51.7363058],[-0.4388566,51.7364217],[-0.4386797,51.73654],[-0.4385435,51.7366307],[-0.4384964,51.736706],[-0.4385207,51.7367657]]]}},
{"type":"Feature","properties":{"highway":"path","name":null,"category":"Shared path"},"geometry":{"type":"MultiLineString","coordinates":[[[-0.4470281,51.7317348],[-0.4469305,51.7317128],[-0.4467334,51.7316952],[-0.4464183,51.7316826],[-0.4463349,51.7316801],[-0.4462597,51.7316511],[-0.4459955,51.7314837],[-0.4455523,51.7312344],[-0.4454853,51.731179],[-0.4454446,51.7311349],[-0.4454101,51.7311135],[-0.4453511,51.7311072],[-0.4452962,51.7311312],[-0.4451824,51.7311689],[-0.445156,51.7311803],[-0.4450686,51.731252],[-0.4448653,51.731383],[-0.4445482,51.7315945],[-0.4443063,51.731709],[-0.4442168,51.7317669],[-0.4441542,51.7318517],[-0.444164,51.7319684],[-0.4441559,51.7321144],[-0.4442392,51.7322504],[-0.4443673,51.7324077],[-0.4444006,51.7324703],[-0.4444465,51.7325563],[-0.4445624,51.7326583],[-0.4446122,51.7326923],[-0.4446803,51.7327388],[-0.4448531,51.7328131],[-0.4449974,51.7328484],[-0.445076,51.7328734]]]}},
{"type":"Feature","properties":{"highway":"path","name":null,"category":"Shared path"},"geometry":{"type":"MultiLineString","coordinates":[[[-0.4454519,51.7326145],[-0.4452182,51.7325623],[-0.4450967,51.7325478],[-0.4449566,51.7325305],[-0.4448613,51.7325138],[-0.4447745,51.7324987],[-0.4446297,51.7324813],[-0.4445457,51.7324668],[-0.4444006,51.7324703]]]}},
{"type":"Feature","properties":{"highway":"path","name":null,"category":"Shared path"},"geometry":{"type":"MultiLineString","coordinates":[[[-0.4463349,51.7316801],[-0.4461685,51.7316816],[-0.4460634,51.7317076],[-0.4458883,51.7317857],[-0.4456781,51.7319043],[-0.4453816,51.7321212],[-0.4449006,51.7324856],[-0.4448613,51.7325138],[-0.4446122,51.7326923],[-0.4445293,51.7327517],[-0.4439339,51.7332521],[-0.4432941,51.7337597],[-0.4426263,51.7342557],[-0.4421056,51.7346143],[-0.4418488,51.7347271],[-0.4414378,51.7348761],[-0.4404267,51.7353099],[-0.4393573,51.7357495],[-0.4391121,51.7358738],[-0.4388786,51.7360589],[-0.4387969,51.7361269],[-0.4387689,51.7361674],[-0.4388039,51.736218],[-0.438916,51.7362831],[-0.4390273,51.7363058]]]}},
{"type":"Feature","properties":{"highway":"footway","name":null,"category":"Footpath (pedestrian only)"},"geometry":{"type":"MultiLineString","coordinates":[[[-0.4582092,51.734262],[-0.4581448,51.7342871],[-0.4580764,51.7343137]]]}},
{"type":"Feature","properties":{"highway":"footway","name":null,"category":"Footpath (pedestrian only)"},"geometry":{"type":"MultiLineString","coordinates":[[[-0.4557172,51.7324678],[-0.455652,51.7325133],[-0.4556031,51.7325473]]]}},
{"type":"Feature","properties":{"highway":"footway","name":null,"category":"Footpath (pedestrian only)"},"geometry":{"type":"MultiLineString","coordinates":[[[-0.4473059,51.7406327],[-0.4468038,51.7407093]]]}},
{"type":"Feature","properties":{"highway":"footway","name":null,"category":"Footpath (pedestrian only)"},"geometry":{"type":"MultiLineString","coordinates":[[[-0.4612289,51.7364434],[-0.4611576,51.736464],[-0.4610579,51.7364831]]]}},
{"type":"Feature","properties":{"highway":"path","name":"Lower Barn","category":"Shared path"},"geometry":{"type":"MultiLineString","coordinates":[[[-0.4558355,51.7385697],[-0.4558755,51.7384868],[-0.4558331,51.7384281]]]}},
{"type":"Feature","properties":{"highway":"footway","name":null,"category":"Footpath (pedestrian only)"},"geometry":{"type":"MultiLineString","coordinates":[[[-0.4586538,51.7325186],[-0.4588924,51.7327701],[-0.4589639,51.7328402]]]}},
{"type":"Feature","properties":{"highway":"footway","name":null,"category":"Footpath (pedestrian only)"},"geometry":{"type":"MultiLineString","coordinates":[[[-0.4589639,51.7328402],[-0.45906,51.73293]]]}},
{"type":"Feature","properties":{"highway":"footway","name":null,"category":"Footpath (pedestrian only)"},"geometry":{"type":"MultiLineString","coordinates":[[[-0.45906,51.73293],[-0.4591824,51.7330355]]]}},
{"type":"Feature","properties":{"highway":"footway","name":null,"category":"Footpath (pedestrian only)"},"geometry":{"type":"MultiLineString","coordinates":[[[-0.4488883,51.7338869],[-0.4491839,51.7337117],[-0.4494794,51.7335365],[-0.4495877,51.7334722],[-0.4498446,51.7332991],[-0.4501014,51.7331259],[-0.4502817,51.7330043]]]}},
{"type":"Feature","properties":{"highway":"footway","name":null,"category":"Footpath (pedestrian only)"},"geometry":{"type":"MultiLineString","coordinates":[[[-0.4494652,51.7330332],[-0.4495877,51.7334722],[-0.4495972,51.7335187],[-0.4495793,51.7335387]]]}},
{"type":"Feature","properties":{"highway":"footway","name":null,"category":"Footpath (pedestrian only)"},"geometry":{"type":"MultiLineString","coordinates":[[[-0.4494794,51.7335365],[-0.4495292,51.7335508],[-0.4495578,51.7335475],[-0.4495793,51.7335387],[-0.4500438,51.7339007]]]}},
{"type":"Feature","properties":{"highway":"footway","name":null,"category":"Footpath (pedestrian only)"},"geometry":{"type":"MultiLineString","coordinates":[[[-0.4501014,51.7331259],[-0.4507193,51.7335834]]]}},
{"type":"Feature","properties":{"highway":"footway","name":null,"category":"Footpath (pedestrian only)"},"geometry":{"type":"MultiLineString","coordinates":[[[-0.4498446,51.7332991],[-0.4502355,51.7336106]]]}},
{"type":"Feature","properties":{"highway":"footway","name":null,"category":"Footpath (pedestrian only)"},"geometry":{"type":"MultiLineString","coordinates":[[[-0.4491839,51.7337117],[-0.4495954,51.733965]]]}},
{"type":"Feature","properties":{"highway":"footway","name":null,"category":"Footpath (pedestrian only)"},"geometry":{"type":"MultiLineString","coordinates":[[[-0.4486578,51.7318941],[-0.4487309,51.7318592],[-0.4487396,51.7317961]]]}},
{"type":"Feature","properties":{"highway":"track","name":"The Cart Track","category":"Track"},"geometry":{"type":"MultiLineString","coordinates":[[[-0.4556157,51.7334768],[-0.4553204,51.7336707]]]}},
{"type":"Feature","properties":{"highway":"footway","name":null,"category":"Footpath (pedestrian only)"},"geometry":{"type":"MultiLineString","coordinates":[[[-0.4492378,51.7307918],[-0.4491171,51.7307877],[-0.4483514,51.7311681],[-0.4480362,51.7313484],[-0.4478484,51.7314655],[-0.4477449,51.7315453],[-0.4473773,51.7318449]]]}},
{"type":"Feature","properties":{"highway":"footway","name":null,"category":"Footpath (pedestrian only)"},"geometry":{"type":"MultiLineString","coordinates":[[[-0.451545,51.7304272],[-0.4518597,51.7302428],[-0.4519548,51.7302134]]]}},
{"type":"Feature","properties":{"highway":"footway","name":null,"category":"Footpath (pedestrian only)"},"geometry":{"type":"MultiLineString","coordinates":[[[-0.4480807,51.7426301],[-0.4480327,51.7426504],[-0.4479823,51.7426744]]]}},
{"type":"Feature","properties":{"highway":"footway","name":null,"category":"Footpath (pedestrian only)"},"geometry":{"type":"MultiLineString","coordinates":[[[-0.4401021,51.7452364],[-0.4403953,51.7451524],[-0.4409205,51.7450119],[-0.4415248,51.7448613],[-0.4423972,51.7446213]]]}}
]
}
