{
"type": "FeatureCollection",
"name": "205e7fe68be4_foliage",
"crs": { "type": "name", "properties": { "name": "urn:ogc:def:crs:OGC:1.3:CRS84" } },
"features": [
{ "type": "Feature", "properties": { "max_height": 15.304996490478516, "mean_height": 5.9823207855224609, "std_height": 6.2100887298583984, "count_pixels": 42, "percent_cover": 0.546875, "percent_above_0.1m": 61.904761904761905, "low_level_<0.5": 4.7619047619047619, "mid_level_0.5-2": 4.7619047619047619, "tall_2+": 52.380952380952387 }, "geometry": { "type": "Point", "coordinates": [ 0.907624365889162, 52.709292816867105 ] } },
{ "type": "Feature", "properties": { "max_height": 0.13500213623046875, "mean_height": 0.0063089644536375999, "std_height": 0.028222808614373207, "count_pixels": 42, "percent_cover": 0.546875, "percent_above_0.1m": 4.7619047619047619, "low_level_<0.5": 0.0, "mid_level_0.5-2": 0.0, "tall_2+": 0.0 }, "geometry": { "type": "Point", "coordinates": [ 0.907829194760488, 52.709287789974859 ] } },
{ "type": "Feature", "properties": { "max_height": 13.127498626708984, "mean_height": 1.2635111808776855, "std_height": 3.5366864204406738, "count_pixels": 42, "percent_cover": 0.546875, "percent_above_0.1m": 14.285714285714285, "low_level_<0.5": 0.0, "mid_level_0.5-2": 0.0, "tall_2+": 11.904761904761903 }, "geometry": { "type": "Point", "coordinates": [ 0.907529112264623, 52.709403068401343 ] } },
{ "type": "Feature", "properties": { "max_height": 0.157501220703125, "mean_height": 0.0078939134255051613, "std_height": 0.028258651494979858, "count_pixels": 38, "percent_cover": 0.49479166666666663, "percent_above_0.1m": 2.6315789473684208, "low_level_<0.5": 2.6315789473684208, "mid_level_0.5-2": 0.0, "tall_2+": 0.0 }, "geometry": { "type": "Point", "coordinates": [ 0.907733941671603, 52.709398041665757 ] } },
{ "type": "Feature", "properties": { "max_height": 3.2700004577636719, "mean_height": 0.2365468293428421, "std_height": 0.72969591617584229, "count_pixels": 42, "percent_cover": 0.546875, "percent_above_0.1m": 11.904761904761903, "low_level_<0.5": 0.0, "mid_level_0.5-2": 7.1428571428571423, "tall_2+": 4.7619047619047619 }, "geometry": { "type": "Point", "coordinates": [ 0.907938771017634, 52.70939301457669 ] } },
{ "type": "Feature", "properties": { "max_height": 1.9099960327148438, "mean_height": 0.21493947505950928, "std_height": 0.45430460572242737, "count_pixels": 42, "percent_cover": 0.546875, "percent_above_0.1m": 28.571428571428569, "low_level_<0.5": 14.285714285714285, "mid_level_0.5-2": 14.285714285714285, "tall_2+": 0.0 }, "geometry": { "type": "Point", "coordinates": [ 0.907433858165405, 52.709513319864598 ] } },
{ "type": "Feature", "properties": { "max_height": 13.997501373291016, "mean_height": 4.7674398422241211, "std_height": 5.1368741989135742, "count_pixels": 42, "percent_cover": 0.546875, "percent_above_0.1m": 59.523809523809526, "low_level_<0.5": 2.3809523809523809, "mid_level_0.5-2": 7.1428571428571423, "tall_2+": 50.0 }, "geometry": { "type": "Point", "coordinates": [ 0.907638688108042, 52.709508293285694 ] } },
{ "type": "Feature", "properties": { "max_height": 10.442497253417969, "mean_height": 0.85428494215011597, "std_height": 2.2772607803344727, "count_pixels": 42, "percent_cover": 0.546875, "percent_above_0.1m": 26.190476190476193, "low_level_<0.5": 7.1428571428571423, "mid_level_0.5-2": 7.1428571428571423, "tall_2+": 11.904761904761903 }, "geometry": { "type": "Point", "coordinates": [ 0.907843517989733, 52.709503266353281 ] } },
{ "type": "Feature", "properties": { "max_height": 4.9424972534179688, "mean_height": 0.28243821859359741, "std_height": 0.90488117933273315, "count_pixels": 41, "percent_cover": 0.53385416666666663, "percent_above_0.1m": 12.195121951219512, "low_level_<0.5": 0.0, "mid_level_0.5-2": 4.8780487804878048, "tall_2+": 7.3170731707317067 }, "geometry": { "type": "Point", "coordinates": [ 0.90804834781046, 52.709498239067408 ] } },
{ "type": "Feature", "properties": { "max_height": 0.88499832153320312, "mean_height": 0.0848802849650383, "std_height": 0.21754515171051025, "count_pixels": 42, "percent_cover": 0.546875, "percent_above_0.1m": 14.285714285714285, "low_level_<0.5": 4.7619047619047619, "mid_level_0.5-2": 9.5238095238095237, "tall_2+": 0.0 }, "geometry": { "type": "Point", "coordinates": [ 0.908253177570228, 52.709493211428047 ] } },
{ "type": "Feature", "properties": { "max_height": 13.427501678466797, "mean_height": 5.895474910736084, "std_height": 4.856107234954834, "count_pixels": 42, "percent_cover": 0.546875, "percent_above_0.1m": 73.80952380952381, "low_level_<0.5": 2.3809523809523809, "mid_level_0.5-2": 7.1428571428571423, "tall_2+": 61.904761904761905 }, "geometry": { "type": "Point", "coordinates": [ 0.907543434069802, 52.709618544834612 ] } },
{ "type": "Feature", "properties": { "max_height": 13.470001220703125, "mean_height": 5.6119732856750488, "std_height": 5.7534480094909668, "count_pixels": 38, "percent_cover": 0.49479166666666663, "percent_above_0.1m": 57.894736842105267, "low_level_<0.5": 2.6315789473684208, "mid_level_0.5-2": 2.6315789473684208, "tall_2+": 52.631578947368418 }, "geometry": { "type": "Point", "coordinates": [ 0.907748264487153, 52.709613518058887 ] } },
{ "type": "Feature", "properties": { "max_height": 0.0, "mean_height": -5.4495677659360808e-07, "std_height": 1.3348659422263154e-06, "count_pixels": 42, "percent_cover": 0.546875, "percent_above_0.1m": 0.0, "low_level_<0.5": 0.0, "mid_level_0.5-2": 0.0, "tall_2+": 0.0 }, "geometry": { "type": "Point", "coordinates": [ 0.907953094843541, 52.709608490929682 ] } },
{ "type": "Feature", "properties": { "max_height": 10.377494812011719, "mean_height": 1.8569037914276123, "std_height": 3.1197819709777832, "count_pixels": 42, "percent_cover": 0.546875, "percent_above_0.1m": 33.333333333333329, "low_level_<0.5": 2.3809523809523809, "mid_level_0.5-2": 0.0, "tall_2+": 30.952380952380953 }, "geometry": { "type": "Point", "coordinates": [ 0.908157925138977, 52.709603463446989 ] } },
{ "type": "Feature", "properties": { "max_height": 11.525001525878906, "mean_height": 3.2969636917114258, "std_height": 3.7438685894012451, "count_pixels": 42, "percent_cover": 0.546875, "percent_above_0.1m": 66.666666666666657, "low_level_<0.5": 4.7619047619047619, "mid_level_0.5-2": 14.285714285714285, "tall_2+": 45.238095238095241 }, "geometry": { "type": "Point", "coordinates": [ 0.908362755373447, 52.709598435610815 ] } },
{ "type": "Feature", "properties": { "max_height": 11.682498931884766, "mean_height": 0.61743944883346558, "std_height": 1.9548777341842651, "count_pixels": 42, "percent_cover": 0.546875, "percent_above_0.1m": 30.952380952380953, "low_level_<0.5": 7.1428571428571423, "mid_level_0.5-2": 2.3809523809523809, "tall_2+": 11.904761904761903 }, "geometry": { "type": "Point", "coordinates": [ 0.907448179556883, 52.709728796312568 ] } },
{ "type": "Feature", "properties": { "max_height": 17.702499389648438, "mean_height": 6.7576179504394531, "std_height": 5.8553805351257324, "count_pixels": 42, "percent_cover": 0.546875, "percent_above_0.1m": 80.952380952380949, "low_level_<0.5": 0.0, "mid_level_0.5-2": 9.5238095238095237, "tall_2+": 71.428571428571431 }, "geometry": { "type": "Point", "coordinates": [ 0.907653010509891, 52.709723769693511 ] } },
{ "type": "Feature", "properties": { "max_height": 0.0, "mean_height": -7.2660901651033782e-07, "std_height": 1.4979427760408726e-06, "count_pixels": 42, "percent_cover": 0.546875, "percent_above_0.1m": 0.0, "low_level_<0.5": 0.0, "mid_level_0.5-2": 0.0, "tall_2+": 0.0 }, "geometry": { "type": "Point", "coordinates": [ 0.907857841401952, 52.709718742720966 ] } },
{ "type": "Feature", "properties": { "max_height": 6.8474998474121094, "mean_height": 0.35097485780715942, "std_height": 1.2263132333755493, "count_pixels": 41, "percent_cover": 0.53385416666666663, "percent_above_0.1m": 9.7560975609756095, "low_level_<0.5": 0.0, "mid_level_0.5-2": 2.4390243902439024, "tall_2+": 7.3170731707317067 }, "geometry": { "type": "Point", "coordinates": [ 0.908062672233048, 52.709713715394933 ] } },
{ "type": "Feature", "properties": { "max_height": 8.18499755859375, "mean_height": 0.66023772954940796, "std_height": 1.6377657651901245, "count_pixels": 42, "percent_cover": 0.546875, "percent_above_0.1m": 26.190476190476193, "low_level_<0.5": 2.3809523809523809, "mid_level_0.5-2": 14.285714285714285, "tall_2+": 9.5238095238095237 }, "geometry": { "type": "Point", "coordinates": [ 0.908267503003191, 52.70970868771542 ] } },
{ "type": "Feature", "properties": { "max_height": 1.2349967956542969, "mean_height": 0.12988045811653137, "std_height": 0.31339389085769653, "count_pixels": 42, "percent_cover": 0.546875, "percent_above_0.1m": 19.047619047619047, "low_level_<0.5": 7.1428571428571423, "mid_level_0.5-2": 9.5238095238095237, "tall_2+": 0.0 }, "geometry": { "type": "Point", "coordinates": [ 0.90847233371236, 52.709703659682447 ] } },
{ "type": "Feature", "properties": { "max_height": 16.75250244140625, "mean_height": 5.1865463256835938, "std_height": 5.979712963104248, "count_pixels": 42, "percent_cover": 0.546875, "percent_above_0.1m": 64.285714285714292, "low_level_<0.5": 7.1428571428571423, "mid_level_0.5-2": 7.1428571428571423, "tall_2+": 50.0 }, "geometry": { "type": "Point", "coordinates": [ 0.907557756057947, 52.709834021257137 ] } },
{ "type": "Feature", "properties": { "max_height": 4.7924995422363281, "mean_height": 0.19348596036434174, "std_height": 0.85991191864013672, "count_pixels": 38, "percent_cover": 0.49479166666666663, "percent_above_0.1m": 5.2631578947368416, "low_level_<0.5": 0.0, "mid_level_0.5-2": 0.0, "tall_2+": 5.2631578947368416 }, "geometry": { "type": "Point", "coordinates": [ 0.907762587485673, 52.70982899444126 ] } },
{ "type": "Feature", "properties": { "max_height": 11.834999084472656, "mean_height": 2.1352372169494629, "std_height": 3.8405430316925049, "count_pixels": 42, "percent_cover": 0.546875, "percent_above_0.1m": 33.333333333333329, "low_level_<0.5": 4.7619047619047619, "mid_level_0.5-2": 2.3809523809523809, "tall_2+": 26.190476190476193 }, "geometry": { "type": "Point", "coordinates": [ 0.907967418852444, 52.709823967271895 ] } },
{ "type": "Feature", "properties": { "max_height": 11.740001678466797, "mean_height": 5.7083325386047363, "std_height": 3.9920864105224609, "count_pixels": 42, "percent_cover": 0.546875, "percent_above_0.1m": 85.714285714285708, "low_level_<0.5": 7.1428571428571423, "mid_level_0.5-2": 4.7619047619047619, "tall_2+": 73.80952380952381 }, "geometry": { "type": "Point", "coordinates": [ 0.908172250158254, 52.709818939749056 ] } },
{ "type": "Feature", "properties": { "max_height": 10.404998779296875, "mean_height": 5.4406538009643555, "std_height": 2.946274995803833, "count_pixels": 42, "percent_cover": 0.546875, "percent_above_0.1m": 88.095238095238088, "low_level_<0.5": 0.0, "mid_level_0.5-2": 7.1428571428571423, "tall_2+": 80.952380952380949 }, "geometry": { "type": "Point", "coordinates": [ 0.907462501131312, 52.709944272749809 ] } },
{ "type": "Feature", "properties": { "max_height": 15.117496490478516, "mean_height": 6.6611895561218262, "std_height": 5.8939037322998047, "count_pixels": 42, "percent_cover": 0.546875, "percent_above_0.1m": 69.047619047619051, "low_level_<0.5": 0.0, "mid_level_0.5-2": 7.1428571428571423, "tall_2+": 61.904761904761905 }, "geometry": { "type": "Point", "coordinates": [ 0.907667333094711, 52.709939246090585 ] } },
{ "type": "Feature", "properties": { "max_height": 13.467498779296875, "mean_height": 3.1339278221130371, "std_height": 4.5410337448120117, "count_pixels": 42, "percent_cover": 0.546875, "percent_above_0.1m": 45.238095238095241, "low_level_<0.5": 0.0, "mid_level_0.5-2": 11.904761904761903, "tall_2+": 33.333333333333329 }, "geometry": { "type": "Point", "coordinates": [ 0.907872164997153, 52.70993421907788 ] } },
{ "type": "Feature", "properties": { "max_height": 13.784999847412109, "mean_height": 10.934267044067383, "std_height": 2.8221189975738525, "count_pixels": 41, "percent_cover": 0.53385416666666663, "percent_above_0.1m": 100.0, "low_level_<0.5": 2.4390243902439024, "mid_level_0.5-2": 0.0, "tall_2+": 97.560975609756099 }, "geometry": { "type": "Point", "coordinates": [ 0.908076996838639, 52.709929191711709 ] } },
{ "type": "Feature", "properties": { "max_height": 9.7849998474121094, "mean_height": 2.8235702514648438, "std_height": 2.8906035423278809, "count_pixels": 42, "percent_cover": 0.546875, "percent_above_0.1m": 69.047619047619051, "low_level_<0.5": 4.7619047619047619, "mid_level_0.5-2": 11.904761904761903, "tall_2+": 52.380952380952387 }, "geometry": { "type": "Point", "coordinates": [ 0.907572078229054, 52.710049497668912 ] } },
{ "type": "Feature", "properties": { "max_height": 6.5949974060058594, "mean_height": 0.35348662734031677, "std_height": 1.2374588251113892, "count_pixels": 38, "percent_cover": 0.49479166666666663, "percent_above_0.1m": 10.526315789473683, "low_level_<0.5": 0.0, "mid_level_0.5-2": 2.6315789473684208, "tall_2+": 7.8947368421052628 }, "geometry": { "type": "Point", "coordinates": [ 0.907776910667176, 52.710044470812903 ] } },
{ "type": "Feature", "properties": { "max_height": 14.799995422363281, "mean_height": 8.087855339050293, "std_height": 5.4251084327697754, "count_pixels": 42, "percent_cover": 0.546875, "percent_above_0.1m": 83.333333333333343, "low_level_<0.5": 2.3809523809523809, "mid_level_0.5-2": 2.3809523809523809, "tall_2+": 78.571428571428569 }, "geometry": { "type": "Point", "coordinates": [ 0.907981743044336, 52.710039443603392 ] } },
{ "type": "Feature", "properties": { "max_height": 16.087497711181641, "mean_height": 3.3773207664489746, "std_height": 5.566215991973877, "count_pixels": 42, "percent_cover": 0.546875, "percent_above_0.1m": 52.380952380952387, "low_level_<0.5": 19.047619047619047, "mid_level_0.5-2": 2.3809523809523809, "tall_2+": 30.952380952380953 }, "geometry": { "type": "Point", "coordinates": [ 0.90747682288871, 52.710159749176277 ] } },
{ "type": "Feature", "properties": { "max_height": 17.752498626708984, "mean_height": 3.2688679695129395, "std_height": 5.4898476600646973, "count_pixels": 42, "percent_cover": 0.546875, "percent_above_0.1m": 33.333333333333329, "low_level_<0.5": 0.0, "mid_level_0.5-2": 2.3809523809523809, "tall_2+": 30.952380952380953 }, "geometry": { "type": "Point", "coordinates": [ 0.907681655862503, 52.710154722476915 ] } },
{ "type": "Feature", "properties": { "max_height": 7.3800010681152344, "mean_height": 1.2808918952941895, "std_height": 2.3291196823120117, "count_pixels": 42, "percent_cover": 0.546875, "percent_above_0.1m": 30.952380952380953, "low_level_<0.5": 2.3809523809523809, "mid_level_0.5-2": 7.1428571428571423, "tall_2+": 21.428571428571427 }, "geometry": { "type": "Point", "coordinates": [ 0.907886488775347, 52.710149695424072 ] } },
{ "type": "Feature", "properties": { "max_height": 12.727500915527344, "mean_height": 1.3443894386291504, "std_height": 2.6511745452880859, "count_pixels": 41, "percent_cover": 0.53385416666666663, "percent_above_0.1m": 53.658536585365859, "low_level_<0.5": 12.195121951219512, "mid_level_0.5-2": 24.390243902439025, "tall_2+": 17.073170731707318 }, "geometry": { "type": "Point", "coordinates": [ 0.907381567073661, 52.710270000612645 ] } },
{ "type": "Feature", "properties": { "max_height": 19.392498016357422, "mean_height": 10.265713691711426, "std_height": 6.2294812202453613, "count_pixels": 42, "percent_cover": 0.546875, "percent_above_0.1m": 90.476190476190482, "low_level_<0.5": 4.7619047619047619, "mid_level_0.5-2": 4.7619047619047619, "tall_2+": 80.952380952380949 }, "geometry": { "type": "Point", "coordinates": [ 0.907586400583134, 52.710264974069958 ] } },
{ "type": "Feature", "properties": { "max_height": 1.625, "mean_height": 0.069078445434570312, "std_height": 0.27969589829444885, "count_pixels": 38, "percent_cover": 0.49479166666666663, "percent_above_0.1m": 7.8947368421052628, "low_level_<0.5": 2.6315789473684208, "mid_level_0.5-2": 5.2631578947368416, "tall_2+": 0.0 }, "geometry": { "type": "Point", "coordinates": [ 0.907791234031656, 52.710259947173775 ] } },
{ "type": "Feature", "properties": { "max_height": 1.7475013732910156, "mean_height": 0.10815393179655075, "std_height": 0.33524441719055176, "count_pixels": 42, "percent_cover": 0.546875, "percent_above_0.1m": 11.904761904761903, "low_level_<0.5": 4.7619047619047619, "mid_level_0.5-2": 7.1428571428571423, "tall_2+": 0.0 }, "geometry": { "type": "Point", "coordinates": [ 0.907996067419225, 52.710254919924111 ] } },
{ "type": "Feature", "properties": { "max_height": 2.9899978637695312, "mean_height": 0.28214192390441895, "std_height": 0.729725182056427, "count_pixels": 42, "percent_cover": 0.546875, "percent_above_0.1m": 16.666666666666664, "low_level_<0.5": 2.3809523809523809, "mid_level_0.5-2": 7.1428571428571423, "tall_2+": 7.1428571428571423 }, "geometry": { "type": "Point", "coordinates": [ 0.907491144829067, 52.710375225592003 ] } },
{ "type": "Feature", "properties": { "max_height": 6.7075004577636719, "mean_height": 0.684642493724823, "std_height": 1.5063430070877075, "count_pixels": 42, "percent_cover": 0.546875, "percent_above_0.1m": 21.428571428571427, "low_level_<0.5": 0.0, "mid_level_0.5-2": 7.1428571428571423, "tall_2+": 14.285714285714285 }, "geometry": { "type": "Point", "coordinates": [ 0.907695978813273, 52.710370198852502 ] } },
{ "type": "Feature", "properties": { "max_height": 0.0, "mean_height": -5.4495677659360808e-07, "std_height": 1.3348660559131531e-06, "count_pixels": 42, "percent_cover": 0.546875, "percent_above_0.1m": 0.0, "low_level_<0.5": 0.0, "mid_level_0.5-2": 0.0, "tall_2+": 0.0 }, "geometry": { "type": "Point", "coordinates": [ 0.907900812736524, 52.710365171759491 ] } },
{ "type": "Feature", "properties": { "max_height": 1.7150039672851562, "mean_height": 0.055730957537889481, "std_height": 0.26612713932991028, "count_pixels": 41, "percent_cover": 0.53385416666666663, "percent_above_0.1m": 7.3170731707317067, "low_level_<0.5": 2.4390243902439024, "mid_level_0.5-2": 2.4390243902439024, "tall_2+": 0.0 }, "geometry": { "type": "Point", "coordinates": [ 0.908105646598815, 52.710360144313015 ] } },
{ "type": "Feature", "properties": { "max_height": 13.322502136230469, "mean_height": 3.576035737991333, "std_height": 4.5880794525146484, "count_pixels": 41, "percent_cover": 0.53385416666666663, "percent_above_0.1m": 48.780487804878049, "low_level_<0.5": 2.4390243902439024, "mid_level_0.5-2": 7.3170731707317067, "tall_2+": 39.024390243902438 }, "geometry": { "type": "Point", "coordinates": [ 0.907395888600294, 52.710485477043072 ] } },
{ "type": "Feature", "properties": { "max_height": 0.654998779296875, "mean_height": 0.036189761012792587, "std_height": 0.14058864116668701, "count_pixels": 42, "percent_cover": 0.546875, "percent_above_0.1m": 7.1428571428571423, "low_level_<0.5": 2.3809523809523809, "mid_level_0.5-2": 4.7619047619047619, "tall_2+": 0.0 }, "geometry": { "type": "Point", "coordinates": [ 0.907600723120185, 52.710480450460231 ] } },
{ "type": "Feature", "properties": { "max_height": 0.0, "mean_height": -1.0038677373813698e-06, "std_height": 1.6797919215605361e-06, "count_pixels": 38, "percent_cover": 0.49479166666666663, "percent_above_0.1m": 0.0, "low_level_<0.5": 0.0, "mid_level_0.5-2": 0.0, "tall_2+": 0.0 }, "geometry": { "type": "Point", "coordinates": [ 0.907805557579127, 52.71047542352391 ] } },
{ "type": "Feature", "properties": { "max_height": 6.125, "mean_height": 0.42017826437950134, "std_height": 1.1008456945419312, "count_pixels": 42, "percent_cover": 0.546875, "percent_above_0.1m": 21.428571428571427, "low_level_<0.5": 4.7619047619047619, "mid_level_0.5-2": 9.5238095238095237, "tall_2+": 7.1428571428571423 }, "geometry": { "type": "Point", "coordinates": [ 0.908010391977106, 52.710470396234093 ] } },
{ "type": "Feature", "properties": { "max_height": 10.352497100830078, "mean_height": 3.1708323955535889, "std_height": 3.5149650573730469, "count_pixels": 42, "percent_cover": 0.546875, "percent_above_0.1m": 76.19047619047619, "low_level_<0.5": 14.285714285714285, "mid_level_0.5-2": 16.666666666666664, "tall_2+": 42.857142857142854 }, "geometry": { "type": "Point", "coordinates": [ 0.907300631896809, 52.710595728423151 ] } },
{ "type": "Feature", "properties": { "max_height": 12.834995269775391, "mean_height": 4.0832729339599609, "std_height": 4.2770075798034668, "count_pixels": 42, "percent_cover": 0.546875, "percent_above_0.1m": 61.904761904761905, "low_level_<0.5": 2.3809523809523809, "mid_level_0.5-2": 2.3809523809523809, "tall_2+": 54.761904761904766 }, "geometry": { "type": "Point", "coordinates": [ 0.907505466952394, 52.710590701996992 ] } },
{ "type": "Feature", "properties": { "max_height": 0.0, "mean_height": -9.0826125642706756e-07, "std_height": 1.6247470284724841e-06, "count_pixels": 42, "percent_cover": 0.546875, "percent_above_0.1m": 0.0, "low_level_<0.5": 0.0, "mid_level_0.5-2": 0.0, "tall_2+": 0.0 }, "geometry": { "type": "Point", "coordinates": [ 0.907710301947025, 52.710585675217324 ] } },
{ "type": "Feature", "properties": { "max_height": 0.01000213623046875, "mean_height": 0.00023705618514213711, "std_height": 0.0015250502619892359, "count_pixels": 42, "percent_cover": 0.546875, "percent_above_0.1m": 0.0, "low_level_<0.5": 0.0, "mid_level_0.5-2": 0.0, "tall_2+": 0.0 }, "geometry": { "type": "Point", "coordinates": [ 0.907915136880696, 52.710580648084182 ] } },
{ "type": "Feature", "properties": { "max_height": 18.375, "mean_height": 9.6895723342895508, "std_height": 6.6898236274719238, "count_pixels": 41, "percent_cover": 0.53385416666666663, "percent_above_0.1m": 82.926829268292678, "low_level_<0.5": 0.0, "mid_level_0.5-2": 4.8780487804878048, "tall_2+": 78.048780487804876 }, "geometry": { "type": "Point", "coordinates": [ 0.907410210309888, 52.710700953462748 ] } },
{ "type": "Feature", "properties": { "max_height": 0.0, "mean_height": -6.3578289655197295e-07, "std_height": 1.421653678335133e-06, "count_pixels": 42, "percent_cover": 0.546875, "percent_above_0.1m": 0.0, "low_level_<0.5": 0.0, "mid_level_0.5-2": 0.0, "tall_2+": 0.0 }, "geometry": { "type": "Point", "coordinates": [ 0.907615045840213, 52.710695926839762 ] } },
{ "type": "Feature", "properties": { "max_height": 0.0, "mean_height": -9.0348095227454905e-07, "std_height": 1.6217978782151476e-06, "count_pixels": 38, "percent_cover": 0.49479166666666663, "percent_above_0.1m": 0.0, "low_level_<0.5": 0.0, "mid_level_0.5-2": 0.0, "tall_2+": 0.0 }, "geometry": { "type": "Point", "coordinates": [ 0.907819881309584, 52.710690899863295 ] } },
{ "type": "Feature", "properties": { "max_height": 17.097496032714844, "mean_height": 8.5570220947265625, "std_height": 4.8591318130493164, "count_pixels": 42, "percent_cover": 0.546875, "percent_above_0.1m": 95.238095238095227, "low_level_<0.5": 2.3809523809523809, "mid_level_0.5-2": 7.1428571428571423, "tall_2+": 85.714285714285708 }, "geometry": { "type": "Point", "coordinates": [ 0.907314953192668, 52.710811204857514 ] } },
{ "type": "Feature", "properties": { "max_height": 5.8125, "mean_height": 0.45523715019226074, "std_height": 1.3358722925186157, "count_pixels": 42, "percent_cover": 0.546875, "percent_above_0.1m": 19.047619047619047, "low_level_<0.5": 7.1428571428571423, "mid_level_0.5-2": 4.7619047619047619, "tall_2+": 7.1428571428571423 }, "geometry": { "type": "Point", "coordinates": [ 0.907519789258691, 52.710806178391216 ] } },
{ "type": "Feature", "properties": { "max_height": 2.6324996948242188, "mean_height": 0.38452321290969849, "std_height": 0.73146218061447144, "count_pixels": 42, "percent_cover": 0.546875, "percent_above_0.1m": 28.571428571428569, "low_level_<0.5": 4.7619047619047619, "mid_level_0.5-2": 14.285714285714285, "tall_2+": 7.1428571428571423 }, "geometry": { "type": "Point", "coordinates": [ 0.907724625263756, 52.710801151571424 ] } },
{ "type": "Feature", "properties": { "max_height": 17.930000305175781, "mean_height": 7.6055936813354492, "std_height": 6.6023807525634766, "count_pixels": 42, "percent_cover": 0.546875, "percent_above_0.1m": 76.19047619047619, "low_level_<0.5": 2.3809523809523809, "mid_level_0.5-2": 9.5238095238095237, "tall_2+": 64.285714285714292 }, "geometry": { "type": "Point", "coordinates": [ 0.907219695600728, 52.710921456181296 ] } },
{ "type": "Feature", "properties": { "max_height": 17.057498931884766, "mean_height": 10.905791282653809, "std_height": 4.3506722450256348, "count_pixels": 41, "percent_cover": 0.53385416666666663, "percent_above_0.1m": 97.560975609756099, "low_level_<0.5": 2.4390243902439024, "mid_level_0.5-2": 2.4390243902439024, "tall_2+": 92.682926829268297 }, "geometry": { "type": "Point", "coordinates": [ 0.90742453220245, 52.710916429871666 ] } },
{ "type": "Feature", "properties": { "max_height": 11.810001373291016, "mean_height": 1.457201361656189, "std_height": 2.8276510238647461, "count_pixels": 42, "percent_cover": 0.546875, "percent_above_0.1m": 59.523809523809526, "low_level_<0.5": 4.7619047619047619, "mid_level_0.5-2": 30.952380952380953, "tall_2+": 19.047619047619047 }, "geometry": { "type": "Point", "coordinates": [ 0.907629368743217, 52.710911403208542 ] } },
{ "type": "Feature", "properties": { "max_height": 0.0, "mean_height": -3.6330450825516891e-07, "std_height": 1.1197796538908733e-06, "count_pixels": 42, "percent_cover": 0.546875, "percent_above_0.1m": 0.0, "low_level_<0.5": 0.0, "mid_level_0.5-2": 0.0, "tall_2+": 0.0 }, "geometry": { "type": "Point", "coordinates": [ 0.907124437534067, 52.71103170743411 ] } },
{ "type": "Feature", "properties": { "max_height": 9.8975028991699219, "mean_height": 0.45970162749290466, "std_height": 1.6304374933242798, "count_pixels": 42, "percent_cover": 0.546875, "percent_above_0.1m": 14.285714285714285, "low_level_<0.5": 2.3809523809523809, "mid_level_0.5-2": 4.7619047619047619, "tall_2+": 7.1428571428571423 }, "geometry": { "type": "Point", "coordinates": [ 0.907329274671485, 52.71102668128114 ] } },
{ "type": "Feature", "properties": { "max_height": 13.799999237060547, "mean_height": 3.1485705375671387, "std_height": 3.9350013732910156, "count_pixels": 42, "percent_cover": 0.546875, "percent_above_0.1m": 59.523809523809526, "low_level_<0.5": 7.1428571428571423, "mid_level_0.5-2": 4.7619047619047619, "tall_2+": 47.619047619047613 }, "geometry": { "type": "Point", "coordinates": [ 0.907534111747961, 52.71102165477469 ] } }
]
}
