{
"type": "FeatureCollection",
"name": "51ebb533e377_foliage",
"crs": { "type": "name", "properties": { "name": "urn:ogc:def:crs:OGC:1.3:CRS84" } },
"features": [
{ "type": "Feature", "properties": { "max_height": 16.050998687744141, "mean_height": 9.6968498229980469, "std_height": 4.9640836715698242, "count_pixels": 41, "percent_cover": 0.86772486772486779, "percent_above_0.1m": 90.243902439024396, "low_level_<0.5": 0.0, "mid_level_0.5-2": 4.8780487804878048, "tall_2+": 85.365853658536579 }, "geometry": { "type": "Point", "coordinates": [ 1.027203404932759, 52.657084000601458 ] } },
{ "type": "Feature", "properties": { "max_height": 15.988754272460938, "mean_height": 10.837685585021973, "std_height": 3.8872590065002441, "count_pixels": 41, "percent_cover": 0.86772486772486779, "percent_above_0.1m": 100.0, "low_level_<0.5": 0.0, "mid_level_0.5-2": 2.4390243902439024, "tall_2+": 97.560975609756099 }, "geometry": { "type": "Point", "coordinates": [ 1.027407964944889, 52.657078772203803 ] } },
{ "type": "Feature", "properties": { "max_height": 4.2895011901855469, "mean_height": 0.89829856157302856, "std_height": 1.3229026794433594, "count_pixels": 43, "percent_cover": 0.91005291005291, "percent_above_0.1m": 51.162790697674424, "low_level_<0.5": 9.3023255813953494, "mid_level_0.5-2": 20.930232558139537, "tall_2+": 18.604651162790699 }, "geometry": { "type": "Point", "coordinates": [ 1.027108575960185, 52.657194341822759 ] } },
{ "type": "Feature", "properties": { "max_height": 10.410255432128906, "mean_height": 2.2023160457611084, "std_height": 3.0348362922668457, "count_pixels": 43, "percent_cover": 0.91005291005291, "percent_above_0.1m": 65.116279069767444, "low_level_<0.5": 13.953488372093023, "mid_level_0.5-2": 18.604651162790699, "tall_2+": 32.558139534883722 }, "geometry": { "type": "Point", "coordinates": [ 1.027313136506983, 52.657189113580856 ] } },
{ "type": "Feature", "properties": { "max_height": 15.582504272460938, "mean_height": 10.912148475646973, "std_height": 4.335120677947998, "count_pixels": 38, "percent_cover": 0.80423280423280419, "percent_above_0.1m": 100.0, "low_level_<0.5": 2.6315789473684208, "mid_level_0.5-2": 7.8947368421052628, "tall_2+": 89.473684210526315 }, "geometry": { "type": "Point", "coordinates": [ 1.02751769699052, 52.65718388498621 ] } },
{ "type": "Feature", "properties": { "max_height": 1.8549995422363281, "mean_height": 0.17548415064811707, "std_height": 0.3825097382068634, "count_pixels": 42, "percent_cover": 0.88888888888888884, "percent_above_0.1m": 23.809523809523807, "low_level_<0.5": 4.7619047619047619, "mid_level_0.5-2": 16.666666666666664, "tall_2+": 0.0 }, "geometry": { "type": "Point", "coordinates": [ 1.026809185371466, 52.657309910707163 ] } },
{ "type": "Feature", "properties": { "max_height": 9.0229988098144531, "mean_height": 4.3648562431335449, "std_height": 3.4194216728210449, "count_pixels": 41, "percent_cover": 0.86772486772486779, "percent_above_0.1m": 75.609756097560975, "low_level_<0.5": 7.3170731707317067, "mid_level_0.5-2": 0.0, "tall_2+": 65.853658536585371 }, "geometry": { "type": "Point", "coordinates": [ 1.0270137465162, 52.657304682973752 ] } },
{ "type": "Feature", "properties": { "max_height": 8.597503662109375, "mean_height": 4.5910091400146484, "std_height": 3.07737135887146, "count_pixels": 41, "percent_cover": 0.86772486772486779, "percent_above_0.1m": 95.121951219512198, "low_level_<0.5": 12.195121951219512, "mid_level_0.5-2": 12.195121951219512, "tall_2+": 68.292682926829272 }, "geometry": { "type": "Point", "coordinates": [ 1.027218307597666, 52.6572994548876 ] } },
{ "type": "Feature", "properties": { "max_height": 10.537250518798828, "mean_height": 1.74251389503479, "std_height": 3.2072017192840576, "count_pixels": 41, "percent_cover": 0.86772486772486779, "percent_above_0.1m": 29.268292682926827, "low_level_<0.5": 2.4390243902439024, "mid_level_0.5-2": 2.4390243902439024, "tall_2+": 24.390243902439025 }, "geometry": { "type": "Point", "coordinates": [ 1.026509793178735, 52.65742547885705 ] } },
{ "type": "Feature", "properties": { "max_height": 9.0442543029785156, "mean_height": 3.4766175746917725, "std_height": 3.3976314067840576, "count_pixels": 41, "percent_cover": 0.86772486772486779, "percent_above_0.1m": 75.609756097560975, "low_level_<0.5": 14.634146341463413, "mid_level_0.5-2": 7.3170731707317067, "tall_2+": 53.658536585365859 }, "geometry": { "type": "Point", "coordinates": [ 1.026714354921392, 52.657420251632132 ] } },
{ "type": "Feature", "properties": { "max_height": 0.33500289916992188, "mean_height": 0.016662415117025375, "std_height": 0.064749889075756073, "count_pixels": 42, "percent_cover": 0.88888888888888884, "percent_above_0.1m": 7.1428571428571423, "low_level_<0.5": 4.7619047619047619, "mid_level_0.5-2": 0.0, "tall_2+": 0.0 }, "geometry": { "type": "Point", "coordinates": [ 1.0269189166008, 52.657415024054465 ] } },
{ "type": "Feature", "properties": { "max_height": 4.2577552795410156, "mean_height": 0.1463453620672226, "std_height": 0.68795263767242432, "count_pixels": 43, "percent_cover": 0.91005291005291, "percent_above_0.1m": 4.6511627906976747, "low_level_<0.5": 0.0, "mid_level_0.5-2": 2.3255813953488373, "tall_2+": 2.3255813953488373 }, "geometry": { "type": "Point", "coordinates": [ 1.027123478216948, 52.657409796124064 ] } },
{ "type": "Feature", "properties": { "max_height": 3.9142532348632812, "mean_height": 1.1958274841308594, "std_height": 1.1979997158050537, "count_pixels": 43, "percent_cover": 0.91005291005291, "percent_above_0.1m": 65.116279069767444, "low_level_<0.5": 6.9767441860465116, "mid_level_0.5-2": 30.232558139534881, "tall_2+": 27.906976744186046 }, "geometry": { "type": "Point", "coordinates": [ 1.026414961722566, 52.657535819555953 ] } },
{ "type": "Feature", "properties": { "max_height": 11.284751892089844, "mean_height": 4.3741302490234375, "std_height": 4.2871785163879395, "count_pixels": 43, "percent_cover": 0.91005291005291, "percent_above_0.1m": 65.116279069767444, "low_level_<0.5": 2.3255813953488373, "mid_level_0.5-2": 9.3023255813953494, "tall_2+": 53.488372093023251 }, "geometry": { "type": "Point", "coordinates": [ 1.0266195239999, 52.657530592486772 ] } },
{ "type": "Feature", "properties": { "max_height": 0.00025177001953125, "mean_height": -0.00013442266208585352, "std_height": 0.00073855853406712413, "count_pixels": 42, "percent_cover": 0.88888888888888884, "percent_above_0.1m": 0.0, "low_level_<0.5": 0.0, "mid_level_0.5-2": 0.0, "tall_2+": 0.0 }, "geometry": { "type": "Point", "coordinates": [ 1.02682408621398, 52.657525365064863 ] } },
{ "type": "Feature", "properties": { "max_height": 0.11400222778320312, "mean_height": 0.0056182118132710457, "std_height": 0.020514195784926414, "count_pixels": 41, "percent_cover": 0.86772486772486779, "percent_above_0.1m": 2.4390243902439024, "low_level_<0.5": 0.0, "mid_level_0.5-2": 0.0, "tall_2+": 0.0 }, "geometry": { "type": "Point", "coordinates": [ 1.027028648364811, 52.657520137290213 ] } },
{ "type": "Feature", "properties": { "max_height": 3.7847518920898438, "mean_height": 0.9525635838508606, "std_height": 1.2132806777954102, "count_pixels": 41, "percent_cover": 0.86772486772486779, "percent_above_0.1m": 56.09756097560976, "low_level_<0.5": 9.7560975609756095, "mid_level_0.5-2": 19.512195121951219, "tall_2+": 24.390243902439025 }, "geometry": { "type": "Point", "coordinates": [ 1.026115566919718, 52.657651386745222 ] } },
{ "type": "Feature", "properties": { "max_height": 2.9640007019042969, "mean_height": 0.2809106707572937, "std_height": 0.77666956186294556, "count_pixels": 41, "percent_cover": 0.86772486772486779, "percent_above_0.1m": 14.634146341463413, "low_level_<0.5": 2.4390243902439024, "mid_level_0.5-2": 2.4390243902439024, "tall_2+": 9.7560975609756095 }, "geometry": { "type": "Point", "coordinates": [ 1.026320129794972, 52.657646160184541 ] } },
{ "type": "Feature", "properties": { "max_height": 0.01275634765625, "mean_height": 0.0021725166589021683, "std_height": 0.0039347708225250244, "count_pixels": 41, "percent_cover": 0.86772486772486779, "percent_above_0.1m": 0.0, "low_level_<0.5": 0.0, "mid_level_0.5-2": 0.0, "tall_2+": 0.0 }, "geometry": { "type": "Point", "coordinates": [ 1.02652469260698, 52.657640933271118 ] } },
{ "type": "Feature", "properties": { "max_height": 0.020503997802734375, "mean_height": 0.0047092903405427933, "std_height": 0.0062920218333601952, "count_pixels": 41, "percent_cover": 0.86772486772486779, "percent_above_0.1m": 0.0, "low_level_<0.5": 0.0, "mid_level_0.5-2": 0.0, "tall_2+": 0.0 }, "geometry": { "type": "Point", "coordinates": [ 1.026729255355746, 52.657635706004967 ] } },
{ "type": "Feature", "properties": { "max_height": 0.94800567626953125, "mean_height": 0.026389440521597862, "std_height": 0.14421425759792328, "count_pixels": 42, "percent_cover": 0.88888888888888884, "percent_above_0.1m": 2.3809523809523809, "low_level_<0.5": 0.0, "mid_level_0.5-2": 2.3809523809523809, "tall_2+": 0.0 }, "geometry": { "type": "Point", "coordinates": [ 1.026933818041254, 52.657630478386075 ] } },
{ "type": "Feature", "properties": { "max_height": 7.7285003662109375, "mean_height": 0.78789180517196655, "std_height": 1.9746882915496826, "count_pixels": 43, "percent_cover": 0.91005291005291, "percent_above_0.1m": 25.581395348837212, "low_level_<0.5": 2.3255813953488373, "mid_level_0.5-2": 0.0, "tall_2+": 13.953488372093023 }, "geometry": { "type": "Point", "coordinates": [ 1.027138380663504, 52.657625250414448 ] } },
{ "type": "Feature", "properties": { "max_height": 5.2675018310546875, "mean_height": 1.1630547046661377, "std_height": 1.6655566692352295, "count_pixels": 43, "percent_cover": 0.91005291005291, "percent_above_0.1m": 41.860465116279073, "low_level_<0.5": 2.3255813953488373, "mid_level_0.5-2": 9.3023255813953494, "tall_2+": 30.232558139534881 }, "geometry": { "type": "Point", "coordinates": [ 1.026020733986015, 52.657761727147758 ] } },
{ "type": "Feature", "properties": { "max_height": 0.04575347900390625, "mean_height": 0.0069232741370797157, "std_height": 0.011795642785727978, "count_pixels": 38, "percent_cover": 0.80423280423280419, "percent_above_0.1m": 0.0, "low_level_<0.5": 0.0, "mid_level_0.5-2": 0.0, "tall_2+": 0.0 }, "geometry": { "type": "Point", "coordinates": [ 1.026225297395944, 52.657756500742821 ] } },
{ "type": "Feature", "properties": { "max_height": 5.0300025939941406, "mean_height": 1.1226425170898438, "std_height": 1.4448691606521606, "count_pixels": 41, "percent_cover": 0.86772486772486779, "percent_above_0.1m": 68.292682926829272, "low_level_<0.5": 24.390243902439025, "mid_level_0.5-2": 19.512195121951219, "tall_2+": 24.390243902439025 }, "geometry": { "type": "Point", "coordinates": [ 1.025925900580869, 52.657872067479971 ] } }
]
}
