{
"type": "FeatureCollection",
"name": "8674dadfa882_visibility",
"crs": { "type": "name", "properties": { "name": "urn:ogc:def:crs:OGC:1.3:CRS84" } },
"features": [
{ "type": "Feature", "properties": { "visible_points": 11, "total_points": 52, "visibility_pct": 21.153846153846153 }, "geometry": { "type": "Point", "coordinates": [ 0.89412641428803, 52.628943863788798 ] } },
{ "type": "Feature", "properties": { "visible_points": 13, "total_points": 53, "visibility_pct": 24.528301886792452 }, "geometry": { "type": "Point", "coordinates": [ 0.894330868690414, 52.628938866551316 ] } },
{ "type": "Feature", "properties": { "visible_points": 2, "total_points": 48, "visibility_pct": 4.1666666666666661 }, "geometry": { "type": "Point", "coordinates": [ 0.893826842929017, 52.629059098757232 ] } },
{ "type": "Feature", "properties": { "visible_points": 9, "total_points": 53, "visibility_pct": 16.981132075471699 }, "geometry": { "type": "Point", "coordinates": [ 0.894031297926826, 52.629054102028391 ] } },
{ "type": "Feature", "properties": { "visible_points": 11, "total_points": 53, "visibility_pct": 20.754716981132077 }, "geometry": { "type": "Point", "coordinates": [ 0.894235752864064, 52.629049104947086 ] } },
{ "type": "Feature", "properties": { "visible_points": 12, "total_points": 53, "visibility_pct": 22.641509433962266 }, "geometry": { "type": "Point", "coordinates": [ 0.894440207740722, 52.629044107513344 ] } },
{ "type": "Feature", "properties": { "visible_points": 13, "total_points": 53, "visibility_pct": 24.528301886792452 }, "geometry": { "type": "Point", "coordinates": [ 0.894644662556808, 52.629039109727138 ] } },
{ "type": "Feature", "properties": { "visible_points": 3, "total_points": 46, "visibility_pct": 6.5217391304347823 }, "geometry": { "type": "Point", "coordinates": [ 0.893731725558697, 52.629169336769834 ] } },
{ "type": "Feature", "properties": { "visible_points": 0, "total_points": 53, "visibility_pct": 0.0 }, "geometry": { "type": "Point", "coordinates": [ 0.893936181091358, 52.629164340197207 ] } },
{ "type": "Feature", "properties": { "visible_points": 9, "total_points": 53, "visibility_pct": 16.981132075471699 }, "geometry": { "type": "Point", "coordinates": [ 0.894140636563451, 52.629159343272114 ] } },
{ "type": "Feature", "properties": { "visible_points": 11, "total_points": 53, "visibility_pct": 20.754716981132077 }, "geometry": { "type": "Point", "coordinates": [ 0.89434509197497, 52.629154345994571 ] } },
{ "type": "Feature", "properties": { "visible_points": 11, "total_points": 53, "visibility_pct": 20.754716981132077 }, "geometry": { "type": "Point", "coordinates": [ 0.894549547325911, 52.62914934836455 ] } },
{ "type": "Feature", "properties": { "visible_points": 10, "total_points": 52, "visibility_pct": 19.230769230769234 }, "geometry": { "type": "Point", "coordinates": [ 0.894754002616269, 52.629144350382106 ] } },
{ "type": "Feature", "properties": { "visible_points": 1, "total_points": 50, "visibility_pct": 2.0 }, "geometry": { "type": "Point", "coordinates": [ 0.89384106378162, 52.629274578295224 ] } },
{ "type": "Feature", "properties": { "visible_points": 0, "total_points": 53, "visibility_pct": 0.0 }, "geometry": { "type": "Point", "coordinates": [ 0.894045519788575, 52.629269581526351 ] } },
{ "type": "Feature", "properties": { "visible_points": 0, "total_points": 53, "visibility_pct": 0.0 }, "geometry": { "type": "Point", "coordinates": [ 0.894249975734951, 52.629264584405007 ] } },
{ "type": "Feature", "properties": { "visible_points": 10, "total_points": 53, "visibility_pct": 18.867924528301888 }, "geometry": { "type": "Point", "coordinates": [ 0.894454431620757, 52.629259586931205 ] } },
{ "type": "Feature", "properties": { "visible_points": 12, "total_points": 53, "visibility_pct": 22.641509433962266 }, "geometry": { "type": "Point", "coordinates": [ 0.894658887445973, 52.629254589104953 ] } },
{ "type": "Feature", "properties": { "visible_points": 4, "total_points": 53, "visibility_pct": 7.5471698113207548 }, "geometry": { "type": "Point", "coordinates": [ 0.894154859020666, 52.62937482274468 ] } },
{ "type": "Feature", "properties": { "visible_points": 2, "total_points": 53, "visibility_pct": 3.7735849056603774 }, "geometry": { "type": "Point", "coordinates": [ 0.894359315441333, 52.629369825427069 ] } },
{ "type": "Feature", "properties": { "visible_points": 0, "total_points": 52, "visibility_pct": 0.0 }, "geometry": { "type": "Point", "coordinates": [ 0.894563771801416, 52.629364827757023 ] } }
]
}
