{
"type": "FeatureCollection",
"name": "d1c8ff621905_foliage",
"crs": { "type": "name", "properties": { "name": "urn:ogc:def:crs:OGC:1.3:CRS84" } },
"features": [
{ "type": "Feature", "properties": { "max_height": 1.7899971008300781, "mean_height": 0.47474843263626099, "std_height": 0.491045743227005, "count_pixels": 40, "percent_cover": 0.51203277009728621, "percent_above_0.1m": 67.5, "low_level_<0.5": 30.0, "mid_level_0.5-2": 35.0, "tall_2+": 0.0 }, "geometry": { "type": "Point", "coordinates": [ 0.942019878548051, 52.66639093987515 ] } },
{ "type": "Feature", "properties": { "max_height": 7.43499755859375, "mean_height": 1.6205474138259888, "std_height": 2.3355886936187744, "count_pixels": 41, "percent_cover": 0.52483358934971835, "percent_above_0.1m": 70.731707317073173, "low_level_<0.5": 21.951219512195124, "mid_level_0.5-2": 26.829268292682929, "tall_2+": 21.951219512195124 }, "geometry": { "type": "Point", "coordinates": [ 0.94222450086041, 52.666385857834179 ] } },
{ "type": "Feature", "properties": { "max_height": 4.4524955749511719, "mean_height": 0.36987677216529846, "std_height": 0.80530393123626709, "count_pixels": 41, "percent_cover": 0.52483358934971835, "percent_above_0.1m": 34.146341463414636, "low_level_<0.5": 12.195121951219512, "mid_level_0.5-2": 19.512195121951219, "tall_2+": 2.4390243902439024 }, "geometry": { "type": "Point", "coordinates": [ 0.942429123111907, 52.666380775440302 ] } },
{ "type": "Feature", "properties": { "max_height": 15.847496032714844, "mean_height": 4.4215230941772461, "std_height": 4.8363265991210938, "count_pixels": 41, "percent_cover": 0.52483358934971835, "percent_above_0.1m": 65.853658536585371, "low_level_<0.5": 0.0, "mid_level_0.5-2": 7.3170731707317067, "tall_2+": 58.536585365853654 }, "geometry": { "type": "Point", "coordinates": [ 0.94110631995343, 52.666521540160474 ] } },
{ "type": "Feature", "properties": { "max_height": 17.392498016357422, "mean_height": 7.1016650199890137, "std_height": 5.2193446159362793, "count_pixels": 42, "percent_cover": 0.53763440860215062, "percent_above_0.1m": 97.61904761904762, "low_level_<0.5": 2.3809523809523809, "mid_level_0.5-2": 11.904761904761903, "tall_2+": 83.333333333333343 }, "geometry": { "type": "Point", "coordinates": [ 0.941310943036154, 52.666516459687607 ] } },
{ "type": "Feature", "properties": { "max_height": 16.994998931884766, "mean_height": 4.8834037780761719, "std_height": 4.7717323303222656, "count_pixels": 42, "percent_cover": 0.53763440860215062, "percent_above_0.1m": 90.476190476190482, "low_level_<0.5": 11.904761904761903, "mid_level_0.5-2": 14.285714285714285, "tall_2+": 64.285714285714292 }, "geometry": { "type": "Point", "coordinates": [ 0.941515566058022, 52.666511378861806 ] } },
{ "type": "Feature", "properties": { "max_height": 4.8749961853027344, "mean_height": 2.0122427940368652, "std_height": 1.5676901340484619, "count_pixels": 43, "percent_cover": 0.55043522785458265, "percent_above_0.1m": 95.348837209302332, "low_level_<0.5": 20.930232558139537, "mid_level_0.5-2": 30.232558139534881, "tall_2+": 44.186046511627907 }, "geometry": { "type": "Point", "coordinates": [ 0.941720189019038, 52.666506297683092 ] } },
{ "type": "Feature", "properties": { "max_height": 5.8125, "mean_height": 2.8774363994598389, "std_height": 2.017249584197998, "count_pixels": 40, "percent_cover": 0.51203277009728621, "percent_above_0.1m": 82.5, "low_level_<0.5": 2.5, "mid_level_0.5-2": 20.0, "tall_2+": 60.0 }, "geometry": { "type": "Point", "coordinates": [ 0.941924811919201, 52.666501216151453 ] } },
{ "type": "Feature", "properties": { "max_height": 3.6199951171875, "mean_height": 0.62046396732330322, "std_height": 1.0916908979415894, "count_pixels": 43, "percent_cover": 0.55043522785458265, "percent_above_0.1m": 34.883720930232556, "low_level_<0.5": 4.6511627906976747, "mid_level_0.5-2": 13.953488372093023, "tall_2+": 16.279069767441861 }, "geometry": { "type": "Point", "coordinates": [ 0.942129434758502, 52.666496134266907 ] } },
{ "type": "Feature", "properties": { "max_height": 7.0099983215332031, "mean_height": 1.7374987602233887, "std_height": 1.8885087966918945, "count_pixels": 43, "percent_cover": 0.55043522785458265, "percent_above_0.1m": 79.069767441860463, "low_level_<0.5": 11.627906976744185, "mid_level_0.5-2": 25.581395348837212, "tall_2+": 37.209302325581397 }, "geometry": { "type": "Point", "coordinates": [ 0.942334057536936, 52.666491052029414 ] } },
{ "type": "Feature", "properties": { "max_height": 8.7400016784667969, "mean_height": 2.394819974899292, "std_height": 3.0111618041992188, "count_pixels": 42, "percent_cover": 0.53763440860215062, "percent_above_0.1m": 54.761904761904766, "low_level_<0.5": 4.7619047619047619, "mid_level_0.5-2": 9.5238095238095237, "tall_2+": 38.095238095238095 }, "geometry": { "type": "Point", "coordinates": [ 0.942538680254504, 52.666485969439016 ] } },
{ "type": "Feature", "properties": { "max_height": 12.784999847412109, "mean_height": 3.7241852283477783, "std_height": 3.9494497776031494, "count_pixels": 43, "percent_cover": 0.55043522785458265, "percent_above_0.1m": 86.04651162790698, "low_level_<0.5": 13.953488372093023, "mid_level_0.5-2": 16.279069767441861, "tall_2+": 51.162790697674424 }, "geometry": { "type": "Point", "coordinates": [ 0.940806627080257, 52.666636895703824 ] } },
{ "type": "Feature", "properties": { "max_height": 13.024997711181641, "mean_height": 4.0978479385375977, "std_height": 3.9282016754150391, "count_pixels": 43, "percent_cover": 0.55043522785458265, "percent_above_0.1m": 81.395348837209298, "low_level_<0.5": 6.9767441860465116, "mid_level_0.5-2": 11.627906976744185, "tall_2+": 62.790697674418603 }, "geometry": { "type": "Point", "coordinates": [ 0.941011250750748, 52.666631815740288 ] } },
{ "type": "Feature", "properties": { "max_height": 19.209999084472656, "mean_height": 14.850950241088867, "std_height": 3.4655933380126953, "count_pixels": 42, "percent_cover": 0.53763440860215062, "percent_above_0.1m": 100.0, "low_level_<0.5": 0.0, "mid_level_0.5-2": 0.0, "tall_2+": 100.0 }, "geometry": { "type": "Point", "coordinates": [ 0.941215874360407, 52.666626735423833 ] } },
{ "type": "Feature", "properties": { "max_height": 17.152496337890625, "mean_height": 9.7451648712158203, "std_height": 5.8483462333679199, "count_pixels": 42, "percent_cover": 0.53763440860215062, "percent_above_0.1m": 90.476190476190482, "low_level_<0.5": 4.7619047619047619, "mid_level_0.5-2": 0.0, "tall_2+": 83.333333333333343 }, "geometry": { "type": "Point", "coordinates": [ 0.941420497909214, 52.666621654754444 ] } },
{ "type": "Feature", "properties": { "max_height": 14.762500762939453, "mean_height": 8.5335407257080078, "std_height": 3.8572134971618652, "count_pixels": 41, "percent_cover": 0.52483358934971835, "percent_above_0.1m": 100.0, "low_level_<0.5": 0.0, "mid_level_0.5-2": 0.0, "tall_2+": 100.0 }, "geometry": { "type": "Point", "coordinates": [ 0.941625121397171, 52.666616573732128 ] } },
{ "type": "Feature", "properties": { "max_height": 5.9225006103515625, "mean_height": 3.5300555229187012, "std_height": 2.1739418506622314, "count_pixels": 40, "percent_cover": 0.51203277009728621, "percent_above_0.1m": 82.5, "low_level_<0.5": 2.5, "mid_level_0.5-2": 7.5, "tall_2+": 72.5 }, "geometry": { "type": "Point", "coordinates": [ 0.941829744824272, 52.666611492356907 ] } },
{ "type": "Feature", "properties": { "max_height": 4.7574996948242188, "mean_height": 2.2420616149902344, "std_height": 1.4679795503616333, "count_pixels": 40, "percent_cover": 0.51203277009728621, "percent_above_0.1m": 90.0, "low_level_<0.5": 12.5, "mid_level_0.5-2": 17.5, "tall_2+": 60.0 }, "geometry": { "type": "Point", "coordinates": [ 0.942034368190519, 52.666606410628745 ] } },
{ "type": "Feature", "properties": { "max_height": 15.097499847412109, "mean_height": 4.5329866409301758, "std_height": 4.3350105285644531, "count_pixels": 41, "percent_cover": 0.52483358934971835, "percent_above_0.1m": 92.682926829268297, "low_level_<0.5": 4.8780487804878048, "mid_level_0.5-2": 19.512195121951219, "tall_2+": 68.292682926829272 }, "geometry": { "type": "Point", "coordinates": [ 0.940302308307166, 52.666757329611841 ] } },
{ "type": "Feature", "properties": { "max_height": 13.022499084472656, "mean_height": 6.1826238632202148, "std_height": 5.0617260932922363, "count_pixels": 40, "percent_cover": 0.51203277009728621, "percent_above_0.1m": 87.5, "low_level_<0.5": 5.0, "mid_level_0.5-2": 17.5, "tall_2+": 62.5 }, "geometry": { "type": "Point", "coordinates": [ 0.940506932626271, 52.666752250510577 ] } },
{ "type": "Feature", "properties": { "max_height": 13.4324951171875, "mean_height": 6.1139984130859375, "std_height": 4.1467256546020508, "count_pixels": 40, "percent_cover": 0.51203277009728621, "percent_above_0.1m": 97.5, "low_level_<0.5": 0.0, "mid_level_0.5-2": 20.0, "tall_2+": 72.5 }, "geometry": { "type": "Point", "coordinates": [ 0.940711556884543, 52.666747171056365 ] } },
{ "type": "Feature", "properties": { "max_height": 13.902500152587891, "mean_height": 4.0667672157287598, "std_height": 5.0723366737365723, "count_pixels": 41, "percent_cover": 0.52483358934971835, "percent_above_0.1m": 53.658536585365859, "low_level_<0.5": 4.8780487804878048, "mid_level_0.5-2": 7.3170731707317067, "tall_2+": 41.463414634146339 }, "geometry": { "type": "Point", "coordinates": [ 0.940916181081977, 52.66674209124924 ] } },
{ "type": "Feature", "properties": { "max_height": 11.597499847412109, "mean_height": 0.84756004810333252, "std_height": 2.4195554256439209, "count_pixels": 41, "percent_cover": 0.52483358934971835, "percent_above_0.1m": 14.634146341463413, "low_level_<0.5": 0.0, "mid_level_0.5-2": 2.4390243902439024, "tall_2+": 12.195121951219512 }, "geometry": { "type": "Point", "coordinates": [ 0.941120805218568, 52.666737011089189 ] } },
{ "type": "Feature", "properties": { "max_height": 10.652500152587891, "mean_height": 1.0807133913040161, "std_height": 2.3678092956542969, "count_pixels": 42, "percent_cover": 0.53763440860215062, "percent_above_0.1m": 23.809523809523807, "low_level_<0.5": 2.3809523809523809, "mid_level_0.5-2": 2.3809523809523809, "tall_2+": 19.047619047619047 }, "geometry": { "type": "Point", "coordinates": [ 0.941325429294321, 52.666731930576219 ] } },
{ "type": "Feature", "properties": { "max_height": 14.007495880126953, "mean_height": 9.2919034957885742, "std_height": 3.7296273708343506, "count_pixels": 42, "percent_cover": 0.53763440860215062, "percent_above_0.1m": 95.238095238095227, "low_level_<0.5": 0.0, "mid_level_0.5-2": 4.7619047619047619, "tall_2+": 90.476190476190482 }, "geometry": { "type": "Point", "coordinates": [ 0.941530053309218, 52.666726849710322 ] } },
{ "type": "Feature", "properties": { "max_height": 9.1175003051757812, "mean_height": 0.87970823049545288, "std_height": 2.0466561317443848, "count_pixels": 43, "percent_cover": 0.55043522785458265, "percent_above_0.1m": 27.906976744186046, "low_level_<0.5": 0.0, "mid_level_0.5-2": 16.279069767441861, "tall_2+": 11.627906976744185 }, "geometry": { "type": "Point", "coordinates": [ 0.941734677263265, 52.666721768491499 ] } },
{ "type": "Feature", "properties": { "max_height": 0.47249984741210938, "mean_height": 0.026436233893036842, "std_height": 0.097201384603977203, "count_pixels": 40, "percent_cover": 0.51203277009728621, "percent_above_0.1m": 7.5, "low_level_<0.5": 5.0, "mid_level_0.5-2": 0.0, "tall_2+": 0.0 }, "geometry": { "type": "Point", "coordinates": [ 0.941939301156451, 52.666716686919742 ] } },
{ "type": "Feature", "properties": { "max_height": 11.494998931884766, "mean_height": 3.8888940811157227, "std_height": 3.4115650653839111, "count_pixels": 43, "percent_cover": 0.55043522785458265, "percent_above_0.1m": 86.04651162790698, "low_level_<0.5": 4.6511627906976747, "mid_level_0.5-2": 18.604651162790699, "tall_2+": 60.465116279069761 }, "geometry": { "type": "Point", "coordinates": [ 0.942143924988783, 52.666711604995072 ] } },
{ "type": "Feature", "properties": { "max_height": 11.127498626708984, "mean_height": 2.5836305618286133, "std_height": 2.6372091770172119, "count_pixels": 42, "percent_cover": 0.53763440860215062, "percent_above_0.1m": 71.428571428571431, "low_level_<0.5": 0.0, "mid_level_0.5-2": 19.047619047619047, "tall_2+": 52.380952380952387 }, "geometry": { "type": "Point", "coordinates": [ 0.939797986716927, 52.666877761411627 ] } },
{ "type": "Feature", "properties": { "max_height": 13.119998931884766, "mean_height": 6.2956533432006836, "std_height": 4.227745532989502, "count_pixels": 42, "percent_cover": 0.53763440860215062, "percent_above_0.1m": 97.61904761904762, "low_level_<0.5": 4.7619047619047619, "mid_level_0.5-2": 19.047619047619047, "tall_2+": 73.80952380952381 }, "geometry": { "type": "Point", "coordinates": [ 0.940002611684616, 52.66687268317262 ] } },
{ "type": "Feature", "properties": { "max_height": 14.829998016357422, "mean_height": 10.504941940307617, "std_height": 3.7311644554138184, "count_pixels": 43, "percent_cover": 0.55043522785458265, "percent_above_0.1m": 97.674418604651152, "low_level_<0.5": 0.0, "mid_level_0.5-2": 2.3255813953488373, "tall_2+": 95.348837209302332 }, "geometry": { "type": "Point", "coordinates": [ 0.94020723659148, 52.666867604580681 ] } },
{ "type": "Feature", "properties": { "max_height": 15.387496948242188, "mean_height": 5.2301726341247559, "std_height": 5.3892354965209961, "count_pixels": 43, "percent_cover": 0.55043522785458265, "percent_above_0.1m": 62.790697674418603, "low_level_<0.5": 0.0, "mid_level_0.5-2": 9.3023255813953494, "tall_2+": 53.488372093023251 }, "geometry": { "type": "Point", "coordinates": [ 0.940411861437519, 52.666862525635828 ] } },
{ "type": "Feature", "properties": { "max_height": 12.607498168945312, "mean_height": 2.3638114929199219, "std_height": 3.8871948719024658, "count_pixels": 40, "percent_cover": 0.51203277009728621, "percent_above_0.1m": 35.0, "low_level_<0.5": 2.5, "mid_level_0.5-2": 0.0, "tall_2+": 32.5 }, "geometry": { "type": "Point", "coordinates": [ 0.940616486222732, 52.666857446338042 ] } },
{ "type": "Feature", "properties": { "max_height": 0.83499908447265625, "mean_height": 0.019475625827908516, "std_height": 0.12583856284618378, "count_pixels": 43, "percent_cover": 0.55043522785458265, "percent_above_0.1m": 2.3255813953488373, "low_level_<0.5": 0.0, "mid_level_0.5-2": 2.3255813953488373, "tall_2+": 0.0 }, "geometry": { "type": "Point", "coordinates": [ 0.940821110947106, 52.666852366687323 ] } },
{ "type": "Feature", "properties": { "max_height": 0.0, "mean_height": -1.3307083008839982e-06, "std_height": 1.8180936649514479e-06, "count_pixels": 43, "percent_cover": 0.55043522785458265, "percent_above_0.1m": 0.0, "low_level_<0.5": 0.0, "mid_level_0.5-2": 0.0, "tall_2+": 0.0 }, "geometry": { "type": "Point", "coordinates": [ 0.94102573561064, 52.666847286683691 ] } },
{ "type": "Feature", "properties": { "max_height": 0.002498626708984375, "mean_height": 5.8673678722698241e-05, "std_height": 0.00038105982821434736, "count_pixels": 42, "percent_cover": 0.53763440860215062, "percent_above_0.1m": 0.0, "low_level_<0.5": 0.0, "mid_level_0.5-2": 0.0, "tall_2+": 0.0 }, "geometry": { "type": "Point", "coordinates": [ 0.941230360213332, 52.666842206327132 ] } },
{ "type": "Feature", "properties": { "max_height": 13.222496032714844, "mean_height": 3.6338675022125244, "std_height": 4.801607608795166, "count_pixels": 42, "percent_cover": 0.53763440860215062, "percent_above_0.1m": 45.238095238095241, "low_level_<0.5": 2.3809523809523809, "mid_level_0.5-2": 0.0, "tall_2+": 42.857142857142854 }, "geometry": { "type": "Point", "coordinates": [ 0.941434984755178, 52.66683712561764 ] } },
{ "type": "Feature", "properties": { "max_height": 11.774997711181641, "mean_height": 1.2951208353042603, "std_height": 3.1372332572937012, "count_pixels": 41, "percent_cover": 0.52483358934971835, "percent_above_0.1m": 19.512195121951219, "low_level_<0.5": 0.0, "mid_level_0.5-2": 2.4390243902439024, "tall_2+": 17.073170731707318 }, "geometry": { "type": "Point", "coordinates": [ 0.941639609236169, 52.666832044555207 ] } },
{ "type": "Feature", "properties": { "max_height": 0.15999984741210938, "mean_height": 0.0039995191618800163, "std_height": 0.024980045855045319, "count_pixels": 40, "percent_cover": 0.51203277009728621, "percent_above_0.1m": 2.5, "low_level_<0.5": 2.5, "mid_level_0.5-2": 0.0, "tall_2+": 0.0 }, "geometry": { "type": "Point", "coordinates": [ 0.941844233656306, 52.666826963139876 ] } },
{ "type": "Feature", "properties": { "max_height": 2.0625, "mean_height": 0.13312426209449768, "std_height": 0.43324771523475647, "count_pixels": 40, "percent_cover": 0.51203277009728621, "percent_above_0.1m": 10.0, "low_level_<0.5": 0.0, "mid_level_0.5-2": 7.5, "tall_2+": 2.5 }, "geometry": { "type": "Point", "coordinates": [ 0.942048858015585, 52.666821881371611 ] } },
{ "type": "Feature", "properties": { "max_height": 2.9949989318847656, "mean_height": 0.88548696041107178, "std_height": 1.0135911703109741, "count_pixels": 41, "percent_cover": 0.52483358934971835, "percent_above_0.1m": 63.414634146341463, "low_level_<0.5": 12.195121951219512, "mid_level_0.5-2": 24.390243902439025, "tall_2+": 19.512195121951219 }, "geometry": { "type": "Point", "coordinates": [ 0.942253482313995, 52.666816799250427 ] } },
{ "type": "Feature", "properties": { "max_height": 0.34999847412109375, "mean_height": 0.030289052054286003, "std_height": 0.10274291783571243, "count_pixels": 43, "percent_cover": 0.55043522785458265, "percent_above_0.1m": 13.953488372093023, "low_level_<0.5": 13.953488372093023, "mid_level_0.5-2": 0.0, "tall_2+": 0.0 }, "geometry": { "type": "Point", "coordinates": [ 0.939498287925815, 52.66699311372642 ] } },
{ "type": "Feature", "properties": { "max_height": 14.289997100830078, "mean_height": 5.9836297035217285, "std_height": 5.0598373413085938, "count_pixels": 42, "percent_cover": 0.53763440860215062, "percent_above_0.1m": 90.476190476190482, "low_level_<0.5": 11.904761904761903, "mid_level_0.5-2": 16.666666666666664, "tall_2+": 59.523809523809526 }, "geometry": { "type": "Point", "coordinates": [ 0.939702913481255, 52.666988035996745 ] } },
{ "type": "Feature", "properties": { "max_height": 16.742496490478516, "mean_height": 12.856606483459473, "std_height": 3.1952986717224121, "count_pixels": 42, "percent_cover": 0.53763440860215062, "percent_above_0.1m": 100.0, "low_level_<0.5": 0.0, "mid_level_0.5-2": 0.0, "tall_2+": 100.0 }, "geometry": { "type": "Point", "coordinates": [ 0.939907538975882, 52.666982957914172 ] } },
{ "type": "Feature", "properties": { "max_height": 13.182498931884766, "mean_height": 4.0376205444335938, "std_height": 4.8760161399841309, "count_pixels": 41, "percent_cover": 0.52483358934971835, "percent_above_0.1m": 56.09756097560976, "low_level_<0.5": 2.4390243902439024, "mid_level_0.5-2": 7.3170731707317067, "tall_2+": 46.341463414634148 }, "geometry": { "type": "Point", "coordinates": [ 0.940112164409687, 52.666977879478651 ] } },
{ "type": "Feature", "properties": { "max_height": 0.48749923706054688, "mean_height": 0.014145548455417156, "std_height": 0.075994640588760376, "count_pixels": 41, "percent_cover": 0.52483358934971835, "percent_above_0.1m": 2.4390243902439024, "low_level_<0.5": 2.4390243902439024, "mid_level_0.5-2": 0.0, "tall_2+": 0.0 }, "geometry": { "type": "Point", "coordinates": [ 0.940316789782666, 52.66697280069021 ] } },
{ "type": "Feature", "properties": { "max_height": 0.020000457763671875, "mean_height": 0.00193614955060184, "std_height": 0.0050156572833657265, "count_pixels": 40, "percent_cover": 0.51203277009728621, "percent_above_0.1m": 0.0, "low_level_<0.5": 0.0, "mid_level_0.5-2": 0.0, "tall_2+": 0.0 }, "geometry": { "type": "Point", "coordinates": [ 0.940521415094815, 52.666967721548836 ] } },
{ "type": "Feature", "properties": { "max_height": 0.0, "mean_height": -1.1444092251622351e-06, "std_height": 1.9451215393928578e-06, "count_pixels": 40, "percent_cover": 0.51203277009728621, "percent_above_0.1m": 0.0, "low_level_<0.5": 0.0, "mid_level_0.5-2": 0.0, "tall_2+": 0.0 }, "geometry": { "type": "Point", "coordinates": [ 0.940726040346135, 52.666962642054543 ] } },
{ "type": "Feature", "properties": { "max_height": 0.0, "mean_height": -1.0234554110866156e-06, "std_height": 1.6901808521652129e-06, "count_pixels": 41, "percent_cover": 0.52483358934971835, "percent_above_0.1m": 0.0, "low_level_<0.5": 0.0, "mid_level_0.5-2": 0.0, "tall_2+": 0.0 }, "geometry": { "type": "Point", "coordinates": [ 0.940930665536612, 52.666957562207315 ] } },
{ "type": "Feature", "properties": { "max_height": 2.1424980163574219, "mean_height": 0.15877896547317505, "std_height": 0.47676032781600952, "count_pixels": 41, "percent_cover": 0.52483358934971835, "percent_above_0.1m": 14.634146341463413, "low_level_<0.5": 2.4390243902439024, "mid_level_0.5-2": 7.3170731707317067, "tall_2+": 2.4390243902439024 }, "geometry": { "type": "Point", "coordinates": [ 0.941135290666251, 52.666952482007162 ] } },
{ "type": "Feature", "properties": { "max_height": 2.5625, "mean_height": 0.61898720264434814, "std_height": 0.86795544624328613, "count_pixels": 42, "percent_cover": 0.53763440860215062, "percent_above_0.1m": 47.619047619047613, "low_level_<0.5": 11.904761904761903, "mid_level_0.5-2": 16.666666666666664, "tall_2+": 16.666666666666664 }, "geometry": { "type": "Point", "coordinates": [ 0.941339915735043, 52.666947401454081 ] } },
{ "type": "Feature", "properties": { "max_height": 7.25, "mean_height": 0.63976097106933594, "std_height": 1.761667013168335, "count_pixels": 42, "percent_cover": 0.53763440860215062, "percent_above_0.1m": 19.047619047619047, "low_level_<0.5": 2.3809523809523809, "mid_level_0.5-2": 7.1428571428571423, "tall_2+": 9.5238095238095237 }, "geometry": { "type": "Point", "coordinates": [ 0.941544540742984, 52.666942320548074 ] } },
{ "type": "Feature", "properties": { "max_height": 0.077495574951171875, "mean_height": 0.004068862646818161, "std_height": 0.014244326390326023, "count_pixels": 43, "percent_cover": 0.55043522785458265, "percent_above_0.1m": 0.0, "low_level_<0.5": 0.0, "mid_level_0.5-2": 0.0, "tall_2+": 0.0 }, "geometry": { "type": "Point", "coordinates": [ 0.941749165690071, 52.66693723928914 ] } },
{ "type": "Feature", "properties": { "max_height": 0.214996337890625, "mean_height": 0.0074991225264966488, "std_height": 0.035776890814304352, "count_pixels": 40, "percent_cover": 0.51203277009728621, "percent_above_0.1m": 2.5, "low_level_<0.5": 2.5, "mid_level_0.5-2": 0.0, "tall_2+": 0.0 }, "geometry": { "type": "Point", "coordinates": [ 0.9419537905763, 52.666932157677294 ] } },
{ "type": "Feature", "properties": { "max_height": 4.3050003051757812, "mean_height": 0.55982464551925659, "std_height": 1.1590957641601562, "count_pixels": 43, "percent_cover": 0.55043522785458265, "percent_above_0.1m": 25.581395348837212, "low_level_<0.5": 2.3255813953488373, "mid_level_0.5-2": 11.627906976744185, "tall_2+": 11.627906976744185 }, "geometry": { "type": "Point", "coordinates": [ 0.942158415401667, 52.666927075712508 ] } },
{ "type": "Feature", "properties": { "max_height": 8.6199989318847656, "mean_height": 0.83060872554779053, "std_height": 1.7308681011199951, "count_pixels": 41, "percent_cover": 0.52483358934971835, "percent_above_0.1m": 39.024390243902438, "low_level_<0.5": 4.8780487804878048, "mid_level_0.5-2": 26.829268292682929, "tall_2+": 7.3170731707317067 }, "geometry": { "type": "Point", "coordinates": [ 0.939607839669758, 52.667098310535501 ] } },
{ "type": "Feature", "properties": { "max_height": 12.522499084472656, "mean_height": 2.8174986839294434, "std_height": 3.7504539489746094, "count_pixels": 42, "percent_cover": 0.53763440860215062, "percent_above_0.1m": 78.571428571428569, "low_level_<0.5": 9.5238095238095237, "mid_level_0.5-2": 33.333333333333329, "tall_2+": 35.714285714285715 }, "geometry": { "type": "Point", "coordinates": [ 0.939812465702063, 52.667093232608025 ] } },
{ "type": "Feature", "properties": { "max_height": 9.464996337890625, "mean_height": 1.6403554677963257, "std_height": 2.4395544528961182, "count_pixels": 42, "percent_cover": 0.53763440860215062, "percent_above_0.1m": 47.619047619047613, "low_level_<0.5": 7.1428571428571423, "mid_level_0.5-2": 11.904761904761903, "tall_2+": 28.571428571428569 }, "geometry": { "type": "Point", "coordinates": [ 0.940017091673436, 52.667088154327566 ] } },
{ "type": "Feature", "properties": { "max_height": 6.7324981689453125, "mean_height": 1.71668541431427, "std_height": 2.0141570568084717, "count_pixels": 43, "percent_cover": 0.55043522785458265, "percent_above_0.1m": 65.116279069767444, "low_level_<0.5": 9.3023255813953494, "mid_level_0.5-2": 16.279069767441861, "tall_2+": 37.209302325581397 }, "geometry": { "type": "Point", "coordinates": [ 0.940221717583868, 52.667083075694109 ] } },
{ "type": "Feature", "properties": { "max_height": 6.8325004577636719, "mean_height": 1.3386620283126831, "std_height": 2.1440045833587646, "count_pixels": 43, "percent_cover": 0.55043522785458265, "percent_above_0.1m": 51.162790697674424, "low_level_<0.5": 2.3255813953488373, "mid_level_0.5-2": 18.604651162790699, "tall_2+": 23.255813953488371 }, "geometry": { "type": "Point", "coordinates": [ 0.940426343433359, 52.667077996707654 ] } },
{ "type": "Feature", "properties": { "max_height": 2.0724983215332031, "mean_height": 0.19524888694286346, "std_height": 0.38980719447135925, "count_pixels": 40, "percent_cover": 0.51203277009728621, "percent_above_0.1m": 32.5, "low_level_<0.5": 20.0, "mid_level_0.5-2": 10.0, "tall_2+": 2.5 }, "geometry": { "type": "Point", "coordinates": [ 0.940630969221903, 52.667072917368209 ] } },
{ "type": "Feature", "properties": { "max_height": 5.3149986267089844, "mean_height": 0.4559873640537262, "std_height": 1.1265904903411865, "count_pixels": 43, "percent_cover": 0.55043522785458265, "percent_above_0.1m": 27.906976744186046, "low_level_<0.5": 9.3023255813953494, "mid_level_0.5-2": 9.3023255813953494, "tall_2+": 6.9767441860465116 }, "geometry": { "type": "Point", "coordinates": [ 0.940835594949495, 52.667067837675745 ] } },
{ "type": "Feature", "properties": { "max_height": 2.3699989318847656, "mean_height": 0.27726638317108154, "std_height": 0.67165088653564453, "count_pixels": 43, "percent_cover": 0.55043522785458265, "percent_above_0.1m": 16.279069767441861, "low_level_<0.5": 0.0, "mid_level_0.5-2": 9.3023255813953494, "tall_2+": 6.9767441860465116 }, "geometry": { "type": "Point", "coordinates": [ 0.941040220616136, 52.667062757630298 ] } },
{ "type": "Feature", "properties": { "max_height": 7.2649955749511719, "mean_height": 2.9024989604949951, "std_height": 2.4175474643707275, "count_pixels": 42, "percent_cover": 0.53763440860215062, "percent_above_0.1m": 85.714285714285708, "low_level_<0.5": 4.7619047619047619, "mid_level_0.5-2": 23.809523809523807, "tall_2+": 57.142857142857139 }, "geometry": { "type": "Point", "coordinates": [ 0.94124484622181, 52.66705767723186 ] } },
{ "type": "Feature", "properties": { "max_height": 9.1149978637695312, "mean_height": 2.7627367973327637, "std_height": 2.8572547435760498, "count_pixels": 42, "percent_cover": 0.53763440860215062, "percent_above_0.1m": 71.428571428571431, "low_level_<0.5": 0.0, "mid_level_0.5-2": 19.047619047619047, "tall_2+": 52.380952380952387 }, "geometry": { "type": "Point", "coordinates": [ 0.941449471766531, 52.667052596480431 ] } },
{ "type": "Feature", "properties": { "max_height": 14.439998626708984, "mean_height": 6.8287181854248047, "std_height": 5.3921842575073242, "count_pixels": 41, "percent_cover": 0.52483358934971835, "percent_above_0.1m": 80.487804878048792, "low_level_<0.5": 7.3170731707317067, "mid_level_0.5-2": 2.4390243902439024, "tall_2+": 70.731707317073173 }, "geometry": { "type": "Point", "coordinates": [ 0.9416540972483, 52.667047515375685 ] } },
{ "type": "Feature", "properties": { "max_height": 11.459999084472656, "mean_height": 3.2681865692138672, "std_height": 4.0729966163635254, "count_pixels": 40, "percent_cover": 0.51203277009728621, "percent_above_0.1m": 50.0, "low_level_<0.5": 5.0, "mid_level_0.5-2": 2.5, "tall_2+": 42.5 }, "geometry": { "type": "Point", "coordinates": [ 0.94185872266485, 52.667042433918496 ] } },
{ "type": "Feature", "properties": { "max_height": 0.69367599487304688, "mean_height": 0.053419686853885651, "std_height": 0.14857038855552673, "count_pixels": 40, "percent_cover": 0.51203277009728621, "percent_above_0.1m": 12.5, "low_level_<0.5": 7.5, "mid_level_0.5-2": 2.5, "tall_2+": 0.0 }, "geometry": { "type": "Point", "coordinates": [ 0.94206334801821, 52.667037352109155 ] } },
{ "type": "Feature", "properties": { "max_height": 4.6574974060058594, "mean_height": 2.4199986457824707, "std_height": 1.5309981107711792, "count_pixels": 42, "percent_cover": 0.53763440860215062, "percent_above_0.1m": 95.238095238095227, "low_level_<0.5": 14.285714285714285, "mid_level_0.5-2": 21.428571428571427, "tall_2+": 59.523809523809526 }, "geometry": { "type": "Point", "coordinates": [ 0.939717391680296, 52.667203507267125 ] } },
{ "type": "Feature", "properties": { "max_height": 6.9699974060058594, "mean_height": 2.0689623355865479, "std_height": 2.2602145671844482, "count_pixels": 41, "percent_cover": 0.52483358934971835, "percent_above_0.1m": 65.853658536585371, "low_level_<0.5": 12.195121951219512, "mid_level_0.5-2": 12.195121951219512, "tall_2+": 41.463414634146339 }, "geometry": { "type": "Point", "coordinates": [ 0.940945149828192, 52.667173033223257 ] } },
{ "type": "Feature", "properties": { "max_height": 13.920001983642578, "mean_height": 7.615027904510498, "std_height": 4.9285621643066406, "count_pixels": 43, "percent_cover": 0.55043522785458265, "percent_above_0.1m": 95.348837209302332, "low_level_<0.5": 4.6511627906976747, "mid_level_0.5-2": 13.953488372093023, "tall_2+": 76.744186046511629 }, "geometry": { "type": "Point", "coordinates": [ 0.941763654038205, 52.667152710133287 ] } }
]
}
