{
"type": "FeatureCollection",
"name": "0d2b0f5beb57_foliage",
"crs": { "type": "name", "properties": { "name": "urn:ogc:def:crs:OGC:1.3:CRS84" } },
"features": [
{ "type": "Feature", "properties": { "max_height": 11.455556869506836, "mean_height": 2.3520495891571045, "std_height": 3.2460682392120361, "count_pixels": 40, "percent_cover": 0.22933149868134389, "percent_above_0.1m": 50.0, "low_level_<0.5": 2.5, "mid_level_0.5-2": 15.0, "tall_2+": 32.5 }, "geometry": { "type": "Point", "coordinates": [ 1.426877061150197, 52.054848618327405 ] } },
{ "type": "Feature", "properties": { "max_height": 3.3488264083862305, "mean_height": 0.098456472158432007, "std_height": 0.51919722557067871, "count_pixels": 43, "percent_cover": 0.24653136108244467, "percent_above_0.1m": 4.6511627906976747, "low_level_<0.5": 0.0, "mid_level_0.5-2": 2.3255813953488373, "tall_2+": 2.3255813953488373 }, "geometry": { "type": "Point", "coordinates": [ 1.426582728058268, 52.054965118174302 ] } },
{ "type": "Feature", "properties": { "max_height": 7.9603462219238281, "mean_height": 0.97357726097106934, "std_height": 2.0141286849975586, "count_pixels": 44, "percent_cover": 0.25226464854947828, "percent_above_0.1m": 31.818181818181817, "low_level_<0.5": 2.2727272727272729, "mid_level_0.5-2": 6.8181818181818175, "tall_2+": 18.181818181818183 }, "geometry": { "type": "Point", "coordinates": [ 1.426784448492601, 52.05495924878123 ] } },
{ "type": "Feature", "properties": { "max_height": 11.934814453125, "mean_height": 3.5835652351379395, "std_height": 3.0689048767089844, "count_pixels": 40, "percent_cover": 0.22933149868134389, "percent_above_0.1m": 72.5, "low_level_<0.5": 0.0, "mid_level_0.5-2": 7.5, "tall_2+": 65.0 }, "geometry": { "type": "Point", "coordinates": [ 1.426986168858136, 52.054953379043333 ] } },
{ "type": "Feature", "properties": { "max_height": 4.7299423217773438, "mean_height": 0.30220380425453186, "std_height": 0.95825827121734619, "count_pixels": 41, "percent_cover": 0.2350647861483775, "percent_above_0.1m": 12.195121951219512, "low_level_<0.5": 0.0, "mid_level_0.5-2": 4.8780487804878048, "tall_2+": 7.3170731707317067 }, "geometry": { "type": "Point", "coordinates": [ 1.426490114438433, 52.05507574841193 ] } },
{ "type": "Feature", "properties": { "max_height": 9.9415855407714844, "mean_height": 4.7646293640136719, "std_height": 3.5956332683563232, "count_pixels": 40, "percent_cover": 0.22933149868134389, "percent_above_0.1m": 77.5, "low_level_<0.5": 2.5, "mid_level_0.5-2": 5.0, "tall_2+": 67.5 }, "geometry": { "type": "Point", "coordinates": [ 1.426691835388292, 52.055069879168627 ] } },
{ "type": "Feature", "properties": { "max_height": 5.0350589752197266, "mean_height": 0.41816717386245728, "std_height": 1.1551002264022827, "count_pixels": 40, "percent_cover": 0.22933149868134389, "percent_above_0.1m": 20.0, "low_level_<0.5": 7.5, "mid_level_0.5-2": 5.0, "tall_2+": 7.5 }, "geometry": { "type": "Point", "coordinates": [ 1.426893556269349, 52.055064009580484 ] } },
{ "type": "Feature", "properties": { "max_height": 11.483859062194824, "mean_height": 3.4644699096679688, "std_height": 3.9016640186309814, "count_pixels": 40, "percent_cover": 0.22933149868134389, "percent_above_0.1m": 52.5, "low_level_<0.5": 0.0, "mid_level_0.5-2": 5.0, "tall_2+": 47.5 }, "geometry": { "type": "Point", "coordinates": [ 1.424178559713545, 52.055250915852959 ] } },
{ "type": "Feature", "properties": { "max_height": 8.8573646545410156, "mean_height": 3.2074759006500244, "std_height": 2.9609808921813965, "count_pixels": 43, "percent_cover": 0.24653136108244467, "percent_above_0.1m": 81.395348837209298, "low_level_<0.5": 9.3023255813953494, "mid_level_0.5-2": 18.604651162790699, "tall_2+": 53.488372093023251 }, "geometry": { "type": "Point", "coordinates": [ 1.42438028193538, 52.055245050552621 ] } },
{ "type": "Feature", "properties": { "max_height": 15.757650375366211, "mean_height": 9.4056911468505859, "std_height": 4.278313159942627, "count_pixels": 42, "percent_cover": 0.24079807361541108, "percent_above_0.1m": 100.0, "low_level_<0.5": 0.0, "mid_level_0.5-2": 2.3809523809523809, "tall_2+": 97.61904761904762 }, "geometry": { "type": "Point", "coordinates": [ 1.424582004088464, 52.055239184907457 ] } },
{ "type": "Feature", "properties": { "max_height": 1.8489322662353516, "mean_height": 0.057696115225553513, "std_height": 0.28915902972221375, "count_pixels": 42, "percent_cover": 0.24079807361541108, "percent_above_0.1m": 7.1428571428571423, "low_level_<0.5": 4.7619047619047619, "mid_level_0.5-2": 2.3809523809523809, "tall_2+": 0.0 }, "geometry": { "type": "Point", "coordinates": [ 1.426397500371884, 52.055186378583116 ] } },
{ "type": "Feature", "properties": { "max_height": 9.9130592346191406, "mean_height": 3.4411571025848389, "std_height": 3.2643964290618896, "count_pixels": 43, "percent_cover": 0.24653136108244467, "percent_above_0.1m": 79.069767441860463, "low_level_<0.5": 2.3255813953488373, "mid_level_0.5-2": 18.604651162790699, "tall_2+": 53.488372093023251 }, "geometry": { "type": "Point", "coordinates": [ 1.426599221837266, 52.055180509489574 ] } },
{ "type": "Feature", "properties": { "max_height": 7.5548515319824219, "mean_height": 1.6911804676055908, "std_height": 2.1588633060455322, "count_pixels": 44, "percent_cover": 0.25226464854947828, "percent_above_0.1m": 61.363636363636367, "low_level_<0.5": 4.5454545454545459, "mid_level_0.5-2": 18.181818181818183, "tall_2+": 36.363636363636367 }, "geometry": { "type": "Point", "coordinates": [ 1.426800943233854, 52.05517464005117 ] } },
{ "type": "Feature", "properties": { "max_height": 1.2783184051513672, "mean_height": 0.25045934319496155, "std_height": 0.32436683773994446, "count_pixels": 40, "percent_cover": 0.22933149868134389, "percent_above_0.1m": 50.0, "low_level_<0.5": 30.0, "mid_level_0.5-2": 17.5, "tall_2+": 0.0 }, "geometry": { "type": "Point", "coordinates": [ 1.427002664561645, 52.055168770267933 ] } },
{ "type": "Feature", "properties": { "max_height": 8.1088294982910156, "mean_height": 0.54488039016723633, "std_height": 1.6101838350296021, "count_pixels": 42, "percent_cover": 0.24079807361541108, "percent_above_0.1m": 26.190476190476193, "low_level_<0.5": 7.1428571428571423, "mid_level_0.5-2": 7.1428571428571423, "tall_2+": 9.5238095238095237 }, "geometry": { "type": "Point", "coordinates": [ 1.423480770905093, 52.055379137692967 ] } },
{ "type": "Feature", "properties": { "max_height": 1.7146692276000977, "mean_height": 0.28675028681755066, "std_height": 0.50972831249237061, "count_pixels": 40, "percent_cover": 0.22933149868134389, "percent_above_0.1m": 30.0, "low_level_<0.5": 10.0, "mid_level_0.5-2": 20.0, "tall_2+": 0.0 }, "geometry": { "type": "Point", "coordinates": [ 1.424287662266912, 52.055355679159753 ] } },
{ "type": "Feature", "properties": { "max_height": 14.09813117980957, "mean_height": 4.5504031181335449, "std_height": 5.0527167320251465, "count_pixels": 41, "percent_cover": 0.2350647861483775, "percent_above_0.1m": 73.170731707317074, "low_level_<0.5": 9.7560975609756095, "mid_level_0.5-2": 12.195121951219512, "tall_2+": 48.780487804878049 }, "geometry": { "type": "Point", "coordinates": [ 1.424489384935509, 52.055349813664343 ] } },
{ "type": "Feature", "properties": { "max_height": 4.8254880905151367, "mean_height": 0.30499374866485596, "std_height": 1.0502880811691284, "count_pixels": 42, "percent_cover": 0.24079807361541108, "percent_above_0.1m": 9.5238095238095237, "low_level_<0.5": 0.0, "mid_level_0.5-2": 2.3809523809523809, "tall_2+": 7.1428571428571423 }, "geometry": { "type": "Point", "coordinates": [ 1.426304885858613, 52.055297008687873 ] } },
{ "type": "Feature", "properties": { "max_height": 6.4372987747192383, "mean_height": 1.2714864015579224, "std_height": 2.0517349243164062, "count_pixels": 41, "percent_cover": 0.2350647861483775, "percent_above_0.1m": 48.780487804878049, "low_level_<0.5": 9.7560975609756095, "mid_level_0.5-2": 12.195121951219512, "tall_2+": 21.951219512195124 }, "geometry": { "type": "Point", "coordinates": [ 1.426506607839522, 52.055291139744057 ] } },
{ "type": "Feature", "properties": { "max_height": 12.702911376953125, "mean_height": 5.9302554130554199, "std_height": 3.2565333843231201, "count_pixels": 40, "percent_cover": 0.22933149868134389, "percent_above_0.1m": 92.5, "low_level_<0.5": 2.5, "mid_level_0.5-2": 5.0, "tall_2+": 85.0 }, "geometry": { "type": "Point", "coordinates": [ 1.426708329751637, 52.055285270455421 ] } },
{ "type": "Feature", "properties": { "max_height": 5.3491058349609375, "mean_height": 1.2839229106903076, "std_height": 1.4523974657058716, "count_pixels": 40, "percent_cover": 0.22933149868134389, "percent_above_0.1m": 65.0, "low_level_<0.5": 10.0, "mid_level_0.5-2": 27.5, "tall_2+": 25.0 }, "geometry": { "type": "Point", "coordinates": [ 1.426910051594961, 52.055279400821938 ] } },
{ "type": "Feature", "properties": { "max_height": 12.727482795715332, "mean_height": 5.4578208923339844, "std_height": 3.1809012889862061, "count_pixels": 41, "percent_cover": 0.2350647861483775, "percent_above_0.1m": 95.121951219512198, "low_level_<0.5": 0.0, "mid_level_0.5-2": 9.7560975609756095, "tall_2+": 85.365853658536579 }, "geometry": { "type": "Point", "coordinates": [ 1.423186425200023, 52.055495629255958 ] } },
{ "type": "Feature", "properties": { "max_height": 6.4906086921691895, "mean_height": 2.5320122241973877, "std_height": 1.8886195421218872, "count_pixels": 42, "percent_cover": 0.24079807361541108, "percent_above_0.1m": 90.476190476190482, "low_level_<0.5": 11.904761904761903, "mid_level_0.5-2": 23.809523809523807, "tall_2+": 54.761904761904766 }, "geometry": { "type": "Point", "coordinates": [ 1.423388148727823, 52.05548976563454 ] } },
{ "type": "Feature", "properties": { "max_height": 2.3617191314697266, "mean_height": 0.18235811591148376, "std_height": 0.39536470174789429, "count_pixels": 42, "percent_cover": 0.24079807361541108, "percent_above_0.1m": 38.095238095238095, "low_level_<0.5": 26.190476190476193, "mid_level_0.5-2": 4.7619047619047619, "tall_2+": 2.3809523809523809 }, "geometry": { "type": "Point", "coordinates": [ 1.423589872186893, 52.055483901668282 ] } },
{ "type": "Feature", "properties": { "max_height": 1.2434415817260742, "mean_height": 0.039707515388727188, "std_height": 0.18951615691184998, "count_pixels": 43, "percent_cover": 0.24653136108244467, "percent_above_0.1m": 6.9767441860465116, "low_level_<0.5": 4.6511627906976747, "mid_level_0.5-2": 2.3255813953488373, "tall_2+": 0.0 }, "geometry": { "type": "Point", "coordinates": [ 1.423791595577234, 52.055478037357169 ] } },
{ "type": "Feature", "properties": { "max_height": 1.8665094375610352, "mean_height": 0.38198301196098328, "std_height": 0.63559067249298096, "count_pixels": 43, "percent_cover": 0.24653136108244467, "percent_above_0.1m": 27.906976744186046, "low_level_<0.5": 0.0, "mid_level_0.5-2": 27.906976744186046, "tall_2+": 0.0 }, "geometry": { "type": "Point", "coordinates": [ 1.423993318898833, 52.055472172701215 ] } },
{ "type": "Feature", "properties": { "max_height": 1.7699604034423828, "mean_height": 0.40381121635437012, "std_height": 0.61189138889312744, "count_pixels": 40, "percent_cover": 0.22933149868134389, "percent_above_0.1m": 35.0, "low_level_<0.5": 2.5, "mid_level_0.5-2": 32.5, "tall_2+": 0.0 }, "geometry": { "type": "Point", "coordinates": [ 1.424195042151691, 52.055466307700421 ] } },
{ "type": "Feature", "properties": { "max_height": 1.9293279647827148, "mean_height": 0.25781309604644775, "std_height": 0.49196591973304749, "count_pixels": 43, "percent_cover": 0.24653136108244467, "percent_above_0.1m": 37.209302325581397, "low_level_<0.5": 11.627906976744185, "mid_level_0.5-2": 18.604651162790699, "tall_2+": 0.0 }, "geometry": { "type": "Point", "coordinates": [ 1.424396765335805, 52.055460442354786 ] } },
{ "type": "Feature", "properties": { "max_height": 9.7268610000610352, "mean_height": 3.0792992115020752, "std_height": 2.8755717277526855, "count_pixels": 42, "percent_cover": 0.24079807361541108, "percent_above_0.1m": 88.095238095238088, "low_level_<0.5": 7.1428571428571423, "mid_level_0.5-2": 26.190476190476193, "tall_2+": 54.761904761904766 }, "geometry": { "type": "Point", "coordinates": [ 1.42459848845117, 52.055454576664317 ] } },
{ "type": "Feature", "properties": { "max_height": 18.205917358398438, "mean_height": 10.321218490600586, "std_height": 4.0503273010253906, "count_pixels": 42, "percent_cover": 0.24079807361541108, "percent_above_0.1m": 100.0, "low_level_<0.5": 0.0, "mid_level_0.5-2": 2.3809523809523809, "tall_2+": 97.61904761904762 }, "geometry": { "type": "Point", "coordinates": [ 1.424800211497777, 52.055448710628987 ] } },
{ "type": "Feature", "properties": { "max_height": 17.444351196289062, "mean_height": 10.620353698730469, "std_height": 4.2013826370239258, "count_pixels": 42, "percent_cover": 0.24079807361541108, "percent_above_0.1m": 97.61904761904762, "low_level_<0.5": 2.3809523809523809, "mid_level_0.5-2": 0.0, "tall_2+": 95.238095238095227 }, "geometry": { "type": "Point", "coordinates": [ 1.425001934475634, 52.055442844248823 ] } },
{ "type": "Feature", "properties": { "max_height": 16.541166305541992, "mean_height": 9.241185188293457, "std_height": 5.6089997291564941, "count_pixels": 41, "percent_cover": 0.2350647861483775, "percent_above_0.1m": 85.365853658536579, "low_level_<0.5": 0.0, "mid_level_0.5-2": 2.4390243902439024, "tall_2+": 82.926829268292678 }, "geometry": { "type": "Point", "coordinates": [ 1.425808825699389, 52.055419375279747 ] } },
{ "type": "Feature", "properties": { "max_height": 6.7864551544189453, "mean_height": 0.51077389717102051, "std_height": 1.4295532703399658, "count_pixels": 41, "percent_cover": 0.2350647861483775, "percent_above_0.1m": 14.634146341463413, "low_level_<0.5": 0.0, "mid_level_0.5-2": 2.4390243902439024, "tall_2+": 12.195121951219512 }, "geometry": { "type": "Point", "coordinates": [ 1.426010548333393, 52.055413507175366 ] } },
{ "type": "Feature", "properties": { "max_height": 9.7759132385253906, "mean_height": 2.2015893459320068, "std_height": 2.9957177639007568, "count_pixels": 42, "percent_cover": 0.24079807361541108, "percent_above_0.1m": 52.380952380952387, "low_level_<0.5": 7.1428571428571423, "mid_level_0.5-2": 11.904761904761903, "tall_2+": 33.333333333333329 }, "geometry": { "type": "Point", "coordinates": [ 1.426212270898615, 52.055407638726166 ] } },
{ "type": "Feature", "properties": { "max_height": 8.0072107315063477, "mean_height": 1.1048213243484497, "std_height": 2.0717113018035889, "count_pixels": 42, "percent_cover": 0.24079807361541108, "percent_above_0.1m": 47.619047619047613, "low_level_<0.5": 14.285714285714285, "mid_level_0.5-2": 14.285714285714285, "tall_2+": 19.047619047619047 }, "geometry": { "type": "Point", "coordinates": [ 1.426413993395053, 52.055401769932111 ] } },
{ "type": "Feature", "properties": { "max_height": 12.160482406616211, "mean_height": 6.6974010467529297, "std_height": 2.8144679069519043, "count_pixels": 43, "percent_cover": 0.24653136108244467, "percent_above_0.1m": 97.674418604651152, "low_level_<0.5": 2.3255813953488373, "mid_level_0.5-2": 4.6511627906976747, "tall_2+": 90.697674418604649 }, "geometry": { "type": "Point", "coordinates": [ 1.426615715822704, 52.055395900793208 ] } },
{ "type": "Feature", "properties": { "max_height": 12.512554168701172, "mean_height": 3.1167974472045898, "std_height": 4.4088578224182129, "count_pixels": 44, "percent_cover": 0.25226464854947828, "percent_above_0.1m": 54.54545454545454, "low_level_<0.5": 6.8181818181818175, "mid_level_0.5-2": 9.0909090909090917, "tall_2+": 34.090909090909086 }, "geometry": { "type": "Point", "coordinates": [ 1.426817438181556, 52.055390031309479 ] } },
{ "type": "Feature", "properties": { "max_height": 13.824798583984375, "mean_height": 6.7265939712524414, "std_height": 4.3803009986877441, "count_pixels": 42, "percent_cover": 0.24079807361541108, "percent_above_0.1m": 92.857142857142861, "low_level_<0.5": 4.7619047619047619, "mid_level_0.5-2": 11.904761904761903, "tall_2+": 76.19047619047619 }, "geometry": { "type": "Point", "coordinates": [ 1.423295526103786, 52.055600393509657 ] } },
{ "type": "Feature", "properties": { "max_height": 3.9896326065063477, "mean_height": 0.68913042545318604, "std_height": 1.0098750591278076, "count_pixels": 42, "percent_cover": 0.24079807361541108, "percent_above_0.1m": 54.761904761904766, "low_level_<0.5": 23.809523809523807, "mid_level_0.5-2": 16.666666666666664, "tall_2+": 11.904761904761903 }, "geometry": { "type": "Point", "coordinates": [ 1.423497250078374, 52.055594529693167 ] } },
{ "type": "Feature", "properties": { "max_height": 3.0497703552246094, "mean_height": 0.73958307504653931, "std_height": 0.76176506280899048, "count_pixels": 41, "percent_cover": 0.2350647861483775, "percent_above_0.1m": 70.731707317073173, "low_level_<0.5": 19.512195121951219, "mid_level_0.5-2": 41.463414634146339, "tall_2+": 7.3170731707317067 }, "geometry": { "type": "Point", "coordinates": [ 1.423698973984223, 52.055588665531822 ] } },
{ "type": "Feature", "properties": { "max_height": 7.2470607757568359, "mean_height": 1.7575753927230835, "std_height": 2.1220493316650391, "count_pixels": 41, "percent_cover": 0.2350647861483775, "percent_above_0.1m": 65.853658536585371, "low_level_<0.5": 9.7560975609756095, "mid_level_0.5-2": 19.512195121951219, "tall_2+": 36.585365853658537 }, "geometry": { "type": "Point", "coordinates": [ 1.423900697821342, 52.05558280102565 ] } },
{ "type": "Feature", "properties": { "max_height": 5.9107284545898438, "mean_height": 1.4000283479690552, "std_height": 1.6661461591720581, "count_pixels": 40, "percent_cover": 0.22933149868134389, "percent_above_0.1m": 67.5, "low_level_<0.5": 7.5, "mid_level_0.5-2": 32.5, "tall_2+": 25.0 }, "geometry": { "type": "Point", "coordinates": [ 1.424102421589717, 52.055576936174631 ] } },
{ "type": "Feature", "properties": { "max_height": 8.3287868499755859, "mean_height": 2.3952739238739014, "std_height": 2.8576934337615967, "count_pixels": 40, "percent_cover": 0.22933149868134389, "percent_above_0.1m": 57.5, "low_level_<0.5": 7.5, "mid_level_0.5-2": 7.5, "tall_2+": 42.5 }, "geometry": { "type": "Point", "coordinates": [ 1.424304145289349, 52.055571070978765 ] } },
{ "type": "Feature", "properties": { "max_height": 8.70855712890625, "mean_height": 1.6890530586242676, "std_height": 2.6653873920440674, "count_pixels": 41, "percent_cover": 0.2350647861483775, "percent_above_0.1m": 48.780487804878049, "low_level_<0.5": 9.7560975609756095, "mid_level_0.5-2": 4.8780487804878048, "tall_2+": 31.707317073170731 }, "geometry": { "type": "Point", "coordinates": [ 1.42450586892023, 52.055565205438064 ] } },
{ "type": "Feature", "properties": { "max_height": 10.647274017333984, "mean_height": 5.7115859985351562, "std_height": 3.209587574005127, "count_pixels": 42, "percent_cover": 0.24079807361541108, "percent_above_0.1m": 92.857142857142861, "low_level_<0.5": 2.3809523809523809, "mid_level_0.5-2": 9.5238095238095237, "tall_2+": 80.952380952380949 }, "geometry": { "type": "Point", "coordinates": [ 1.424707592482364, 52.055559339552495 ] } },
{ "type": "Feature", "properties": { "max_height": 16.038368225097656, "mean_height": 6.2729201316833496, "std_height": 5.1777677536010742, "count_pixels": 42, "percent_cover": 0.24079807361541108, "percent_above_0.1m": 76.19047619047619, "low_level_<0.5": 0.0, "mid_level_0.5-2": 9.5238095238095237, "tall_2+": 66.666666666666657 }, "geometry": { "type": "Point", "coordinates": [ 1.424909315975739, 52.055553473322092 ] } },
{ "type": "Feature", "properties": { "max_height": 13.446554183959961, "mean_height": 1.8335131406784058, "std_height": 3.3589155673980713, "count_pixels": 42, "percent_cover": 0.24079807361541108, "percent_above_0.1m": 38.095238095238095, "low_level_<0.5": 2.3809523809523809, "mid_level_0.5-2": 7.1428571428571423, "tall_2+": 28.571428571428569 }, "geometry": { "type": "Point", "coordinates": [ 1.425111039400353, 52.055547606746856 ] } },
{ "type": "Feature", "properties": { "max_height": 6.1678543090820312, "mean_height": 1.5182676315307617, "std_height": 1.8997602462768555, "count_pixels": 43, "percent_cover": 0.24653136108244467, "percent_above_0.1m": 48.837209302325576, "low_level_<0.5": 2.3255813953488373, "mid_level_0.5-2": 9.3023255813953494, "tall_2+": 37.209302325581397 }, "geometry": { "type": "Point", "coordinates": [ 1.425312762756207, 52.055541739826765 ] } },
{ "type": "Feature", "properties": { "max_height": 12.54046630859375, "mean_height": 2.9183926582336426, "std_height": 4.1556172370910645, "count_pixels": 40, "percent_cover": 0.22933149868134389, "percent_above_0.1m": 47.5, "low_level_<0.5": 2.5, "mid_level_0.5-2": 5.0, "tall_2+": 40.0 }, "geometry": { "type": "Point", "coordinates": [ 1.425514486043286, 52.055535872561848 ] } },
{ "type": "Feature", "properties": { "max_height": 16.646270751953125, "mean_height": 11.143792152404785, "std_height": 4.2678446769714355, "count_pixels": 43, "percent_cover": 0.24653136108244467, "percent_above_0.1m": 100.0, "low_level_<0.5": 2.3255813953488373, "mid_level_0.5-2": 4.6511627906976747, "tall_2+": 93.023255813953483 }, "geometry": { "type": "Point", "coordinates": [ 1.4257162092616, 52.055530004952068 ] } },
{ "type": "Feature", "properties": { "max_height": 11.696050643920898, "mean_height": 4.7378406524658203, "std_height": 2.5621607303619385, "count_pixels": 43, "percent_cover": 0.24653136108244467, "percent_above_0.1m": 100.0, "low_level_<0.5": 0.0, "mid_level_0.5-2": 11.627906976744185, "tall_2+": 88.372093023255815 }, "geometry": { "type": "Point", "coordinates": [ 1.425917932411134, 52.055524136997455 ] } },
{ "type": "Feature", "properties": { "max_height": 15.037334442138672, "mean_height": 8.1676912307739258, "std_height": 3.7373614311218262, "count_pixels": 42, "percent_cover": 0.24079807361541108, "percent_above_0.1m": 100.0, "low_level_<0.5": 7.1428571428571423, "mid_level_0.5-2": 0.0, "tall_2+": 92.857142857142861 }, "geometry": { "type": "Point", "coordinates": [ 1.42611965549189, 52.055518268698009 ] } },
{ "type": "Feature", "properties": { "max_height": 6.3943748474121094, "mean_height": 1.817777156829834, "std_height": 2.1428191661834717, "count_pixels": 42, "percent_cover": 0.24079807361541108, "percent_above_0.1m": 64.285714285714292, "low_level_<0.5": 9.5238095238095237, "mid_level_0.5-2": 21.428571428571427, "tall_2+": 33.333333333333329 }, "geometry": { "type": "Point", "coordinates": [ 1.426321378503856, 52.055512400053701 ] } },
{ "type": "Feature", "properties": { "max_height": 10.414132118225098, "mean_height": 7.4066424369812012, "std_height": 1.716333270072937, "count_pixels": 41, "percent_cover": 0.2350647861483775, "percent_above_0.1m": 100.0, "low_level_<0.5": 0.0, "mid_level_0.5-2": 0.0, "tall_2+": 100.0 }, "geometry": { "type": "Point", "coordinates": [ 1.426523101447043, 52.055506531064573 ] } },
{ "type": "Feature", "properties": { "max_height": 11.222228050231934, "mean_height": 6.4358277320861816, "std_height": 3.456763744354248, "count_pixels": 40, "percent_cover": 0.22933149868134389, "percent_above_0.1m": 92.5, "low_level_<0.5": 2.5, "mid_level_0.5-2": 7.5, "tall_2+": 82.5 }, "geometry": { "type": "Point", "coordinates": [ 1.426724824321433, 52.055500661730591 ] } },
{ "type": "Feature", "properties": { "max_height": 12.717973709106445, "mean_height": 4.6313362121582031, "std_height": 4.4886326789855957, "count_pixels": 42, "percent_cover": 0.24079807361541108, "percent_above_0.1m": 71.428571428571431, "low_level_<0.5": 9.5238095238095237, "mid_level_0.5-2": 2.3809523809523809, "tall_2+": 59.523809523809526 }, "geometry": { "type": "Point", "coordinates": [ 1.423404627523086, 52.05570515765158 ] } },
{ "type": "Feature", "properties": { "max_height": 1.4357414245605469, "mean_height": 0.1908516138792038, "std_height": 0.36284509301185608, "count_pixels": 42, "percent_cover": 0.24079807361541108, "percent_above_0.1m": 30.952380952380953, "low_level_<0.5": 16.666666666666664, "mid_level_0.5-2": 14.285714285714285, "tall_2+": 0.0 }, "geometry": { "type": "Point", "coordinates": [ 1.423606351944451, 52.055699293640018 ] } },
{ "type": "Feature", "properties": { "max_height": 2.8786087036132812, "mean_height": 0.51378530263900757, "std_height": 0.76373881101608276, "count_pixels": 43, "percent_cover": 0.24653136108244467, "percent_above_0.1m": 44.186046511627907, "low_level_<0.5": 13.953488372093023, "mid_level_0.5-2": 25.581395348837212, "tall_2+": 4.6511627906976747 }, "geometry": { "type": "Point", "coordinates": [ 1.423808076297087, 52.055693429283629 ] } },
{ "type": "Feature", "properties": { "max_height": 1.9955148696899414, "mean_height": 0.26208409667015076, "std_height": 0.59803622961044312, "count_pixels": 43, "percent_cover": 0.24653136108244467, "percent_above_0.1m": 23.255813953488371, "low_level_<0.5": 6.9767441860465116, "mid_level_0.5-2": 16.279069767441861, "tall_2+": 0.0 }, "geometry": { "type": "Point", "coordinates": [ 1.424009800580981, 52.055687564582371 ] } },
{ "type": "Feature", "properties": { "max_height": 5.3097257614135742, "mean_height": 0.86359739303588867, "std_height": 1.5227639675140381, "count_pixels": 40, "percent_cover": 0.22933149868134389, "percent_above_0.1m": 35.0, "low_level_<0.5": 2.5, "mid_level_0.5-2": 10.0, "tall_2+": 20.0 }, "geometry": { "type": "Point", "coordinates": [ 1.424211524796135, 52.055681699536279 ] } },
{ "type": "Feature", "properties": { "max_height": 6.6496200561523438, "mean_height": 1.1429638862609863, "std_height": 2.0637037754058838, "count_pixels": 43, "percent_cover": 0.24653136108244467, "percent_above_0.1m": 34.883720930232556, "low_level_<0.5": 9.3023255813953494, "mid_level_0.5-2": 2.3255813953488373, "tall_2+": 23.255813953488371 }, "geometry": { "type": "Point", "coordinates": [ 1.42441324894254, 52.055675834145333 ] } },
{ "type": "Feature", "properties": { "max_height": 7.8468179702758789, "mean_height": 1.5604071617126465, "std_height": 2.0100586414337158, "count_pixels": 42, "percent_cover": 0.24079807361541108, "percent_above_0.1m": 73.80952380952381, "low_level_<0.5": 9.5238095238095237, "mid_level_0.5-2": 21.428571428571427, "tall_2+": 30.952380952380953 }, "geometry": { "type": "Point", "coordinates": [ 1.424614973020195, 52.055669968409546 ] } },
{ "type": "Feature", "properties": { "max_height": 11.072809219360352, "mean_height": 3.7864110469818115, "std_height": 4.0245280265808105, "count_pixels": 42, "percent_cover": 0.24079807361541108, "percent_above_0.1m": 76.19047619047619, "low_level_<0.5": 11.904761904761903, "mid_level_0.5-2": 9.5238095238095237, "tall_2+": 50.0 }, "geometry": { "type": "Point", "coordinates": [ 1.424816697029098, 52.055664102328919 ] } },
{ "type": "Feature", "properties": { "max_height": 0.43285560607910156, "mean_height": 0.015438125468790531, "std_height": 0.090433396399021149, "count_pixels": 42, "percent_cover": 0.24079807361541108, "percent_above_0.1m": 4.7619047619047619, "low_level_<0.5": 4.7619047619047619, "mid_level_0.5-2": 0.0, "tall_2+": 0.0 }, "geometry": { "type": "Point", "coordinates": [ 1.425018420969236, 52.055658235903451 ] } },
{ "type": "Feature", "properties": { "max_height": 0.0064134597778320312, "mean_height": -0.004519857931882143, "std_height": 0.0045124772004783154, "count_pixels": 41, "percent_cover": 0.2350647861483775, "percent_above_0.1m": 0.0, "low_level_<0.5": 0.0, "mid_level_0.5-2": 0.0, "tall_2+": 0.0 }, "geometry": { "type": "Point", "coordinates": [ 1.425220144840616, 52.055652369133128 ] } },
{ "type": "Feature", "properties": { "max_height": 0.003520965576171875, "mean_height": -0.0041152238845825195, "std_height": 0.0036587116774171591, "count_pixels": 40, "percent_cover": 0.22933149868134389, "percent_above_0.1m": 0.0, "low_level_<0.5": 0.0, "mid_level_0.5-2": 0.0, "tall_2+": 0.0 }, "geometry": { "type": "Point", "coordinates": [ 1.425421868643231, 52.055646502017964 ] } },
{ "type": "Feature", "properties": { "max_height": 6.2488861083984375, "mean_height": 0.43587026000022888, "std_height": 1.3693575859069824, "count_pixels": 40, "percent_cover": 0.22933149868134389, "percent_above_0.1m": 15.0, "low_level_<0.5": 0.0, "mid_level_0.5-2": 7.5, "tall_2+": 7.5 }, "geometry": { "type": "Point", "coordinates": [ 1.425623592377072, 52.055640634557946 ] } },
{ "type": "Feature", "properties": { "max_height": 14.368350982666016, "mean_height": 5.9153218269348145, "std_height": 3.5133731365203857, "count_pixels": 41, "percent_cover": 0.2350647861483775, "percent_above_0.1m": 92.682926829268297, "low_level_<0.5": 0.0, "mid_level_0.5-2": 7.3170731707317067, "tall_2+": 85.365853658536579 }, "geometry": { "type": "Point", "coordinates": [ 1.425825316042137, 52.055634766753094 ] } },
{ "type": "Feature", "properties": { "max_height": 13.736337661743164, "mean_height": 6.8259625434875488, "std_height": 4.4630961418151855, "count_pixels": 41, "percent_cover": 0.2350647861483775, "percent_above_0.1m": 82.926829268292678, "low_level_<0.5": 2.4390243902439024, "mid_level_0.5-2": 2.4390243902439024, "tall_2+": 78.048780487804876 }, "geometry": { "type": "Point", "coordinates": [ 1.426027039638429, 52.055628898603388 ] } },
{ "type": "Feature", "properties": { "max_height": 6.0058536529541016, "mean_height": 0.51620727777481079, "std_height": 1.3606083393096924, "count_pixels": 42, "percent_cover": 0.24079807361541108, "percent_above_0.1m": 19.047619047619047, "low_level_<0.5": 2.3809523809523809, "mid_level_0.5-2": 4.7619047619047619, "tall_2+": 11.904761904761903 }, "geometry": { "type": "Point", "coordinates": [ 1.426228763165932, 52.055623030108855 ] } },
{ "type": "Feature", "properties": { "max_height": 11.491446495056152, "mean_height": 7.1394386291503906, "std_height": 3.050407886505127, "count_pixels": 42, "percent_cover": 0.24079807361541108, "percent_above_0.1m": 95.238095238095227, "low_level_<0.5": 2.3809523809523809, "mid_level_0.5-2": 0.0, "tall_2+": 92.857142857142861 }, "geometry": { "type": "Point", "coordinates": [ 1.42643048662465, 52.055617161269474 ] } },
{ "type": "Feature", "properties": { "max_height": 10.581162452697754, "mean_height": 2.8341507911682129, "std_height": 2.8713769912719727, "count_pixels": 43, "percent_cover": 0.24653136108244467, "percent_above_0.1m": 88.372093023255815, "low_level_<0.5": 13.953488372093023, "mid_level_0.5-2": 23.255813953488371, "tall_2+": 51.162790697674424 }, "geometry": { "type": "Point", "coordinates": [ 1.426632210014584, 52.055611292085253 ] } },
{ "type": "Feature", "properties": { "max_height": 10.573806762695312, "mean_height": 2.2984607219696045, "std_height": 3.6155169010162354, "count_pixels": 42, "percent_cover": 0.24079807361541108, "percent_above_0.1m": 40.476190476190474, "low_level_<0.5": 4.7619047619047619, "mid_level_0.5-2": 4.7619047619047619, "tall_2+": 30.952380952380953 }, "geometry": { "type": "Point", "coordinates": [ 1.423312004521024, 52.05581578554353 ] } },
{ "type": "Feature", "properties": { "max_height": 5.9325904846191406, "mean_height": 0.29571256041526794, "std_height": 1.0192521810531616, "count_pixels": 42, "percent_cover": 0.24079807361541108, "percent_above_0.1m": 11.904761904761903, "low_level_<0.5": 0.0, "mid_level_0.5-2": 7.1428571428571423, "tall_2+": 4.7619047619047619 }, "geometry": { "type": "Point", "coordinates": [ 1.423513729457911, 52.055809921681742 ] } },
{ "type": "Feature", "properties": { "max_height": 2.2803459167480469, "mean_height": 0.54916548728942871, "std_height": 0.81557267904281616, "count_pixels": 41, "percent_cover": 0.2350647861483775, "percent_above_0.1m": 43.902439024390247, "low_level_<0.5": 4.8780487804878048, "mid_level_0.5-2": 21.951219512195124, "tall_2+": 9.7560975609756095 }, "geometry": { "type": "Point", "coordinates": [ 1.423715454326065, 52.055804057475122 ] } },
{ "type": "Feature", "properties": { "max_height": 1.7194223403930664, "mean_height": 0.24801045656204224, "std_height": 0.45725995302200317, "count_pixels": 41, "percent_cover": 0.2350647861483775, "percent_above_0.1m": 31.707317073170731, "low_level_<0.5": 9.7560975609756095, "mid_level_0.5-2": 19.512195121951219, "tall_2+": 0.0 }, "geometry": { "type": "Point", "coordinates": [ 1.423917179125483, 52.055798192923646 ] } },
{ "type": "Feature", "properties": { "max_height": 3.4732637405395508, "mean_height": 0.37871336936950684, "std_height": 0.72962576150894165, "count_pixels": 40, "percent_cover": 0.22933149868134389, "percent_above_0.1m": 40.0, "low_level_<0.5": 12.5, "mid_level_0.5-2": 17.5, "tall_2+": 5.0 }, "geometry": { "type": "Point", "coordinates": [ 1.424118903856162, 52.055792328027316 ] } },
{ "type": "Feature", "properties": { "max_height": 8.863703727722168, "mean_height": 4.513420581817627, "std_height": 3.3624577522277832, "count_pixels": 40, "percent_cover": 0.22933149868134389, "percent_above_0.1m": 77.5, "low_level_<0.5": 2.5, "mid_level_0.5-2": 10.0, "tall_2+": 65.0 }, "geometry": { "type": "Point", "coordinates": [ 1.42432062851809, 52.055786462786159 ] } },
{ "type": "Feature", "properties": { "max_height": 9.9406394958496094, "mean_height": 5.2274079322814941, "std_height": 3.272388219833374, "count_pixels": 41, "percent_cover": 0.2350647861483775, "percent_above_0.1m": 90.243902439024396, "low_level_<0.5": 7.3170731707317067, "mid_level_0.5-2": 9.7560975609756095, "tall_2+": 73.170731707317074 }, "geometry": { "type": "Point", "coordinates": [ 1.42452235311127, 52.055780597200147 ] } },
{ "type": "Feature", "properties": { "max_height": 5.1515731811523438, "mean_height": 0.79658663272857666, "std_height": 1.1831854581832886, "count_pixels": 42, "percent_cover": 0.24079807361541108, "percent_above_0.1m": 66.666666666666657, "low_level_<0.5": 16.666666666666664, "mid_level_0.5-2": 26.190476190476193, "tall_2+": 16.666666666666664 }, "geometry": { "type": "Point", "coordinates": [ 1.4247240776357, 52.055774731269274 ] } },
{ "type": "Feature", "properties": { "max_height": 2.6891880035400391, "mean_height": 0.24464684724807739, "std_height": 0.59770476818084717, "count_pixels": 42, "percent_cover": 0.24079807361541108, "percent_above_0.1m": 23.809523809523807, "low_level_<0.5": 7.1428571428571423, "mid_level_0.5-2": 11.904761904761903, "tall_2+": 4.7619047619047619 }, "geometry": { "type": "Point", "coordinates": [ 1.424925802091373, 52.055768864993567 ] } },
{ "type": "Feature", "properties": { "max_height": 0.015713691711425781, "mean_height": -0.0046674865297973156, "std_height": 0.0051792827434837818, "count_pixels": 42, "percent_cover": 0.24079807361541108, "percent_above_0.1m": 0.0, "low_level_<0.5": 0.0, "mid_level_0.5-2": 0.0, "tall_2+": 0.0 }, "geometry": { "type": "Point", "coordinates": [ 1.42512752647828, 52.055762998373027 ] } },
{ "type": "Feature", "properties": { "max_height": 0.0061626434326171875, "mean_height": -0.004193971399217844, "std_height": 0.0044188532046973705, "count_pixels": 43, "percent_cover": 0.24653136108244467, "percent_above_0.1m": 0.0, "low_level_<0.5": 0.0, "mid_level_0.5-2": 0.0, "tall_2+": 0.0 }, "geometry": { "type": "Point", "coordinates": [ 1.425329250796427, 52.055757131407617 ] } },
{ "type": "Feature", "properties": { "max_height": 0.005832672119140625, "mean_height": -0.004100489430129528, "std_height": 0.004237079992890358, "count_pixels": 40, "percent_cover": 0.22933149868134389, "percent_above_0.1m": 0.0, "low_level_<0.5": 0.0, "mid_level_0.5-2": 0.0, "tall_2+": 0.0 }, "geometry": { "type": "Point", "coordinates": [ 1.425530975045801, 52.055751264097374 ] } },
{ "type": "Feature", "properties": { "max_height": 0.47996139526367188, "mean_height": 0.019537881016731262, "std_height": 0.10017593950033188, "count_pixels": 43, "percent_cover": 0.24653136108244467, "percent_above_0.1m": 4.6511627906976747, "low_level_<0.5": 4.6511627906976747, "mid_level_0.5-2": 0.0, "tall_2+": 0.0 }, "geometry": { "type": "Point", "coordinates": [ 1.425732699226404, 52.05574539644229 ] } },
{ "type": "Feature", "properties": { "max_height": 11.268477439880371, "mean_height": 2.2501251697540283, "std_height": 3.6663367748260498, "count_pixels": 43, "percent_cover": 0.24653136108244467, "percent_above_0.1m": 39.534883720930232, "low_level_<0.5": 0.0, "mid_level_0.5-2": 13.953488372093023, "tall_2+": 25.581395348837212 }, "geometry": { "type": "Point", "coordinates": [ 1.425934423338228, 52.055739528442338 ] } },
{ "type": "Feature", "properties": { "max_height": 11.726069450378418, "mean_height": 2.5310788154602051, "std_height": 3.5795354843139648, "count_pixels": 42, "percent_cover": 0.24079807361541108, "percent_above_0.1m": 47.619047619047613, "low_level_<0.5": 2.3809523809523809, "mid_level_0.5-2": 9.5238095238095237, "tall_2+": 35.714285714285715 }, "geometry": { "type": "Point", "coordinates": [ 1.426136147381275, 52.055733660097552 ] } },
{ "type": "Feature", "properties": { "max_height": 13.536050796508789, "mean_height": 10.159065246582031, "std_height": 3.1138556003570557, "count_pixels": 42, "percent_cover": 0.24079807361541108, "percent_above_0.1m": 100.0, "low_level_<0.5": 0.0, "mid_level_0.5-2": 4.7619047619047619, "tall_2+": 95.238095238095227 }, "geometry": { "type": "Point", "coordinates": [ 1.426337871355528, 52.055727791407932 ] } },
{ "type": "Feature", "properties": { "max_height": 12.123811721801758, "mean_height": 3.2825915813446045, "std_height": 3.8719856739044189, "count_pixels": 41, "percent_cover": 0.2350647861483775, "percent_above_0.1m": 70.731707317073173, "low_level_<0.5": 9.7560975609756095, "mid_level_0.5-2": 12.195121951219512, "tall_2+": 46.341463414634148 }, "geometry": { "type": "Point", "coordinates": [ 1.426539595260999, 52.055721922373465 ] } },
{ "type": "Feature", "properties": { "max_height": 0.097140312194824219, "mean_height": 0.0079679377377033234, "std_height": 0.018536359071731567, "count_pixels": 42, "percent_cover": 0.24079807361541108, "percent_above_0.1m": 0.0, "low_level_<0.5": 0.0, "mid_level_0.5-2": 0.0, "tall_2+": 0.0 }, "geometry": { "type": "Point", "coordinates": [ 1.423421106524597, 52.05592054965701 ] } },
{ "type": "Feature", "properties": { "max_height": 13.409797668457031, "mean_height": 6.4730172157287598, "std_height": 4.6770801544189453, "count_pixels": 42, "percent_cover": 0.24079807361541108, "percent_above_0.1m": 76.19047619047619, "low_level_<0.5": 0.0, "mid_level_0.5-2": 2.3809523809523809, "tall_2+": 73.80952380952381 }, "geometry": { "type": "Point", "coordinates": [ 1.423622831908273, 52.055914685600158 ] } },
{ "type": "Feature", "properties": { "max_height": 13.080280303955078, "mean_height": 5.3289332389831543, "std_height": 4.5408105850219727, "count_pixels": 43, "percent_cover": 0.24653136108244467, "percent_above_0.1m": 79.069767441860463, "low_level_<0.5": 2.3255813953488373, "mid_level_0.5-2": 16.279069767441861, "tall_2+": 60.465116279069761 }, "geometry": { "type": "Point", "coordinates": [ 1.423824557223217, 52.055908821198472 ] } },
{ "type": "Feature", "properties": { "max_height": 4.3741297721862793, "mean_height": 0.59399706125259399, "std_height": 1.0309766530990601, "count_pixels": 43, "percent_cover": 0.24653136108244467, "percent_above_0.1m": 48.837209302325576, "low_level_<0.5": 9.3023255813953494, "mid_level_0.5-2": 25.581395348837212, "tall_2+": 9.3023255813953494 }, "geometry": { "type": "Point", "coordinates": [ 1.42402628246942, 52.055902956451916 ] } },
{ "type": "Feature", "properties": { "max_height": 7.7672262191772461, "mean_height": 3.8050563335418701, "std_height": 2.8887956142425537, "count_pixels": 40, "percent_cover": 0.22933149868134389, "percent_above_0.1m": 75.0, "low_level_<0.5": 0.0, "mid_level_0.5-2": 7.5, "tall_2+": 67.5 }, "geometry": { "type": "Point", "coordinates": [ 1.42422800764688, 52.055897091360521 ] } },
{ "type": "Feature", "properties": { "max_height": 8.8729114532470703, "mean_height": 3.3816850185394287, "std_height": 3.2901792526245117, "count_pixels": 43, "percent_cover": 0.24653136108244467, "percent_above_0.1m": 62.790697674418603, "low_level_<0.5": 0.0, "mid_level_0.5-2": 9.3023255813953494, "tall_2+": 53.488372093023251 }, "geometry": { "type": "Point", "coordinates": [ 1.424429732755589, 52.055891225924285 ] } },
{ "type": "Feature", "properties": { "max_height": 7.7414398193359375, "mean_height": 2.4254870414733887, "std_height": 2.4354479312896729, "count_pixels": 42, "percent_cover": 0.24079807361541108, "percent_above_0.1m": 64.285714285714292, "low_level_<0.5": 0.0, "mid_level_0.5-2": 16.666666666666664, "tall_2+": 47.619047619047613 }, "geometry": { "type": "Point", "coordinates": [ 1.424631457795545, 52.055885360143186 ] } },
{ "type": "Feature", "properties": { "max_height": 3.7540950775146484, "mean_height": 0.54577606916427612, "std_height": 0.93081945180892944, "count_pixels": 42, "percent_cover": 0.24079807361541108, "percent_above_0.1m": 50.0, "low_level_<0.5": 9.5238095238095237, "mid_level_0.5-2": 23.809523809523807, "tall_2+": 9.5238095238095237 }, "geometry": { "type": "Point", "coordinates": [ 1.424833182766751, 52.055879494017248 ] } },
{ "type": "Feature", "properties": { "max_height": 0.0097284317016601562, "mean_height": -0.0056686629541218281, "std_height": 0.0053347661159932613, "count_pixels": 42, "percent_cover": 0.24079807361541108, "percent_above_0.1m": 0.0, "low_level_<0.5": 0.0, "mid_level_0.5-2": 0.0, "tall_2+": 0.0 }, "geometry": { "type": "Point", "coordinates": [ 1.425034907669194, 52.055873627546454 ] } },
{ "type": "Feature", "properties": { "max_height": 9.6430330276489258, "mean_height": 0.45090577006340027, "std_height": 1.5975102186203003, "count_pixels": 41, "percent_cover": 0.2350647861483775, "percent_above_0.1m": 14.634146341463413, "low_level_<0.5": 0.0, "mid_level_0.5-2": 7.3170731707317067, "tall_2+": 7.3170731707317067 }, "geometry": { "type": "Point", "coordinates": [ 1.425236632502872, 52.055867760730841 ] } },
{ "type": "Feature", "properties": { "max_height": 5.7533473968505859, "mean_height": 0.3350958526134491, "std_height": 1.0844460725784302, "count_pixels": 40, "percent_cover": 0.22933149868134389, "percent_above_0.1m": 15.0, "low_level_<0.5": 2.5, "mid_level_0.5-2": 5.0, "tall_2+": 7.5 }, "geometry": { "type": "Point", "coordinates": [ 1.425438357267786, 52.055861893570338 ] } },
{ "type": "Feature", "properties": { "max_height": 0.0079555511474609375, "mean_height": -0.0048891068436205387, "std_height": 0.0045500947162508965, "count_pixels": 40, "percent_cover": 0.22933149868134389, "percent_above_0.1m": 0.0, "low_level_<0.5": 0.0, "mid_level_0.5-2": 0.0, "tall_2+": 0.0 }, "geometry": { "type": "Point", "coordinates": [ 1.425640081963921, 52.055856026065001 ] } },
{ "type": "Feature", "properties": { "max_height": 0.015311241149902344, "mean_height": -0.0051940358243882656, "std_height": 0.0057187778875231743, "count_pixels": 41, "percent_cover": 0.2350647861483775, "percent_above_0.1m": 0.0, "low_level_<0.5": 0.0, "mid_level_0.5-2": 0.0, "tall_2+": 0.0 }, "geometry": { "type": "Point", "coordinates": [ 1.42584180659129, 52.055850158214831 ] } },
{ "type": "Feature", "properties": { "max_height": 12.150243759155273, "mean_height": 4.0317034721374512, "std_height": 4.2455596923828125, "count_pixels": 41, "percent_cover": 0.2350647861483775, "percent_above_0.1m": 63.414634146341463, "low_level_<0.5": 2.4390243902439024, "mid_level_0.5-2": 9.7560975609756095, "tall_2+": 51.219512195121951 }, "geometry": { "type": "Point", "coordinates": [ 1.426043531149871, 52.055844290019806 ] } },
{ "type": "Feature", "properties": { "max_height": 10.965560913085938, "mean_height": 6.5878200531005859, "std_height": 3.2564704418182373, "count_pixels": 42, "percent_cover": 0.24079807361541108, "percent_above_0.1m": 95.238095238095227, "low_level_<0.5": 2.3809523809523809, "mid_level_0.5-2": 9.5238095238095237, "tall_2+": 83.333333333333343 }, "geometry": { "type": "Point", "coordinates": [ 1.426245255639673, 52.055838421479947 ] } },
{ "type": "Feature", "properties": { "max_height": 3.6677541732788086, "mean_height": 1.2335569858551025, "std_height": 1.0709081888198853, "count_pixels": 42, "percent_cover": 0.24079807361541108, "percent_above_0.1m": 71.428571428571431, "low_level_<0.5": 9.5238095238095237, "mid_level_0.5-2": 35.714285714285715, "tall_2+": 26.190476190476193 }, "geometry": { "type": "Point", "coordinates": [ 1.423328483144507, 52.056031177565806 ] } },
{ "type": "Feature", "properties": { "max_height": 4.6620101928710938, "mean_height": 1.4915727376937866, "std_height": 1.6627974510192871, "count_pixels": 42, "percent_cover": 0.24079807361541108, "percent_above_0.1m": 61.904761904761905, "low_level_<0.5": 4.7619047619047619, "mid_level_0.5-2": 21.428571428571427, "tall_2+": 33.333333333333329 }, "geometry": { "type": "Point", "coordinates": [ 1.423530209043711, 52.056025313658743 ] } },
{ "type": "Feature", "properties": { "max_height": 12.128310203552246, "mean_height": 2.9513349533081055, "std_height": 4.1634325981140137, "count_pixels": 41, "percent_cover": 0.2350647861483775, "percent_above_0.1m": 63.414634146341463, "low_level_<0.5": 7.3170731707317067, "mid_level_0.5-2": 17.073170731707318, "tall_2+": 34.146341463414636 }, "geometry": { "type": "Point", "coordinates": [ 1.423731934874179, 52.056019449406818 ] } },
{ "type": "Feature", "properties": { "max_height": 14.121177673339844, "mean_height": 5.7367334365844727, "std_height": 5.1573858261108398, "count_pixels": 41, "percent_cover": 0.2350647861483775, "percent_above_0.1m": 70.731707317073173, "low_level_<0.5": 2.4390243902439024, "mid_level_0.5-2": 7.3170731707317067, "tall_2+": 60.975609756097562 }, "geometry": { "type": "Point", "coordinates": [ 1.42393366063591, 52.056013584810039 ] } },
{ "type": "Feature", "properties": { "max_height": 5.9403467178344727, "mean_height": 1.603557825088501, "std_height": 1.8694056272506714, "count_pixels": 40, "percent_cover": 0.22933149868134389, "percent_above_0.1m": 67.5, "low_level_<0.5": 7.5, "mid_level_0.5-2": 27.5, "tall_2+": 30.0 }, "geometry": { "type": "Point", "coordinates": [ 1.424135386328898, 52.056007719868425 ] } },
{ "type": "Feature", "properties": { "max_height": 5.412811279296875, "mean_height": 0.14981386065483093, "std_height": 0.84802454710006714, "count_pixels": 40, "percent_cover": 0.22933149868134389, "percent_above_0.1m": 5.0, "low_level_<0.5": 0.0, "mid_level_0.5-2": 2.5, "tall_2+": 2.5 }, "geometry": { "type": "Point", "coordinates": [ 1.42433711195314, 52.05600185458195 ] } },
{ "type": "Feature", "properties": { "max_height": 0.17359352111816406, "mean_height": 0.00017452239990234375, "std_height": 0.028046764433383942, "count_pixels": 41, "percent_cover": 0.2350647861483775, "percent_above_0.1m": 2.4390243902439024, "low_level_<0.5": 2.4390243902439024, "mid_level_0.5-2": 0.0, "tall_2+": 0.0 }, "geometry": { "type": "Point", "coordinates": [ 1.424538837508634, 52.055995988950627 ] } },
{ "type": "Feature", "properties": { "max_height": 10.620586395263672, "mean_height": 3.8974964618682861, "std_height": 4.2693276405334473, "count_pixels": 42, "percent_cover": 0.24079807361541108, "percent_above_0.1m": 71.428571428571431, "low_level_<0.5": 14.285714285714285, "mid_level_0.5-2": 7.1428571428571423, "tall_2+": 47.619047619047613 }, "geometry": { "type": "Point", "coordinates": [ 1.42474056299537, 52.055990122974464 ] } },
{ "type": "Feature", "properties": { "max_height": 0.086587905883789062, "mean_height": -0.0022329147905111313, "std_height": 0.014975834637880325, "count_pixels": 42, "percent_cover": 0.24079807361541108, "percent_above_0.1m": 0.0, "low_level_<0.5": 0.0, "mid_level_0.5-2": 0.0, "tall_2+": 0.0 }, "geometry": { "type": "Point", "coordinates": [ 1.424942288413347, 52.055984256653424 ] } },
{ "type": "Feature", "properties": { "max_height": 4.1144866943359375, "mean_height": 0.16869032382965088, "std_height": 0.65587371587753296, "count_pixels": 42, "percent_cover": 0.24079807361541108, "percent_above_0.1m": 14.285714285714285, "low_level_<0.5": 4.7619047619047619, "mid_level_0.5-2": 7.1428571428571423, "tall_2+": 2.3809523809523809 }, "geometry": { "type": "Point", "coordinates": [ 1.425144013762566, 52.055978389987573 ] } },
{ "type": "Feature", "properties": { "max_height": 14.913148880004883, "mean_height": 5.6571245193481445, "std_height": 4.5994596481323242, "count_pixels": 43, "percent_cover": 0.24653136108244467, "percent_above_0.1m": 81.395348837209298, "low_level_<0.5": 2.3255813953488373, "mid_level_0.5-2": 11.627906976744185, "tall_2+": 65.116279069767444 }, "geometry": { "type": "Point", "coordinates": [ 1.425345739043015, 52.055972522976852 ] } },
{ "type": "Feature", "properties": { "max_height": 9.1993389129638672, "mean_height": 1.9141088724136353, "std_height": 2.9207377433776855, "count_pixels": 40, "percent_cover": 0.22933149868134389, "percent_above_0.1m": 40.0, "low_level_<0.5": 0.0, "mid_level_0.5-2": 7.5, "tall_2+": 32.5 }, "geometry": { "type": "Point", "coordinates": [ 1.425547464254698, 52.055966655621269 ] } },
{ "type": "Feature", "properties": { "max_height": 0.0090198516845703125, "mean_height": -0.0052407952025532722, "std_height": 0.0044513866305351257, "count_pixels": 43, "percent_cover": 0.24653136108244467, "percent_above_0.1m": 0.0, "low_level_<0.5": 0.0, "mid_level_0.5-2": 0.0, "tall_2+": 0.0 }, "geometry": { "type": "Point", "coordinates": [ 1.425749189397601, 52.055960787920874 ] } },
{ "type": "Feature", "properties": { "max_height": 11.994462966918945, "mean_height": 6.2037348747253418, "std_height": 4.0348210334777832, "count_pixels": 43, "percent_cover": 0.24653136108244467, "percent_above_0.1m": 83.720930232558146, "low_level_<0.5": 0.0, "mid_level_0.5-2": 4.6511627906976747, "tall_2+": 76.744186046511629 }, "geometry": { "type": "Point", "coordinates": [ 1.425950914471727, 52.05595491987561 ] } },
{ "type": "Feature", "properties": { "max_height": 14.348020553588867, "mean_height": 8.659337043762207, "std_height": 3.7909409999847412, "count_pixels": 42, "percent_cover": 0.24079807361541108, "percent_above_0.1m": 97.61904761904762, "low_level_<0.5": 2.3809523809523809, "mid_level_0.5-2": 7.1428571428571423, "tall_2+": 88.095238095238088 }, "geometry": { "type": "Point", "coordinates": [ 1.426152639477074, 52.055949051485499 ] } },
{ "type": "Feature", "properties": { "max_height": 3.785895824432373, "mean_height": 0.96063846349716187, "std_height": 1.2555564641952515, "count_pixels": 43, "percent_cover": 0.24653136108244467, "percent_above_0.1m": 46.511627906976742, "low_level_<0.5": 4.6511627906976747, "mid_level_0.5-2": 11.627906976744185, "tall_2+": 27.906976744186046 }, "geometry": { "type": "Point", "coordinates": [ 1.42404276456415, 52.056118348309852 ] } },
{ "type": "Feature", "properties": { "max_height": 7.5420751571655273, "mean_height": 0.88643395900726318, "std_height": 1.6177910566329956, "count_pixels": 40, "percent_cover": 0.22933149868134389, "percent_above_0.1m": 50.0, "low_level_<0.5": 7.5, "mid_level_0.5-2": 22.5, "tall_2+": 17.5 }, "geometry": { "type": "Point", "coordinates": [ 1.424244490703923, 52.056112483173166 ] } },
{ "type": "Feature", "properties": { "max_height": 0.94005680084228516, "mean_height": 0.18078151345252991, "std_height": 0.28433528542518616, "count_pixels": 43, "percent_cover": 0.24653136108244467, "percent_above_0.1m": 37.209302325581397, "low_level_<0.5": 23.255813953488371, "mid_level_0.5-2": 13.953488372093023, "tall_2+": 0.0 }, "geometry": { "type": "Point", "coordinates": [ 1.424446216774955, 52.056106617691611 ] } },
{ "type": "Feature", "properties": { "max_height": 7.1706724166870117, "mean_height": 1.2427911758422852, "std_height": 1.8240290880203247, "count_pixels": 42, "percent_cover": 0.24079807361541108, "percent_above_0.1m": 50.0, "low_level_<0.5": 9.5238095238095237, "mid_level_0.5-2": 16.666666666666664, "tall_2+": 23.809523809523807 }, "geometry": { "type": "Point", "coordinates": [ 1.424647942777227, 52.056100751865209 ] } },
{ "type": "Feature", "properties": { "max_height": 11.353862762451172, "mean_height": 4.3151454925537109, "std_height": 2.9761853218078613, "count_pixels": 42, "percent_cover": 0.24079807361541108, "percent_above_0.1m": 90.476190476190482, "low_level_<0.5": 0.0, "mid_level_0.5-2": 19.047619047619047, "tall_2+": 71.428571428571431 }, "geometry": { "type": "Point", "coordinates": [ 1.424849668710743, 52.056094885693959 ] } },
{ "type": "Feature", "properties": { "max_height": 6.981842041015625, "mean_height": 1.0666389465332031, "std_height": 1.4510455131530762, "count_pixels": 42, "percent_cover": 0.24079807361541108, "percent_above_0.1m": 71.428571428571431, "low_level_<0.5": 19.047619047619047, "mid_level_0.5-2": 23.809523809523807, "tall_2+": 21.428571428571427 }, "geometry": { "type": "Point", "coordinates": [ 1.425051394575503, 52.056089019177861 ] } },
{ "type": "Feature", "properties": { "max_height": 17.142448425292969, "mean_height": 8.1442193984985352, "std_height": 4.8470473289489746, "count_pixels": 41, "percent_cover": 0.2350647861483775, "percent_above_0.1m": 97.560975609756099, "low_level_<0.5": 2.4390243902439024, "mid_level_0.5-2": 7.3170731707317067, "tall_2+": 87.804878048780495 }, "geometry": { "type": "Point", "coordinates": [ 1.42525312037149, 52.056083152316916 ] } },
{ "type": "Feature", "properties": { "max_height": 15.450803756713867, "mean_height": 8.1740837097167969, "std_height": 5.2652435302734375, "count_pixels": 40, "percent_cover": 0.22933149868134389, "percent_above_0.1m": 82.5, "low_level_<0.5": 0.0, "mid_level_0.5-2": 5.0, "tall_2+": 77.5 }, "geometry": { "type": "Point", "coordinates": [ 1.425454846098717, 52.056077285111094 ] } },
{ "type": "Feature", "properties": { "max_height": 9.1636161804199219, "mean_height": 1.0068564414978027, "std_height": 2.3125388622283936, "count_pixels": 40, "percent_cover": 0.22933149868134389, "percent_above_0.1m": 25.0, "low_level_<0.5": 2.5, "mid_level_0.5-2": 7.5, "tall_2+": 15.0 }, "geometry": { "type": "Point", "coordinates": [ 1.425656571757163, 52.056071417560453 ] } },
{ "type": "Feature", "properties": { "max_height": 11.683820724487305, "mean_height": 7.1394548416137695, "std_height": 3.4804987907409668, "count_pixels": 41, "percent_cover": 0.2350647861483775, "percent_above_0.1m": 95.121951219512198, "low_level_<0.5": 2.4390243902439024, "mid_level_0.5-2": 9.7560975609756095, "tall_2+": 82.926829268292678 }, "geometry": { "type": "Point", "coordinates": [ 1.425858297346837, 52.05606554966495 ] } },
{ "type": "Feature", "properties": { "max_height": 11.864553451538086, "mean_height": 6.542269229888916, "std_height": 2.8510258197784424, "count_pixels": 41, "percent_cover": 0.2350647861483775, "percent_above_0.1m": 100.0, "low_level_<0.5": 0.0, "mid_level_0.5-2": 4.8780487804878048, "tall_2+": 95.121951219512198 }, "geometry": { "type": "Point", "coordinates": [ 1.426060022867728, 52.056059681424621 ] } },
{ "type": "Feature", "properties": { "max_height": 5.474055290222168, "mean_height": 1.4052350521087646, "std_height": 1.7496474981307983, "count_pixels": 41, "percent_cover": 0.2350647861483775, "percent_above_0.1m": 58.536585365853654, "low_level_<0.5": 2.4390243902439024, "mid_level_0.5-2": 19.512195121951219, "tall_2+": 29.268292682926827 }, "geometry": { "type": "Point", "coordinates": [ 1.424555322112318, 52.05621138068949 ] } },
{ "type": "Feature", "properties": { "max_height": 1.5356178283691406, "mean_height": 0.16245134174823761, "std_height": 0.29910668730735779, "count_pixels": 42, "percent_cover": 0.24079807361541108, "percent_above_0.1m": 35.714285714285715, "low_level_<0.5": 21.428571428571427, "mid_level_0.5-2": 9.5238095238095237, "tall_2+": 0.0 }, "geometry": { "type": "Point", "coordinates": [ 1.424958774941672, 52.056199648301671 ] } },
{ "type": "Feature", "properties": { "max_height": 18.35936164855957, "mean_height": 7.7286629676818848, "std_height": 6.079566478729248, "count_pixels": 42, "percent_cover": 0.24079807361541108, "percent_above_0.1m": 80.952380952380949, "low_level_<0.5": 2.3809523809523809, "mid_level_0.5-2": 2.3809523809523809, "tall_2+": 73.80952380952381 }, "geometry": { "type": "Point", "coordinates": [ 1.425160501253211, 52.056193781590508 ] } },
{ "type": "Feature", "properties": { "max_height": 16.351158142089844, "mean_height": 7.0480637550354004, "std_height": 5.0500388145446777, "count_pixels": 43, "percent_cover": 0.24653136108244467, "percent_above_0.1m": 83.720930232558146, "low_level_<0.5": 2.3255813953488373, "mid_level_0.5-2": 2.3255813953488373, "tall_2+": 79.069767441860463 }, "geometry": { "type": "Point", "coordinates": [ 1.425362227495977, 52.056187914534448 ] } },
{ "type": "Feature", "properties": { "max_height": 13.364832878112793, "mean_height": 3.9012665748596191, "std_height": 4.0911121368408203, "count_pixels": 40, "percent_cover": 0.22933149868134389, "percent_above_0.1m": 80.0, "low_level_<0.5": 5.0, "mid_level_0.5-2": 20.0, "tall_2+": 55.000000000000007 }, "geometry": { "type": "Point", "coordinates": [ 1.425563953669972, 52.056182047133589 ] } },
{ "type": "Feature", "properties": { "max_height": 12.229268074035645, "mean_height": 8.5593557357788086, "std_height": 3.0047900676727295, "count_pixels": 43, "percent_cover": 0.24653136108244467, "percent_above_0.1m": 100.0, "low_level_<0.5": 0.0, "mid_level_0.5-2": 6.9767441860465116, "tall_2+": 93.023255813953483 }, "geometry": { "type": "Point", "coordinates": [ 1.425765679775193, 52.056176179387847 ] } },
{ "type": "Feature", "properties": { "max_height": 7.8006324768066406, "mean_height": 2.8086240291595459, "std_height": 2.2349205017089844, "count_pixels": 43, "percent_cover": 0.24653136108244467, "percent_above_0.1m": 90.697674418604649, "low_level_<0.5": 16.279069767441861, "mid_level_0.5-2": 16.279069767441861, "tall_2+": 58.139534883720934 }, "geometry": { "type": "Point", "coordinates": [ 1.425967405811636, 52.056170311297251 ] } },
{ "type": "Feature", "properties": { "max_height": 14.999725341796875, "mean_height": 3.6510732173919678, "std_height": 3.8808658123016357, "count_pixels": 42, "percent_cover": 0.24079807361541108, "percent_above_0.1m": 85.714285714285708, "low_level_<0.5": 14.285714285714285, "mid_level_0.5-2": 16.666666666666664, "tall_2+": 54.761904761904766 }, "geometry": { "type": "Point", "coordinates": [ 1.425067881688164, 52.056304410797637 ] } },
{ "type": "Feature", "properties": { "max_height": 13.453277587890625, "mean_height": 7.5444936752319336, "std_height": 4.2634501457214355, "count_pixels": 41, "percent_cover": 0.2350647861483775, "percent_above_0.1m": 90.243902439024396, "low_level_<0.5": 0.0, "mid_level_0.5-2": 7.3170731707317067, "tall_2+": 82.926829268292678 }, "geometry": { "type": "Point", "coordinates": [ 1.42526960844648, 52.05629854389138 ] } },
{ "type": "Feature", "properties": { "max_height": 11.895657539367676, "mean_height": 5.2180967330932617, "std_height": 4.0134716033935547, "count_pixels": 40, "percent_cover": 0.22933149868134389, "percent_above_0.1m": 87.5, "low_level_<0.5": 10.0, "mid_level_0.5-2": 10.0, "tall_2+": 67.5 }, "geometry": { "type": "Point", "coordinates": [ 1.425471335136024, 52.056292676640247 ] } },
{ "type": "Feature", "properties": { "max_height": 10.931155204772949, "mean_height": 4.0571575164794922, "std_height": 3.8792304992675781, "count_pixels": 40, "percent_cover": 0.22933149868134389, "percent_above_0.1m": 85.0, "low_level_<0.5": 15.0, "mid_level_0.5-2": 17.5, "tall_2+": 50.0 }, "geometry": { "type": "Point", "coordinates": [ 1.425673061756797, 52.056286809044281 ] } },
{ "type": "Feature", "properties": { "max_height": 16.130222320556641, "mean_height": 7.7836346626281738, "std_height": 4.2261896133422852, "count_pixels": 42, "percent_cover": 0.24079807361541108, "percent_above_0.1m": 95.238095238095227, "low_level_<0.5": 0.0, "mid_level_0.5-2": 7.1428571428571423, "tall_2+": 88.095238095238088 }, "geometry": { "type": "Point", "coordinates": [ 1.425176988950216, 52.056409173181812 ] } },
{ "type": "Feature", "properties": { "max_height": 17.962146759033203, "mean_height": 11.521958351135254, "std_height": 3.0840981006622314, "count_pixels": 43, "percent_cover": 0.24653136108244467, "percent_above_0.1m": 100.0, "low_level_<0.5": 0.0, "mid_level_0.5-2": 0.0, "tall_2+": 100.0 }, "geometry": { "type": "Point", "coordinates": [ 1.425378716155316, 52.056403306080476 ] } },
{ "type": "Feature", "properties": { "max_height": 10.54780387878418, "mean_height": 1.9891151189804077, "std_height": 2.3797023296356201, "count_pixels": 40, "percent_cover": 0.22933149868134389, "percent_above_0.1m": 87.5, "low_level_<0.5": 12.5, "mid_level_0.5-2": 40.0, "tall_2+": 32.5 }, "geometry": { "type": "Point", "coordinates": [ 1.425580443291639, 52.056397438634264 ] } },
{ "type": "Feature", "properties": { "max_height": 14.416452407836914, "mean_height": 7.5200963020324707, "std_height": 4.2517561912536621, "count_pixels": 41, "percent_cover": 0.2350647861483775, "percent_above_0.1m": 90.243902439024396, "low_level_<0.5": 2.4390243902439024, "mid_level_0.5-2": 2.4390243902439024, "tall_2+": 85.365853658536579 }, "geometry": { "type": "Point", "coordinates": [ 1.425286096727836, 52.05651393545422 ] } },
{ "type": "Feature", "properties": { "max_height": 11.383246421813965, "mean_height": 1.9272552728652954, "std_height": 2.8647603988647461, "count_pixels": 40, "percent_cover": 0.22933149868134389, "percent_above_0.1m": 77.5, "low_level_<0.5": 5.0, "mid_level_0.5-2": 32.5, "tall_2+": 27.5 }, "geometry": { "type": "Point", "coordinates": [ 1.425487824379722, 52.056508068157797 ] } }
]
}
