{
"type": "FeatureCollection",
"name": "314835ad8320_foliage",
"crs": { "type": "name", "properties": { "name": "urn:ogc:def:crs:OGC:1.3:CRS84" } },
"features": [
{ "type": "Feature", "properties": { "max_height": 0.035501480102539062, "mean_height": 0.0042798686772584915, "std_height": 0.0089520690962672234, "count_pixels": 43, "percent_cover": 0.35899148438804473, "percent_above_0.1m": 0.0, "low_level_<0.5": 0.0, "mid_level_0.5-2": 0.0, "tall_2+": 0.0 }, "geometry": { "type": "Point", "coordinates": [ 1.460112922242076, 52.12428393436187 ] } },
{ "type": "Feature", "properties": { "max_height": 1.243499755859375, "mean_height": 0.10557054728269577, "std_height": 0.27602934837341309, "count_pixels": 43, "percent_cover": 0.35899148438804473, "percent_above_0.1m": 13.953488372093023, "low_level_<0.5": 4.6511627906976747, "mid_level_0.5-2": 6.9767441860465116, "tall_2+": 0.0 }, "geometry": { "type": "Point", "coordinates": [ 1.46031494809138, 52.124278002081219 ] } },
{ "type": "Feature", "properties": { "max_height": 1.4515018463134766, "mean_height": 0.19486673176288605, "std_height": 0.34677028656005859, "count_pixels": 41, "percent_cover": 0.34229420604441474, "percent_above_0.1m": 29.268292682926827, "low_level_<0.5": 12.195121951219512, "mid_level_0.5-2": 17.073170731707318, "tall_2+": 0.0 }, "geometry": { "type": "Point", "coordinates": [ 1.460516973870621, 52.124272069454754 ] } },
{ "type": "Feature", "properties": { "max_height": 7.6307506561279297, "mean_height": 1.6214826107025146, "std_height": 2.289186954498291, "count_pixels": 41, "percent_cover": 0.34229420604441474, "percent_above_0.1m": 51.219512195121951, "low_level_<0.5": 7.3170731707317067, "mid_level_0.5-2": 14.634146341463413, "tall_2+": 29.268292682926827 }, "geometry": { "type": "Point", "coordinates": [ 1.460718999579784, 52.124266136482461 ] } },
{ "type": "Feature", "properties": { "max_height": 0.79300308227539062, "mean_height": 0.023476578295230865, "std_height": 0.12193123251199722, "count_pixels": 41, "percent_cover": 0.34229420604441474, "percent_above_0.1m": 2.4390243902439024, "low_level_<0.5": 0.0, "mid_level_0.5-2": 2.4390243902439024, "tall_2+": 0.0 }, "geometry": { "type": "Point", "coordinates": [ 1.459616206151391, 52.124406454843069 ] } },
{ "type": "Feature", "properties": { "max_height": 1.1395015716552734, "mean_height": 0.17504145205020905, "std_height": 0.35585883259773254, "count_pixels": 37, "percent_cover": 0.3088996493571548, "percent_above_0.1m": 27.027027027027028, "low_level_<0.5": 10.810810810810811, "mid_level_0.5-2": 13.513513513513514, "tall_2+": 0.0 }, "geometry": { "type": "Point", "coordinates": [ 1.459818232661815, 52.124400523405477 ] } },
{ "type": "Feature", "properties": { "max_height": 1.2392520904541016, "mean_height": 0.26587861776351929, "std_height": 0.40040433406829834, "count_pixels": 41, "percent_cover": 0.34229420604441474, "percent_above_0.1m": 39.024390243902438, "low_level_<0.5": 17.073170731707318, "mid_level_0.5-2": 19.512195121951219, "tall_2+": 0.0 }, "geometry": { "type": "Point", "coordinates": [ 1.460020259102184, 52.124394591622071 ] } },
{ "type": "Feature", "properties": { "max_height": 1.1107501983642578, "mean_height": 0.19073872268199921, "std_height": 0.34184995293617249, "count_pixels": 41, "percent_cover": 0.34229420604441474, "percent_above_0.1m": 29.268292682926827, "low_level_<0.5": 7.3170731707317067, "mid_level_0.5-2": 19.512195121951219, "tall_2+": 0.0 }, "geometry": { "type": "Point", "coordinates": [ 1.460222285472493, 52.12438865949283 ] } },
{ "type": "Feature", "properties": { "max_height": 1.4527492523193359, "mean_height": 0.17173846065998077, "std_height": 0.37796604633331299, "count_pixels": 41, "percent_cover": 0.34229420604441474, "percent_above_0.1m": 21.951219512195124, "low_level_<0.5": 7.3170731707317067, "mid_level_0.5-2": 14.634146341463413, "tall_2+": 0.0 }, "geometry": { "type": "Point", "coordinates": [ 1.460424311772741, 52.124382727017775 ] } },
{ "type": "Feature", "properties": { "max_height": 4.1149997711181641, "mean_height": 0.69377994537353516, "std_height": 0.88491785526275635, "count_pixels": 43, "percent_cover": 0.35899148438804473, "percent_above_0.1m": 69.767441860465112, "low_level_<0.5": 25.581395348837212, "mid_level_0.5-2": 27.906976744186046, "tall_2+": 11.627906976744185 }, "geometry": { "type": "Point", "coordinates": [ 1.460626338002922, 52.124376794196905 ] } },
{ "type": "Feature", "properties": { "max_height": 17.075252532958984, "mean_height": 8.6688909530639648, "std_height": 5.664034366607666, "count_pixels": 43, "percent_cover": 0.35899148438804473, "percent_above_0.1m": 86.04651162790698, "low_level_<0.5": 2.3255813953488373, "mid_level_0.5-2": 6.9767441860465116, "tall_2+": 76.744186046511629 }, "geometry": { "type": "Point", "coordinates": [ 1.459523541518546, 52.124517111732629 ] } },
{ "type": "Feature", "properties": { "max_height": 8.8065013885498047, "mean_height": 1.059346079826355, "std_height": 2.0407364368438721, "count_pixels": 42, "percent_cover": 0.35064284521622974, "percent_above_0.1m": 54.761904761904766, "low_level_<0.5": 11.904761904761903, "mid_level_0.5-2": 19.047619047619047, "tall_2+": 16.666666666666664 }, "geometry": { "type": "Point", "coordinates": [ 1.459725568549977, 52.124511180446454 ] } },
{ "type": "Feature", "properties": { "max_height": 0.66099929809570312, "mean_height": 0.03244834765791893, "std_height": 0.12124764919281006, "count_pixels": 43, "percent_cover": 0.35899148438804473, "percent_above_0.1m": 6.9767441860465116, "low_level_<0.5": 4.6511627906976747, "mid_level_0.5-2": 2.3255813953488373, "tall_2+": 0.0 }, "geometry": { "type": "Point", "coordinates": [ 1.459927595511354, 52.124505248814486 ] } },
{ "type": "Feature", "properties": { "max_height": 0.4680023193359375, "mean_height": 0.046570710837841034, "std_height": 0.087984472513198853, "count_pixels": 43, "percent_cover": 0.35899148438804473, "percent_above_0.1m": 16.279069767441861, "low_level_<0.5": 11.627906976744185, "mid_level_0.5-2": 0.0, "tall_2+": 0.0 }, "geometry": { "type": "Point", "coordinates": [ 1.460129622402675, 52.124499316836669 ] } },
{ "type": "Feature", "properties": { "max_height": 1.7487506866455078, "mean_height": 0.19630330801010132, "std_height": 0.39802783727645874, "count_pixels": 43, "percent_cover": 0.35899148438804473, "percent_above_0.1m": 32.558139534883722, "low_level_<0.5": 20.930232558139537, "mid_level_0.5-2": 11.627906976744185, "tall_2+": 0.0 }, "geometry": { "type": "Point", "coordinates": [ 1.460331649223931, 52.124493384513038 ] } },
{ "type": "Feature", "properties": { "max_height": 2.0332508087158203, "mean_height": 0.29986047744750977, "std_height": 0.48492807149887085, "count_pixels": 41, "percent_cover": 0.34229420604441474, "percent_above_0.1m": 41.463414634146339, "low_level_<0.5": 19.512195121951219, "mid_level_0.5-2": 17.073170731707318, "tall_2+": 2.4390243902439024 }, "geometry": { "type": "Point", "coordinates": [ 1.460533675975123, 52.124487451843578 ] } },
{ "type": "Feature", "properties": { "max_height": 6.6747512817382812, "mean_height": 1.7498667240142822, "std_height": 2.1202912330627441, "count_pixels": 41, "percent_cover": 0.34229420604441474, "percent_above_0.1m": 68.292682926829272, "low_level_<0.5": 14.634146341463413, "mid_level_0.5-2": 19.512195121951219, "tall_2+": 34.146341463414636 }, "geometry": { "type": "Point", "coordinates": [ 1.460735702656248, 52.124481518828311 ] } },
{ "type": "Feature", "properties": { "max_height": 17.143251419067383, "mean_height": 6.4316349029541016, "std_height": 6.1401782035827637, "count_pixels": 41, "percent_cover": 0.34229420604441474, "percent_above_0.1m": 70.731707317073173, "low_level_<0.5": 4.8780487804878048, "mid_level_0.5-2": 4.8780487804878048, "tall_2+": 58.536585365853654 }, "geometry": { "type": "Point", "coordinates": [ 1.459430876434757, 52.124627768554419 ] } },
{ "type": "Feature", "properties": { "max_height": 18.169754028320312, "mean_height": 12.214800834655762, "std_height": 4.4188637733459473, "count_pixels": 41, "percent_cover": 0.34229420604441474, "percent_above_0.1m": 97.560975609756099, "low_level_<0.5": 0.0, "mid_level_0.5-2": 2.4390243902439024, "tall_2+": 95.121951219512198 }, "geometry": { "type": "Point", "coordinates": [ 1.459632903987194, 52.124621837419674 ] } },
{ "type": "Feature", "properties": { "max_height": 10.78900146484375, "mean_height": 1.5278254747390747, "std_height": 2.7165820598602295, "count_pixels": 37, "percent_cover": 0.3088996493571548, "percent_above_0.1m": 54.054054054054056, "low_level_<0.5": 18.918918918918919, "mid_level_0.5-2": 13.513513513513514, "tall_2+": 21.621621621621621 }, "geometry": { "type": "Point", "coordinates": [ 1.45983493146958, 52.124615905939109 ] } },
{ "type": "Feature", "properties": { "max_height": 13.440250396728516, "mean_height": 4.9848728179931641, "std_height": 4.6969790458679199, "count_pixels": 41, "percent_cover": 0.34229420604441474, "percent_above_0.1m": 82.926829268292678, "low_level_<0.5": 0.0, "mid_level_0.5-2": 21.951219512195124, "tall_2+": 56.09756097560976 }, "geometry": { "type": "Point", "coordinates": [ 1.460036958881915, 52.124609974112722 ] } },
{ "type": "Feature", "properties": { "max_height": 2.2234992980957031, "mean_height": 0.21048876643180847, "std_height": 0.43963095545768738, "count_pixels": 41, "percent_cover": 0.34229420604441474, "percent_above_0.1m": 31.707317073170731, "low_level_<0.5": 14.634146341463413, "mid_level_0.5-2": 12.195121951219512, "tall_2+": 2.4390243902439024 }, "geometry": { "type": "Point", "coordinates": [ 1.460238986224188, 52.124604041940536 ] } },
{ "type": "Feature", "properties": { "max_height": 1.3822517395019531, "mean_height": 0.27580574154853821, "std_height": 0.39179319143295288, "count_pixels": 41, "percent_cover": 0.34229420604441474, "percent_above_0.1m": 39.024390243902438, "low_level_<0.5": 9.7560975609756095, "mid_level_0.5-2": 29.268292682926827, "tall_2+": 0.0 }, "geometry": { "type": "Point", "coordinates": [ 1.460441013496391, 52.124598109422486 ] } },
{ "type": "Feature", "properties": { "max_height": 3.3860015869140625, "mean_height": 0.59781467914581299, "std_height": 0.66294538974761963, "count_pixels": 43, "percent_cover": 0.35899148438804473, "percent_above_0.1m": 69.767441860465112, "low_level_<0.5": 25.581395348837212, "mid_level_0.5-2": 41.860465116279073, "tall_2+": 2.3255813953488373 }, "geometry": { "type": "Point", "coordinates": [ 1.460643040698536, 52.124592176558629 ] } },
{ "type": "Feature", "properties": { "max_height": 6.3045005798339844, "mean_height": 0.88650655746459961, "std_height": 1.7620764970779419, "count_pixels": 43, "percent_cover": 0.35899148438804473, "percent_above_0.1m": 37.209302325581397, "low_level_<0.5": 11.627906976744185, "mid_level_0.5-2": 4.6511627906976747, "tall_2+": 18.604651162790699 }, "geometry": { "type": "Point", "coordinates": [ 1.460845067830598, 52.124586243348965 ] } },
{ "type": "Feature", "properties": { "max_height": 16.353752136230469, "mean_height": 8.0422239303588867, "std_height": 4.8049898147583008, "count_pixels": 43, "percent_cover": 0.35899148438804473, "percent_above_0.1m": 97.674418604651152, "low_level_<0.5": 4.6511627906976747, "mid_level_0.5-2": 9.3023255813953494, "tall_2+": 83.720930232558146 }, "geometry": { "type": "Point", "coordinates": [ 1.459540238973465, 52.124732494325123 ] } },
{ "type": "Feature", "properties": { "max_height": 16.756002426147461, "mean_height": 10.330299377441406, "std_height": 4.7417411804199219, "count_pixels": 42, "percent_cover": 0.35064284521622974, "percent_above_0.1m": 100.0, "low_level_<0.5": 2.3809523809523809, "mid_level_0.5-2": 7.1428571428571423, "tall_2+": 88.095238095238088 }, "geometry": { "type": "Point", "coordinates": [ 1.459742266976865, 52.124726562995988 ] } },
{ "type": "Feature", "properties": { "max_height": 1.5027523040771484, "mean_height": 0.25508818030357361, "std_height": 0.45437178015708923, "count_pixels": 43, "percent_cover": 0.35899148438804473, "percent_above_0.1m": 30.232558139534881, "low_level_<0.5": 11.627906976744185, "mid_level_0.5-2": 18.604651162790699, "tall_2+": 0.0 }, "geometry": { "type": "Point", "coordinates": [ 1.459944294910211, 52.124720631321019 ] } },
{ "type": "Feature", "properties": { "max_height": 0.0045013427734375, "mean_height": 7.0704969402868301e-05, "std_height": 0.00073412636993452907, "count_pixels": 43, "percent_cover": 0.35899148438804473, "percent_above_0.1m": 0.0, "low_level_<0.5": 0.0, "mid_level_0.5-2": 0.0, "tall_2+": 0.0 }, "geometry": { "type": "Point", "coordinates": [ 1.4601463227735, 52.124714699300235 ] } },
{ "type": "Feature", "properties": { "max_height": 1.8340015411376953, "mean_height": 0.26289048790931702, "std_height": 0.41110515594482422, "count_pixels": 43, "percent_cover": 0.35899148438804473, "percent_above_0.1m": 37.209302325581397, "low_level_<0.5": 6.9767441860465116, "mid_level_0.5-2": 25.581395348837212, "tall_2+": 0.0 }, "geometry": { "type": "Point", "coordinates": [ 1.460348350566727, 52.124708766933637 ] } },
{ "type": "Feature", "properties": { "max_height": 2.6052513122558594, "mean_height": 0.39500081539154053, "std_height": 0.61600768566131592, "count_pixels": 41, "percent_cover": 0.34229420604441474, "percent_above_0.1m": 46.341463414634148, "low_level_<0.5": 17.073170731707318, "mid_level_0.5-2": 21.951219512195124, "tall_2+": 4.8780487804878048 }, "geometry": { "type": "Point", "coordinates": [ 1.460550378289881, 52.124702834221203 ] } },
{ "type": "Feature", "properties": { "max_height": 6.1357517242431641, "mean_height": 1.7664339542388916, "std_height": 1.8270492553710938, "count_pixels": 41, "percent_cover": 0.34229420604441474, "percent_above_0.1m": 82.926829268292678, "low_level_<0.5": 21.951219512195124, "mid_level_0.5-2": 24.390243902439025, "tall_2+": 36.585365853658537 }, "geometry": { "type": "Point", "coordinates": [ 1.460752405942971, 52.124696901162949 ] } },
{ "type": "Feature", "properties": { "max_height": 6.4150009155273438, "mean_height": 0.69040340185165405, "std_height": 1.6693389415740967, "count_pixels": 41, "percent_cover": 0.34229420604441474, "percent_above_0.1m": 34.146341463414636, "low_level_<0.5": 17.073170731707318, "mid_level_0.5-2": 2.4390243902439024, "tall_2+": 12.195121951219512 }, "geometry": { "type": "Point", "coordinates": [ 1.460954433525981, 52.124690967758866 ] } },
{ "type": "Feature", "properties": { "max_height": 19.214752197265625, "mean_height": 8.4297513961791992, "std_height": 6.4685015678405762, "count_pixels": 41, "percent_cover": 0.34229420604441474, "percent_above_0.1m": 85.365853658536579, "low_level_<0.5": 7.3170731707317067, "mid_level_0.5-2": 2.4390243902439024, "tall_2+": 73.170731707317074 }, "geometry": { "type": "Point", "coordinates": [ 1.459447573508779, 52.124843151162786 ] } },
{ "type": "Feature", "properties": { "max_height": 19.833251953125, "mean_height": 10.823927879333496, "std_height": 5.1457729339599609, "count_pixels": 41, "percent_cover": 0.34229420604441474, "percent_above_0.1m": 100.0, "low_level_<0.5": 2.4390243902439024, "mid_level_0.5-2": 4.8780487804878048, "tall_2+": 92.682926829268297 }, "geometry": { "type": "Point", "coordinates": [ 1.459649602033204, 52.124837219985075 ] } },
{ "type": "Feature", "properties": { "max_height": 16.494998931884766, "mean_height": 4.2396430969238281, "std_height": 5.7802877426147461, "count_pixels": 37, "percent_cover": 0.3088996493571548, "percent_above_0.1m": 64.86486486486487, "low_level_<0.5": 8.1081081081081088, "mid_level_0.5-2": 16.216216216216218, "tall_2+": 37.837837837837839 }, "geometry": { "type": "Point", "coordinates": [ 1.459851630487563, 52.12483128846155 ] } },
{ "type": "Feature", "properties": { "max_height": 6.7097511291503906, "mean_height": 2.5722694396972656, "std_height": 2.2245321273803711, "count_pixels": 41, "percent_cover": 0.34229420604441474, "percent_above_0.1m": 87.804878048780495, "low_level_<0.5": 12.195121951219512, "mid_level_0.5-2": 17.073170731707318, "tall_2+": 53.658536585365859 }, "geometry": { "type": "Point", "coordinates": [ 1.46005365887187, 52.12482535659219 ] } },
{ "type": "Feature", "properties": { "max_height": 6.0235023498535156, "mean_height": 1.26004958152771, "std_height": 1.911690354347229, "count_pixels": 41, "percent_cover": 0.34229420604441474, "percent_above_0.1m": 60.975609756097562, "low_level_<0.5": 14.634146341463413, "mid_level_0.5-2": 21.951219512195124, "tall_2+": 19.512195121951219 }, "geometry": { "type": "Point", "coordinates": [ 1.460255687186115, 52.124819424377002 ] } },
{ "type": "Feature", "properties": { "max_height": 1.6447505950927734, "mean_height": 0.17451290786266327, "std_height": 0.39383161067962646, "count_pixels": 41, "percent_cover": 0.34229420604441474, "percent_above_0.1m": 26.829268292682929, "low_level_<0.5": 9.7560975609756095, "mid_level_0.5-2": 12.195121951219512, "tall_2+": 0.0 }, "geometry": { "type": "Point", "coordinates": [ 1.460457715430294, 52.124813491816006 ] } },
{ "type": "Feature", "properties": { "max_height": 5.9587516784667969, "mean_height": 0.80826824903488159, "std_height": 1.5322333574295044, "count_pixels": 43, "percent_cover": 0.35899148438804473, "percent_above_0.1m": 37.209302325581397, "low_level_<0.5": 6.9767441860465116, "mid_level_0.5-2": 9.3023255813953494, "tall_2+": 18.604651162790699 }, "geometry": { "type": "Point", "coordinates": [ 1.460659743604404, 52.124807558909154 ] } },
{ "type": "Feature", "properties": { "max_height": 4.4427509307861328, "mean_height": 0.59159374237060547, "std_height": 0.98295843601226807, "count_pixels": 43, "percent_cover": 0.35899148438804473, "percent_above_0.1m": 53.488372093023251, "low_level_<0.5": 16.279069767441861, "mid_level_0.5-2": 20.930232558139537, "tall_2+": 9.3023255813953494 }, "geometry": { "type": "Point", "coordinates": [ 1.460861771708445, 52.124801625656495 ] } },
{ "type": "Feature", "properties": { "max_height": 18.663753509521484, "mean_height": 7.4680233001708984, "std_height": 5.9952831268310547, "count_pixels": 43, "percent_cover": 0.35899148438804473, "percent_above_0.1m": 81.395348837209298, "low_level_<0.5": 2.3255813953488373, "mid_level_0.5-2": 4.6511627906976747, "tall_2+": 74.418604651162795 }, "geometry": { "type": "Point", "coordinates": [ 1.45955693663858, 52.124947876906404 ] } },
{ "type": "Feature", "properties": { "max_height": 2.9950008392333984, "mean_height": 0.92648917436599731, "std_height": 0.90901768207550049, "count_pixels": 42, "percent_cover": 0.35064284521622974, "percent_above_0.1m": 73.80952380952381, "low_level_<0.5": 16.666666666666664, "mid_level_0.5-2": 38.095238095238095, "tall_2+": 16.666666666666664 }, "geometry": { "type": "Point", "coordinates": [ 1.459758965613963, 52.124941945534296 ] } },
{ "type": "Feature", "properties": { "max_height": 6.3120002746582031, "mean_height": 1.495018482208252, "std_height": 2.1881821155548096, "count_pixels": 43, "percent_cover": 0.35899148438804473, "percent_above_0.1m": 60.465116279069761, "low_level_<0.5": 11.627906976744185, "mid_level_0.5-2": 23.255813953488371, "tall_2+": 23.255813953488371 }, "geometry": { "type": "Point", "coordinates": [ 1.459960994519293, 52.12493601381636 ] } },
{ "type": "Feature", "properties": { "max_height": 6.3304996490478516, "mean_height": 4.6913967132568359, "std_height": 1.21294105052948, "count_pixels": 43, "percent_cover": 0.35899148438804473, "percent_above_0.1m": 100.0, "low_level_<0.5": 0.0, "mid_level_0.5-2": 0.0, "tall_2+": 100.0 }, "geometry": { "type": "Point", "coordinates": [ 1.460163023354559, 52.124930081752595 ] } },
{ "type": "Feature", "properties": { "max_height": 7.4990005493164062, "mean_height": 2.1604311466217041, "std_height": 2.2081437110900879, "count_pixels": 43, "percent_cover": 0.35899148438804473, "percent_above_0.1m": 86.04651162790698, "low_level_<0.5": 11.627906976744185, "mid_level_0.5-2": 34.883720930232556, "tall_2+": 37.209302325581397 }, "geometry": { "type": "Point", "coordinates": [ 1.460365052119764, 52.124924149343023 ] } },
{ "type": "Feature", "properties": { "max_height": 12.378002166748047, "mean_height": 4.2074642181396484, "std_height": 4.3754787445068359, "count_pixels": 41, "percent_cover": 0.34229420604441474, "percent_above_0.1m": 68.292682926829272, "low_level_<0.5": 2.4390243902439024, "mid_level_0.5-2": 12.195121951219512, "tall_2+": 53.658536585365859 }, "geometry": { "type": "Point", "coordinates": [ 1.4605670808149, 52.124918216587602 ] } },
{ "type": "Feature", "properties": { "max_height": 10.469501495361328, "mean_height": 6.1204094886779785, "std_height": 2.5755074024200439, "count_pixels": 41, "percent_cover": 0.34229420604441474, "percent_above_0.1m": 100.0, "low_level_<0.5": 0.0, "mid_level_0.5-2": 7.3170731707317067, "tall_2+": 92.682926829268297 }, "geometry": { "type": "Point", "coordinates": [ 1.460769109439964, 52.124912283486346 ] } },
{ "type": "Feature", "properties": { "max_height": 11.37175178527832, "mean_height": 3.4697635173797607, "std_height": 4.2505569458007812, "count_pixels": 41, "percent_cover": 0.34229420604441474, "percent_above_0.1m": 68.292682926829272, "low_level_<0.5": 17.073170731707318, "mid_level_0.5-2": 9.7560975609756095, "tall_2+": 39.024390243902438 }, "geometry": { "type": "Point", "coordinates": [ 1.460971137994949, 52.124906350039282 ] } },
{ "type": "Feature", "properties": { "max_height": 5.7945003509521484, "mean_height": 2.150001049041748, "std_height": 2.182335376739502, "count_pixels": 41, "percent_cover": 0.34229420604441474, "percent_above_0.1m": 68.292682926829272, "low_level_<0.5": 14.634146341463413, "mid_level_0.5-2": 9.7560975609756095, "tall_2+": 43.902439024390247 }, "geometry": { "type": "Point", "coordinates": [ 1.459464270793001, 52.125058533759947 ] } },
{ "type": "Feature", "properties": { "max_height": 2.0445003509521484, "mean_height": 0.21358615159988403, "std_height": 0.4991590678691864, "count_pixels": 41, "percent_cover": 0.34229420604441474, "percent_above_0.1m": 19.512195121951219, "low_level_<0.5": 4.8780487804878048, "mid_level_0.5-2": 12.195121951219512, "tall_2+": 2.4390243902439024 }, "geometry": { "type": "Point", "coordinates": [ 1.459666300289412, 52.12505260253927 ] } },
{ "type": "Feature", "properties": { "max_height": 3.2469997406005859, "mean_height": 0.66610938310623169, "std_height": 0.87095749378204346, "count_pixels": 37, "percent_cover": 0.3088996493571548, "percent_above_0.1m": 64.86486486486487, "low_level_<0.5": 24.324324324324326, "mid_level_0.5-2": 24.324324324324326, "tall_2+": 13.513513513513514 }, "geometry": { "type": "Point", "coordinates": [ 1.459868329715761, 52.125046670972772 ] } },
{ "type": "Feature", "properties": { "max_height": 6.352752685546875, "mean_height": 1.7004643678665161, "std_height": 1.7410727739334106, "count_pixels": 41, "percent_cover": 0.34229420604441474, "percent_above_0.1m": 68.292682926829272, "low_level_<0.5": 9.7560975609756095, "mid_level_0.5-2": 19.512195121951219, "tall_2+": 39.024390243902438 }, "geometry": { "type": "Point", "coordinates": [ 1.460070359072056, 52.125040739060445 ] } },
{ "type": "Feature", "properties": { "max_height": 5.1550025939941406, "mean_height": 0.88889127969741821, "std_height": 1.5178256034851074, "count_pixels": 41, "percent_cover": 0.34229420604441474, "percent_above_0.1m": 43.902439024390247, "low_level_<0.5": 7.3170731707317067, "mid_level_0.5-2": 17.073170731707318, "tall_2+": 17.073170731707318 }, "geometry": { "type": "Point", "coordinates": [ 1.460272388358284, 52.125034806802262 ] } },
{ "type": "Feature", "properties": { "max_height": 12.811252593994141, "mean_height": 6.5123858451843262, "std_height": 3.3517820835113525, "count_pixels": 41, "percent_cover": 0.34229420604441474, "percent_above_0.1m": 95.121951219512198, "low_level_<0.5": 0.0, "mid_level_0.5-2": 9.7560975609756095, "tall_2+": 85.365853658536579 }, "geometry": { "type": "Point", "coordinates": [ 1.460474417574447, 52.125028874198271 ] } },
{ "type": "Feature", "properties": { "max_height": 4.6382503509521484, "mean_height": 0.56434398889541626, "std_height": 1.2647943496704102, "count_pixels": 43, "percent_cover": 0.35899148438804473, "percent_above_0.1m": 32.558139534883722, "low_level_<0.5": 11.627906976744185, "mid_level_0.5-2": 9.3023255813953494, "tall_2+": 11.627906976744185 }, "geometry": { "type": "Point", "coordinates": [ 1.459371604496465, 52.125169190545712 ] } },
{ "type": "Feature", "properties": { "max_height": 5.5320014953613281, "mean_height": 1.0097737312316895, "std_height": 1.8314201831817627, "count_pixels": 43, "percent_cover": 0.35899148438804473, "percent_above_0.1m": 25.581395348837212, "low_level_<0.5": 0.0, "mid_level_0.5-2": 2.3255813953488373, "tall_2+": 23.255813953488371 }, "geometry": { "type": "Point", "coordinates": [ 1.459573634513895, 52.125163259476466 ] } },
{ "type": "Feature", "properties": { "max_height": 9.0332508087158203, "mean_height": 0.56760799884796143, "std_height": 1.7635339498519897, "count_pixels": 42, "percent_cover": 0.35064284521622974, "percent_above_0.1m": 16.666666666666664, "low_level_<0.5": 0.0, "mid_level_0.5-2": 7.1428571428571423, "tall_2+": 9.5238095238095237 }, "geometry": { "type": "Point", "coordinates": [ 1.459775664461274, 52.125157328061377 ] } },
{ "type": "Feature", "properties": { "max_height": 18.876251220703125, "mean_height": 6.7590346336364746, "std_height": 6.1068572998046875, "count_pixels": 43, "percent_cover": 0.35899148438804473, "percent_above_0.1m": 86.04651162790698, "low_level_<0.5": 6.9767441860465116, "mid_level_0.5-2": 11.627906976744185, "tall_2+": 65.116279069767444 }, "geometry": { "type": "Point", "coordinates": [ 1.459977694338596, 52.125151396300481 ] } },
{ "type": "Feature", "properties": { "max_height": 15.6197509765625, "mean_height": 3.4694368839263916, "std_height": 4.5856928825378418, "count_pixels": 43, "percent_cover": 0.35899148438804473, "percent_above_0.1m": 62.790697674418603, "low_level_<0.5": 4.6511627906976747, "mid_level_0.5-2": 13.953488372093023, "tall_2+": 41.860465116279073 }, "geometry": { "type": "Point", "coordinates": [ 1.460179724145855, 52.125145464193736 ] } },
{ "type": "Feature", "properties": { "max_height": 17.211002349853516, "mean_height": 3.2978966236114502, "std_height": 3.9980649948120117, "count_pixels": 43, "percent_cover": 0.35899148438804473, "percent_above_0.1m": 79.069767441860463, "low_level_<0.5": 4.6511627906976747, "mid_level_0.5-2": 20.930232558139537, "tall_2+": 48.837209302325576 }, "geometry": { "type": "Point", "coordinates": [ 1.46038175388305, 52.125139531741176 ] } },
{ "type": "Feature", "properties": { "max_height": 14.872251510620117, "mean_height": 3.7529313564300537, "std_height": 5.4243249893188477, "count_pixels": 43, "percent_cover": 0.35899148438804473, "percent_above_0.1m": 46.511627906976742, "low_level_<0.5": 6.9767441860465116, "mid_level_0.5-2": 6.9767441860465116, "tall_2+": 32.558139534883722 }, "geometry": { "type": "Point", "coordinates": [ 1.458672845713309, 52.12529763794214 ] } },
{ "type": "Feature", "properties": { "max_height": 7.2900009155273438, "mean_height": 1.1821751594543457, "std_height": 2.1713542938232422, "count_pixels": 43, "percent_cover": 0.35899148438804473, "percent_above_0.1m": 46.511627906976742, "low_level_<0.5": 13.953488372093023, "mid_level_0.5-2": 9.3023255813953494, "tall_2+": 18.604651162790699 }, "geometry": { "type": "Point", "coordinates": [ 1.458874876461901, 52.125291708061837 ] } },
{ "type": "Feature", "properties": { "max_height": 2.9070014953613281, "mean_height": 0.25901249051094055, "std_height": 0.52910315990447998, "count_pixels": 42, "percent_cover": 0.35064284521622974, "percent_above_0.1m": 38.095238095238095, "low_level_<0.5": 19.047619047619047, "mid_level_0.5-2": 14.285714285714285, "tall_2+": 2.3809523809523809 }, "geometry": { "type": "Point", "coordinates": [ 1.459076907140452, 52.125285777835678 ] } },
{ "type": "Feature", "properties": { "max_height": 1.7015018463134766, "mean_height": 0.24683631956577301, "std_height": 0.43288549780845642, "count_pixels": 41, "percent_cover": 0.34229420604441474, "percent_above_0.1m": 39.024390243902438, "low_level_<0.5": 14.634146341463413, "mid_level_0.5-2": 19.512195121951219, "tall_2+": 0.0 }, "geometry": { "type": "Point", "coordinates": [ 1.459278937748959, 52.125279847263698 ] } },
{ "type": "Feature", "properties": { "max_height": 11.256250381469727, "mean_height": 3.2722325325012207, "std_height": 3.0050296783447266, "count_pixels": 41, "percent_cover": 0.34229420604441474, "percent_above_0.1m": 78.048780487804876, "low_level_<0.5": 2.4390243902439024, "mid_level_0.5-2": 14.634146341463413, "tall_2+": 60.975609756097562 }, "geometry": { "type": "Point", "coordinates": [ 1.459480968287417, 52.125273916345883 ] } },
{ "type": "Feature", "properties": { "max_height": 13.958503723144531, "mean_height": 1.4537436962127686, "std_height": 3.3701128959655762, "count_pixels": 41, "percent_cover": 0.34229420604441474, "percent_above_0.1m": 24.390243902439025, "low_level_<0.5": 2.4390243902439024, "mid_level_0.5-2": 4.8780487804878048, "tall_2+": 17.073170731707318 }, "geometry": { "type": "Point", "coordinates": [ 1.459682998755828, 52.125267985082239 ] } },
{ "type": "Feature", "properties": { "max_height": 19.286502838134766, "mean_height": 4.9844646453857422, "std_height": 6.8567042350769043, "count_pixels": 37, "percent_cover": 0.3088996493571548, "percent_above_0.1m": 56.756756756756758, "low_level_<0.5": 2.7027027027027026, "mid_level_0.5-2": 10.810810810810811, "tall_2+": 40.54054054054054 }, "geometry": { "type": "Point", "coordinates": [ 1.459885029154176, 52.125262053472753 ] } },
{ "type": "Feature", "properties": { "max_height": 4.3882522583007812, "mean_height": 0.37178137898445129, "std_height": 0.88290548324584961, "count_pixels": 41, "percent_cover": 0.34229420604441474, "percent_above_0.1m": 26.829268292682929, "low_level_<0.5": 9.7560975609756095, "mid_level_0.5-2": 9.7560975609756095, "tall_2+": 7.3170731707317067 }, "geometry": { "type": "Point", "coordinates": [ 1.460087059482471, 52.125256121517445 ] } },
{ "type": "Feature", "properties": { "max_height": 16.600749969482422, "mean_height": 5.0449399948120117, "std_height": 4.5790386199951172, "count_pixels": 41, "percent_cover": 0.34229420604441474, "percent_above_0.1m": 92.682926829268297, "low_level_<0.5": 2.4390243902439024, "mid_level_0.5-2": 31.707317073170731, "tall_2+": 58.536585365853654 }, "geometry": { "type": "Point", "coordinates": [ 1.460289089740698, 52.125250189216302 ] } },
{ "type": "Feature", "properties": { "max_height": 4.4987506866455078, "mean_height": 0.24100726842880249, "std_height": 0.95792996883392334, "count_pixels": 41, "percent_cover": 0.34229420604441474, "percent_above_0.1m": 7.3170731707317067, "low_level_<0.5": 0.0, "mid_level_0.5-2": 2.4390243902439024, "tall_2+": 4.8780487804878048 }, "geometry": { "type": "Point", "coordinates": [ 1.45858017695175, 52.125408294138055 ] } },
{ "type": "Feature", "properties": { "max_height": 8.9770011901855469, "mean_height": 1.5612753629684448, "std_height": 2.3571670055389404, "count_pixels": 41, "percent_cover": 0.34229420604441474, "percent_above_0.1m": 56.09756097560976, "low_level_<0.5": 4.8780487804878048, "mid_level_0.5-2": 24.390243902439025, "tall_2+": 24.390243902439025 }, "geometry": { "type": "Point", "coordinates": [ 1.45878220822137, 52.125402364409176 ] } },
{ "type": "Feature", "properties": { "max_height": 7.9620018005371094, "mean_height": 1.278409481048584, "std_height": 1.8520114421844482, "count_pixels": 41, "percent_cover": 0.34229420604441474, "percent_above_0.1m": 56.09756097560976, "low_level_<0.5": 4.8780487804878048, "mid_level_0.5-2": 26.829268292682929, "tall_2+": 21.951219512195124 }, "geometry": { "type": "Point", "coordinates": [ 1.45898423942095, 52.125396434334462 ] } },
{ "type": "Feature", "properties": { "max_height": 9.7012519836425781, "mean_height": 2.7815845012664795, "std_height": 3.2790522575378418, "count_pixels": 42, "percent_cover": 0.35064284521622974, "percent_above_0.1m": 59.523809523809526, "low_level_<0.5": 4.7619047619047619, "mid_level_0.5-2": 11.904761904761903, "tall_2+": 42.857142857142854 }, "geometry": { "type": "Point", "coordinates": [ 1.459186270550485, 52.125390503913913 ] } },
{ "type": "Feature", "properties": { "max_height": 6.9589996337890625, "mean_height": 1.2370766401290894, "std_height": 1.9259841442108154, "count_pixels": 43, "percent_cover": 0.35899148438804473, "percent_above_0.1m": 53.488372093023251, "low_level_<0.5": 6.9767441860465116, "mid_level_0.5-2": 18.604651162790699, "tall_2+": 23.255813953488371 }, "geometry": { "type": "Point", "coordinates": [ 1.459388301609972, 52.125384573147528 ] } },
{ "type": "Feature", "properties": { "max_height": 15.333250045776367, "mean_height": 4.5681118965148926, "std_height": 4.9388160705566406, "count_pixels": 43, "percent_cover": 0.35899148438804473, "percent_above_0.1m": 83.720930232558146, "low_level_<0.5": 9.3023255813953494, "mid_level_0.5-2": 11.627906976744185, "tall_2+": 53.488372093023251 }, "geometry": { "type": "Point", "coordinates": [ 1.459590332599414, 52.125378642035315 ] } },
{ "type": "Feature", "properties": { "max_height": 3.2945022583007812, "mean_height": 0.35659414529800415, "std_height": 0.74663186073303223, "count_pixels": 42, "percent_cover": 0.35064284521622974, "percent_above_0.1m": 26.190476190476193, "low_level_<0.5": 4.7619047619047619, "mid_level_0.5-2": 14.285714285714285, "tall_2+": 7.1428571428571423 }, "geometry": { "type": "Point", "coordinates": [ 1.459792363518801, 52.125372710577267 ] } },
{ "type": "Feature", "properties": { "max_height": 4.0427513122558594, "mean_height": 1.3262374401092529, "std_height": 1.4313689470291138, "count_pixels": 43, "percent_cover": 0.35899148438804473, "percent_above_0.1m": 65.116279069767444, "low_level_<0.5": 4.6511627906976747, "mid_level_0.5-2": 32.558139534883722, "tall_2+": 25.581395348837212 }, "geometry": { "type": "Point", "coordinates": [ 1.459994394368125, 52.12536677877339 ] } },
{ "type": "Feature", "properties": { "max_height": 2.8722515106201172, "mean_height": 0.4938761293888092, "std_height": 0.91947221755981445, "count_pixels": 42, "percent_cover": 0.35064284521622974, "percent_above_0.1m": 28.571428571428569, "low_level_<0.5": 4.7619047619047619, "mid_level_0.5-2": 9.5238095238095237, "tall_2+": 14.285714285714285 }, "geometry": { "type": "Point", "coordinates": [ 1.458487507747292, 52.125518950354099 ] } },
{ "type": "Feature", "properties": { "max_height": 2.8922519683837891, "mean_height": 0.62982082366943359, "std_height": 0.91821706295013428, "count_pixels": 43, "percent_cover": 0.35899148438804473, "percent_above_0.1m": 46.511627906976742, "low_level_<0.5": 6.9767441860465116, "mid_level_0.5-2": 25.581395348837212, "tall_2+": 11.627906976744185 }, "geometry": { "type": "Point", "coordinates": [ 1.458689539536326, 52.125513020770974 ] } },
{ "type": "Feature", "properties": { "max_height": 2.9732513427734375, "mean_height": 1.0187455415725708, "std_height": 1.1817994117736816, "count_pixels": 43, "percent_cover": 0.35899148438804473, "percent_above_0.1m": 48.837209302325576, "low_level_<0.5": 0.0, "mid_level_0.5-2": 18.604651162790699, "tall_2+": 30.232558139534881 }, "geometry": { "type": "Point", "coordinates": [ 1.458891571256359, 52.125507090842568 ] } },
{ "type": "Feature", "properties": { "max_height": 0.000751495361328125, "mean_height": 6.7211331042926759e-06, "std_height": 0.00025867955991998315, "count_pixels": 42, "percent_cover": 0.35064284521622974, "percent_above_0.1m": 0.0, "low_level_<0.5": 0.0, "mid_level_0.5-2": 0.0, "tall_2+": 0.0 }, "geometry": { "type": "Point", "coordinates": [ 1.459093602906349, 52.125501160568255 ] } },
{ "type": "Feature", "properties": { "max_height": 10.94725227355957, "mean_height": 2.2970924377441406, "std_height": 3.0598032474517822, "count_pixels": 41, "percent_cover": 0.34229420604441474, "percent_above_0.1m": 63.414634146341463, "low_level_<0.5": 7.3170731707317067, "mid_level_0.5-2": 14.634146341463413, "tall_2+": 36.585365853658537 }, "geometry": { "type": "Point", "coordinates": [ 1.459295634486286, 52.125495229948029 ] } },
{ "type": "Feature", "properties": { "max_height": 7.1410007476806641, "mean_height": 1.9007142782211304, "std_height": 2.447537899017334, "count_pixels": 41, "percent_cover": 0.34229420604441474, "percent_above_0.1m": 63.414634146341463, "low_level_<0.5": 12.195121951219512, "mid_level_0.5-2": 14.634146341463413, "tall_2+": 34.146341463414636 }, "geometry": { "type": "Point", "coordinates": [ 1.45949766599617, 52.125489298981883 ] } },
{ "type": "Feature", "properties": { "max_height": 5.8457508087158203, "mean_height": 0.42018386721611023, "std_height": 1.0292941331863403, "count_pixels": 41, "percent_cover": 0.34229420604441474, "percent_above_0.1m": 39.024390243902438, "low_level_<0.5": 14.634146341463413, "mid_level_0.5-2": 12.195121951219512, "tall_2+": 4.8780487804878048 }, "geometry": { "type": "Point", "coordinates": [ 1.459699697435999, 52.125483367669823 ] } },
{ "type": "Feature", "properties": { "max_height": 4.4767494201660156, "mean_height": 0.86245048046112061, "std_height": 1.2168223857879639, "count_pixels": 37, "percent_cover": 0.3088996493571548, "percent_above_0.1m": 56.756756756756758, "low_level_<0.5": 5.4054054054054053, "mid_level_0.5-2": 37.837837837837839, "tall_2+": 13.513513513513514 }, "geometry": { "type": "Point", "coordinates": [ 1.459901728805761, 52.125477436011849 ] } },
{ "type": "Feature", "properties": { "max_height": 2.5437507629394531, "mean_height": 0.25343999266624451, "std_height": 0.70134913921356201, "count_pixels": 37, "percent_cover": 0.3088996493571548, "percent_above_0.1m": 16.216216216216218, "low_level_<0.5": 2.7027027027027026, "mid_level_0.5-2": 2.7027027027027026, "tall_2+": 8.1081081081081088 }, "geometry": { "type": "Point", "coordinates": [ 1.45839483810461, 52.125629606603958 ] } },
{ "type": "Feature", "properties": { "max_height": 0.30949974060058594, "mean_height": 0.010019209235906601, "std_height": 0.049729790538549423, "count_pixels": 41, "percent_cover": 0.34229420604441474, "percent_above_0.1m": 2.4390243902439024, "low_level_<0.5": 2.4390243902439024, "mid_level_0.5-2": 0.0, "tall_2+": 0.0 }, "geometry": { "type": "Point", "coordinates": [ 1.458596870415253, 52.125623677168683 ] } },
{ "type": "Feature", "properties": { "max_height": 3.6954994201660156, "mean_height": 1.2290620803833008, "std_height": 1.2779495716094971, "count_pixels": 41, "percent_cover": 0.34229420604441474, "percent_above_0.1m": 63.414634146341463, "low_level_<0.5": 14.634146341463413, "mid_level_0.5-2": 12.195121951219512, "tall_2+": 36.585365853658537 }, "geometry": { "type": "Point", "coordinates": [ 1.458798902655851, 52.125617747387402 ] } },
{ "type": "Feature", "properties": { "max_height": 7.3690013885498047, "mean_height": 4.0277447700500488, "std_height": 2.3002421855926514, "count_pixels": 41, "percent_cover": 0.34229420604441474, "percent_above_0.1m": 95.121951219512198, "low_level_<0.5": 7.3170731707317067, "mid_level_0.5-2": 12.195121951219512, "tall_2+": 75.609756097560975 }, "geometry": { "type": "Point", "coordinates": [ 1.459000934826395, 52.125611817260136 ] } },
{ "type": "Feature", "properties": { "max_height": 2.569000244140625, "mean_height": 0.11634018272161484, "std_height": 0.44889980554580688, "count_pixels": 42, "percent_cover": 0.35064284521622974, "percent_above_0.1m": 14.285714285714285, "low_level_<0.5": 9.5238095238095237, "mid_level_0.5-2": 2.3809523809523809, "tall_2+": 2.3809523809523809 }, "geometry": { "type": "Point", "coordinates": [ 1.459202966926886, 52.125605886786857 ] } },
{ "type": "Feature", "properties": { "max_height": 7.4360008239746094, "mean_height": 1.8004252910614014, "std_height": 2.5148580074310303, "count_pixels": 43, "percent_cover": 0.35899148438804473, "percent_above_0.1m": 67.441860465116278, "low_level_<0.5": 27.906976744186046, "mid_level_0.5-2": 2.3255813953488373, "tall_2+": 34.883720930232556 }, "geometry": { "type": "Point", "coordinates": [ 1.459404998957317, 52.125599955967559 ] } },
{ "type": "Feature", "properties": { "max_height": 5.5482501983642578, "mean_height": 1.0320242643356323, "std_height": 1.4375412464141846, "count_pixels": 43, "percent_cover": 0.35899148438804473, "percent_above_0.1m": 76.744186046511629, "low_level_<0.5": 23.255813953488371, "mid_level_0.5-2": 34.883720930232556, "tall_2+": 16.279069767441861 }, "geometry": { "type": "Point", "coordinates": [ 1.459607030917689, 52.125594024802282 ] } },
{ "type": "Feature", "properties": { "max_height": 0.79675102233886719, "mean_height": 0.064423836767673492, "std_height": 0.16140075027942657, "count_pixels": 42, "percent_cover": 0.35064284521622974, "percent_above_0.1m": 16.666666666666664, "low_level_<0.5": 11.904761904761903, "mid_level_0.5-2": 2.3809523809523809, "tall_2+": 0.0 }, "geometry": { "type": "Point", "coordinates": [ 1.459809062807995, 52.125588093291022 ] } },
{ "type": "Feature", "properties": { "max_height": 3.1237506866455078, "mean_height": 0.52041912078857422, "std_height": 0.71525299549102783, "count_pixels": 43, "percent_cover": 0.35899148438804473, "percent_above_0.1m": 44.186046511627907, "low_level_<0.5": 0.0, "mid_level_0.5-2": 39.534883720930232, "tall_2+": 4.6511627906976747 }, "geometry": { "type": "Point", "coordinates": [ 1.460011094628224, 52.125582161433726 ] } },
{ "type": "Feature", "properties": { "max_height": 5.958251953125, "mean_height": 0.52489626407623291, "std_height": 1.3133208751678467, "count_pixels": 43, "percent_cover": 0.35899148438804473, "percent_above_0.1m": 30.232558139534881, "low_level_<0.5": 2.3255813953488373, "mid_level_0.5-2": 11.627906976744185, "tall_2+": 9.3023255813953494 }, "geometry": { "type": "Point", "coordinates": [ 1.458908266296869, 52.125722473919168 ] } },
{ "type": "Feature", "properties": { "max_height": 2.9092502593994141, "mean_height": 0.4588877260684967, "std_height": 0.87670207023620605, "count_pixels": 42, "percent_cover": 0.35064284521622974, "percent_above_0.1m": 33.333333333333329, "low_level_<0.5": 9.5238095238095237, "mid_level_0.5-2": 11.904761904761903, "tall_2+": 11.904761904761903 }, "geometry": { "type": "Point", "coordinates": [ 1.4591102989185, 52.125716543598898 ] } },
{ "type": "Feature", "properties": { "max_height": 6.3375015258789062, "mean_height": 1.1370131969451904, "std_height": 1.6736109256744385, "count_pixels": 41, "percent_cover": 0.34229420604441474, "percent_above_0.1m": 58.536585365853654, "low_level_<0.5": 12.195121951219512, "mid_level_0.5-2": 9.7560975609756095, "tall_2+": 26.829268292682929 }, "geometry": { "type": "Point", "coordinates": [ 1.459312331470079, 52.125710612932608 ] } },
{ "type": "Feature", "properties": { "max_height": 8.0812530517578125, "mean_height": 4.402122974395752, "std_height": 2.633624792098999, "count_pixels": 41, "percent_cover": 0.34229420604441474, "percent_above_0.1m": 92.682926829268297, "low_level_<0.5": 7.3170731707317067, "mid_level_0.5-2": 12.195121951219512, "tall_2+": 73.170731707317074 }, "geometry": { "type": "Point", "coordinates": [ 1.459514363951593, 52.125704681920332 ] } },
{ "type": "Feature", "properties": { "max_height": 1.0262508392333984, "mean_height": 0.13309967517852783, "std_height": 0.25930160284042358, "count_pixels": 41, "percent_cover": 0.34229420604441474, "percent_above_0.1m": 24.390243902439025, "low_level_<0.5": 9.7560975609756095, "mid_level_0.5-2": 12.195121951219512, "tall_2+": 0.0 }, "geometry": { "type": "Point", "coordinates": [ 1.459716396363038, 52.125698750562051 ] } },
{ "type": "Feature", "properties": { "max_height": 6.9077510833740234, "mean_height": 1.0201292037963867, "std_height": 1.6327134370803833, "count_pixels": 37, "percent_cover": 0.3088996493571548, "percent_above_0.1m": 51.351351351351347, "low_level_<0.5": 10.810810810810811, "mid_level_0.5-2": 21.621621621621621, "tall_2+": 18.918918918918919 }, "geometry": { "type": "Point", "coordinates": [ 1.459918428704427, 52.12569281885775 ] } },
{ "type": "Feature", "properties": { "max_height": 0.43375015258789062, "mean_height": 0.037049736827611923, "std_height": 0.1041070818901062, "count_pixels": 41, "percent_cover": 0.34229420604441474, "percent_above_0.1m": 12.195121951219512, "low_level_<0.5": 9.7560975609756095, "mid_level_0.5-2": 0.0, "tall_2+": 0.0 }, "geometry": { "type": "Point", "coordinates": [ 1.45901763045904, 52.125827200341746 ] } },
{ "type": "Feature", "properties": { "max_height": 1.7062511444091797, "mean_height": 0.30510815978050232, "std_height": 0.43355971574783325, "count_pixels": 42, "percent_cover": 0.35064284521622974, "percent_above_0.1m": 47.619047619047613, "low_level_<0.5": 23.809523809523807, "mid_level_0.5-2": 23.809523809523807, "tall_2+": 0.0 }, "geometry": { "type": "Point", "coordinates": [ 1.459219663531763, 52.125821269828471 ] } },
{ "type": "Feature", "properties": { "max_height": 7.3199996948242188, "mean_height": 1.4041286706924438, "std_height": 1.7970016002655029, "count_pixels": 43, "percent_cover": 0.35899148438804473, "percent_above_0.1m": 72.093023255813947, "low_level_<0.5": 9.3023255813953494, "mid_level_0.5-2": 32.558139534883722, "tall_2+": 25.581395348837212 }, "geometry": { "type": "Point", "coordinates": [ 1.459421696534426, 52.12581533896919 ] } },
{ "type": "Feature", "properties": { "max_height": 6.7092514038085938, "mean_height": 2.6953966617584229, "std_height": 2.4603464603424072, "count_pixels": 43, "percent_cover": 0.35899148438804473, "percent_above_0.1m": 74.418604651162795, "low_level_<0.5": 16.279069767441861, "mid_level_0.5-2": 6.9767441860465116, "tall_2+": 51.162790697674424 }, "geometry": { "type": "Point", "coordinates": [ 1.459623729467024, 52.125809407763889 ] } },
{ "type": "Feature", "properties": { "max_height": 3.2063007354736328, "mean_height": 0.28956153988838196, "std_height": 0.72530931234359741, "count_pixels": 42, "percent_cover": 0.35064284521622974, "percent_above_0.1m": 26.190476190476193, "low_level_<0.5": 9.5238095238095237, "mid_level_0.5-2": 11.904761904761903, "tall_2+": 4.7619047619047619 }, "geometry": { "type": "Point", "coordinates": [ 1.459825762329551, 52.125803476212603 ] } },
{ "type": "Feature", "properties": { "max_height": 3.4904518127441406, "mean_height": 1.0721302032470703, "std_height": 1.1430063247680664, "count_pixels": 43, "percent_cover": 0.35899148438804473, "percent_above_0.1m": 76.744186046511629, "low_level_<0.5": 18.604651162790699, "mid_level_0.5-2": 32.558139534883722, "tall_2+": 23.255813953488371 }, "geometry": { "type": "Point", "coordinates": [ 1.460027795122015, 52.125797544315319 ] } },
{ "type": "Feature", "properties": { "max_height": 9.1030006408691406, "mean_height": 0.32875102758407593, "std_height": 1.4869881868362427, "count_pixels": 42, "percent_cover": 0.35064284521622974, "percent_above_0.1m": 7.1428571428571423, "low_level_<0.5": 0.0, "mid_level_0.5-2": 2.3809523809523809, "tall_2+": 4.7619047619047619 }, "geometry": { "type": "Point", "coordinates": [ 1.45912699514237, 52.125931926655134 ] } },
{ "type": "Feature", "properties": { "max_height": 2.4517498016357422, "mean_height": 0.13829970359802246, "std_height": 0.50176852941513062, "count_pixels": 41, "percent_cover": 0.34229420604441474, "percent_above_0.1m": 9.7560975609756095, "low_level_<0.5": 2.4390243902439024, "mid_level_0.5-2": 2.4390243902439024, "tall_2+": 4.8780487804878048 }, "geometry": { "type": "Point", "coordinates": [ 1.459329028666184, 52.125925995948869 ] } },
{ "type": "Feature", "properties": { "max_height": 1.6612510681152344, "mean_height": 0.11484229564666748, "std_height": 0.35450801253318787, "count_pixels": 41, "percent_cover": 0.34229420604441474, "percent_above_0.1m": 19.512195121951219, "low_level_<0.5": 12.195121951219512, "mid_level_0.5-2": 4.8780487804878048, "tall_2+": 0.0 }, "geometry": { "type": "Point", "coordinates": [ 1.459531062119931, 52.12592006489659 ] } },
{ "type": "Feature", "properties": { "max_height": 0.54649925231933594, "mean_height": 0.046694684773683548, "std_height": 0.11305643618106842, "count_pixels": 41, "percent_cover": 0.34229420604441474, "percent_above_0.1m": 17.073170731707318, "low_level_<0.5": 12.195121951219512, "mid_level_0.5-2": 2.4390243902439024, "tall_2+": 0.0 }, "geometry": { "type": "Point", "coordinates": [ 1.459733095503619, 52.125914133498298 ] } },
{ "type": "Feature", "properties": { "max_height": 2.1509990692138672, "mean_height": 0.30442345142364502, "std_height": 0.49966782331466675, "count_pixels": 37, "percent_cover": 0.3088996493571548, "percent_above_0.1m": 37.837837837837839, "low_level_<0.5": 13.513513513513514, "mid_level_0.5-2": 21.621621621621621, "tall_2+": 2.7027027027027026 }, "geometry": { "type": "Point", "coordinates": [ 1.459935128817229, 52.125908201754001 ] } }
]
}
