{
"type": "FeatureCollection",
"name": "9df2d23c00b4_foliage",
"crs": { "type": "name", "properties": { "name": "urn:ogc:def:crs:OGC:1.3:CRS84" } },
"features": [
{ "type": "Feature", "properties": { "max_height": 11.926499366760254, "mean_height": 3.985945463180542, "std_height": 3.2250337600708008, "count_pixels": 41, "percent_cover": 1.2023460410557185, "percent_above_0.1m": 85.365853658536579, "low_level_<0.5": 4.8780487804878048, "mid_level_0.5-2": 17.073170731707318, "tall_2+": 63.414634146341463 }, "geometry": { "type": "Point", "coordinates": [ 1.320553858540737, 52.093460046455043 ] } },
{ "type": "Feature", "properties": { "max_height": 15.990999221801758, "mean_height": 9.1676349639892578, "std_height": 4.6341118812561035, "count_pixels": 41, "percent_cover": 1.2023460410557185, "percent_above_0.1m": 95.121951219512198, "low_level_<0.5": 0.0, "mid_level_0.5-2": 2.4390243902439024, "tall_2+": 92.682926829268297 }, "geometry": { "type": "Point", "coordinates": [ 1.320755775065525, 52.093454354855645 ] } },
{ "type": "Feature", "properties": { "max_height": 11.451749801635742, "mean_height": 1.9871647357940674, "std_height": 3.2006967067718506, "count_pixels": 41, "percent_cover": 1.2023460410557185, "percent_above_0.1m": 56.09756097560976, "low_level_<0.5": 7.3170731707317067, "mid_level_0.5-2": 21.951219512195124, "tall_2+": 26.829268292682929 }, "geometry": { "type": "Point", "coordinates": [ 1.32025898848971, 52.093576290352686 ] } },
{ "type": "Feature", "properties": { "max_height": 12.433752059936523, "mean_height": 8.9427337646484375, "std_height": 2.1735906600952148, "count_pixels": 43, "percent_cover": 1.2609970674486803, "percent_above_0.1m": 100.0, "low_level_<0.5": 0.0, "mid_level_0.5-2": 0.0, "tall_2+": 100.0 }, "geometry": { "type": "Point", "coordinates": [ 1.320460905592162, 52.093570599249432 ] } },
{ "type": "Feature", "properties": { "max_height": 12.510500907897949, "mean_height": 7.0683960914611816, "std_height": 4.4739518165588379, "count_pixels": 43, "percent_cover": 1.2609970674486803, "percent_above_0.1m": 88.372093023255815, "low_level_<0.5": 2.3255813953488373, "mid_level_0.5-2": 4.6511627906976747, "tall_2+": 79.069767441860463 }, "geometry": { "type": "Point", "coordinates": [ 1.320662822628255, 52.093564907800769 ] } },
{ "type": "Feature", "properties": { "max_height": 5.318000316619873, "mean_height": 1.5331847667694092, "std_height": 1.4473555088043213, "count_pixels": 38, "percent_cover": 1.1143695014662758, "percent_above_0.1m": 76.31578947368422, "low_level_<0.5": 10.526315789473683, "mid_level_0.5-2": 21.052631578947366, "tall_2+": 39.473684210526315 }, "geometry": { "type": "Point", "coordinates": [ 1.320864739597976, 52.093559216006689 ] } },
{ "type": "Feature", "properties": { "max_height": 15.193499565124512, "mean_height": 10.610835075378418, "std_height": 5.3804855346679688, "count_pixels": 41, "percent_cover": 1.2023460410557185, "percent_above_0.1m": 97.560975609756099, "low_level_<0.5": 4.8780487804878048, "mid_level_0.5-2": 9.7560975609756095, "tall_2+": 80.487804878048792 }, "geometry": { "type": "Point", "coordinates": [ 1.32036795219866, 52.093681151976618 ] } },
{ "type": "Feature", "properties": { "max_height": 8.3990011215209961, "mean_height": 0.9492870569229126, "std_height": 1.8847408294677734, "count_pixels": 41, "percent_cover": 1.2023460410557185, "percent_above_0.1m": 51.219512195121951, "low_level_<0.5": 14.634146341463413, "mid_level_0.5-2": 19.512195121951219, "tall_2+": 12.195121951219512 }, "geometry": { "type": "Point", "coordinates": [ 1.320569869746056, 52.093675460678682 ] } },
{ "type": "Feature", "properties": { "max_height": 0.41650104522705078, "mean_height": 0.095183283090591431, "std_height": 0.086064569652080536, "count_pixels": 41, "percent_cover": 1.2023460410557185, "percent_above_0.1m": 17.073170731707318, "low_level_<0.5": 9.7560975609756095, "mid_level_0.5-2": 0.0, "tall_2+": 0.0 }, "geometry": { "type": "Point", "coordinates": [ 1.320771787227089, 52.093669769035309 ] } },
{ "type": "Feature", "properties": { "max_height": 4.5890007019042969, "mean_height": 1.0135856866836548, "std_height": 1.2622261047363281, "count_pixels": 41, "percent_cover": 1.2023460410557185, "percent_above_0.1m": 53.658536585365859, "low_level_<0.5": 4.8780487804878048, "mid_level_0.5-2": 19.512195121951219, "tall_2+": 24.390243902439025 }, "geometry": { "type": "Point", "coordinates": [ 1.320973704641751, 52.093664077046533 ] } },
{ "type": "Feature", "properties": { "max_height": 6.6032495498657227, "mean_height": 2.5135815143585205, "std_height": 1.6190698146820068, "count_pixels": 43, "percent_cover": 1.2609970674486803, "percent_above_0.1m": 95.348837209302332, "low_level_<0.5": 11.627906976744185, "mid_level_0.5-2": 20.930232558139537, "tall_2+": 62.790697674418603 }, "geometry": { "type": "Point", "coordinates": [ 1.320476916418922, 52.09378601348935 ] } },
{ "type": "Feature", "properties": { "max_height": 3.3550004959106445, "mean_height": 0.8312152624130249, "std_height": 1.0175842046737671, "count_pixels": 43, "percent_cover": 1.2609970674486803, "percent_above_0.1m": 76.744186046511629, "low_level_<0.5": 20.930232558139537, "mid_level_0.5-2": 34.883720930232556, "tall_2+": 13.953488372093023 }, "geometry": { "type": "Point", "coordinates": [ 1.320678834411271, 52.093780321996725 ] } },
{ "type": "Feature", "properties": { "max_height": 0.17675018310546875, "mean_height": 0.066263414919376373, "std_height": 0.019941415637731552, "count_pixels": 38, "percent_cover": 1.1143695014662758, "percent_above_0.1m": 2.6315789473684208, "low_level_<0.5": 2.6315789473684208, "mid_level_0.5-2": 0.0, "tall_2+": 0.0 }, "geometry": { "type": "Point", "coordinates": [ 1.320880752337245, 52.09377463015867 ] } },
{ "type": "Feature", "properties": { "max_height": 5.5587501525878906, "mean_height": 1.5066633224487305, "std_height": 1.4989838600158691, "count_pixels": 43, "percent_cover": 1.2609970674486803, "percent_above_0.1m": 90.697674418604649, "low_level_<0.5": 13.953488372093023, "mid_level_0.5-2": 41.860465116279073, "tall_2+": 30.232558139534881 }, "geometry": { "type": "Point", "coordinates": [ 1.321082670196843, 52.093768937975184 ] } },
{ "type": "Feature", "properties": { "max_height": 5.1422505378723145, "mean_height": 1.2786166667938232, "std_height": 1.6849490404129028, "count_pixels": 43, "percent_cover": 1.2609970674486803, "percent_above_0.1m": 69.767441860465112, "low_level_<0.5": 20.930232558139537, "mid_level_0.5-2": 9.3023255813953494, "tall_2+": 30.232558139534881 }, "geometry": { "type": "Point", "coordinates": [ 1.321284587990066, 52.09376324544629 ] } },
{ "type": "Feature", "properties": { "max_height": 6.8907499313354492, "mean_height": 2.8366889953613281, "std_height": 2.3193600177764893, "count_pixels": 41, "percent_cover": 1.2023460410557185, "percent_above_0.1m": 92.682926829268297, "low_level_<0.5": 12.195121951219512, "mid_level_0.5-2": 17.073170731707318, "tall_2+": 56.09756097560976 }, "geometry": { "type": "Point", "coordinates": [ 1.320585881150515, 52.093890874890903 ] } },
{ "type": "Feature", "properties": { "max_height": 4.2347497940063477, "mean_height": 0.64574992656707764, "std_height": 1.1491291522979736, "count_pixels": 41, "percent_cover": 1.2023460410557185, "percent_above_0.1m": 46.341463414634148, "low_level_<0.5": 17.073170731707318, "mid_level_0.5-2": 17.073170731707318, "tall_2+": 9.7560975609756095 }, "geometry": { "type": "Point", "coordinates": [ 1.320787799587806, 52.093885183203589 ] } },
{ "type": "Feature", "properties": { "max_height": 5.3105001449584961, "mean_height": 1.7236529588699341, "std_height": 1.6482411623001099, "count_pixels": 41, "percent_cover": 1.2023460410557185, "percent_above_0.1m": 92.682926829268297, "low_level_<0.5": 29.268292682926827, "mid_level_0.5-2": 29.268292682926827, "tall_2+": 34.146341463414636 }, "geometry": { "type": "Point", "coordinates": [ 1.320989717958726, 52.093879491170831 ] } },
{ "type": "Feature", "properties": { "max_height": 4.9960012435913086, "mean_height": 1.9496161937713623, "std_height": 1.4417839050292969, "count_pixels": 41, "percent_cover": 1.2023460410557185, "percent_above_0.1m": 82.926829268292678, "low_level_<0.5": 12.195121951219512, "mid_level_0.5-2": 17.073170731707318, "tall_2+": 53.658536585365859 }, "geometry": { "type": "Point", "coordinates": [ 1.321191636263265, 52.093873798792657 ] } },
{ "type": "Feature", "properties": { "max_height": 8.6099996566772461, "mean_height": 4.4517731666564941, "std_height": 2.1392269134521484, "count_pixels": 43, "percent_cover": 1.2609970674486803, "percent_above_0.1m": 100.0, "low_level_<0.5": 2.3255813953488373, "mid_level_0.5-2": 6.9767441860465116, "tall_2+": 90.697674418604649 }, "geometry": { "type": "Point", "coordinates": [ 1.320694846393434, 52.093995736181277 ] } },
{ "type": "Feature", "properties": { "max_height": 6.4105014801025391, "mean_height": 2.060072660446167, "std_height": 1.935296893119812, "count_pixels": 38, "percent_cover": 1.1143695014662758, "percent_above_0.1m": 84.210526315789465, "low_level_<0.5": 13.157894736842104, "mid_level_0.5-2": 26.315789473684209, "tall_2+": 42.105263157894733 }, "geometry": { "type": "Point", "coordinates": [ 1.320896765275671, 52.093990044299254 ] } },
{ "type": "Feature", "properties": { "max_height": 3.4522495269775391, "mean_height": 1.1502906084060669, "std_height": 1.2499065399169922, "count_pixels": 43, "percent_cover": 1.2609970674486803, "percent_above_0.1m": 65.116279069767444, "low_level_<0.5": 11.627906976744185, "mid_level_0.5-2": 23.255813953488371, "tall_2+": 27.906976744186046 }, "geometry": { "type": "Point", "coordinates": [ 1.321098684091534, 52.093984352071807 ] } },
{ "type": "Feature", "properties": { "max_height": 10.636751174926758, "mean_height": 7.7684521675109863, "std_height": 2.7386622428894043, "count_pixels": 41, "percent_cover": 1.2023460410557185, "percent_above_0.1m": 95.121951219512198, "low_level_<0.5": 0.0, "mid_level_0.5-2": 4.8780487804878048, "tall_2+": 90.243902439024396 }, "geometry": { "type": "Point", "coordinates": [ 1.320601892754117, 52.094106289091762 ] } },
{ "type": "Feature", "properties": { "max_height": 9.2012500762939453, "mean_height": 2.5842866897583008, "std_height": 2.1512699127197266, "count_pixels": 41, "percent_cover": 1.2023460410557185, "percent_above_0.1m": 97.560975609756099, "low_level_<0.5": 12.195121951219512, "mid_level_0.5-2": 21.951219512195124, "tall_2+": 60.975609756097562 }, "geometry": { "type": "Point", "coordinates": [ 1.320803812147683, 52.094100597360473 ] } },
{ "type": "Feature", "properties": { "max_height": 4.0342502593994141, "mean_height": 1.1768475770950317, "std_height": 1.302916407585144, "count_pixels": 41, "percent_cover": 1.2023460410557185, "percent_above_0.1m": 78.048780487804876, "low_level_<0.5": 24.390243902439025, "mid_level_0.5-2": 26.829268292682929, "tall_2+": 24.390243902439025 }, "geometry": { "type": "Point", "coordinates": [ 1.321005731474866, 52.094094905283754 ] } }
]
}
