{
"type": "FeatureCollection",
"name": "c8cb7f712f52_visibility",
"crs": { "type": "name", "properties": { "name": "urn:ogc:def:crs:OGC:1.3:CRS84" } },
"features": [
{ "type": "Feature", "properties": { "visible_points": 15, "total_points": 61, "visibility_pct": 24.590163934426229 }, "geometry": { "type": "Point", "coordinates": [ 1.359936944302258, 51.96294240032389 ] } },
{ "type": "Feature", "properties": { "visible_points": 7, "total_points": 64, "visibility_pct": 10.9375 }, "geometry": { "type": "Point", "coordinates": [ 1.360138266733957, 51.962936648635342 ] } },
{ "type": "Feature", "properties": { "visible_points": 16, "total_points": 68, "visibility_pct": 23.52941176470588 }, "geometry": { "type": "Point", "coordinates": [ 1.359844344192342, 51.963052981213643 ] } },
{ "type": "Feature", "properties": { "visible_points": 11, "total_points": 73, "visibility_pct": 15.068493150684931 }, "geometry": { "type": "Point", "coordinates": [ 1.360045667148647, 51.963047229689082 ] } },
{ "type": "Feature", "properties": { "visible_points": 13, "total_points": 76, "visibility_pct": 17.105263157894736 }, "geometry": { "type": "Point", "coordinates": [ 1.360246990036565, 51.963041477819267 ] } },
{ "type": "Feature", "properties": { "visible_points": 25, "total_points": 77, "visibility_pct": 32.467532467532465 }, "geometry": { "type": "Point", "coordinates": [ 1.3604483128561, 51.963035725604257 ] } },
{ "type": "Feature", "properties": { "visible_points": 14, "total_points": 74, "visibility_pct": 18.918918918918919 }, "geometry": { "type": "Point", "coordinates": [ 1.359751743626219, 51.963163562023944 ] } },
{ "type": "Feature", "properties": { "visible_points": 9, "total_points": 81, "visibility_pct": 11.111111111111111 }, "geometry": { "type": "Point", "coordinates": [ 1.359953067107125, 51.963157810663347 ] } },
{ "type": "Feature", "properties": { "visible_points": 14, "total_points": 85, "visibility_pct": 16.470588235294116 }, "geometry": { "type": "Point", "coordinates": [ 1.360154390519644, 51.963152058957526 ] } },
{ "type": "Feature", "properties": { "visible_points": 15, "total_points": 88, "visibility_pct": 17.045454545454543 }, "geometry": { "type": "Point", "coordinates": [ 1.360355713863787, 51.963146306906467 ] } },
{ "type": "Feature", "properties": { "visible_points": 21, "total_points": 88, "visibility_pct": 23.863636363636363 }, "geometry": { "type": "Point", "coordinates": [ 1.360557037139536, 51.963140554510204 ] } },
{ "type": "Feature", "properties": { "visible_points": 15, "total_points": 82, "visibility_pct": 18.292682926829269 }, "geometry": { "type": "Point", "coordinates": [ 1.360758360346893, 51.963134801768689 ] } },
{ "type": "Feature", "properties": { "visible_points": 12, "total_points": 75, "visibility_pct": 16.0 }, "geometry": { "type": "Point", "coordinates": [ 1.359659142603886, 51.963274142754834 ] } },
{ "type": "Feature", "properties": { "visible_points": 8, "total_points": 85, "visibility_pct": 9.4117647058823533 }, "geometry": { "type": "Point", "coordinates": [ 1.359860466609389, 51.963268391558181 ] } },
{ "type": "Feature", "properties": { "visible_points": 13, "total_points": 94, "visibility_pct": 13.829787234042554 }, "geometry": { "type": "Point", "coordinates": [ 1.360061790546519, 51.963262640016325 ] } },
{ "type": "Feature", "properties": { "visible_points": 14, "total_points": 98, "visibility_pct": 14.285714285714285 }, "geometry": { "type": "Point", "coordinates": [ 1.360263114415267, 51.963256888129244 ] } },
{ "type": "Feature", "properties": { "visible_points": 23, "total_points": 100, "visibility_pct": 23.0 }, "geometry": { "type": "Point", "coordinates": [ 1.360464438215626, 51.963251135896947 ] } },
{ "type": "Feature", "properties": { "visible_points": 17, "total_points": 95, "visibility_pct": 17.894736842105264 }, "geometry": { "type": "Point", "coordinates": [ 1.360665761947595, 51.963245383319418 ] } },
{ "type": "Feature", "properties": { "visible_points": 15, "total_points": 89, "visibility_pct": 16.853932584269664 }, "geometry": { "type": "Point", "coordinates": [ 1.360867085611165, 51.963239630396679 ] } },
{ "type": "Feature", "properties": { "visible_points": 5, "total_points": 82, "visibility_pct": 6.0975609756097562 }, "geometry": { "type": "Point", "coordinates": [ 1.36106840920634, 51.963233877128715 ] } },
{ "type": "Feature", "properties": { "visible_points": 2, "total_points": 72, "visibility_pct": 2.7777777777777777 }, "geometry": { "type": "Point", "coordinates": [ 1.359566541125328, 51.963384723406257 ] } },
{ "type": "Feature", "properties": { "visible_points": 10, "total_points": 85, "visibility_pct": 11.76470588235294 }, "geometry": { "type": "Point", "coordinates": [ 1.359767865655444, 51.96337897237359 ] } },
{ "type": "Feature", "properties": { "visible_points": 16, "total_points": 96, "visibility_pct": 16.666666666666664 }, "geometry": { "type": "Point", "coordinates": [ 1.35996919011718, 51.963373220995692 ] } },
{ "type": "Feature", "properties": { "visible_points": 13, "total_points": 106, "visibility_pct": 12.264150943396226 }, "geometry": { "type": "Point", "coordinates": [ 1.360170514510537, 51.963367469272576 ] } },
{ "type": "Feature", "properties": { "visible_points": 22, "total_points": 110, "visibility_pct": 20.0 }, "geometry": { "type": "Point", "coordinates": [ 1.360371838835507, 51.963361717204258 ] } },
{ "type": "Feature", "properties": { "visible_points": 17, "total_points": 106, "visibility_pct": 16.037735849056602 }, "geometry": { "type": "Point", "coordinates": [ 1.360573163092091, 51.963355964790679 ] } },
{ "type": "Feature", "properties": { "visible_points": 18, "total_points": 100, "visibility_pct": 18.0 }, "geometry": { "type": "Point", "coordinates": [ 1.360774487280275, 51.963350212031905 ] } },
{ "type": "Feature", "properties": { "visible_points": 19, "total_points": 95, "visibility_pct": 20.0 }, "geometry": { "type": "Point", "coordinates": [ 1.360975811400065, 51.963344458927914 ] } },
{ "type": "Feature", "properties": { "visible_points": 16, "total_points": 89, "visibility_pct": 17.977528089887642 }, "geometry": { "type": "Point", "coordinates": [ 1.361177135451453, 51.963338705478698 ] } },
{ "type": "Feature", "properties": { "visible_points": 12, "total_points": 82, "visibility_pct": 14.634146341463413 }, "geometry": { "type": "Point", "coordinates": [ 1.361378459434433, 51.963332951684251 ] } },
{ "type": "Feature", "properties": { "visible_points": 12, "total_points": 64, "visibility_pct": 18.75 }, "geometry": { "type": "Point", "coordinates": [ 1.359473939190551, 51.963495303978227 ] } },
{ "type": "Feature", "properties": { "visible_points": 26, "total_points": 77, "visibility_pct": 33.766233766233768 }, "geometry": { "type": "Point", "coordinates": [ 1.359675264245273, 51.963489553109525 ] } },
{ "type": "Feature", "properties": { "visible_points": 13, "total_points": 90, "visibility_pct": 14.444444444444443 }, "geometry": { "type": "Point", "coordinates": [ 1.359876589231623, 51.963483801895606 ] } },
{ "type": "Feature", "properties": { "visible_points": 27, "total_points": 103, "visibility_pct": 26.21359223300971 }, "geometry": { "type": "Point", "coordinates": [ 1.360077914149592, 51.963478050336477 ] } },
{ "type": "Feature", "properties": { "visible_points": 19, "total_points": 113, "visibility_pct": 16.814159292035399 }, "geometry": { "type": "Point", "coordinates": [ 1.36027923899918, 51.963472298432116 ] } },
{ "type": "Feature", "properties": { "visible_points": 21, "total_points": 115, "visibility_pct": 18.260869565217391 }, "geometry": { "type": "Point", "coordinates": [ 1.360480563780373, 51.963466546182516 ] } },
{ "type": "Feature", "properties": { "visible_points": 19, "total_points": 111, "visibility_pct": 17.117117117117118 }, "geometry": { "type": "Point", "coordinates": [ 1.360681888493178, 51.9634607935877 ] } },
{ "type": "Feature", "properties": { "visible_points": 21, "total_points": 106, "visibility_pct": 19.811320754716981 }, "geometry": { "type": "Point", "coordinates": [ 1.360883213137586, 51.963455040647681 ] } },
{ "type": "Feature", "properties": { "visible_points": 21, "total_points": 100, "visibility_pct": 21.0 }, "geometry": { "type": "Point", "coordinates": [ 1.361084537713594, 51.963449287362408 ] } },
{ "type": "Feature", "properties": { "visible_points": 16, "total_points": 95, "visibility_pct": 16.842105263157894 }, "geometry": { "type": "Point", "coordinates": [ 1.361285862221196, 51.963443533731926 ] } },
{ "type": "Feature", "properties": { "visible_points": 12, "total_points": 87, "visibility_pct": 13.793103448275861 }, "geometry": { "type": "Point", "coordinates": [ 1.361487186660391, 51.963437779756219 ] } },
{ "type": "Feature", "properties": { "visible_points": 0, "total_points": 76, "visibility_pct": 0.0 }, "geometry": { "type": "Point", "coordinates": [ 1.361688511031173, 51.963432025435303 ] } },
{ "type": "Feature", "properties": { "visible_points": 2, "total_points": 56, "visibility_pct": 3.5714285714285712 }, "geometry": { "type": "Point", "coordinates": [ 1.359381336799543, 51.963605884470759 ] } },
{ "type": "Feature", "properties": { "visible_points": 23, "total_points": 68, "visibility_pct": 33.82352941176471 }, "geometry": { "type": "Point", "coordinates": [ 1.359582662378882, 51.963600133766036 ] } },
{ "type": "Feature", "properties": { "visible_points": 13, "total_points": 80, "visibility_pct": 16.25 }, "geometry": { "type": "Point", "coordinates": [ 1.359783987889844, 51.963594382716096 ] } },
{ "type": "Feature", "properties": { "visible_points": 21, "total_points": 93, "visibility_pct": 22.58064516129032 }, "geometry": { "type": "Point", "coordinates": [ 1.35998531333243, 51.963588631320931 ] } },
{ "type": "Feature", "properties": { "visible_points": 31, "total_points": 105, "visibility_pct": 29.523809523809526 }, "geometry": { "type": "Point", "coordinates": [ 1.360186638706631, 51.963582879580521 ] } },
{ "type": "Feature", "properties": { "visible_points": 24, "total_points": 114, "visibility_pct": 21.052631578947366 }, "geometry": { "type": "Point", "coordinates": [ 1.360387964012446, 51.963577127494908 ] } },
{ "type": "Feature", "properties": { "visible_points": 24, "total_points": 116, "visibility_pct": 20.689655172413794 }, "geometry": { "type": "Point", "coordinates": [ 1.360589289249869, 51.963571375064049 ] } },
{ "type": "Feature", "properties": { "visible_points": 24, "total_points": 115, "visibility_pct": 20.869565217391305 }, "geometry": { "type": "Point", "coordinates": [ 1.3607906144189, 51.963565622287994 ] } },
{ "type": "Feature", "properties": { "visible_points": 24, "total_points": 111, "visibility_pct": 21.621621621621621 }, "geometry": { "type": "Point", "coordinates": [ 1.360991939519526, 51.963559869166701 ] } },
{ "type": "Feature", "properties": { "visible_points": 17, "total_points": 106, "visibility_pct": 16.037735849056602 }, "geometry": { "type": "Point", "coordinates": [ 1.361193264551757, 51.963554115700191 ] } },
{ "type": "Feature", "properties": { "visible_points": 17, "total_points": 99, "visibility_pct": 17.171717171717169 }, "geometry": { "type": "Point", "coordinates": [ 1.361394589515573, 51.963548361888435 ] } },
{ "type": "Feature", "properties": { "visible_points": 14, "total_points": 88, "visibility_pct": 15.909090909090908 }, "geometry": { "type": "Point", "coordinates": [ 1.361595914410984, 51.963542607731476 ] } },
{ "type": "Feature", "properties": { "visible_points": 9, "total_points": 76, "visibility_pct": 11.842105263157894 }, "geometry": { "type": "Point", "coordinates": [ 1.361797239237976, 51.9635368532293 ] } },
{ "type": "Feature", "properties": { "visible_points": 18, "total_points": 64, "visibility_pct": 28.125 }, "geometry": { "type": "Point", "coordinates": [ 1.361998563996552, 51.963531098381878 ] } },
{ "type": "Feature", "properties": { "visible_points": 10, "total_points": 70, "visibility_pct": 14.285714285714285 }, "geometry": { "type": "Point", "coordinates": [ 1.359691386091839, 51.963704963457126 ] } },
{ "type": "Feature", "properties": { "visible_points": 16, "total_points": 82, "visibility_pct": 19.512195121951219 }, "geometry": { "type": "Point", "coordinates": [ 1.359892712059045, 51.963699212225926 ] } },
{ "type": "Feature", "properties": { "visible_points": 26, "total_points": 93, "visibility_pct": 27.956989247311824 }, "geometry": { "type": "Point", "coordinates": [ 1.36009403795786, 51.963693460649495 ] } },
{ "type": "Feature", "properties": { "visible_points": 20, "total_points": 104, "visibility_pct": 19.230769230769234 }, "geometry": { "type": "Point", "coordinates": [ 1.3602953637883, 51.963687708727853 ] } },
{ "type": "Feature", "properties": { "visible_points": 22, "total_points": 110, "visibility_pct": 20.0 }, "geometry": { "type": "Point", "coordinates": [ 1.360496689550348, 51.963681956460974 ] } },
{ "type": "Feature", "properties": { "visible_points": 34, "total_points": 115, "visibility_pct": 29.565217391304348 }, "geometry": { "type": "Point", "coordinates": [ 1.360698015243996, 51.963676203848877 ] } },
{ "type": "Feature", "properties": { "visible_points": 22, "total_points": 116, "visibility_pct": 18.96551724137931 }, "geometry": { "type": "Point", "coordinates": [ 1.360899340869255, 51.963670450891563 ] } },
{ "type": "Feature", "properties": { "visible_points": 16, "total_points": 115, "visibility_pct": 13.913043478260869 }, "geometry": { "type": "Point", "coordinates": [ 1.361100666426107, 51.963664697588996 ] } },
{ "type": "Feature", "properties": { "visible_points": 17, "total_points": 111, "visibility_pct": 15.315315315315313 }, "geometry": { "type": "Point", "coordinates": [ 1.361301991914556, 51.963658943941219 ] } },
{ "type": "Feature", "properties": { "visible_points": 23, "total_points": 99, "visibility_pct": 23.232323232323232 }, "geometry": { "type": "Point", "coordinates": [ 1.361503317334595, 51.963653189948218 ] } },
{ "type": "Feature", "properties": { "visible_points": 14, "total_points": 86, "visibility_pct": 16.279069767441861 }, "geometry": { "type": "Point", "coordinates": [ 1.361704642686218, 51.963647435609985 ] } },
{ "type": "Feature", "properties": { "visible_points": 12, "total_points": 74, "visibility_pct": 16.216216216216218 }, "geometry": { "type": "Point", "coordinates": [ 1.361905967969424, 51.963641680926536 ] } },
{ "type": "Feature", "properties": { "visible_points": 5, "total_points": 62, "visibility_pct": 8.064516129032258 }, "geometry": { "type": "Point", "coordinates": [ 1.362107293184208, 51.963635925897854 ] } },
{ "type": "Feature", "properties": { "visible_points": 0, "total_points": 70, "visibility_pct": 0.0 }, "geometry": { "type": "Point", "coordinates": [ 1.359800110329432, 51.963809793051482 ] } },
{ "type": "Feature", "properties": { "visible_points": 19, "total_points": 81, "visibility_pct": 23.456790123456788 }, "geometry": { "type": "Point", "coordinates": [ 1.36000143675287, 51.96380404163903 ] } },
{ "type": "Feature", "properties": { "visible_points": 16, "total_points": 92, "visibility_pct": 17.391304347826086 }, "geometry": { "type": "Point", "coordinates": [ 1.360202763107931, 51.963798289881346 ] } },
{ "type": "Feature", "properties": { "visible_points": 19, "total_points": 99, "visibility_pct": 19.19191919191919 }, "geometry": { "type": "Point", "coordinates": [ 1.360404089394601, 51.963792537778438 ] } },
{ "type": "Feature", "properties": { "visible_points": 32, "total_points": 105, "visibility_pct": 30.476190476190478 }, "geometry": { "type": "Point", "coordinates": [ 1.360605415612882, 51.963786785330313 ] } },
{ "type": "Feature", "properties": { "visible_points": 24, "total_points": 111, "visibility_pct": 21.621621621621621 }, "geometry": { "type": "Point", "coordinates": [ 1.360806741762765, 51.963781032536957 ] } },
{ "type": "Feature", "properties": { "visible_points": 24, "total_points": 115, "visibility_pct": 20.869565217391305 }, "geometry": { "type": "Point", "coordinates": [ 1.361008067844248, 51.963775279398362 ] } },
{ "type": "Feature", "properties": { "visible_points": 16, "total_points": 116, "visibility_pct": 13.793103448275861 }, "geometry": { "type": "Point", "coordinates": [ 1.361209393857327, 51.963769525914557 ] } },
{ "type": "Feature", "properties": { "visible_points": 23, "total_points": 109, "visibility_pct": 21.100917431192663 }, "geometry": { "type": "Point", "coordinates": [ 1.361410719801997, 51.963763772085514 ] } },
{ "type": "Feature", "properties": { "visible_points": 16, "total_points": 96, "visibility_pct": 16.666666666666664 }, "geometry": { "type": "Point", "coordinates": [ 1.361612045678254, 51.963758017911246 ] } },
{ "type": "Feature", "properties": { "visible_points": 15, "total_points": 83, "visibility_pct": 18.072289156626507 }, "geometry": { "type": "Point", "coordinates": [ 1.361813371486098, 51.963752263391761 ] } },
{ "type": "Feature", "properties": { "visible_points": 7, "total_points": 70, "visibility_pct": 10.0 }, "geometry": { "type": "Point", "coordinates": [ 1.362014697225519, 51.963746508527038 ] } },
{ "type": "Feature", "properties": { "visible_points": 0, "total_points": 58, "visibility_pct": 0.0 }, "geometry": { "type": "Point", "coordinates": [ 1.362216022896512, 51.963740753317111 ] } },
{ "type": "Feature", "properties": { "visible_points": 0, "total_points": 79, "visibility_pct": 0.0 }, "geometry": { "type": "Point", "coordinates": [ 1.360110161971337, 51.963908870955393 ] } },
{ "type": "Feature", "properties": { "visible_points": 14, "total_points": 87, "visibility_pct": 16.091954022988507 }, "geometry": { "type": "Point", "coordinates": [ 1.360311488782632, 51.963903119016479 ] } },
{ "type": "Feature", "properties": { "visible_points": 24, "total_points": 94, "visibility_pct": 25.531914893617021 }, "geometry": { "type": "Point", "coordinates": [ 1.360512815525547, 51.963897366732311 ] } },
{ "type": "Feature", "properties": { "visible_points": 17, "total_points": 100, "visibility_pct": 17.0 }, "geometry": { "type": "Point", "coordinates": [ 1.360714142200056, 51.963891614102927 ] } },
{ "type": "Feature", "properties": { "visible_points": 23, "total_points": 106, "visibility_pct": 21.69811320754717 }, "geometry": { "type": "Point", "coordinates": [ 1.360915468806173, 51.96388586112829 ] } },
{ "type": "Feature", "properties": { "visible_points": 29, "total_points": 111, "visibility_pct": 26.126126126126124 }, "geometry": { "type": "Point", "coordinates": [ 1.361116795343887, 51.963880107808457 ] } },
{ "type": "Feature", "properties": { "visible_points": 31, "total_points": 110, "visibility_pct": 28.18181818181818 }, "geometry": { "type": "Point", "coordinates": [ 1.361318121813186, 51.963874354143385 ] } },
{ "type": "Feature", "properties": { "visible_points": 19, "total_points": 102, "visibility_pct": 18.627450980392158 }, "geometry": { "type": "Point", "coordinates": [ 1.361519448214087, 51.96386860013309 ] } },
{ "type": "Feature", "properties": { "visible_points": 21, "total_points": 91, "visibility_pct": 23.076923076923077 }, "geometry": { "type": "Point", "coordinates": [ 1.361720774546564, 51.963862845777562 ] } },
{ "type": "Feature", "properties": { "visible_points": 11, "total_points": 78, "visibility_pct": 14.102564102564102 }, "geometry": { "type": "Point", "coordinates": [ 1.361922100810623, 51.96385709107679 ] } },
{ "type": "Feature", "properties": { "visible_points": 3, "total_points": 81, "visibility_pct": 3.7037037037037033 }, "geometry": { "type": "Point", "coordinates": [ 1.36042021498198, 51.964007948054871 ] } },
{ "type": "Feature", "properties": { "visible_points": 12, "total_points": 88, "visibility_pct": 13.636363636363635 }, "geometry": { "type": "Point", "coordinates": [ 1.36062154218113, 51.964002195589444 ] } },
{ "type": "Feature", "properties": { "visible_points": 12, "total_points": 95, "visibility_pct": 12.631578947368421 }, "geometry": { "type": "Point", "coordinates": [ 1.360822869311875, 51.963996442778807 ] } },
{ "type": "Feature", "properties": { "visible_points": 19, "total_points": 100, "visibility_pct": 19.0 }, "geometry": { "type": "Point", "coordinates": [ 1.361024196374227, 51.963990689622904 ] } },
{ "type": "Feature", "properties": { "visible_points": 25, "total_points": 100, "visibility_pct": 25.0 }, "geometry": { "type": "Point", "coordinates": [ 1.361225523368168, 51.963984936121811 ] } },
{ "type": "Feature", "properties": { "visible_points": 19, "total_points": 97, "visibility_pct": 19.587628865979383 }, "geometry": { "type": "Point", "coordinates": [ 1.3614268502937, 51.963979182275473 ] } },
{ "type": "Feature", "properties": { "visible_points": 14, "total_points": 91, "visibility_pct": 15.384615384615385 }, "geometry": { "type": "Point", "coordinates": [ 1.361628177150823, 51.963973428083918 ] } },
{ "type": "Feature", "properties": { "visible_points": 12, "total_points": 81, "visibility_pct": 14.814814814814813 }, "geometry": { "type": "Point", "coordinates": [ 1.361829503939526, 51.96396767354711 ] } },
{ "type": "Feature", "properties": { "visible_points": 0, "total_points": 82, "visibility_pct": 0.0 }, "geometry": { "type": "Point", "coordinates": [ 1.36073026936136, 51.964107024349865 ] } },
{ "type": "Feature", "properties": { "visible_points": 18, "total_points": 88, "visibility_pct": 20.454545454545457 }, "geometry": { "type": "Point", "coordinates": [ 1.360931596948345, 51.964101271357947 ] } },
{ "type": "Feature", "properties": { "visible_points": 20, "total_points": 89, "visibility_pct": 22.471910112359549 }, "geometry": { "type": "Point", "coordinates": [ 1.361132924466928, 51.964095518020798 ] } },
{ "type": "Feature", "properties": { "visible_points": 14, "total_points": 87, "visibility_pct": 16.091954022988507 }, "geometry": { "type": "Point", "coordinates": [ 1.361334251917105, 51.964089764338425 ] } },
{ "type": "Feature", "properties": { "visible_points": 14, "total_points": 84, "visibility_pct": 16.666666666666664 }, "geometry": { "type": "Point", "coordinates": [ 1.361535579298864, 51.96408401031082 ] } },
{ "type": "Feature", "properties": { "visible_points": 12, "total_points": 78, "visibility_pct": 15.384615384615385 }, "geometry": { "type": "Point", "coordinates": [ 1.361736906612214, 51.964078255937991 ] } },
{ "type": "Feature", "properties": { "visible_points": 15, "total_points": 77, "visibility_pct": 19.480519480519483 }, "geometry": { "type": "Point", "coordinates": [ 1.361040325109465, 51.964206099840347 ] } },
{ "type": "Feature", "properties": { "visible_points": 6, "total_points": 77, "visibility_pct": 7.7922077922077921 }, "geometry": { "type": "Point", "coordinates": [ 1.361241653084286, 51.964200346321945 ] } },
{ "type": "Feature", "properties": { "visible_points": 9, "total_points": 75, "visibility_pct": 12.0 }, "geometry": { "type": "Point", "coordinates": [ 1.361442980990694, 51.96419459245832 ] } },
{ "type": "Feature", "properties": { "visible_points": 9, "total_points": 71, "visibility_pct": 12.676056338028168 }, "geometry": { "type": "Point", "coordinates": [ 1.361644308828688, 51.964188838249441 ] } },
{ "type": "Feature", "properties": { "visible_points": 0, "total_points": 65, "visibility_pct": 0.0 }, "geometry": { "type": "Point", "coordinates": [ 1.361350382226299, 51.964305174526345 ] } },
{ "type": "Feature", "properties": { "visible_points": 7, "total_points": 63, "visibility_pct": 11.111111111111111 }, "geometry": { "type": "Point", "coordinates": [ 1.361551710588942, 51.96429942048146 ] } }
]
}
