{
"type": "FeatureCollection",
"name": "e09cfff17014_visibility",
"crs": { "type": "name", "properties": { "name": "urn:ogc:def:crs:OGC:1.3:CRS84" } },
"features": [
{ "type": "Feature", "properties": { "visible_points": 6, "total_points": 66, "visibility_pct": 9.0909090909090917 }, "geometry": { "type": "Point", "coordinates": [ 1.215294576713998, 52.035377542691222 ] } },
{ "type": "Feature", "properties": { "visible_points": 5, "total_points": 74, "visibility_pct": 6.756756756756757 }, "geometry": { "type": "Point", "coordinates": [ 1.215496251445666, 52.035372033076413 ] } },
{ "type": "Feature", "properties": { "visible_points": 1, "total_points": 80, "visibility_pct": 1.25 }, "geometry": { "type": "Point", "coordinates": [ 1.215697926112863, 52.035366523117126 ] } },
{ "type": "Feature", "properties": { "visible_points": 0, "total_points": 75, "visibility_pct": 0.0 }, "geometry": { "type": "Point", "coordinates": [ 1.216504624136863, 52.035344479835182 ] } },
{ "type": "Feature", "properties": { "visible_points": 0, "total_points": 69, "visibility_pct": 0.0 }, "geometry": { "type": "Point", "coordinates": [ 1.216706298481644, 52.035338968153503 ] } },
{ "type": "Feature", "properties": { "visible_points": 3, "total_points": 59, "visibility_pct": 5.0847457627118651 }, "geometry": { "type": "Point", "coordinates": [ 1.214999798605138, 52.035493526452704 ] } },
{ "type": "Feature", "properties": { "visible_points": 0, "total_points": 68, "visibility_pct": 0.0 }, "geometry": { "type": "Point", "coordinates": [ 1.215201473896891, 52.0354880173387 ] } },
{ "type": "Feature", "properties": { "visible_points": 0, "total_points": 77, "visibility_pct": 0.0 }, "geometry": { "type": "Point", "coordinates": [ 1.215403149141421, 52.035482507871748 ] } },
{ "type": "Feature", "properties": { "visible_points": 6, "total_points": 86, "visibility_pct": 6.9767441860465116 }, "geometry": { "type": "Point", "coordinates": [ 1.215604824321483, 52.035476998060311 ] } },
{ "type": "Feature", "properties": { "visible_points": 5, "total_points": 93, "visibility_pct": 5.376344086021505 }, "geometry": { "type": "Point", "coordinates": [ 1.215806499437072, 52.035471487904388 ] } },
{ "type": "Feature", "properties": { "visible_points": 0, "total_points": 93, "visibility_pct": 0.0 }, "geometry": { "type": "Point", "coordinates": [ 1.216008174488185, 52.035465977403994 ] } },
{ "type": "Feature", "properties": { "visible_points": 6, "total_points": 91, "visibility_pct": 6.593406593406594 }, "geometry": { "type": "Point", "coordinates": [ 1.216209849474815, 52.035460466559122 ] } },
{ "type": "Feature", "properties": { "visible_points": 13, "total_points": 88, "visibility_pct": 14.772727272727273 }, "geometry": { "type": "Point", "coordinates": [ 1.21641152439696, 52.035454955369779 ] } },
{ "type": "Feature", "properties": { "visible_points": 14, "total_points": 82, "visibility_pct": 17.073170731707318 }, "geometry": { "type": "Point", "coordinates": [ 1.216613199254614, 52.035449443835937 ] } },
{ "type": "Feature", "properties": { "visible_points": 3, "total_points": 74, "visibility_pct": 4.0540540540540544 }, "geometry": { "type": "Point", "coordinates": [ 1.216814874047777, 52.035443931957623 ] } },
{ "type": "Feature", "properties": { "visible_points": 0, "total_points": 68, "visibility_pct": 0.0 }, "geometry": { "type": "Point", "coordinates": [ 1.215108370631395, 52.035598491921412 ] } },
{ "type": "Feature", "properties": { "visible_points": 0, "total_points": 78, "visibility_pct": 0.0 }, "geometry": { "type": "Point", "coordinates": [ 1.215310046388791, 52.035592982602331 ] } },
{ "type": "Feature", "properties": { "visible_points": 0, "total_points": 88, "visibility_pct": 0.0 }, "geometry": { "type": "Point", "coordinates": [ 1.215511722081722, 52.035587472938751 ] } },
{ "type": "Feature", "properties": { "visible_points": 10, "total_points": 98, "visibility_pct": 10.204081632653061 }, "geometry": { "type": "Point", "coordinates": [ 1.215713397710183, 52.035581962930685 ] } },
{ "type": "Feature", "properties": { "visible_points": 0, "total_points": 103, "visibility_pct": 0.0 }, "geometry": { "type": "Point", "coordinates": [ 1.215915073274161, 52.035576452578134 ] } },
{ "type": "Feature", "properties": { "visible_points": 20, "total_points": 103, "visibility_pct": 19.417475728155338 }, "geometry": { "type": "Point", "coordinates": [ 1.216116748773665, 52.035570941881112 ] } },
{ "type": "Feature", "properties": { "visible_points": 19, "total_points": 100, "visibility_pct": 19.0 }, "geometry": { "type": "Point", "coordinates": [ 1.216318424208684, 52.035565430839604 ] } },
{ "type": "Feature", "properties": { "visible_points": 15, "total_points": 95, "visibility_pct": 15.789473684210526 }, "geometry": { "type": "Point", "coordinates": [ 1.216520099579209, 52.035559919453611 ] } },
{ "type": "Feature", "properties": { "visible_points": 15, "total_points": 87, "visibility_pct": 17.241379310344829 }, "geometry": { "type": "Point", "coordinates": [ 1.216721774885253, 52.035554407723133 ] } },
{ "type": "Feature", "properties": { "visible_points": 3, "total_points": 77, "visibility_pct": 3.8961038961038961 }, "geometry": { "type": "Point", "coordinates": [ 1.216923450126793, 52.035548895648191 ] } },
{ "type": "Feature", "properties": { "visible_points": 1, "total_points": 65, "visibility_pct": 1.5384615384615385 }, "geometry": { "type": "Point", "coordinates": [ 1.215015266918052, 52.035708966439074 ] } },
{ "type": "Feature", "properties": { "visible_points": 0, "total_points": 77, "visibility_pct": 0.0 }, "geometry": { "type": "Point", "coordinates": [ 1.215216943187772, 52.03570345726812 ] } },
{ "type": "Feature", "properties": { "visible_points": 0, "total_points": 88, "visibility_pct": 0.0 }, "geometry": { "type": "Point", "coordinates": [ 1.215418619393577, 52.035697947752396 ] } },
{ "type": "Feature", "properties": { "visible_points": 0, "total_points": 99, "visibility_pct": 0.0 }, "geometry": { "type": "Point", "coordinates": [ 1.215620295534902, 52.03569243789218 ] } },
{ "type": "Feature", "properties": { "visible_points": 13, "total_points": 108, "visibility_pct": 12.037037037037036 }, "geometry": { "type": "Point", "coordinates": [ 1.21582197161176, 52.035686927687507 ] } },
{ "type": "Feature", "properties": { "visible_points": 13, "total_points": 112, "visibility_pct": 11.607142857142858 }, "geometry": { "type": "Point", "coordinates": [ 1.216023647624135, 52.035681417138314 ] } },
{ "type": "Feature", "properties": { "visible_points": 20, "total_points": 111, "visibility_pct": 18.018018018018019 }, "geometry": { "type": "Point", "coordinates": [ 1.216225323572029, 52.03567590624467 ] } },
{ "type": "Feature", "properties": { "visible_points": 19, "total_points": 108, "visibility_pct": 17.592592592592592 }, "geometry": { "type": "Point", "coordinates": [ 1.216426999455439, 52.03567039500652 ] } },
{ "type": "Feature", "properties": { "visible_points": 17, "total_points": 100, "visibility_pct": 17.0 }, "geometry": { "type": "Point", "coordinates": [ 1.216628675274354, 52.035664883423898 ] } },
{ "type": "Feature", "properties": { "visible_points": 14, "total_points": 89, "visibility_pct": 15.730337078651685 }, "geometry": { "type": "Point", "coordinates": [ 1.216830351028777, 52.035659371496791 ] } },
{ "type": "Feature", "properties": { "visible_points": 2, "total_points": 78, "visibility_pct": 2.5641025641025639 }, "geometry": { "type": "Point", "coordinates": [ 1.2170320267187, 52.035653859225214 ] } },
{ "type": "Feature", "properties": { "visible_points": 0, "total_points": 67, "visibility_pct": 0.0 }, "geometry": { "type": "Point", "coordinates": [ 1.217233702344122, 52.03564834660915 ] } },
{ "type": "Feature", "properties": { "visible_points": 0, "total_points": 71, "visibility_pct": 0.0 }, "geometry": { "type": "Point", "coordinates": [ 1.215123839538365, 52.035813931869143 ] } },
{ "type": "Feature", "properties": { "visible_points": 0, "total_points": 83, "visibility_pct": 0.0 }, "geometry": { "type": "Point", "coordinates": [ 1.215325516257035, 52.03580842250129 ] } },
{ "type": "Feature", "properties": { "visible_points": 0, "total_points": 95, "visibility_pct": 0.0 }, "geometry": { "type": "Point", "coordinates": [ 1.215527192911242, 52.035802912788931 ] } },
{ "type": "Feature", "properties": { "visible_points": 10, "total_points": 104, "visibility_pct": 9.6153846153846168 }, "geometry": { "type": "Point", "coordinates": [ 1.215728869500968, 52.035797402732101 ] } },
{ "type": "Feature", "properties": { "visible_points": 7, "total_points": 109, "visibility_pct": 6.4220183486238538 }, "geometry": { "type": "Point", "coordinates": [ 1.215930546026225, 52.035791892330771 ] } },
{ "type": "Feature", "properties": { "visible_points": 17, "total_points": 112, "visibility_pct": 15.178571428571427 }, "geometry": { "type": "Point", "coordinates": [ 1.216132222486996, 52.03578638158497 ] } },
{ "type": "Feature", "properties": { "visible_points": 16, "total_points": 112, "visibility_pct": 14.285714285714285 }, "geometry": { "type": "Point", "coordinates": [ 1.216333898883284, 52.035780870494676 ] } },
{ "type": "Feature", "properties": { "visible_points": 18, "total_points": 106, "visibility_pct": 16.981132075471699 }, "geometry": { "type": "Point", "coordinates": [ 1.216535575215085, 52.035775359059919 ] } },
{ "type": "Feature", "properties": { "visible_points": 16, "total_points": 96, "visibility_pct": 16.666666666666664 }, "geometry": { "type": "Point", "coordinates": [ 1.216737251482386, 52.035769847280648 ] } },
{ "type": "Feature", "properties": { "visible_points": 15, "total_points": 85, "visibility_pct": 17.647058823529413 }, "geometry": { "type": "Point", "coordinates": [ 1.216938927685196, 52.035764335156905 ] } },
{ "type": "Feature", "properties": { "visible_points": 0, "total_points": 74, "visibility_pct": 0.0 }, "geometry": { "type": "Point", "coordinates": [ 1.217140603823505, 52.035758822688685 ] } },
{ "type": "Feature", "properties": { "visible_points": 0, "total_points": 83, "visibility_pct": 0.0 }, "geometry": { "type": "Point", "coordinates": [ 1.215434089839184, 52.035913387620901 ] } },
{ "type": "Feature", "properties": { "visible_points": 0, "total_points": 92, "visibility_pct": 0.0 }, "geometry": { "type": "Point", "coordinates": [ 1.215635766941795, 52.035907877711928 ] } },
{ "type": "Feature", "properties": { "visible_points": 3, "total_points": 99, "visibility_pct": 3.0303030303030303 }, "geometry": { "type": "Point", "coordinates": [ 1.215837443979924, 52.035902367458448 ] } },
{ "type": "Feature", "properties": { "visible_points": 8, "total_points": 103, "visibility_pct": 7.7669902912621351 }, "geometry": { "type": "Point", "coordinates": [ 1.216039120953581, 52.035896856860496 ] } },
{ "type": "Feature", "properties": { "visible_points": 12, "total_points": 107, "visibility_pct": 11.214953271028037 }, "geometry": { "type": "Point", "coordinates": [ 1.216240797862748, 52.03589134591806 ] } },
{ "type": "Feature", "properties": { "visible_points": 11, "total_points": 106, "visibility_pct": 10.377358490566039 }, "geometry": { "type": "Point", "coordinates": [ 1.216442474707434, 52.035885834631145 ] } },
{ "type": "Feature", "properties": { "visible_points": 14, "total_points": 99, "visibility_pct": 14.14141414141414 }, "geometry": { "type": "Point", "coordinates": [ 1.21664415148762, 52.035880322999738 ] } },
{ "type": "Feature", "properties": { "visible_points": 15, "total_points": 88, "visibility_pct": 17.045454545454543 }, "geometry": { "type": "Point", "coordinates": [ 1.21684582820332, 52.035874811023831 ] } },
{ "type": "Feature", "properties": { "visible_points": 15, "total_points": 77, "visibility_pct": 19.480519480519483 }, "geometry": { "type": "Point", "coordinates": [ 1.217047504854513, 52.035869298703467 ] } },
{ "type": "Feature", "properties": { "visible_points": 0, "total_points": 66, "visibility_pct": 0.0 }, "geometry": { "type": "Point", "coordinates": [ 1.217249181441207, 52.035863786038611 ] } },
{ "type": "Feature", "properties": { "visible_points": 0, "total_points": 79, "visibility_pct": 0.0 }, "geometry": { "type": "Point", "coordinates": [ 1.215542663934221, 52.036018352626982 ] } },
{ "type": "Feature", "properties": { "visible_points": 0, "total_points": 86, "visibility_pct": 0.0 }, "geometry": { "type": "Point", "coordinates": [ 1.215744341485238, 52.036012842521373 ] } },
{ "type": "Feature", "properties": { "visible_points": 0, "total_points": 91, "visibility_pct": 0.0 }, "geometry": { "type": "Point", "coordinates": [ 1.215946018971775, 52.036007332071279 ] } },
{ "type": "Feature", "properties": { "visible_points": 14, "total_points": 95, "visibility_pct": 14.736842105263156 }, "geometry": { "type": "Point", "coordinates": [ 1.216147696393831, 52.036001821276692 ] } },
{ "type": "Feature", "properties": { "visible_points": 7, "total_points": 97, "visibility_pct": 7.216494845360824 }, "geometry": { "type": "Point", "coordinates": [ 1.216349373751397, 52.035996310137612 ] } },
{ "type": "Feature", "properties": { "visible_points": 3, "total_points": 94, "visibility_pct": 3.1914893617021276 }, "geometry": { "type": "Point", "coordinates": [ 1.216551051044477, 52.035990798654041 ] } },
{ "type": "Feature", "properties": { "visible_points": 4, "total_points": 87, "visibility_pct": 4.5977011494252871 }, "geometry": { "type": "Point", "coordinates": [ 1.216752728273061, 52.035985286826026 ] } },
{ "type": "Feature", "properties": { "visible_points": 10, "total_points": 77, "visibility_pct": 12.987012987012985 }, "geometry": { "type": "Point", "coordinates": [ 1.216954405437151, 52.035979774653491 ] } },
{ "type": "Feature", "properties": { "visible_points": 13, "total_points": 67, "visibility_pct": 19.402985074626866 }, "geometry": { "type": "Point", "coordinates": [ 1.217156082536733, 52.03597426213647 ] } },
{ "type": "Feature", "properties": { "visible_points": 0, "total_points": 57, "visibility_pct": 0.0 }, "geometry": { "type": "Point", "coordinates": [ 1.217357759571811, 52.035968749274971 ] } },
{ "type": "Feature", "properties": { "visible_points": 0, "total_points": 66, "visibility_pct": 0.0 }, "geometry": { "type": "Point", "coordinates": [ 1.215449560478252, 52.036128827477278 ] } },
{ "type": "Feature", "properties": { "visible_points": 0, "total_points": 73, "visibility_pct": 0.0 }, "geometry": { "type": "Point", "coordinates": [ 1.215651238542156, 52.036123317519518 ] } },
{ "type": "Feature", "properties": { "visible_points": 0, "total_points": 82, "visibility_pct": 0.0 }, "geometry": { "type": "Point", "coordinates": [ 1.21605459447652, 52.03611229657055 ] } },
{ "type": "Feature", "properties": { "visible_points": 6, "total_points": 85, "visibility_pct": 7.0588235294117645 }, "geometry": { "type": "Point", "coordinates": [ 1.216256272346982, 52.036106785579321 ] } },
{ "type": "Feature", "properties": { "visible_points": 8, "total_points": 86, "visibility_pct": 9.3023255813953494 }, "geometry": { "type": "Point", "coordinates": [ 1.216457950152945, 52.03610127424362 ] } },
{ "type": "Feature", "properties": { "visible_points": 0, "total_points": 81, "visibility_pct": 0.0 }, "geometry": { "type": "Point", "coordinates": [ 1.216659627894424, 52.036095762563413 ] } },
{ "type": "Feature", "properties": { "visible_points": 0, "total_points": 74, "visibility_pct": 0.0 }, "geometry": { "type": "Point", "coordinates": [ 1.216861305571404, 52.036090250538741 ] } },
{ "type": "Feature", "properties": { "visible_points": 0, "total_points": 66, "visibility_pct": 0.0 }, "geometry": { "type": "Point", "coordinates": [ 1.217062983183886, 52.036084738169578 ] } },
{ "type": "Feature", "properties": { "visible_points": 0, "total_points": 57, "visibility_pct": 0.0 }, "geometry": { "type": "Point", "coordinates": [ 1.217264660731857, 52.036079225455929 ] } },
{ "type": "Feature", "properties": { "visible_points": 0, "total_points": 72, "visibility_pct": 0.0 }, "geometry": { "type": "Point", "coordinates": [ 1.216163170494165, 52.036217260956271 ] } },
{ "type": "Feature", "properties": { "visible_points": 0, "total_points": 74, "visibility_pct": 0.0 }, "geometry": { "type": "Point", "coordinates": [ 1.216364848813031, 52.036211749768427 ] } },
{ "type": "Feature", "properties": { "visible_points": 0, "total_points": 73, "visibility_pct": 0.0 }, "geometry": { "type": "Point", "coordinates": [ 1.2165665270674, 52.03620623823609 ] } }
]
}
