{
"type": "FeatureCollection",
"name": "fae046f9a4e8_foliage",
"crs": { "type": "name", "properties": { "name": "urn:ogc:def:crs:OGC:1.3:CRS84" } },
"features": [
{ "type": "Feature", "properties": { "max_height": 4.9199981689453125, "mean_height": 0.9296422004699707, "std_height": 1.1400603055953979, "count_pixels": 42, "percent_cover": 0.23744911804613297, "percent_above_0.1m": 76.19047619047619, "low_level_<0.5": 19.047619047619047, "mid_level_0.5-2": 38.095238095238095, "tall_2+": 16.666666666666664 }, "geometry": { "type": "Point", "coordinates": [ 1.272314783133593, 52.061799259455313 ] } },
{ "type": "Feature", "properties": { "max_height": 4.7974987030029297, "mean_height": 0.40303498506546021, "std_height": 0.7748749852180481, "count_pixels": 42, "percent_cover": 0.23744911804613297, "percent_above_0.1m": 54.761904761904766, "low_level_<0.5": 26.190476190476193, "mid_level_0.5-2": 23.809523809523807, "tall_2+": 2.3809523809523809 }, "geometry": { "type": "Point", "coordinates": [ 1.27251656113953, 52.061793652882834 ] } },
{ "type": "Feature", "properties": { "max_height": 6.8000011444091797, "mean_height": 1.807158350944519, "std_height": 1.9619213342666626, "count_pixels": 44, "percent_cover": 0.24875621890547264, "percent_above_0.1m": 70.454545454545453, "low_level_<0.5": 9.0909090909090917, "mid_level_0.5-2": 27.27272727272727, "tall_2+": 34.090909090909086 }, "geometry": { "type": "Point", "coordinates": [ 1.272920116947733, 52.061782438702451 ] } },
{ "type": "Feature", "properties": { "max_height": 5.9874973297119141, "mean_height": 1.1292492151260376, "std_height": 1.5964615345001221, "count_pixels": 40, "percent_cover": 0.22614201718679333, "percent_above_0.1m": 50.0, "low_level_<0.5": 0.0, "mid_level_0.5-2": 25.0, "tall_2+": 25.0 }, "geometry": { "type": "Point", "coordinates": [ 1.273121894749991, 52.061776831094555 ] } },
{ "type": "Feature", "properties": { "max_height": 7.3199996948242188, "mean_height": 2.9636895656585693, "std_height": 2.9888114929199219, "count_pixels": 42, "percent_cover": 0.23744911804613297, "percent_above_0.1m": 61.904761904761905, "low_level_<0.5": 7.1428571428571423, "mid_level_0.5-2": 7.1428571428571423, "tall_2+": 47.619047619047613 }, "geometry": { "type": "Point", "coordinates": [ 1.272221770890354, 52.061909775926722 ] } },
{ "type": "Feature", "properties": { "max_height": 7.2750015258789062, "mean_height": 3.5088086128234863, "std_height": 2.2491779327392578, "count_pixels": 42, "percent_cover": 0.23744911804613297, "percent_above_0.1m": 97.61904761904762, "low_level_<0.5": 11.904761904761903, "mid_level_0.5-2": 14.285714285714285, "tall_2+": 69.047619047619051 }, "geometry": { "type": "Point", "coordinates": [ 1.272423549432484, 52.061904169505745 ] } },
{ "type": "Feature", "properties": { "max_height": 9.2074985504150391, "mean_height": 2.5284371376037598, "std_height": 3.092766284942627, "count_pixels": 40, "percent_cover": 0.22614201718679333, "percent_above_0.1m": 62.5, "low_level_<0.5": 5.0, "mid_level_0.5-2": 17.5, "tall_2+": 37.5 }, "geometry": { "type": "Point", "coordinates": [ 1.272827106313086, 52.061892955628387 ] } },
{ "type": "Feature", "properties": { "max_height": 7.7499980926513672, "mean_height": 2.9691870212554932, "std_height": 2.3260490894317627, "count_pixels": 40, "percent_cover": 0.22614201718679333, "percent_above_0.1m": 82.5, "low_level_<0.5": 5.0, "mid_level_0.5-2": 17.5, "tall_2+": 60.0 }, "geometry": { "type": "Point", "coordinates": [ 1.273028884651548, 52.061887348172021 ] } },
{ "type": "Feature", "properties": { "max_height": 3.4925003051757812, "mean_height": 1.3722493648529053, "std_height": 1.2385274171829224, "count_pixels": 40, "percent_cover": 0.22614201718679333, "percent_above_0.1m": 75.0, "low_level_<0.5": 12.5, "mid_level_0.5-2": 22.5, "tall_2+": 37.5 }, "geometry": { "type": "Point", "coordinates": [ 1.271321641186703, 52.062042713956508 ] } },
{ "type": "Feature", "properties": { "max_height": 7.4249992370605469, "mean_height": 4.4280614852905273, "std_height": 2.6632590293884277, "count_pixels": 40, "percent_cover": 0.22614201718679333, "percent_above_0.1m": 92.5, "low_level_<0.5": 7.5, "mid_level_0.5-2": 7.5, "tall_2+": 75.0 }, "geometry": { "type": "Point", "coordinates": [ 1.271926979032597, 52.062025898254412 ] } },
{ "type": "Feature", "properties": { "max_height": 7.3124961853027344, "mean_height": 1.992796778678894, "std_height": 2.6976330280303955, "count_pixels": 42, "percent_cover": 0.23744911804613297, "percent_above_0.1m": 52.380952380952387, "low_level_<0.5": 4.7619047619047619, "mid_level_0.5-2": 16.666666666666664, "tall_2+": 30.952380952380953 }, "geometry": { "type": "Point", "coordinates": [ 1.272128758178812, 52.062020292330082 ] } },
{ "type": "Feature", "properties": { "max_height": 2.9124984741210938, "mean_height": 0.23142801225185394, "std_height": 0.65900194644927979, "count_pixels": 42, "percent_cover": 0.23744911804613297, "percent_above_0.1m": 11.904761904761903, "low_level_<0.5": 0.0, "mid_level_0.5-2": 7.1428571428571423, "tall_2+": 4.7619047619047619 }, "geometry": { "type": "Point", "coordinates": [ 1.272330537257151, 52.062014686060664 ] } },
{ "type": "Feature", "properties": { "max_height": 6.0750007629394531, "mean_height": 2.2810709476470947, "std_height": 1.9002313613891602, "count_pixels": 42, "percent_cover": 0.23744911804613297, "percent_above_0.1m": 73.80952380952381, "low_level_<0.5": 0.0, "mid_level_0.5-2": 16.666666666666664, "tall_2+": 57.142857142857139 }, "geometry": { "type": "Point", "coordinates": [ 1.272532316267598, 52.062009079446071 ] } },
{ "type": "Feature", "properties": { "max_height": 4.9875011444091797, "mean_height": 1.4101184606552124, "std_height": 1.5282704830169678, "count_pixels": 42, "percent_cover": 0.23744911804613297, "percent_above_0.1m": 59.523809523809526, "low_level_<0.5": 4.7619047619047619, "mid_level_0.5-2": 21.428571428571427, "tall_2+": 33.333333333333329 }, "geometry": { "type": "Point", "coordinates": [ 1.272734095210154, 52.062003472486339 ] } },
{ "type": "Feature", "properties": { "max_height": 5.3225002288818359, "mean_height": 0.85607892274856567, "std_height": 1.1969665288925171, "count_pixels": 44, "percent_cover": 0.24875621890547264, "percent_above_0.1m": 68.181818181818173, "low_level_<0.5": 22.727272727272727, "mid_level_0.5-2": 29.545454545454547, "tall_2+": 13.636363636363635 }, "geometry": { "type": "Point", "coordinates": [ 1.272935874084815, 52.061997865181475 ] } },
{ "type": "Feature", "properties": { "max_height": 8.375, "mean_height": 4.779874324798584, "std_height": 2.9105634689331055, "count_pixels": 40, "percent_cover": 0.22614201718679333, "percent_above_0.1m": 92.5, "low_level_<0.5": 5.0, "mid_level_0.5-2": 10.0, "tall_2+": 75.0 }, "geometry": { "type": "Point", "coordinates": [ 1.273137652891584, 52.061992257531479 ] } },
{ "type": "Feature", "properties": { "max_height": 5.0725002288818359, "mean_height": 1.5856542587280273, "std_height": 1.4440975189208984, "count_pixels": 42, "percent_cover": 0.23744911804613297, "percent_above_0.1m": 73.80952380952381, "low_level_<0.5": 4.7619047619047619, "mid_level_0.5-2": 33.333333333333329, "tall_2+": 35.714285714285715 }, "geometry": { "type": "Point", "coordinates": [ 1.271228625862067, 52.062153229685762 ] } },
{ "type": "Feature", "properties": { "max_height": 4.8499984741210938, "mean_height": 1.3760789632797241, "std_height": 1.5857911109924316, "count_pixels": 44, "percent_cover": 0.24875621890547264, "percent_above_0.1m": 59.090909090909093, "low_level_<0.5": 9.0909090909090917, "mid_level_0.5-2": 11.363636363636363, "tall_2+": 36.363636363636367 }, "geometry": { "type": "Point", "coordinates": [ 1.271430405748105, 52.062147624948402 ] } },
{ "type": "Feature", "properties": { "max_height": 7.4399986267089844, "mean_height": 3.2153747081756592, "std_height": 2.3244471549987793, "count_pixels": 40, "percent_cover": 0.22614201718679333, "percent_above_0.1m": 82.5, "low_level_<0.5": 0.0, "mid_level_0.5-2": 15.0, "tall_2+": 67.5 }, "geometry": { "type": "Point", "coordinates": [ 1.271632185566266, 52.06214201986591 ] } },
{ "type": "Feature", "properties": { "max_height": 7.2875003814697266, "mean_height": 2.5799994468688965, "std_height": 2.9825208187103271, "count_pixels": 44, "percent_cover": 0.24875621890547264, "percent_above_0.1m": 50.0, "low_level_<0.5": 0.0, "mid_level_0.5-2": 9.0909090909090917, "tall_2+": 40.909090909090914 }, "geometry": { "type": "Point", "coordinates": [ 1.27183396531656, 52.062136414438271 ] } },
{ "type": "Feature", "properties": { "max_height": 0.042499542236328125, "mean_height": 0.0017256055725738406, "std_height": 0.0078394431620836258, "count_pixels": 42, "percent_cover": 0.23744911804613297, "percent_above_0.1m": 0.0, "low_level_<0.5": 0.0, "mid_level_0.5-2": 0.0, "tall_2+": 0.0 }, "geometry": { "type": "Point", "coordinates": [ 1.272035744998974, 52.062130808665472 ] } },
{ "type": "Feature", "properties": { "max_height": 1.3349990844726562, "mean_height": 0.14476126432418823, "std_height": 0.35571157932281494, "count_pixels": 42, "percent_cover": 0.23744911804613297, "percent_above_0.1m": 19.047619047619047, "low_level_<0.5": 4.7619047619047619, "mid_level_0.5-2": 11.904761904761903, "tall_2+": 0.0 }, "geometry": { "type": "Point", "coordinates": [ 1.272237524613511, 52.062125202547534 ] } },
{ "type": "Feature", "properties": { "max_height": 0.62499809265136719, "mean_height": 0.021725926548242569, "std_height": 0.10390636324882507, "count_pixels": 42, "percent_cover": 0.23744911804613297, "percent_above_0.1m": 4.7619047619047619, "low_level_<0.5": 2.3809523809523809, "mid_level_0.5-2": 2.3809523809523809, "tall_2+": 0.0 }, "geometry": { "type": "Point", "coordinates": [ 1.272439304160167, 52.062119596084472 ] } },
{ "type": "Feature", "properties": { "max_height": 2.5424995422363281, "mean_height": 0.62327349185943604, "std_height": 0.87835848331451416, "count_pixels": 42, "percent_cover": 0.23744911804613297, "percent_above_0.1m": 50.0, "low_level_<0.5": 14.285714285714285, "mid_level_0.5-2": 21.428571428571427, "tall_2+": 14.285714285714285 }, "geometry": { "type": "Point", "coordinates": [ 1.272641083638923, 52.062113989276277 ] } },
{ "type": "Feature", "properties": { "max_height": 7.5499992370605469, "mean_height": 2.9909992218017578, "std_height": 2.3007831573486328, "count_pixels": 40, "percent_cover": 0.22614201718679333, "percent_above_0.1m": 90.0, "low_level_<0.5": 7.5, "mid_level_0.5-2": 20.0, "tall_2+": 57.5 }, "geometry": { "type": "Point", "coordinates": [ 1.272842863049798, 52.062108382122936 ] } },
{ "type": "Feature", "properties": { "max_height": 6.3649978637695312, "mean_height": 2.3244044780731201, "std_height": 2.0918540954589844, "count_pixels": 42, "percent_cover": 0.23744911804613297, "percent_above_0.1m": 88.095238095238088, "low_level_<0.5": 14.285714285714285, "mid_level_0.5-2": 28.571428571428569, "tall_2+": 45.238095238095241 }, "geometry": { "type": "Point", "coordinates": [ 1.27113561006912, 52.062263745347032 ] } },
{ "type": "Feature", "properties": { "max_height": 5.0274982452392578, "mean_height": 0.52018684148788452, "std_height": 1.2605262994766235, "count_pixels": 40, "percent_cover": 0.22614201718679333, "percent_above_0.1m": 27.5, "low_level_<0.5": 10.0, "mid_level_0.5-2": 2.5, "tall_2+": 12.5 }, "geometry": { "type": "Point", "coordinates": [ 1.271337390491356, 52.062258140761166 ] } },
{ "type": "Feature", "properties": { "max_height": 3.4724998474121094, "mean_height": 0.20337438583374023, "std_height": 0.61501210927963257, "count_pixels": 40, "percent_cover": 0.22614201718679333, "percent_above_0.1m": 20.0, "low_level_<0.5": 7.5, "mid_level_0.5-2": 7.5, "tall_2+": 2.5 }, "geometry": { "type": "Point", "coordinates": [ 1.271539170845716, 52.062252535830204 ] } },
{ "type": "Feature", "properties": { "max_height": 0.0, "mean_height": -7.152557373046875e-07, "std_height": 1.0171283975068945e-06, "count_pixels": 40, "percent_cover": 0.22614201718679333, "percent_above_0.1m": 0.0, "low_level_<0.5": 0.0, "mid_level_0.5-2": 0.0, "tall_2+": 0.0 }, "geometry": { "type": "Point", "coordinates": [ 1.271740951132211, 52.062246930554075 ] } },
{ "type": "Feature", "properties": { "max_height": 0.0, "mean_height": -6.1988828292669496e-07, "std_height": 9.8993962183158146e-07, "count_pixels": 40, "percent_cover": 0.22614201718679333, "percent_above_0.1m": 0.0, "low_level_<0.5": 0.0, "mid_level_0.5-2": 0.0, "tall_2+": 0.0 }, "geometry": { "type": "Point", "coordinates": [ 1.271942731350833, 52.062241324932813 ] } },
{ "type": "Feature", "properties": { "max_height": 0.0, "mean_height": -9.0826125642706756e-07, "std_height": 9.5259252930190996e-07, "count_pixels": 42, "percent_cover": 0.23744911804613297, "percent_above_0.1m": 0.0, "low_level_<0.5": 0.0, "mid_level_0.5-2": 0.0, "tall_2+": 0.0 }, "geometry": { "type": "Point", "coordinates": [ 1.272144511501571, 52.062235718966413 ] } },
{ "type": "Feature", "properties": { "max_height": 2.8824996948242188, "mean_height": 0.32541579008102417, "std_height": 0.75529235601425171, "count_pixels": 42, "percent_cover": 0.23744911804613297, "percent_above_0.1m": 23.809523809523807, "low_level_<0.5": 4.7619047619047619, "mid_level_0.5-2": 7.1428571428571423, "tall_2+": 9.5238095238095237 }, "geometry": { "type": "Point", "coordinates": [ 1.272346291584431, 52.062230112654873 ] } },
{ "type": "Feature", "properties": { "max_height": 3.8349990844726562, "mean_height": 0.83148753643035889, "std_height": 1.1692811250686646, "count_pixels": 42, "percent_cover": 0.23744911804613297, "percent_above_0.1m": 47.619047619047613, "low_level_<0.5": 11.904761904761903, "mid_level_0.5-2": 14.285714285714285, "tall_2+": 21.428571428571427 }, "geometry": { "type": "Point", "coordinates": [ 1.2725480715994, 52.062224505998188 ] } },
{ "type": "Feature", "properties": { "max_height": 7.4699993133544922, "mean_height": 2.4099397659301758, "std_height": 2.357656717300415, "count_pixels": 42, "percent_cover": 0.23744911804613297, "percent_above_0.1m": 83.333333333333343, "low_level_<0.5": 9.5238095238095237, "mid_level_0.5-2": 28.571428571428569, "tall_2+": 42.857142857142854 }, "geometry": { "type": "Point", "coordinates": [ 1.272749851546481, 52.06221889899637 ] } },
{ "type": "Feature", "properties": { "max_height": 9.3524990081787109, "mean_height": 2.856647253036499, "std_height": 2.6035645008087158, "count_pixels": 44, "percent_cover": 0.24875621890547264, "percent_above_0.1m": 84.090909090909093, "low_level_<0.5": 6.8181818181818175, "mid_level_0.5-2": 22.727272727272727, "tall_2+": 52.272727272727273 }, "geometry": { "type": "Point", "coordinates": [ 1.272951631425662, 52.0622132916494 ] } },
{ "type": "Feature", "properties": { "max_height": 13.509998321533203, "mean_height": 4.090118408203125, "std_height": 4.5832157135009766, "count_pixels": 42, "percent_cover": 0.23744911804613297, "percent_above_0.1m": 80.952380952380949, "low_level_<0.5": 9.5238095238095237, "mid_level_0.5-2": 21.428571428571427, "tall_2+": 45.238095238095241 }, "geometry": { "type": "Point", "coordinates": [ 1.271042593807852, 52.062374260940238 ] } },
{ "type": "Feature", "properties": { "max_height": 4.2749996185302734, "mean_height": 0.25047573447227478, "std_height": 0.75424563884735107, "count_pixels": 42, "percent_cover": 0.23744911804613297, "percent_above_0.1m": 21.428571428571427, "low_level_<0.5": 11.904761904761903, "mid_level_0.5-2": 4.7619047619047619, "tall_2+": 4.7619047619047619 }, "geometry": { "type": "Point", "coordinates": [ 1.271244374766289, 52.062368656505939 ] } },
{ "type": "Feature", "properties": { "max_height": 0.55249977111816406, "mean_height": 0.062727063894271851, "std_height": 0.15152214467525482, "count_pixels": 44, "percent_cover": 0.24875621890547264, "percent_above_0.1m": 18.181818181818183, "low_level_<0.5": 4.5454545454545459, "mid_level_0.5-2": 6.8181818181818175, "tall_2+": 0.0 }, "geometry": { "type": "Point", "coordinates": [ 1.27144615565685, 52.062363051726479 ] } },
{ "type": "Feature", "properties": { "max_height": 0.0, "mean_height": -2.384185791015625e-07, "std_height": 6.3079625078898971e-07, "count_pixels": 40, "percent_cover": 0.22614201718679333, "percent_above_0.1m": 0.0, "low_level_<0.5": 0.0, "mid_level_0.5-2": 0.0, "tall_2+": 0.0 }, "geometry": { "type": "Point", "coordinates": [ 1.271647936479551, 52.062357446601887 ] } },
{ "type": "Feature", "properties": { "max_height": 0.0, "mean_height": -3.467906708465307e-07, "std_height": 7.3565405500630732e-07, "count_pixels": 44, "percent_cover": 0.24875621890547264, "percent_above_0.1m": 0.0, "low_level_<0.5": 0.0, "mid_level_0.5-2": 0.0, "tall_2+": 0.0 }, "geometry": { "type": "Point", "coordinates": [ 1.271849717234379, 52.06235184113217 ] } },
{ "type": "Feature", "properties": { "max_height": 0.0, "mean_height": -6.3578289655197295e-07, "std_height": 9.907960247801384e-07, "count_pixels": 42, "percent_cover": 0.23744911804613297, "percent_above_0.1m": 0.0, "low_level_<0.5": 0.0, "mid_level_0.5-2": 0.0, "tall_2+": 0.0 }, "geometry": { "type": "Point", "coordinates": [ 1.272051497921325, 52.062346235317271 ] } },
{ "type": "Feature", "properties": { "max_height": 0.32250022888183594, "mean_height": 0.0179159976541996, "std_height": 0.06426982581615448, "count_pixels": 42, "percent_cover": 0.23744911804613297, "percent_above_0.1m": 4.7619047619047619, "low_level_<0.5": 4.7619047619047619, "mid_level_0.5-2": 0.0, "tall_2+": 0.0 }, "geometry": { "type": "Point", "coordinates": [ 1.272253278540395, 52.062340629157269 ] } },
{ "type": "Feature", "properties": { "max_height": 2.220001220703125, "mean_height": 0.53279721736907959, "std_height": 0.62909841537475586, "count_pixels": 42, "percent_cover": 0.23744911804613297, "percent_above_0.1m": 64.285714285714292, "low_level_<0.5": 19.047619047619047, "mid_level_0.5-2": 33.333333333333329, "tall_2+": 4.7619047619047619 }, "geometry": { "type": "Point", "coordinates": [ 1.272455059091574, 52.0623350226521 ] } },
{ "type": "Feature", "properties": { "max_height": 4.1825008392333984, "mean_height": 0.7646867036819458, "std_height": 1.2091423273086548, "count_pixels": 40, "percent_cover": 0.22614201718679333, "percent_above_0.1m": 55.000000000000007, "low_level_<0.5": 22.5, "mid_level_0.5-2": 7.5, "tall_2+": 20.0 }, "geometry": { "type": "Point", "coordinates": [ 1.272858619990262, 52.062323808606358 ] } },
{ "type": "Feature", "properties": { "max_height": 7.2549972534179688, "mean_height": 1.6507138013839722, "std_height": 2.3525393009185791, "count_pixels": 42, "percent_cover": 0.23744911804613297, "percent_above_0.1m": 54.761904761904766, "low_level_<0.5": 7.1428571428571423, "mid_level_0.5-2": 19.047619047619047, "tall_2+": 28.571428571428569 }, "geometry": { "type": "Point", "coordinates": [ 1.271151358572895, 52.062479172182655 ] } },
{ "type": "Feature", "properties": { "max_height": 0.48499870300292969, "mean_height": 0.040811825543642044, "std_height": 0.10731731355190277, "count_pixels": 40, "percent_cover": 0.22614201718679333, "percent_above_0.1m": 12.5, "low_level_<0.5": 10.0, "mid_level_0.5-2": 0.0, "tall_2+": 0.0 }, "geometry": { "type": "Point", "coordinates": [ 1.271353139999672, 52.062473567554747 ] } },
{ "type": "Feature", "properties": { "max_height": 0.0, "mean_height": -6.1988828292669496e-07, "std_height": 8.9335406983082066e-07, "count_pixels": 40, "percent_cover": 0.22614201718679333, "percent_above_0.1m": 0.0, "low_level_<0.5": 0.0, "mid_level_0.5-2": 0.0, "tall_2+": 0.0 }, "geometry": { "type": "Point", "coordinates": [ 1.271554921358576, 52.062467962581678 ] } },
{ "type": "Feature", "properties": { "max_height": 0.0, "mean_height": -6.1988828292669496e-07, "std_height": 8.9335406983082066e-07, "count_pixels": 40, "percent_cover": 0.22614201718679333, "percent_above_0.1m": 0.0, "low_level_<0.5": 0.0, "mid_level_0.5-2": 0.0, "tall_2+": 0.0 }, "geometry": { "type": "Point", "coordinates": [ 1.271756702649609, 52.062462357263477 ] } },
{ "type": "Feature", "properties": { "max_height": 0.0, "mean_height": -6.1988828292669496e-07, "std_height": 8.9335418351765838e-07, "count_pixels": 40, "percent_cover": 0.22614201718679333, "percent_above_0.1m": 0.0, "low_level_<0.5": 0.0, "mid_level_0.5-2": 0.0, "tall_2+": 0.0 }, "geometry": { "type": "Point", "coordinates": [ 1.271958483872767, 52.062456751600131 ] } },
{ "type": "Feature", "properties": { "max_height": 12.279998779296875, "mean_height": 2.5935113430023193, "std_height": 3.8040459156036377, "count_pixels": 42, "percent_cover": 0.23744911804613297, "percent_above_0.1m": 45.238095238095241, "low_level_<0.5": 2.3809523809523809, "mid_level_0.5-2": 9.5238095238095237, "tall_2+": 33.333333333333329 }, "geometry": { "type": "Point", "coordinates": [ 1.272160265028044, 52.062451145591631 ] } },
{ "type": "Feature", "properties": { "max_height": 7.8574981689453125, "mean_height": 1.5112495422363281, "std_height": 2.1684224605560303, "count_pixels": 42, "percent_cover": 0.23744911804613297, "percent_above_0.1m": 71.428571428571431, "low_level_<0.5": 23.809523809523807, "mid_level_0.5-2": 23.809523809523807, "tall_2+": 23.809523809523807 }, "geometry": { "type": "Point", "coordinates": [ 1.27236204611544, 52.062445539237999 ] } },
{ "type": "Feature", "properties": { "max_height": 6.9650001525878906, "mean_height": 0.91011828184127808, "std_height": 1.761874794960022, "count_pixels": 42, "percent_cover": 0.23744911804613297, "percent_above_0.1m": 35.714285714285715, "low_level_<0.5": 2.3809523809523809, "mid_level_0.5-2": 14.285714285714285, "tall_2+": 16.666666666666664 }, "geometry": { "type": "Point", "coordinates": [ 1.272765608086557, 52.062434325495282 ] } },
{ "type": "Feature", "properties": { "max_height": 7.0225009918212891, "mean_height": 1.855226993560791, "std_height": 2.3661880493164062, "count_pixels": 44, "percent_cover": 0.24875621890547264, "percent_above_0.1m": 59.090909090909093, "low_level_<0.5": 6.8181818181818175, "mid_level_0.5-2": 15.909090909090908, "tall_2+": 34.090909090909086 }, "geometry": { "type": "Point", "coordinates": [ 1.272967388970277, 52.06242871810624 ] } },
{ "type": "Feature", "properties": { "max_height": 6.9575004577636719, "mean_height": 2.7125589847564697, "std_height": 2.6946098804473877, "count_pixels": 42, "percent_cover": 0.23744911804613297, "percent_above_0.1m": 71.428571428571431, "low_level_<0.5": 4.7619047619047619, "mid_level_0.5-2": 19.047619047619047, "tall_2+": 45.238095238095241 }, "geometry": { "type": "Point", "coordinates": [ 1.271058341911184, 52.06258968779138 ] } },
{ "type": "Feature", "properties": { "max_height": 0.0, "mean_height": -4.9954371661442565e-07, "std_height": 8.3860601307605975e-07, "count_pixels": 42, "percent_cover": 0.23744911804613297, "percent_above_0.1m": 0.0, "low_level_<0.5": 0.0, "mid_level_0.5-2": 0.0, "tall_2+": 0.0 }, "geometry": { "type": "Point", "coordinates": [ 1.271260123874161, 52.062584083314995 ] } },
{ "type": "Feature", "properties": { "max_height": 8.407501220703125, "mean_height": 0.98664736747741699, "std_height": 2.0940990447998047, "count_pixels": 44, "percent_cover": 0.24875621890547264, "percent_above_0.1m": 25.0, "low_level_<0.5": 0.0, "mid_level_0.5-2": 9.0909090909090917, "tall_2+": 15.909090909090908 }, "geometry": { "type": "Point", "coordinates": [ 1.271461905769278, 52.062578478493464 ] } },
{ "type": "Feature", "properties": { "max_height": 0.0, "mean_height": -4.2915343101412873e-07, "std_height": 7.9647503525848151e-07, "count_pixels": 40, "percent_cover": 0.22614201718679333, "percent_above_0.1m": 0.0, "low_level_<0.5": 0.0, "mid_level_0.5-2": 0.0, "tall_2+": 0.0 }, "geometry": { "type": "Point", "coordinates": [ 1.271663687596524, 52.062572873326786 ] } },
{ "type": "Feature", "properties": { "max_height": 0.0, "mean_height": -7.8027898098298465e-07, "std_height": 1.0221505135632469e-06, "count_pixels": 44, "percent_cover": 0.24875621890547264, "percent_above_0.1m": 0.0, "low_level_<0.5": 0.0, "mid_level_0.5-2": 0.0, "tall_2+": 0.0 }, "geometry": { "type": "Point", "coordinates": [ 1.271865469355895, 52.062567267814963 ] } },
{ "type": "Feature", "properties": { "max_height": 12.412498474121094, "mean_height": 3.0215468406677246, "std_height": 4.3984475135803223, "count_pixels": 42, "percent_cover": 0.23744911804613297, "percent_above_0.1m": 42.857142857142854, "low_level_<0.5": 0.0, "mid_level_0.5-2": 7.1428571428571423, "tall_2+": 33.333333333333329 }, "geometry": { "type": "Point", "coordinates": [ 1.272067251047386, 52.062561661957993 ] } },
{ "type": "Feature", "properties": { "max_height": 11.51500129699707, "mean_height": 4.3797016143798828, "std_height": 3.6418490409851074, "count_pixels": 42, "percent_cover": 0.23744911804613297, "percent_above_0.1m": 90.476190476190482, "low_level_<0.5": 9.5238095238095237, "mid_level_0.5-2": 21.428571428571427, "tall_2+": 59.523809523809526 }, "geometry": { "type": "Point", "coordinates": [ 1.272269032670997, 52.062556055755884 ] } },
{ "type": "Feature", "properties": { "max_height": 1.4375, "mean_height": 0.083692550659179688, "std_height": 0.25931921601295471, "count_pixels": 44, "percent_cover": 0.24875621890547264, "percent_above_0.1m": 13.636363636363635, "low_level_<0.5": 6.8181818181818175, "mid_level_0.5-2": 4.5454545454545459, "tall_2+": 0.0 }, "geometry": { "type": "Point", "coordinates": [ 1.270561759579182, 52.062711410946342 ] } },
{ "type": "Feature", "properties": { "max_height": 7.2199974060058594, "mean_height": 1.6088087558746338, "std_height": 2.2295966148376465, "count_pixels": 42, "percent_cover": 0.23744911804613297, "percent_above_0.1m": 69.047619047619051, "low_level_<0.5": 16.666666666666664, "mid_level_0.5-2": 21.428571428571427, "tall_2+": 26.190476190476193 }, "geometry": { "type": "Point", "coordinates": [ 1.270763542214087, 52.062705807311787 ] } },
{ "type": "Feature", "properties": { "max_height": 7.2324981689453125, "mean_height": 1.0719038248062134, "std_height": 2.1189603805541992, "count_pixels": 42, "percent_cover": 0.23744911804613297, "percent_above_0.1m": 47.619047619047613, "low_level_<0.5": 16.666666666666664, "mid_level_0.5-2": 9.5238095238095237, "tall_2+": 16.666666666666664 }, "geometry": { "type": "Point", "coordinates": [ 1.270965324781139, 52.062700203332078 ] } },
{ "type": "Feature", "properties": { "max_height": 0.0, "mean_height": -4.9954371661442565e-07, "std_height": 8.3860601307605975e-07, "count_pixels": 42, "percent_cover": 0.23744911804613297, "percent_above_0.1m": 0.0, "low_level_<0.5": 0.0, "mid_level_0.5-2": 0.0, "tall_2+": 0.0 }, "geometry": { "type": "Point", "coordinates": [ 1.27116710728033, 52.06269459900723 ] } },
{ "type": "Feature", "properties": { "max_height": 9.4899997711181641, "mean_height": 2.6059997081756592, "std_height": 3.1072409152984619, "count_pixels": 40, "percent_cover": 0.22614201718679333, "percent_above_0.1m": 52.5, "low_level_<0.5": 2.5, "mid_level_0.5-2": 7.5, "tall_2+": 42.5 }, "geometry": { "type": "Point", "coordinates": [ 1.271368889711655, 52.062688994337215 ] } },
{ "type": "Feature", "properties": { "max_height": 9.152496337890625, "mean_height": 0.88674914836883545, "std_height": 2.0476713180541992, "count_pixels": 40, "percent_cover": 0.22614201718679333, "percent_above_0.1m": 20.0, "low_level_<0.5": 0.0, "mid_level_0.5-2": 2.5, "tall_2+": 17.5 }, "geometry": { "type": "Point", "coordinates": [ 1.271570672075114, 52.062683389322082 ] } },
{ "type": "Feature", "properties": { "max_height": 0.0, "mean_height": -6.1988828292669496e-07, "std_height": 8.9335418351765838e-07, "count_pixels": 40, "percent_cover": 0.22614201718679333, "percent_above_0.1m": 0.0, "low_level_<0.5": 0.0, "mid_level_0.5-2": 0.0, "tall_2+": 0.0 }, "geometry": { "type": "Point", "coordinates": [ 1.271772454370704, 52.062677783961774 ] } },
{ "type": "Feature", "properties": { "max_height": 0.0, "mean_height": -8.5830686202825746e-07, "std_height": 1.0403358601251966e-06, "count_pixels": 40, "percent_cover": 0.22614201718679333, "percent_above_0.1m": 0.0, "low_level_<0.5": 0.0, "mid_level_0.5-2": 0.0, "tall_2+": 0.0 }, "geometry": { "type": "Point", "coordinates": [ 1.271974236598411, 52.062672178256342 ] } },
{ "type": "Feature", "properties": { "max_height": 12.067501068115234, "mean_height": 2.2708325386047363, "std_height": 3.540302038192749, "count_pixels": 42, "percent_cover": 0.23744911804613297, "percent_above_0.1m": 66.666666666666657, "low_level_<0.5": 7.1428571428571423, "mid_level_0.5-2": 30.952380952380953, "tall_2+": 28.571428571428569 }, "geometry": { "type": "Point", "coordinates": [ 1.272176018758237, 52.062666572205742 ] } },
{ "type": "Feature", "properties": { "max_height": 3.8824977874755859, "mean_height": 1.9186303615570068, "std_height": 1.347388744354248, "count_pixels": 42, "percent_cover": 0.23744911804613297, "percent_above_0.1m": 85.714285714285708, "low_level_<0.5": 11.904761904761903, "mid_level_0.5-2": 23.809523809523807, "tall_2+": 50.0 }, "geometry": { "type": "Point", "coordinates": [ 1.270872307182758, 52.062810718804734 ] } },
{ "type": "Feature", "properties": { "max_height": 0.0, "mean_height": -2.7247838829680404e-07, "std_height": 6.6743297111315769e-07, "count_pixels": 42, "percent_cover": 0.23744911804613297, "percent_above_0.1m": 0.0, "low_level_<0.5": 0.0, "mid_level_0.5-2": 0.0, "tall_2+": 0.0 }, "geometry": { "type": "Point", "coordinates": [ 1.271074090218164, 52.062805114631416 ] } },
{ "type": "Feature", "properties": { "max_height": 0.0, "mean_height": -6.3578289655197295e-07, "std_height": 9.907960247801384e-07, "count_pixels": 42, "percent_cover": 0.23744911804613297, "percent_above_0.1m": 0.0, "low_level_<0.5": 0.0, "mid_level_0.5-2": 0.0, "tall_2+": 0.0 }, "geometry": { "type": "Point", "coordinates": [ 1.271275873185706, 52.06279951011296 ] } },
{ "type": "Feature", "properties": { "max_height": 0.94749832153320312, "mean_height": 0.021703936159610748, "std_height": 0.14118672907352448, "count_pixels": 44, "percent_cover": 0.24875621890547264, "percent_above_0.1m": 2.2727272727272729, "low_level_<0.5": 0.0, "mid_level_0.5-2": 2.2727272727272729, "tall_2+": 0.0 }, "geometry": { "type": "Point", "coordinates": [ 1.271477656085381, 52.062793905249357 ] } },
{ "type": "Feature", "properties": { "max_height": 3.0349998474121094, "mean_height": 1.0348117351531982, "std_height": 0.98954987525939941, "count_pixels": 40, "percent_cover": 0.22614201718679333, "percent_above_0.1m": 67.5, "low_level_<0.5": 10.0, "mid_level_0.5-2": 35.0, "tall_2+": 22.5 }, "geometry": { "type": "Point", "coordinates": [ 1.271679438917185, 52.062788300040573 ] } },
{ "type": "Feature", "properties": { "max_height": 3.0424976348876953, "mean_height": 0.14232887327671051, "std_height": 0.50345522165298462, "count_pixels": 44, "percent_cover": 0.24875621890547264, "percent_above_0.1m": 13.636363636363635, "low_level_<0.5": 6.8181818181818175, "mid_level_0.5-2": 4.5454545454545459, "tall_2+": 2.2727272727272729 }, "geometry": { "type": "Point", "coordinates": [ 1.271881221681113, 52.062782694486678 ] } },
{ "type": "Feature", "properties": { "max_height": 9.1149978637695312, "mean_height": 2.2201182842254639, "std_height": 2.8443672657012939, "count_pixels": 42, "percent_cover": 0.23744911804613297, "percent_above_0.1m": 57.142857142857139, "low_level_<0.5": 2.3809523809523809, "mid_level_0.5-2": 19.047619047619047, "tall_2+": 35.714285714285715 }, "geometry": { "type": "Point", "coordinates": [ 1.272083004377162, 52.062777088587616 ] } },
{ "type": "Feature", "properties": { "max_height": 5.029998779296875, "mean_height": 0.45690405368804932, "std_height": 0.82116860151290894, "count_pixels": 42, "percent_cover": 0.23744911804613297, "percent_above_0.1m": 57.142857142857139, "low_level_<0.5": 21.428571428571427, "mid_level_0.5-2": 28.571428571428569, "tall_2+": 2.3809523809523809 }, "geometry": { "type": "Point", "coordinates": [ 1.270779289116041, 52.062921234209384 ] } },
{ "type": "Feature", "properties": { "max_height": 1.2299995422363281, "mean_height": 0.039285071194171906, "std_height": 0.19666735827922821, "count_pixels": 42, "percent_cover": 0.23744911804613297, "percent_above_0.1m": 4.7619047619047619, "low_level_<0.5": 2.3809523809523809, "mid_level_0.5-2": 2.3809523809523809, "tall_2+": 0.0 }, "geometry": { "type": "Point", "coordinates": [ 1.270981072687662, 52.062915630187611 ] } },
{ "type": "Feature", "properties": { "max_height": 0.0, "mean_height": -6.3578289655197295e-07, "std_height": 1.074669171430287e-06, "count_pixels": 42, "percent_cover": 0.23744911804613297, "percent_above_0.1m": 0.0, "low_level_<0.5": 0.0, "mid_level_0.5-2": 0.0, "tall_2+": 0.0 }, "geometry": { "type": "Point", "coordinates": [ 1.271182856191423, 52.062910025820671 ] } },
{ "type": "Feature", "properties": { "max_height": 0.092498779296875, "mean_height": 0.0027495385147631168, "std_height": 0.014628630131483078, "count_pixels": 40, "percent_cover": 0.22614201718679333, "percent_above_0.1m": 0.0, "low_level_<0.5": 0.0, "mid_level_0.5-2": 0.0, "tall_2+": 0.0 }, "geometry": { "type": "Point", "coordinates": [ 1.271384639627316, 52.062904421108591 ] } },
{ "type": "Feature", "properties": { "max_height": 2.8125, "mean_height": 2.142061710357666, "std_height": 0.58475130796432495, "count_pixels": 40, "percent_cover": 0.22614201718679333, "percent_above_0.1m": 97.5, "low_level_<0.5": 0.0, "mid_level_0.5-2": 25.0, "tall_2+": 72.5 }, "geometry": { "type": "Point", "coordinates": [ 1.27158642299534, 52.062898816051366 ] } },
{ "type": "Feature", "properties": { "max_height": 13.242498397827148, "mean_height": 3.5660622119903564, "std_height": 3.4272572994232178, "count_pixels": 40, "percent_cover": 0.22614201718679333, "percent_above_0.1m": 100.0, "low_level_<0.5": 0.0, "mid_level_0.5-2": 20.0, "tall_2+": 77.5 }, "geometry": { "type": "Point", "coordinates": [ 1.271788206295489, 52.062893210648987 ] } },
{ "type": "Feature", "properties": { "max_height": 19.04749870300293, "mean_height": 8.4139366149902344, "std_height": 5.7402482032775879, "count_pixels": 40, "percent_cover": 0.22614201718679333, "percent_above_0.1m": 97.5, "low_level_<0.5": 5.0, "mid_level_0.5-2": 5.0, "tall_2+": 87.5 }, "geometry": { "type": "Point", "coordinates": [ 1.271989989527763, 52.062887604901448 ] } },
{ "type": "Feature", "properties": { "max_height": 7.2399978637695312, "mean_height": 1.8762494325637817, "std_height": 2.466935396194458, "count_pixels": 42, "percent_cover": 0.23744911804613297, "percent_above_0.1m": 66.666666666666657, "low_level_<0.5": 11.904761904761903, "mid_level_0.5-2": 21.428571428571427, "tall_2+": 30.952380952380953 }, "geometry": { "type": "Point", "coordinates": [ 1.269879133471115, 52.063054161575479 ] } },
{ "type": "Feature", "properties": { "max_height": 6.3950004577636719, "mean_height": 1.4064993858337402, "std_height": 1.7741427421569824, "count_pixels": 40, "percent_cover": 0.22614201718679333, "percent_above_0.1m": 77.5, "low_level_<0.5": 10.0, "mid_level_0.5-2": 40.0, "tall_2+": 22.5 }, "geometry": { "type": "Point", "coordinates": [ 1.270080917850351, 52.063048559085843 ] } },
{ "type": "Feature", "properties": { "max_height": 4.8149986267089844, "mean_height": 1.0019994974136353, "std_height": 1.0287114381790161, "count_pixels": 40, "percent_cover": 0.22614201718679333, "percent_above_0.1m": 75.0, "low_level_<0.5": 12.5, "mid_level_0.5-2": 42.5, "tall_2+": 17.5 }, "geometry": { "type": "Point", "coordinates": [ 1.270282702161744, 52.063042956251039 ] } },
{ "type": "Feature", "properties": { "max_height": 5.2725009918212891, "mean_height": 1.2503118515014648, "std_height": 1.3970891237258911, "count_pixels": 40, "percent_cover": 0.22614201718679333, "percent_above_0.1m": 85.0, "low_level_<0.5": 22.5, "mid_level_0.5-2": 32.5, "tall_2+": 25.0 }, "geometry": { "type": "Point", "coordinates": [ 1.270484486405288, 52.06303735307111 ] } },
{ "type": "Feature", "properties": { "max_height": 8.6025009155273438, "mean_height": 3.0408742427825928, "std_height": 2.9826672077178955, "count_pixels": 40, "percent_cover": 0.22614201718679333, "percent_above_0.1m": 90.0, "low_level_<0.5": 7.5, "mid_level_0.5-2": 37.5, "tall_2+": 42.5 }, "geometry": { "type": "Point", "coordinates": [ 1.270686270580982, 52.063031749546013 ] } },
{ "type": "Feature", "properties": { "max_height": 9.9225006103515625, "mean_height": 2.5203564167022705, "std_height": 3.5411555767059326, "count_pixels": 42, "percent_cover": 0.23744911804613297, "percent_above_0.1m": 40.476190476190474, "low_level_<0.5": 0.0, "mid_level_0.5-2": 2.3809523809523809, "tall_2+": 38.095238095238095 }, "geometry": { "type": "Point", "coordinates": [ 1.270888054688819, 52.063026145675757 ] } },
{ "type": "Feature", "properties": { "max_height": 0.0, "mean_height": -3.6330450825516891e-07, "std_height": 7.4897138802043628e-07, "count_pixels": 42, "percent_cover": 0.23744911804613297, "percent_above_0.1m": 0.0, "low_level_<0.5": 0.0, "mid_level_0.5-2": 0.0, "tall_2+": 0.0 }, "geometry": { "type": "Point", "coordinates": [ 1.271089838728804, 52.063020541460368 ] } },
{ "type": "Feature", "properties": { "max_height": 0.0, "mean_height": -6.8119595653115539e-07, "std_height": 1.0042347184935352e-06, "count_pixels": 42, "percent_cover": 0.23744911804613297, "percent_above_0.1m": 0.0, "low_level_<0.5": 0.0, "mid_level_0.5-2": 0.0, "tall_2+": 0.0 }, "geometry": { "type": "Point", "coordinates": [ 1.271291622700915, 52.063014936899819 ] } },
{ "type": "Feature", "properties": { "max_height": 1.875, "mean_height": 0.10659031569957733, "std_height": 0.35347476601600647, "count_pixels": 44, "percent_cover": 0.24875621890547264, "percent_above_0.1m": 13.636363636363635, "low_level_<0.5": 2.2727272727272729, "mid_level_0.5-2": 9.0909090909090917, "tall_2+": 0.0 }, "geometry": { "type": "Point", "coordinates": [ 1.271493406605163, 52.063009331994124 ] } },
{ "type": "Feature", "properties": { "max_height": 2.6349983215332031, "mean_height": 1.6580619812011719, "std_height": 0.70541948080062866, "count_pixels": 40, "percent_cover": 0.22614201718679333, "percent_above_0.1m": 100.0, "low_level_<0.5": 5.0, "mid_level_0.5-2": 50.0, "tall_2+": 45.0 }, "geometry": { "type": "Point", "coordinates": [ 1.27169519044154, 52.063003726743283 ] } },
{ "type": "Feature", "properties": { "max_height": 20.472499847412109, "mean_height": 10.215226173400879, "std_height": 8.1950159072875977, "count_pixels": 44, "percent_cover": 0.24875621890547264, "percent_above_0.1m": 88.63636363636364, "low_level_<0.5": 0.0, "mid_level_0.5-2": 27.27272727272727, "tall_2+": 61.363636363636367 }, "geometry": { "type": "Point", "coordinates": [ 1.271896974210037, 52.062998121147267 ] } },
{ "type": "Feature", "properties": { "max_height": 16.274999618530273, "mean_height": 2.5478565692901611, "std_height": 4.1552338600158691, "count_pixels": 42, "percent_cover": 0.23744911804613297, "percent_above_0.1m": 78.571428571428569, "low_level_<0.5": 7.1428571428571423, "mid_level_0.5-2": 45.238095238095241, "tall_2+": 26.190476190476193 }, "geometry": { "type": "Point", "coordinates": [ 1.272098757910655, 52.062992515206126 ] } },
{ "type": "Feature", "properties": { "max_height": 6.904998779296875, "mean_height": 2.8530347347259521, "std_height": 2.3464605808258057, "count_pixels": 42, "percent_cover": 0.23744911804613297, "percent_above_0.1m": 85.714285714285708, "low_level_<0.5": 2.3809523809523809, "mid_level_0.5-2": 26.190476190476193, "tall_2+": 54.761904761904766 }, "geometry": { "type": "Point", "coordinates": [ 1.26998789723829, 52.063159073899804 ] } },
{ "type": "Feature", "properties": { "max_height": 6.9074993133544922, "mean_height": 1.9612492322921753, "std_height": 1.7012377977371216, "count_pixels": 44, "percent_cover": 0.24875621890547264, "percent_above_0.1m": 95.454545454545453, "low_level_<0.5": 9.0909090909090917, "mid_level_0.5-2": 50.0, "tall_2+": 34.090909090909086 }, "geometry": { "type": "Point", "coordinates": [ 1.270189682085898, 52.063153471216559 ] } },
{ "type": "Feature", "properties": { "max_height": 5.6849994659423828, "mean_height": 2.8549995422363281, "std_height": 1.7323557138442993, "count_pixels": 40, "percent_cover": 0.22614201718679333, "percent_above_0.1m": 92.5, "low_level_<0.5": 2.5, "mid_level_0.5-2": 22.5, "tall_2+": 67.5 }, "geometry": { "type": "Point", "coordinates": [ 1.270391466865662, 52.06314786818816 ] } },
{ "type": "Feature", "properties": { "max_height": 8.4375, "mean_height": 3.9468178749084473, "std_height": 2.2909231185913086, "count_pixels": 44, "percent_cover": 0.24875621890547264, "percent_above_0.1m": 97.727272727272734, "low_level_<0.5": 6.8181818181818175, "mid_level_0.5-2": 15.909090909090908, "tall_2+": 75.0 }, "geometry": { "type": "Point", "coordinates": [ 1.270593251577575, 52.063142264814608 ] } },
{ "type": "Feature", "properties": { "max_height": 11.967500686645508, "mean_height": 5.8077969551086426, "std_height": 2.8808815479278564, "count_pixels": 42, "percent_cover": 0.23744911804613297, "percent_above_0.1m": 100.0, "low_level_<0.5": 4.7619047619047619, "mid_level_0.5-2": 7.1428571428571423, "tall_2+": 88.095238095238088 }, "geometry": { "type": "Point", "coordinates": [ 1.270795036221635, 52.063136661095903 ] } },
{ "type": "Feature", "properties": { "max_height": 11.827499389648438, "mean_height": 4.8020830154418945, "std_height": 4.2730998992919922, "count_pixels": 42, "percent_cover": 0.23744911804613297, "percent_above_0.1m": 66.666666666666657, "low_level_<0.5": 0.0, "mid_level_0.5-2": 2.3809523809523809, "tall_2+": 64.285714285714292 }, "geometry": { "type": "Point", "coordinates": [ 1.270996820797837, 52.063131057032038 ] } },
{ "type": "Feature", "properties": { "max_height": 0.0, "mean_height": -4.9954371661442565e-07, "std_height": 8.3860601307605975e-07, "count_pixels": 42, "percent_cover": 0.23744911804613297, "percent_above_0.1m": 0.0, "low_level_<0.5": 0.0, "mid_level_0.5-2": 0.0, "tall_2+": 0.0 }, "geometry": { "type": "Point", "coordinates": [ 1.271198605306179, 52.063125452623019 ] } },
{ "type": "Feature", "properties": { "max_height": 1.7300014495849609, "mean_height": 0.39956197142601013, "std_height": 0.6269000768661499, "count_pixels": 40, "percent_cover": 0.22614201718679333, "percent_above_0.1m": 40.0, "low_level_<0.5": 10.0, "mid_level_0.5-2": 27.5, "tall_2+": 0.0 }, "geometry": { "type": "Point", "coordinates": [ 1.271400389746648, 52.063119847868862 ] } },
{ "type": "Feature", "properties": { "max_height": 1.7650012969970703, "mean_height": 0.35862439870834351, "std_height": 0.57158231735229492, "count_pixels": 40, "percent_cover": 0.22614201718679333, "percent_above_0.1m": 35.0, "low_level_<0.5": 5.0, "mid_level_0.5-2": 30.0, "tall_2+": 0.0 }, "geometry": { "type": "Point", "coordinates": [ 1.271602174119253, 52.063114242769544 ] } },
{ "type": "Feature", "properties": { "max_height": 1.7099990844726562, "mean_height": 0.10162453353404999, "std_height": 0.36995211243629456, "count_pixels": 40, "percent_cover": 0.22614201718679333, "percent_above_0.1m": 7.5, "low_level_<0.5": 0.0, "mid_level_0.5-2": 7.5, "tall_2+": 0.0 }, "geometry": { "type": "Point", "coordinates": [ 1.271803958423982, 52.063108637325087 ] } },
{ "type": "Feature", "properties": { "max_height": 11.727499008178711, "mean_height": 4.0888738632202148, "std_height": 3.5739815235137939, "count_pixels": 40, "percent_cover": 0.22614201718679333, "percent_above_0.1m": 87.5, "low_level_<0.5": 7.5, "mid_level_0.5-2": 15.0, "tall_2+": 65.0 }, "geometry": { "type": "Point", "coordinates": [ 1.270298446857684, 52.063258383237184 ] } },
{ "type": "Feature", "properties": { "max_height": 9.9424972534179688, "mean_height": 6.2194995880126953, "std_height": 2.0817580223083496, "count_pixels": 40, "percent_cover": 0.22614201718679333, "percent_above_0.1m": 100.0, "low_level_<0.5": 0.0, "mid_level_0.5-2": 2.5, "tall_2+": 97.5 }, "geometry": { "type": "Point", "coordinates": [ 1.270500232105817, 52.063252780015183 ] } },
{ "type": "Feature", "properties": { "max_height": 11.277498245239258, "mean_height": 6.0682497024536133, "std_height": 2.9107179641723633, "count_pixels": 40, "percent_cover": 0.22614201718679333, "percent_above_0.1m": 97.5, "low_level_<0.5": 0.0, "mid_level_0.5-2": 7.5, "tall_2+": 90.0 }, "geometry": { "type": "Point", "coordinates": [ 1.270702017286103, 52.063247176448016 ] } },
{ "type": "Feature", "properties": { "max_height": 13.424999237060547, "mean_height": 6.9902372360229492, "std_height": 2.7888312339782715, "count_pixels": 42, "percent_cover": 0.23744911804613297, "percent_above_0.1m": 100.0, "low_level_<0.5": 0.0, "mid_level_0.5-2": 4.7619047619047619, "tall_2+": 95.238095238095227 }, "geometry": { "type": "Point", "coordinates": [ 1.270903802398528, 52.063241572535681 ] } },
{ "type": "Feature", "properties": { "max_height": 11.717498779296875, "mean_height": 3.625236988067627, "std_height": 4.2241315841674805, "count_pixels": 42, "percent_cover": 0.23744911804613297, "percent_above_0.1m": 52.380952380952387, "low_level_<0.5": 2.3809523809523809, "mid_level_0.5-2": 2.3809523809523809, "tall_2+": 47.619047619047613 }, "geometry": { "type": "Point", "coordinates": [ 1.271105587443096, 52.063235968278214 ] } },
{ "type": "Feature", "properties": { "max_height": 1.8575000762939453, "mean_height": 0.33113038539886475, "std_height": 0.60235649347305298, "count_pixels": 42, "percent_cover": 0.23744911804613297, "percent_above_0.1m": 28.571428571428569, "low_level_<0.5": 4.7619047619047619, "mid_level_0.5-2": 23.809523809523807, "tall_2+": 0.0 }, "geometry": { "type": "Point", "coordinates": [ 1.271307372419798, 52.063230363675586 ] } },
{ "type": "Feature", "properties": { "max_height": 11.384998321533203, "mean_height": 4.5532946586608887, "std_height": 3.1258859634399414, "count_pixels": 44, "percent_cover": 0.24875621890547264, "percent_above_0.1m": 97.727272727272734, "low_level_<0.5": 4.5454545454545459, "mid_level_0.5-2": 22.727272727272727, "tall_2+": 70.454545454545453 }, "geometry": { "type": "Point", "coordinates": [ 1.270205426381342, 52.063368898218187 ] } },
{ "type": "Feature", "properties": { "max_height": 11.837499618530273, "mean_height": 6.358311653137207, "std_height": 2.9095325469970703, "count_pixels": 40, "percent_cover": 0.22614201718679333, "percent_above_0.1m": 97.5, "low_level_<0.5": 0.0, "mid_level_0.5-2": 7.5, "tall_2+": 90.0 }, "geometry": { "type": "Point", "coordinates": [ 1.270407212165707, 52.063363295147731 ] } },
{ "type": "Feature", "properties": { "max_height": 13.085000991821289, "mean_height": 6.832158088684082, "std_height": 2.8897960186004639, "count_pixels": 44, "percent_cover": 0.24875621890547264, "percent_above_0.1m": 100.0, "low_level_<0.5": 2.2727272727272729, "mid_level_0.5-2": 4.5454545454545459, "tall_2+": 93.181818181818173 }, "geometry": { "type": "Point", "coordinates": [ 1.270608997882215, 52.063357691732101 ] } },
{ "type": "Feature", "properties": { "max_height": 10.297496795654297, "mean_height": 5.6436300277709961, "std_height": 3.1722722053527832, "count_pixels": 42, "percent_cover": 0.23744911804613297, "percent_above_0.1m": 97.61904761904762, "low_level_<0.5": 4.7619047619047619, "mid_level_0.5-2": 11.904761904761903, "tall_2+": 80.952380952380949 }, "geometry": { "type": "Point", "coordinates": [ 1.270810783530872, 52.06335208797131 ] } },
{ "type": "Feature", "properties": { "max_height": 14.537498474121094, "mean_height": 7.0820231437683105, "std_height": 3.6091454029083252, "count_pixels": 42, "percent_cover": 0.23744911804613297, "percent_above_0.1m": 100.0, "low_level_<0.5": 4.7619047619047619, "mid_level_0.5-2": 2.3809523809523809, "tall_2+": 92.857142857142861 }, "geometry": { "type": "Point", "coordinates": [ 1.271012569111668, 52.063346483865374 ] } },
{ "type": "Feature", "properties": { "max_height": 8.9300003051757812, "mean_height": 3.0930349826812744, "std_height": 2.7606093883514404, "count_pixels": 42, "percent_cover": 0.23744911804613297, "percent_above_0.1m": 73.80952380952381, "low_level_<0.5": 2.3809523809523809, "mid_level_0.5-2": 16.666666666666664, "tall_2+": 54.761904761904766 }, "geometry": { "type": "Point", "coordinates": [ 1.271214354624597, 52.063340879414284 ] } },
{ "type": "Feature", "properties": { "max_height": 7.0499973297119141, "mean_height": 1.5826241970062256, "std_height": 1.8899692296981812, "count_pixels": 40, "percent_cover": 0.22614201718679333, "percent_above_0.1m": 67.5, "low_level_<0.5": 10.0, "mid_level_0.5-2": 27.5, "tall_2+": 30.0 }, "geometry": { "type": "Point", "coordinates": [ 1.271416140069664, 52.063335274618048 ] } },
{ "type": "Feature", "properties": { "max_height": 7.3874988555908203, "mean_height": 2.8753745555877686, "std_height": 2.4005923271179199, "count_pixels": 40, "percent_cover": 0.22614201718679333, "percent_above_0.1m": 90.0, "low_level_<0.5": 10.0, "mid_level_0.5-2": 27.5, "tall_2+": 52.5 }, "geometry": { "type": "Point", "coordinates": [ 1.270112405436648, 52.063479413131162 ] } },
{ "type": "Feature", "properties": { "max_height": 13.204996109008789, "mean_height": 8.9721860885620117, "std_height": 2.8710761070251465, "count_pixels": 40, "percent_cover": 0.22614201718679333, "percent_above_0.1m": 97.5, "low_level_<0.5": 0.0, "mid_level_0.5-2": 0.0, "tall_2+": 97.5 }, "geometry": { "type": "Point", "coordinates": [ 1.270314191757233, 52.063473810212237 ] } },
{ "type": "Feature", "properties": { "max_height": 14.244998931884766, "mean_height": 7.9631867408752441, "std_height": 4.2840743064880371, "count_pixels": 40, "percent_cover": 0.22614201718679333, "percent_above_0.1m": 97.5, "low_level_<0.5": 2.5, "mid_level_0.5-2": 12.5, "tall_2+": 82.5 }, "geometry": { "type": "Point", "coordinates": [ 1.270515978009972, 52.063468206948151 ] } },
{ "type": "Feature", "properties": { "max_height": 10.837499618530273, "mean_height": 5.8084993362426758, "std_height": 2.523090124130249, "count_pixels": 40, "percent_cover": 0.22614201718679333, "percent_above_0.1m": 100.0, "low_level_<0.5": 2.5, "mid_level_0.5-2": 7.5, "tall_2+": 90.0 }, "geometry": { "type": "Point", "coordinates": [ 1.270717764194859, 52.063462603338913 ] } },
{ "type": "Feature", "properties": { "max_height": 11.509998321533203, "mean_height": 6.4635109901428223, "std_height": 2.464815616607666, "count_pixels": 42, "percent_cover": 0.23744911804613297, "percent_above_0.1m": 100.0, "low_level_<0.5": 4.7619047619047619, "mid_level_0.5-2": 0.0, "tall_2+": 95.238095238095227 }, "geometry": { "type": "Point", "coordinates": [ 1.270919550311887, 52.063456999384513 ] } },
{ "type": "Feature", "properties": { "max_height": 11.072500228881836, "mean_height": 5.8109517097473145, "std_height": 2.7961521148681641, "count_pixels": 42, "percent_cover": 0.23744911804613297, "percent_above_0.1m": 92.857142857142861, "low_level_<0.5": 0.0, "mid_level_0.5-2": 7.1428571428571423, "tall_2+": 85.714285714285708 }, "geometry": { "type": "Point", "coordinates": [ 1.271121336361052, 52.063451395084961 ] } },
{ "type": "Feature", "properties": { "max_height": 8.1324996948242188, "mean_height": 2.7326779365539551, "std_height": 2.3951671123504639, "count_pixels": 42, "percent_cover": 0.23744911804613297, "percent_above_0.1m": 73.80952380952381, "low_level_<0.5": 4.7619047619047619, "mid_level_0.5-2": 14.285714285714285, "tall_2+": 54.761904761904766 }, "geometry": { "type": "Point", "coordinates": [ 1.271323122342354, 52.063445790440248 ] } },
{ "type": "Feature", "properties": { "max_height": 5.9024982452392578, "mean_height": 1.2439197301864624, "std_height": 1.6811450719833374, "count_pixels": 44, "percent_cover": 0.24875621890547264, "percent_above_0.1m": 52.272727272727273, "low_level_<0.5": 4.5454545454545459, "mid_level_0.5-2": 22.727272727272727, "tall_2+": 25.0 }, "geometry": { "type": "Point", "coordinates": [ 1.271524908255783, 52.063440185450368 ] } },
{ "type": "Feature", "properties": { "max_height": 13.690000534057617, "mean_height": 4.8517041206359863, "std_height": 3.6667337417602539, "count_pixels": 44, "percent_cover": 0.24875621890547264, "percent_above_0.1m": 93.181818181818173, "low_level_<0.5": 0.0, "mid_level_0.5-2": 18.181818181818183, "tall_2+": 70.454545454545453 }, "geometry": { "type": "Point", "coordinates": [ 1.270221170880399, 52.063584325208716 ] } },
{ "type": "Feature", "properties": { "max_height": 12.667497634887695, "mean_height": 4.8607492446899414, "std_height": 4.2543110847473145, "count_pixels": 40, "percent_cover": 0.22614201718679333, "percent_above_0.1m": 90.0, "low_level_<0.5": 7.5, "mid_level_0.5-2": 17.5, "tall_2+": 62.5 }, "geometry": { "type": "Point", "coordinates": [ 1.270422957669373, 52.063578722096182 ] } },
{ "type": "Feature", "properties": { "max_height": 10.909999847412109, "mean_height": 4.6715898513793945, "std_height": 3.2442500591278076, "count_pixels": 44, "percent_cover": 0.24875621890547264, "percent_above_0.1m": 100.0, "low_level_<0.5": 4.5454545454545459, "mid_level_0.5-2": 25.0, "tall_2+": 70.454545454545453 }, "geometry": { "type": "Point", "coordinates": [ 1.270624744390488, 52.063573118638487 ] } },
{ "type": "Feature", "properties": { "max_height": 8.6824989318847656, "mean_height": 3.9567253589630127, "std_height": 2.5097060203552246, "count_pixels": 42, "percent_cover": 0.23744911804613297, "percent_above_0.1m": 88.095238095238088, "low_level_<0.5": 4.7619047619047619, "mid_level_0.5-2": 4.7619047619047619, "tall_2+": 78.571428571428569 }, "geometry": { "type": "Point", "coordinates": [ 1.270826531043752, 52.063567514835633 ] } },
{ "type": "Feature", "properties": { "max_height": 5.2024993896484375, "mean_height": 0.42559447884559631, "std_height": 1.1238844394683838, "count_pixels": 42, "percent_cover": 0.23744911804613297, "percent_above_0.1m": 21.428571428571427, "low_level_<0.5": 2.3809523809523809, "mid_level_0.5-2": 9.5238095238095237, "tall_2+": 7.1428571428571423 }, "geometry": { "type": "Point", "coordinates": [ 1.271028317629155, 52.063561910687611 ] } },
{ "type": "Feature", "properties": { "max_height": 9.4549999237060547, "mean_height": 3.4349398612976074, "std_height": 3.0536835193634033, "count_pixels": 42, "percent_cover": 0.23744911804613297, "percent_above_0.1m": 73.80952380952381, "low_level_<0.5": 2.3809523809523809, "mid_level_0.5-2": 14.285714285714285, "tall_2+": 57.142857142857139 }, "geometry": { "type": "Point", "coordinates": [ 1.271230104146691, 52.063556306194428 ] } },
{ "type": "Feature", "properties": { "max_height": 9.4099998474121094, "mean_height": 1.6862491369247437, "std_height": 2.8292703628540039, "count_pixels": 40, "percent_cover": 0.22614201718679333, "percent_above_0.1m": 52.5, "low_level_<0.5": 7.5, "mid_level_0.5-2": 20.0, "tall_2+": 25.0 }, "geometry": { "type": "Point", "coordinates": [ 1.270128149535198, 52.063694840137174 ] } },
{ "type": "Feature", "properties": { "max_height": 12.077499389648438, "mean_height": 4.667874813079834, "std_height": 3.5225372314453125, "count_pixels": 40, "percent_cover": 0.22614201718679333, "percent_above_0.1m": 97.5, "low_level_<0.5": 7.5, "mid_level_0.5-2": 20.0, "tall_2+": 70.0 }, "geometry": { "type": "Point", "coordinates": [ 1.2703299368604, 52.063689237176177 ] } },
{ "type": "Feature", "properties": { "max_height": 10.205001831054688, "mean_height": 5.9003744125366211, "std_height": 2.5226056575775146, "count_pixels": 40, "percent_cover": 0.22614201718679333, "percent_above_0.1m": 97.5, "low_level_<0.5": 0.0, "mid_level_0.5-2": 7.5, "tall_2+": 90.0 }, "geometry": { "type": "Point", "coordinates": [ 1.270531724117759, 52.063683633870035 ] } },
{ "type": "Feature", "properties": { "max_height": 11.167499542236328, "mean_height": 7.4933738708496094, "std_height": 2.2770147323608398, "count_pixels": 40, "percent_cover": 0.22614201718679333, "percent_above_0.1m": 100.0, "low_level_<0.5": 0.0, "mid_level_0.5-2": 0.0, "tall_2+": 100.0 }, "geometry": { "type": "Point", "coordinates": [ 1.270733511307256, 52.063678030218718 ] } },
{ "type": "Feature", "properties": { "max_height": 5.7474994659423828, "mean_height": 1.0796425342559814, "std_height": 1.5319521427154541, "count_pixels": 42, "percent_cover": 0.23744911804613297, "percent_above_0.1m": 54.761904761904766, "low_level_<0.5": 11.904761904761903, "mid_level_0.5-2": 16.666666666666664, "tall_2+": 23.809523809523807 }, "geometry": { "type": "Point", "coordinates": [ 1.2709352984289, 52.06367242622224 ] } },
{ "type": "Feature", "properties": { "max_height": 6.1100006103515625, "mean_height": 0.23547549545764923, "std_height": 0.98285311460494995, "count_pixels": 42, "percent_cover": 0.23744911804613297, "percent_above_0.1m": 11.904761904761903, "low_level_<0.5": 4.7619047619047619, "mid_level_0.5-2": 4.7619047619047619, "tall_2+": 2.3809523809523809 }, "geometry": { "type": "Point", "coordinates": [ 1.271137085482678, 52.063666821880602 ] } },
{ "type": "Feature", "properties": { "max_height": 0.76749992370605469, "mean_height": 0.046363092958927155, "std_height": 0.14052103459835052, "count_pixels": 44, "percent_cover": 0.24875621890547264, "percent_above_0.1m": 11.363636363636363, "low_level_<0.5": 9.0909090909090917, "mid_level_0.5-2": 2.2727272727272729, "tall_2+": 0.0 }, "geometry": { "type": "Point", "coordinates": [ 1.270236915583066, 52.063799752188146 ] } },
{ "type": "Feature", "properties": { "max_height": 1.6899986267089844, "mean_height": 0.33899945020675659, "std_height": 0.52137541770935059, "count_pixels": 40, "percent_cover": 0.22614201718679333, "percent_above_0.1m": 37.5, "low_level_<0.5": 7.5, "mid_level_0.5-2": 27.5, "tall_2+": 0.0 }, "geometry": { "type": "Point", "coordinates": [ 1.27043870337666, 52.063794149033555 ] } },
{ "type": "Feature", "properties": { "max_height": 10.067497253417969, "mean_height": 1.7446014881134033, "std_height": 2.6220579147338867, "count_pixels": 44, "percent_cover": 0.24875621890547264, "percent_above_0.1m": 59.090909090909093, "low_level_<0.5": 0.0, "mid_level_0.5-2": 38.636363636363633, "tall_2+": 20.454545454545457 }, "geometry": { "type": "Point", "coordinates": [ 1.270640491102399, 52.063788545533761 ] } },
{ "type": "Feature", "properties": { "max_height": 10.552499771118164, "mean_height": 2.430356502532959, "std_height": 2.7595574855804443, "count_pixels": 42, "percent_cover": 0.23744911804613297, "percent_above_0.1m": 83.333333333333343, "low_level_<0.5": 9.5238095238095237, "mid_level_0.5-2": 30.952380952380953, "tall_2+": 42.857142857142854 }, "geometry": { "type": "Point", "coordinates": [ 1.270842278760282, 52.063782941688835 ] } }
]
}
