{
"type": "FeatureCollection",
"name": "HUNTI_200_toilets",
"crs": { "type": "name", "properties": { "name": "urn:ogc:def:crs:OGC:1.3:CRS84" } },
"features": [
{ "type": "Feature", "properties": { "name": "Godmanchester School Hill", "payment_info": "Free", "accessible": "True", "radar": "False", "women": "True", "men": "True", "baby_change": "Unknown", "Mon": "Unknown", "Tue": "Unknown", "Wed": "Unknown", "Thu": "Unknown", "Fri": "Unknown", "Sat": "Unknown", "Sun": "Unknown", "index_right": 57, "park_offical_id": "HUNTI_200" }, "geometry": { "type": "Point", "coordinates": [ -0.175663254, 52.319459271 ] } }
]
}
