{
"type": "FeatureCollection",
"name": "CHELM_185_walking",
"crs": { "type": "name", "properties": { "name": "urn:ogc:def:crs:OGC:1.3:CRS84" } },
"features": [
{"type":"Feature","properties":{"highway":"footway","name":null,"category":"Footpath (pedestrian only)"},"geometry":{"type":"MultiLineString","coordinates":[[[0.5303624,51.7585141],[0.5304133,51.7584642],[0.5305965,51.758421],[0.5311646,51.7584569],[0.5319958,51.7585108],[0.5323847,51.7585392],[0.5326686,51.7585487],[0.5331581,51.7585765],[0.5333612,51.7586018],[0.5337241,51.7586368],[0.5339774,51.7586357],[0.5340659,51.7586288],[0.5341379,51.7586232],[0.5346788,51.7585142],[0.5354494,51.7583367],[0.5363277,51.7581464],[0.5371118,51.7579713],[0.5382417,51.7577353],[0.5383368,51.7577016],[0.5384116,51.7576806],[0.5388805,51.7575487],[0.5392018,51.7574833],[0.5392667,51.7574909]]]}},
{"type":"Feature","properties":{"highway":"track","name":null,"category":"Track"},"geometry":{"type":"MultiLineString","coordinates":[[[0.5509971,51.750413],[0.5509094,51.7504086],[0.5508396,51.7504089],[0.5507449,51.75042],[0.5506467,51.7504478],[0.5505303,51.7505064],[0.5501494,51.7506425],[0.5492214,51.7509016],[0.5486259,51.7510676],[0.5483899,51.751134],[0.5477676,51.7513233],[0.547478,51.7513831],[0.5470204,51.751454],[0.5466411,51.7514994],[0.5461943,51.7515171],[0.5458327,51.7515188],[0.5457651,51.7515204],[0.5454019,51.7514861],[0.5449245,51.7513964],[0.5444793,51.7512835],[0.5443237,51.7512337],[0.5439629,51.7510522],[0.5434694,51.7507599],[0.5431207,51.7505308],[0.5429169,51.7503614],[0.5426822,51.7501012],[0.5425306,51.7499762],[0.542359,51.7498732],[0.5419794,51.7496761],[0.5417528,51.7495843],[0.5415758,51.7495212],[0.5410447,51.7494215],[0.540696,51.7493252],[0.5403647,51.7491945],[0.5400254,51.7490164],[0.5397197,51.7488171],[0.5394367,51.7486897],[0.5392043,51.7486311],[0.5390342,51.7486098],[0.5387674,51.7486536],[0.5382379,51.7488182],[0.5380956,51.7488624],[0.5379239,51.7489156],[0.5377992,51.7489134],[0.5376343,51.7488757],[0.5374572,51.7488259],[0.5371448,51.7487872],[0.5367116,51.748786],[0.5360893,51.7488425],[0.5355354,51.7488868],[0.534952,51.7488923],[0.5348339,51.7488979],[0.5345055,51.7489134],[0.5340401,51.7489787],[0.5336418,51.7490662],[0.5334929,51.7490883],[0.5333253,51.7490994],[0.5331804,51.7490894],[0.5322309,51.7489798],[0.5319212,51.7489089],[0.5317227,51.7488525],[0.5315778,51.7488093],[0.5314305,51.7487437],[0.5311849,51.7486344],[0.530918,51.7484905],[0.5308329,51.7484659],[0.5307571,51.748444],[0.5305733,51.7484451],[0.530407,51.7484717],[0.5302957,51.748537],[0.5300101,51.748764],[0.5298438,51.7488204],[0.5296024,51.7488702],[0.5294146,51.7488802],[0.5292336,51.7488359],[0.528964,51.7487108],[0.5284168,51.7484817],[0.5281057,51.7483721],[0.5275545,51.7481583],[0.5267659,51.7478295],[0.5266426,51.7477832],[0.5265608,51.7477417],[0.5261692,51.74803],[0.5257132,51.7483986],[0.5256072,51.7485336],[0.5255375,51.7487196],[0.5254235,51.7488138],[0.5252103,51.7489056],[0.524812,51.7490761],[0.5243506,51.7492488],[0.5240824,51.7493285],[0.5239054,51.7493651],[0.5234977,51.7494282],[0.5231651,51.7494647],[0.5227963,51.7494868],[0.5223403,51.74952],[0.5220292,51.7495731],[0.5216751,51.7496495],[0.5214216,51.7497138],[0.5212178,51.7498931],[0.5211172,51.7499625],[0.5207779,51.7501156],[0.5206331,51.750192],[0.5206008,51.7503358],[0.5206291,51.7505628],[0.5206661,51.7506567],[0.5206825,51.7507651],[0.520685,51.7507871],[0.5206891,51.7508218],[0.5207041,51.7509515],[0.5207164,51.7510574],[0.5207298,51.7511729],[0.5207432,51.7512885],[0.5207561,51.7513971],[0.5207685,51.7515044],[0.5207782,51.7515876],[0.5207801,51.7516074],[0.5207897,51.7517108],[0.5208002,51.7518239],[0.5208104,51.7519344],[0.5208198,51.752035],[0.5208304,51.7521494],[0.5208398,51.7522502],[0.5208506,51.7523668],[0.5208646,51.7524723],[0.5208716,51.7525821],[0.5208786,51.7526905],[0.5208926,51.7528082],[0.5209065,51.7529188],[0.520925,51.7530256],[0.5209604,51.7531649],[0.5210282,51.7533957],[0.5211376,51.7537628],[0.5211622,51.7538124],[0.5212269,51.7539698],[0.5213039,51.754129],[0.5213856,51.7543093],[0.521458,51.7544513],[0.5215427,51.7546144],[0.5216644,51.7548481],[0.5218015,51.7550903],[0.5224762,51.7554021],[0.522731,51.7555017],[0.5229456,51.7555482],[0.523082,51.7555952],[0.5231706,51.7556007],[0.5233389,51.7555863],[0.5235752,51.7555634],[0.5236705,51.7555322],[0.5237288,51.7554887],[0.523767,51.7554447],[0.5237804,51.7553662],[0.5237704,51.7552786],[0.52377,51.7552221],[0.5237966,51.7551059],[0.5238886,51.7548748],[0.5240054,51.7547346],[0.5242425,51.7545177],[0.52436,51.7544305],[0.5248654,51.7540554],[0.524892,51.7539985],[0.5248849,51.7539327],[0.5248389,51.7538604],[0.5241452,51.7534913]]]}},
{"type":"Feature","properties":{"highway":"track","name":null,"category":"Track"},"geometry":{"type":"MultiLineString","coordinates":[[[0.5206291,51.7505628],[0.5208222,51.7504931],[0.5209777,51.7503569],[0.5210636,51.7502573],[0.5211212,51.7501489],[0.5211263,51.7500944],[0.521132,51.7500326],[0.5211172,51.7499625]]]}},
{"type":"Feature","properties":{"highway":"track","name":null,"category":"Track"},"geometry":{"type":"MultiLineString","coordinates":[[[0.5366478,51.7516017],[0.5365594,51.7516432],[0.5364766,51.7516681],[0.5363555,51.7516698],[0.5342312,51.7511052],[0.5340596,51.7511052],[0.5339201,51.7511185],[0.5338343,51.7512049],[0.5331905,51.7527524],[0.5329867,51.7528188],[0.5326541,51.7528388],[0.5323859,51.752872],[0.532064,51.7528388],[0.5313881,51.752407],[0.5301114,51.7518624],[0.5298324,51.7517362],[0.5296822,51.7515768],[0.5294676,51.7513443],[0.5292638,51.7512447],[0.5290385,51.7512181],[0.5288024,51.7512115],[0.5286522,51.7512314],[0.5284698,51.7513443],[0.5279594,51.7518342],[0.5277081,51.7519753],[0.5275507,51.7521092],[0.5274533,51.7522396],[0.527333,51.7524904],[0.5272233,51.7526405],[0.5271083,51.7527862],[0.5269155,51.7529843],[0.5267085,51.7532896]]]}},
{"type":"Feature","properties":{"highway":"footway","name":null,"category":"Footpath (pedestrian only)"},"geometry":{"type":"MultiLineString","coordinates":[[[0.5232487,51.7563425],[0.5234177,51.7564168],[0.5238192,51.7565401],[0.5239086,51.7565672],[0.5240154,51.7565873],[0.5241258,51.7565995]]]}},
{"type":"Feature","properties":{"highway":"track","name":null,"category":"Track"},"geometry":{"type":"MultiLineString","coordinates":[[[0.52436,51.7544305],[0.5242323,51.7542794],[0.5240829,51.7541464],[0.52347,51.7536172],[0.5233901,51.7535482],[0.523307,51.7534764],[0.5232351,51.7534144],[0.5231728,51.7533606],[0.5230782,51.7532788],[0.5230019,51.753213],[0.5229326,51.7531532],[0.5228468,51.7530791],[0.5227918,51.7530316],[0.5226809,51.7529358],[0.5226165,51.7528802]]]}},
{"type":"Feature","properties":{"highway":"track","name":null,"category":"Track"},"geometry":{"type":"MultiLineString","coordinates":[[[0.5215427,51.7546144],[0.52347,51.7536172]]]}},
{"type":"Feature","properties":{"highway":"track","name":null,"category":"Track"},"geometry":{"type":"MultiLineString","coordinates":[[[0.521458,51.7544513],[0.523307,51.7534764]]]}},
{"type":"Feature","properties":{"highway":"track","name":null,"category":"Track"},"geometry":{"type":"MultiLineString","coordinates":[[[0.5213856,51.7543093],[0.5231728,51.7533606]]]}},
{"type":"Feature","properties":{"highway":"track","name":null,"category":"Track"},"geometry":{"type":"MultiLineString","coordinates":[[[0.5213039,51.754129],[0.5230019,51.753213]]]}},
{"type":"Feature","properties":{"highway":"track","name":null,"category":"Track"},"geometry":{"type":"MultiLineString","coordinates":[[[0.5212269,51.7539698],[0.5228468,51.7530791]]]}},
{"type":"Feature","properties":{"highway":"track","name":null,"category":"Track"},"geometry":{"type":"MultiLineString","coordinates":[[[0.5209604,51.7531649],[0.5220457,51.7530287],[0.5222465,51.7529507],[0.5223866,51.752903],[0.5224776,51.7528856],[0.5225453,51.7528784],[0.5226165,51.7528802]]]}},
{"type":"Feature","properties":{"highway":"track","name":null,"category":"Track"},"geometry":{"type":"MultiLineString","coordinates":[[[0.520925,51.7530256],[0.5223492,51.7528827],[0.5224449,51.7528741],[0.5226165,51.7528802]]]}},
{"type":"Feature","properties":{"highway":"track","name":null,"category":"Track"},"geometry":{"type":"MultiLineString","coordinates":[[[0.5223492,51.7528827],[0.5223459,51.752772],[0.5223424,51.7526576],[0.5223392,51.7525502],[0.5223363,51.7524548],[0.5223329,51.7523425],[0.5223297,51.7522357],[0.5223268,51.7521382],[0.5223236,51.7520326],[0.5223201,51.7519155],[0.5223165,51.751796],[0.5223134,51.7516928],[0.52231,51.7515808],[0.5223067,51.7514701],[0.5223035,51.7513669],[0.5223007,51.7512726],[0.5222971,51.751154],[0.5222937,51.7510398],[0.5222906,51.7509386],[0.5222873,51.7508258],[0.5222835,51.7507015],[0.5222794,51.7505879],[0.5222772,51.7504915]]]}},
{"type":"Feature","properties":{"highway":"track","name":null,"category":"Track"},"geometry":{"type":"MultiLineString","coordinates":[[[0.5226165,51.7528802],[0.5225831,51.752855],[0.5225597,51.7528217],[0.5225504,51.7527842],[0.5222772,51.7504915]]]}},
{"type":"Feature","properties":{"highway":"track","name":null,"category":"Track"},"geometry":{"type":"MultiLineString","coordinates":[[[0.5229326,51.7531532],[0.5240859,51.7526897]]]}},
{"type":"Feature","properties":{"highway":"track","name":null,"category":"Track"},"geometry":{"type":"MultiLineString","coordinates":[[[0.5230782,51.7532788],[0.5242432,51.7527882]]]}},
{"type":"Feature","properties":{"highway":"track","name":null,"category":"Track"},"geometry":{"type":"MultiLineString","coordinates":[[[0.5226165,51.7528802],[0.5226371,51.7528465],[0.5226633,51.7528246],[0.5227033,51.7528026],[0.522748,51.7527874],[0.5227797,51.7527772],[0.5228343,51.7527597],[0.522902,51.7527368],[0.5229939,51.7527043],[0.5230931,51.7526691],[0.52313,51.752652],[0.5231362,51.7526319],[0.5231331,51.7525585],[0.5231316,51.7524498],[0.5228601,51.7506404],[0.5227983,51.7502281],[0.522779,51.7502081],[0.5227459,51.7501928],[0.5226874,51.7501804],[0.5224157,51.7501654],[0.5221002,51.7501481],[0.5211263,51.7500944]]]}},
{"type":"Feature","properties":{"highway":"track","name":null,"category":"Track"},"geometry":{"type":"MultiLineString","coordinates":[[[0.5222772,51.7504915],[0.5222502,51.7503423],[0.5222299,51.7502378],[0.5222055,51.7501976],[0.5221791,51.7501787],[0.5221465,51.7501648],[0.5221002,51.7501481]]]}},
{"type":"Feature","properties":{"highway":"track","name":null,"category":"Track"},"geometry":{"type":"MultiLineString","coordinates":[[[0.5227797,51.7527772],[0.5224962,51.750219],[0.5224865,51.7501928],[0.522459,51.7501795],[0.5224157,51.7501654]]]}},
{"type":"Feature","properties":{"highway":"track","name":null,"category":"Track"},"geometry":{"type":"MultiLineString","coordinates":[[[0.5211376,51.7537628],[0.5226809,51.7529358]]]}},
{"type":"Feature","properties":{"highway":"track","name":null,"category":"Track"},"geometry":{"type":"MultiLineString","coordinates":[[[0.5206825,51.7507651],[0.5206893,51.7507198],[0.5207564,51.7506783],[0.520869,51.7506385],[0.5211185,51.7505787],[0.5212848,51.7505521],[0.521494,51.7505455],[0.5217756,51.7505339],[0.5220572,51.7505139],[0.5222772,51.7504915]]]}},
{"type":"Feature","properties":{"highway":"track","name":null,"category":"Track"},"geometry":{"type":"MultiLineString","coordinates":[[[0.5209065,51.7529188],[0.5223459,51.752772]]]}},
{"type":"Feature","properties":{"highway":"track","name":null,"category":"Track"},"geometry":{"type":"MultiLineString","coordinates":[[[0.5208926,51.7528082],[0.5223424,51.7526576]]]}},
{"type":"Feature","properties":{"highway":"track","name":null,"category":"Track"},"geometry":{"type":"MultiLineString","coordinates":[[[0.5208786,51.7526905],[0.5223392,51.7525502]]]}},
{"type":"Feature","properties":{"highway":"track","name":null,"category":"Track"},"geometry":{"type":"MultiLineString","coordinates":[[[0.5208716,51.7525821],[0.5223363,51.7524548]]]}},
{"type":"Feature","properties":{"highway":"track","name":null,"category":"Track"},"geometry":{"type":"MultiLineString","coordinates":[[[0.5208646,51.7524723],[0.5223329,51.7523425]]]}},
{"type":"Feature","properties":{"highway":"track","name":null,"category":"Track"},"geometry":{"type":"MultiLineString","coordinates":[[[0.5208506,51.7523668],[0.5223297,51.7522357]]]}},
{"type":"Feature","properties":{"highway":"track","name":null,"category":"Track"},"geometry":{"type":"MultiLineString","coordinates":[[[0.5208398,51.7522502],[0.5223268,51.7521382]]]}},
{"type":"Feature","properties":{"highway":"track","name":null,"category":"Track"},"geometry":{"type":"MultiLineString","coordinates":[[[0.5208304,51.7521494],[0.5223236,51.7520326]]]}},
{"type":"Feature","properties":{"highway":"track","name":null,"category":"Track"},"geometry":{"type":"MultiLineString","coordinates":[[[0.5208198,51.752035],[0.5223201,51.7519155]]]}},
{"type":"Feature","properties":{"highway":"track","name":null,"category":"Track"},"geometry":{"type":"MultiLineString","coordinates":[[[0.5208104,51.7519344],[0.5223165,51.751796]]]}},
{"type":"Feature","properties":{"highway":"track","name":null,"category":"Track"},"geometry":{"type":"MultiLineString","coordinates":[[[0.5208002,51.7518239],[0.5223134,51.7516928]]]}},
{"type":"Feature","properties":{"highway":"track","name":null,"category":"Track"},"geometry":{"type":"MultiLineString","coordinates":[[[0.5207897,51.7517108],[0.52231,51.7515808]]]}},
{"type":"Feature","properties":{"highway":"track","name":null,"category":"Track"},"geometry":{"type":"MultiLineString","coordinates":[[[0.5207801,51.7516074],[0.5223067,51.7514701]]]}},
{"type":"Feature","properties":{"highway":"track","name":null,"category":"Track"},"geometry":{"type":"MultiLineString","coordinates":[[[0.5207685,51.7515044],[0.5223035,51.7513669]]]}},
{"type":"Feature","properties":{"highway":"track","name":null,"category":"Track"},"geometry":{"type":"MultiLineString","coordinates":[[[0.5207561,51.7513971],[0.5223007,51.7512726]]]}},
{"type":"Feature","properties":{"highway":"track","name":null,"category":"Track"},"geometry":{"type":"MultiLineString","coordinates":[[[0.5207432,51.7512885],[0.5222971,51.751154]]]}},
{"type":"Feature","properties":{"highway":"track","name":null,"category":"Track"},"geometry":{"type":"MultiLineString","coordinates":[[[0.5207298,51.7511729],[0.5222937,51.7510398]]]}},
{"type":"Feature","properties":{"highway":"track","name":null,"category":"Track"},"geometry":{"type":"MultiLineString","coordinates":[[[0.5207164,51.7510574],[0.5222906,51.7509386]]]}},
{"type":"Feature","properties":{"highway":"track","name":null,"category":"Track"},"geometry":{"type":"MultiLineString","coordinates":[[[0.5207041,51.7509515],[0.5222873,51.7508258]]]}},
{"type":"Feature","properties":{"highway":"track","name":null,"category":"Track"},"geometry":{"type":"MultiLineString","coordinates":[[[0.5206891,51.7508218],[0.5222835,51.7507015]]]}},
{"type":"Feature","properties":{"highway":"track","name":null,"category":"Track"},"geometry":{"type":"MultiLineString","coordinates":[[[0.520685,51.7507871],[0.5207666,51.7507522],[0.520853,51.7507132],[0.5209627,51.7506814],[0.5211495,51.750664],[0.5222794,51.7505879]]]}},
{"type":"Feature","properties":{"highway":"track","name":null,"category":"Track"},"geometry":{"type":"MultiLineString","coordinates":[[[0.5229939,51.7527043],[0.5228601,51.7506404]]]}},
{"type":"Feature","properties":{"highway":"footway","name":null,"category":"Footpath (pedestrian only)"},"geometry":{"type":"MultiLineString","coordinates":[[[0.5367932,51.7605975],[0.5367653,51.7605079],[0.5366956,51.7604523],[0.536548,51.7603734],[0.5365078,51.7603477],[0.536476,51.7603181]]]}},
{"type":"Feature","properties":{"highway":"footway","name":null,"category":"Footpath (pedestrian only)"},"geometry":{"type":"MultiLineString","coordinates":[[[0.5365474,51.7520273],[0.5365071,51.7521552],[0.5364857,51.7522482],[0.5364508,51.7524092],[0.5364186,51.7525421],[0.5363677,51.7527363],[0.5363274,51.7529157],[0.5363033,51.7530435],[0.5362872,51.7531216],[0.5362792,51.753183],[0.5362148,51.7533557],[0.5361611,51.7535499],[0.5361209,51.7537193],[0.5360914,51.7538505],[0.5360592,51.7539634],[0.5360002,51.7541244],[0.5359573,51.7542805],[0.5359171,51.7544482],[0.5358768,51.7545943],[0.5358339,51.7547687],[0.535799,51.7548783],[0.5357347,51.7550675],[0.5357078,51.7551638],[0.5357025,51.7552535]]]}},
{"type":"Feature","properties":{"highway":"footway","name":null,"category":"Footpath (pedestrian only)"},"geometry":{"type":"MultiLineString","coordinates":[[[0.5362872,51.7531216],[0.5361772,51.7531597],[0.5360378,51.7532096],[0.535842,51.753276],[0.5356274,51.7533557],[0.5354101,51.7534271],[0.5351714,51.7535068],[0.5349729,51.7535715],[0.5347744,51.7536363],[0.5345813,51.7537027],[0.5344177,51.7537575],[0.5342514,51.7538173],[0.5340422,51.7538903],[0.5337981,51.7539717],[0.5336586,51.7540198],[0.5335004,51.7540746],[0.5333234,51.7541327],[0.5331329,51.7541975],[0.5329264,51.7542672],[0.5327494,51.754327],[0.532575,51.7543868],[0.5322988,51.7544831],[0.5320225,51.7545727],[0.5317704,51.7546591],[0.5315397,51.7547388],[0.5312768,51.7548284],[0.5310274,51.7549115],[0.5308048,51.7549862],[0.5305956,51.7550626],[0.530448,51.7551124]]]}},
{"type":"Feature","properties":{"highway":"footway","name":null,"category":"Footpath (pedestrian only)"},"geometry":{"type":"MultiLineString","coordinates":[[[0.5303998,51.7551356],[0.5303407,51.7551555],[0.5301825,51.7552087],[0.529984,51.7552734],[0.5298284,51.7553249],[0.5297131,51.7553631],[0.5294529,51.7554428],[0.5292115,51.7555258],[0.5289594,51.7556154],[0.5287341,51.7556868],[0.5284981,51.7557632],[0.5282942,51.7558313],[0.5280528,51.7559176],[0.5278302,51.755999],[0.5276559,51.7560588],[0.5274252,51.7561368],[0.5271784,51.7562215],[0.5268673,51.7563244],[0.5264381,51.7564672],[0.5261163,51.7565635],[0.5259768,51.7565934],[0.5259017,51.7565967],[0.525832,51.7566199],[0.5257638,51.7566982]]]}},
{"type":"Feature","properties":{"highway":"footway","name":null,"category":"Footpath (pedestrian only)"},"geometry":{"type":"MultiLineString","coordinates":[[[0.5340659,51.7586288],[0.5340453,51.7587938],[0.5340238,51.7589234],[0.5340115,51.759036],[0.5339652,51.7591618],[0.5338975,51.7593487],[0.533879,51.7594517],[0.5339067,51.759528],[0.5339806,51.7595814],[0.5341039,51.759631],[0.5347948,51.7598732],[0.5348711,51.7598736],[0.5349396,51.7598603],[0.5350225,51.7598323],[0.5350652,51.7598007],[0.5352192,51.7591995],[0.5352293,51.7591603],[0.5352624,51.7591461],[0.5352993,51.7591466],[0.5370216,51.7590989],[0.5370925,51.7590932],[0.5371572,51.7590722],[0.5384851,51.7582941],[0.5385529,51.7582464],[0.5385868,51.7581835],[0.5385806,51.7580691],[0.5384116,51.7576806]]]}},
{"type":"Feature","properties":{"highway":"footway","name":null,"category":"Footpath (pedestrian only)"},"geometry":{"type":"MultiLineString","coordinates":[[[0.5182621,51.7530487],[0.5182133,51.753073],[0.51817,51.7531082]]]}},
{"type":"Feature","properties":{"highway":"footway","name":null,"category":"Footpath (pedestrian only)"},"geometry":{"type":"MultiLineString","coordinates":[[[0.5181461,51.7531561],[0.5180904,51.7532032]]]}},
{"type":"Feature","properties":{"highway":"bridleway","name":null,"category":"Bridleway"},"geometry":{"type":"MultiLineString","coordinates":[[[0.5234786,51.7623958],[0.52416,51.761761],[0.5245462,51.7613202],[0.5252259,51.7603871],[0.5252408,51.7603542]]]}},
{"type":"Feature","properties":{"highway":"footway","name":null,"category":"Footpath (pedestrian only)"},"geometry":{"type":"MultiLineString","coordinates":[[[0.514324,51.751524],[0.5146478,51.7516719],[0.5150904,51.7518886],[0.5153412,51.7520023],[0.5156215,51.752141],[0.5160023,51.7523327],[0.5163524,51.7525303],[0.516921,51.7528591],[0.5173367,51.7531032],[0.5177216,51.7533373],[0.5181729,51.7536349],[0.5181897,51.7536694],[0.5182004,51.7537341],[0.518181,51.753791],[0.5181226,51.7538437],[0.5180316,51.7538924],[0.5179644,51.7539284],[0.5178021,51.7540189],[0.5176097,51.7541289]]]}},
{"type":"Feature","properties":{"highway":"track","name":null,"category":"Track"},"geometry":{"type":"MultiLineString","coordinates":[[[0.5248654,51.7540554],[0.5252834,51.7538613],[0.5258203,51.7535684],[0.5263162,51.7532839],[0.5267085,51.7532896]]]}},
{"type":"Feature","properties":{"highway":"footway","name":null,"category":"Footpath (pedestrian only)"},"geometry":{"type":"MultiLineString","coordinates":[[[0.5182285,51.753261],[0.5183959,51.7534045],[0.5185501,51.7534933],[0.5186125,51.7535203],[0.5186735,51.7535294],[0.5187379,51.7535294],[0.5187942,51.7535199],[0.5188284,51.753512]]]}},
{"type":"Feature","properties":{"highway":"footway","name":null,"category":"Footpath (pedestrian only)"},"geometry":{"type":"MultiLineString","coordinates":[[[0.5181729,51.7536349],[0.5182783,51.7536014],[0.518363,51.753573],[0.5184107,51.7535705],[0.5184455,51.7535597],[0.5184904,51.7535273],[0.5185501,51.7534933]]]}},
{"type":"Feature","properties":{"highway":"footway","name":null,"category":"Footpath (pedestrian only)"},"geometry":{"type":"MultiLineString","coordinates":[[[0.5189326,51.7550067],[0.5189567,51.7550221],[0.51887,51.7550691],[0.5188106,51.7551014],[0.5187386,51.7551278],[0.5187639,51.7551598]]]}},
{"type":"Feature","properties":{"highway":"footway","name":null,"category":"Footpath (pedestrian only)"},"geometry":{"type":"MultiLineString","coordinates":[[[0.5186696,51.7551981],[0.5186165,51.7552026]]]}},
{"type":"Feature","properties":{"highway":"footway","name":null,"category":"Footpath (pedestrian only)"},"geometry":{"type":"MultiLineString","coordinates":[[[0.5479356,51.7471411],[0.5408428,51.7492069],[0.5390756,51.7511883],[0.5365474,51.7520273]]]}},
{"type":"Feature","properties":{"highway":"footway","name":null,"category":"Footpath (pedestrian only)"},"geometry":{"type":"MultiLineString","coordinates":[[[0.5171393,51.7523674],[0.516916,51.7522654],[0.5168194,51.752348],[0.5170521,51.7524468],[0.5171393,51.7523674],[0.5172048,51.7523028]]]}},
{"type":"Feature","properties":{"highway":"footway","name":null,"category":"Footpath (pedestrian only)"},"geometry":{"type":"MultiLineString","coordinates":[[[0.5174699,51.7510773],[0.5173974,51.7511143]]]}},
{"type":"Feature","properties":{"highway":"footway","name":null,"category":"Footpath (pedestrian only)"},"geometry":{"type":"MultiLineString","coordinates":[[[0.5175611,51.7511479],[0.5176677,51.7511479],[0.5176643,51.7511114],[0.5189749,51.7510789]]]}},
{"type":"Feature","properties":{"highway":"footway","name":null,"category":"Footpath (pedestrian only)"},"geometry":{"type":"MultiLineString","coordinates":[[[0.5189898,51.7512482],[0.5186983,51.75126],[0.5184107,51.7512658],[0.5181156,51.7512712],[0.51767,51.7512752],[0.5176422,51.7512544],[0.5175631,51.7512542]]]}},
{"type":"Feature","properties":{"highway":"footway","name":null,"category":"Footpath (pedestrian only)"},"geometry":{"type":"MultiLineString","coordinates":[[[0.5189987,51.7514962],[0.5189811,51.7513067],[0.5189898,51.7512482],[0.5189749,51.7510789],[0.5189674,51.7509931],[0.5189478,51.7507095],[0.5188465,51.75071]]]}},
{"type":"Feature","properties":{"highway":"footway","name":null,"category":"Footpath (pedestrian only)"},"geometry":{"type":"MultiLineString","coordinates":[[[0.5187084,51.7515041],[0.5186999,51.7513199],[0.5186983,51.75126]]]}},
{"type":"Feature","properties":{"highway":"footway","name":null,"category":"Footpath (pedestrian only)"},"geometry":{"type":"MultiLineString","coordinates":[[[0.5184147,51.7515095],[0.5184099,51.7513287],[0.5184107,51.7512658]]]}},
{"type":"Feature","properties":{"highway":"footway","name":null,"category":"Footpath (pedestrian only)"},"geometry":{"type":"MultiLineString","coordinates":[[[0.5181263,51.7515174],[0.5181212,51.7513325],[0.5181156,51.7512712]]]}},
{"type":"Feature","properties":{"highway":"footway","name":null,"category":"Footpath (pedestrian only)"},"geometry":{"type":"MultiLineString","coordinates":[[[0.5175611,51.7512094],[0.5174224,51.7512331],[0.5172555,51.7512645]]]}},
{"type":"Feature","properties":{"highway":"footway","name":null,"category":"Footpath (pedestrian only)"},"geometry":{"type":"MultiLineString","coordinates":[[[0.5176765,51.7515364],[0.517601,51.7513504],[0.5175631,51.7512542],[0.5175611,51.7512094],[0.5175611,51.7511479],[0.5175246,51.75112],[0.5174699,51.7510773],[0.5179781,51.7508191]]]}},
{"type":"Feature","properties":{"highway":"footway","name":null,"category":"Footpath (pedestrian only)"},"geometry":{"type":"MultiLineString","coordinates":[[[0.5174951,51.7518187],[0.5171028,51.7518271]]]}},
{"type":"Feature","properties":{"highway":"footway","name":null,"category":"Footpath (pedestrian only)"},"geometry":{"type":"MultiLineString","coordinates":[[[0.5194326,51.7541456],[0.5193029,51.7542019],[0.5191305,51.7542903],[0.5190638,51.7543223]]]}},
{"type":"Feature","properties":{"highway":"footway","name":null,"category":"Footpath (pedestrian only)"},"geometry":{"type":"MultiLineString","coordinates":[[[0.5202144,51.7564653],[0.520183,51.7564482]]]}},
{"type":"Feature","properties":{"highway":"footway","name":null,"category":"Footpath (pedestrian only)"},"geometry":{"type":"MultiLineString","coordinates":[[[0.5202768,51.756594],[0.5202989,51.7566281],[0.5202466,51.7566355],[0.5202084,51.7566364],[0.5201762,51.7566289],[0.5201467,51.7566152],[0.5201306,51.7565957],[0.5201239,51.7565758],[0.5201259,51.7565575],[0.5201373,51.756538],[0.5201574,51.7565081],[0.5202144,51.7564653]]]}},
{"type":"Feature","properties":{"highway":"footway","name":null,"category":"Footpath (pedestrian only)"},"geometry":{"type":"MultiLineString","coordinates":[[[0.5202768,51.756594],[0.5207375,51.7564633]]]}},
{"type":"Feature","properties":{"highway":"footway","name":null,"category":"Footpath (pedestrian only)"},"geometry":{"type":"MultiLineString","coordinates":[[[0.5190638,51.7543223],[0.5189873,51.7543036],[0.5189069,51.7542949],[0.5188411,51.7542953],[0.5187875,51.7543069],[0.5187359,51.7543243],[0.5186997,51.7543497],[0.5186312,51.7543318],[0.5185709,51.754316],[0.5185642,51.7542899],[0.5184361,51.7543046],[0.5183671,51.7543019],[0.5182913,51.754172],[0.5182517,51.7541284],[0.5182068,51.7541035],[0.5181726,51.7540927],[0.5181116,51.7540852],[0.5181085,51.7540431],[0.518106,51.7540085],[0.5181411,51.7539781],[0.5180871,51.7539359],[0.5180316,51.7538924]]]}},
{"type":"Feature","properties":{"highway":"footway","name":null,"category":"Footpath (pedestrian only)"},"geometry":{"type":"MultiLineString","coordinates":[[[0.5189443,51.7576124],[0.5190055,51.757643],[0.5191217,51.7577009],[0.5192902,51.7575604],[0.5193534,51.7575915]]]}},
{"type":"Feature","properties":{"highway":"footway","name":null,"category":"Footpath (pedestrian only)"},"geometry":{"type":"MultiLineString","coordinates":[[[0.5202319,51.7581959],[0.5203714,51.7580779]]]}},
{"type":"Feature","properties":{"highway":"footway","name":null,"category":"Footpath (pedestrian only)"},"geometry":{"type":"MultiLineString","coordinates":[[[0.5189745,51.7576672],[0.5190055,51.757643]]]}},
{"type":"Feature","properties":{"highway":"footway","name":null,"category":"Footpath (pedestrian only)"},"geometry":{"type":"MultiLineString","coordinates":[[[0.5173627,51.7573892],[0.5177825,51.757599],[0.5182518,51.7578329],[0.5187504,51.7580815],[0.5188081,51.7580354],[0.5191087,51.7577953]]]}},
{"type":"Feature","properties":{"highway":"footway","name":null,"category":"Footpath (pedestrian only)"},"geometry":{"type":"MultiLineString","coordinates":[[[0.5177825,51.757599],[0.5179856,51.7574381],[0.5181968,51.7572708],[0.5174765,51.7568979]]]}},
{"type":"Feature","properties":{"highway":"footway","name":null,"category":"Footpath (pedestrian only)"},"geometry":{"type":"MultiLineString","coordinates":[[[0.5168557,51.7568618],[0.5178045,51.7573521],[0.5179856,51.7574381]]]}},
{"type":"Feature","properties":{"highway":"footway","name":null,"category":"Footpath (pedestrian only)"},"geometry":{"type":"MultiLineString","coordinates":[[[0.5188081,51.7580354],[0.5189261,51.7580913],[0.5191827,51.758213],[0.519304,51.7582706],[0.5203855,51.7587835],[0.5205428,51.7588581]]]}},
{"type":"Feature","properties":{"highway":"footway","name":null,"category":"Footpath (pedestrian only)"},"geometry":{"type":"MultiLineString","coordinates":[[[0.5311521,51.7609057],[0.5324474,51.7591935]]]}},
{"type":"Feature","properties":{"highway":"footway","name":null,"category":"Footpath (pedestrian only)"},"geometry":{"type":"MultiLineString","coordinates":[[[0.5366478,51.7516017],[0.5366439,51.751662],[0.5366386,51.7517334],[0.5366171,51.7517799],[0.5365903,51.7518729],[0.5365474,51.7520273]]]}},
{"type":"Feature","properties":{"highway":"track","name":null,"category":"Track"},"geometry":{"type":"MultiLineString","coordinates":[[[0.5379239,51.7489156],[0.5379649,51.7490395],[0.5371602,51.7507532],[0.5369349,51.7509126],[0.5366478,51.7516017]]]}},
{"type":"Feature","properties":{"highway":"footway","name":null,"category":"Footpath (pedestrian only)"},"geometry":{"type":"MultiLineString","coordinates":[[[0.5367036,51.7606878],[0.5367432,51.7606404],[0.5367932,51.7605975]]]}},
{"type":"Feature","properties":{"highway":"footway","name":null,"category":"Footpath (pedestrian only)"},"geometry":{"type":"MultiLineString","coordinates":[[[0.5183475,51.7577616],[0.5182518,51.7578329]]]}}
]
}
