{
"type": "FeatureCollection",
"name": "CENBE_50_cycling",
"crs": { "type": "name", "properties": { "name": "urn:ogc:def:crs:OGC:1.3:CRS84" } },
"features": [
{"type":"Feature","properties":{"highway":"cycleway","name":null,"category":"Dedicated cycleway"},"geometry":{"type":"MultiLineString","coordinates":[[[-0.5066445,52.0245482],[-0.5067449,52.0245221]]]}},
{"type":"Feature","properties":{"highway":"track","name":null,"category":"Track"},"geometry":{"type":"MultiLineString","coordinates":[[[-0.5219968,52.0352625],[-0.5220051,52.0355908],[-0.5218864,52.0360151],[-0.5217294,52.0365685]]]}},
{"type":"Feature","properties":{"highway":"track","name":null,"category":"Track"},"geometry":{"type":"MultiLineString","coordinates":[[[-0.5191749,52.033613],[-0.5191856,52.0335008],[-0.5191953,52.0333797],[-0.5192714,52.0332335],[-0.5193991,52.0331751],[-0.5200267,52.0330101],[-0.5201405,52.0329332],[-0.5202199,52.0328385],[-0.5202145,52.0327593],[-0.5201394,52.0326008],[-0.5200697,52.0324589],[-0.5200214,52.0323269],[-0.5200053,52.0322543],[-0.5200519,52.0322056]]]}},
{"type":"Feature","properties":{"highway":"track","name":null,"category":"Track"},"geometry":{"type":"MultiLineString","coordinates":[[[-0.5201072,52.0362062],[-0.5200321,52.036033],[-0.5200053,52.0359126],[-0.5199383,52.0357377],[-0.5198899,52.0354951],[-0.5198604,52.0353235],[-0.5198122,52.0351783],[-0.5197345,52.0350432]]]}},
{"type":"Feature","properties":{"highway":"track","name":null,"category":"Track"},"geometry":{"type":"MultiLineString","coordinates":[[[-0.5167545,52.0370197],[-0.5167384,52.0364686],[-0.5167126,52.0361706],[-0.5167197,52.0360871],[-0.5167414,52.0360479],[-0.5172162,52.0359296],[-0.5178876,52.0357307],[-0.5194802,52.0352166],[-0.5196083,52.0351519],[-0.5197113,52.0350816],[-0.5197345,52.0350432],[-0.5197585,52.0350034],[-0.5198939,52.0343177]]]}},
{"type":"Feature","properties":{"highway":"cycleway","name":null,"category":"Dedicated cycleway"},"geometry":{"type":"MultiLineString","coordinates":[[[-0.5119465,52.0327043],[-0.5116112,52.0326653]]]}},
{"type":"Feature","properties":{"highway":"cycleway","name":null,"category":"Dedicated cycleway"},"geometry":{"type":"MultiLineString","coordinates":[[[-0.5216222,52.0316858],[-0.5199929,52.0320871],[-0.5181965,52.0325192],[-0.5169731,52.0328435],[-0.5169231,52.0328526],[-0.5166357,52.0329049],[-0.5147183,52.0330962],[-0.5141331,52.0331527],[-0.5136477,52.0331336],[-0.5132863,52.0330806],[-0.5116112,52.0326653]]]}},
{"type":"Feature","properties":{"highway":"bridleway","name":"The Alameda","category":"Bridleway"},"geometry":{"type":"MultiLineString","coordinates":[[[-0.4966207,52.0318078],[-0.4966697,52.0317849],[-0.4966599,52.031708],[-0.4967679,52.0316896],[-0.4968254,52.0316701],[-0.4970764,52.031544],[-0.4973389,52.0313258],[-0.4977839,52.0309957],[-0.4994692,52.0297459],[-0.5006051,52.0288883],[-0.5006754,52.0288353],[-0.500555,52.0286703],[-0.5004742,52.028544],[-0.5003259,52.0283326],[-0.5001917,52.0281404],[-0.50008,52.0279069],[-0.5000993,52.0276295],[-0.5001122,52.0273603],[-0.5001316,52.026733],[-0.5001832,52.0265766],[-0.5001254,52.0263397],[-0.5001187,52.0263025],[-0.5000202,52.0261325]]]}},
{"type":"Feature","properties":{"highway":"bridleway","name":null,"category":"Bridleway"},"geometry":{"type":"MultiLineString","coordinates":[[[-0.4994692,52.0297459],[-0.4989576,52.0288432],[-0.4985499,52.0280577],[-0.498221,52.0265866],[-0.4981798,52.0265332]]]}},
{"type":"Feature","properties":{"highway":"path","name":null,"category":"Shared path"},"geometry":{"type":"MultiLineString","coordinates":[[[-0.4976037,52.0308947],[-0.4976918,52.0309441],[-0.4977839,52.0309957]]]}},
{"type":"Feature","properties":{"highway":"track","name":null,"category":"Track"},"geometry":{"type":"MultiLineString","coordinates":[[[-0.4879557,52.0278481],[-0.4877491,52.0280976],[-0.4875123,52.0281776],[-0.4873155,52.0281793],[-0.4871258,52.0281562],[-0.487103,52.0281242],[-0.4868045,52.0280675],[-0.4864311,52.0280098],[-0.4861031,52.0279709],[-0.4858812,52.0279532],[-0.4856898,52.0279426],[-0.4845399,52.0278917],[-0.4842479,52.0279055],[-0.4841455,52.0279727],[-0.4840686,52.0282576],[-0.4840526,52.0286384],[-0.4839502,52.028712],[-0.4834862,52.0286928],[-0.4826669,52.0286192],[-0.4804874,52.028536],[-0.4803274,52.0285264],[-0.480145,52.0285936],[-0.4768422,52.0292657],[-0.4759045,52.0295217],[-0.4754916,52.0294673],[-0.4753796,52.0295153],[-0.4746876,52.0293948]]]}},
{"type":"Feature","properties":{"highway":"bridleway","name":null,"category":"Bridleway"},"geometry":{"type":"MultiLineString","coordinates":[[[-0.5006051,52.0288883],[-0.5007331,52.0289878],[-0.5009079,52.0291238],[-0.501296,52.0294611],[-0.5021398,52.0300817],[-0.5022216,52.0301419],[-0.5027649,52.0304225],[-0.5034248,52.0306554],[-0.5036463,52.0307769],[-0.5037248,52.0308197]]]}},
{"type":"Feature","properties":{"highway":"path","name":null,"category":"Shared path"},"geometry":{"type":"MultiLineString","coordinates":[[[-0.4962365,52.0333169],[-0.4961123,52.0334215]]]}},
{"type":"Feature","properties":{"highway":"path","name":null,"category":"Shared path"},"geometry":{"type":"MultiLineString","coordinates":[[[-0.495872,52.0333789],[-0.4959511,52.0333694]]]}},
{"type":"Feature","properties":{"highway":"cycleway","name":null,"category":"Dedicated cycleway"},"geometry":{"type":"MultiLineString","coordinates":[[[-0.5116112,52.0326653],[-0.5089006,52.0322145]]]}},
{"type":"Feature","properties":{"highway":"path","name":null,"category":"Shared path"},"geometry":{"type":"MultiLineString","coordinates":[[[-0.5077588,52.0267732],[-0.5076691,52.0266193]]]}},
{"type":"Feature","properties":{"highway":"path","name":null,"category":"Shared path"},"geometry":{"type":"MultiLineString","coordinates":[[[-0.5078611,52.0267529],[-0.5077774,52.0265991]]]}},
{"type":"Feature","properties":{"highway":"path","name":null,"category":"Shared path"},"geometry":{"type":"MultiLineString","coordinates":[[[-0.5079745,52.0267305],[-0.5078929,52.026574]]]}},
{"type":"Feature","properties":{"highway":"track","name":null,"category":"Track"},"geometry":{"type":"MultiLineString","coordinates":[[[-0.4879557,52.0278481],[-0.4850757,52.0275792]]]}},
{"type":"Feature","properties":{"highway":"track","name":null,"category":"Track"},"geometry":{"type":"MultiLineString","coordinates":[[[-0.5140485,52.042064],[-0.5141135,52.042054],[-0.5141379,52.0420215],[-0.5142152,52.0411963],[-0.5142355,52.0409337],[-0.5142314,52.0407487],[-0.514268,52.0407037],[-0.5143254,52.0406565]]]}},
{"type":"Feature","properties":{"highway":"bridleway","name":"Katherine's Walk","category":"Bridleway"},"geometry":{"type":"MultiLineString","coordinates":[[[-0.5037248,52.0308197],[-0.5037841,52.0309953],[-0.5038296,52.031351],[-0.5038367,52.0316314],[-0.5038423,52.0318631],[-0.5038314,52.0319974]]]}},
{"type":"Feature","properties":{"highway":"path","name":null,"category":"Shared path"},"geometry":{"type":"MultiLineString","coordinates":[[[-0.4870102,52.0333578],[-0.4870275,52.0333185],[-0.4871311,52.0331701]]]}},
{"type":"Feature","properties":{"highway":"path","name":null,"category":"Shared path"},"geometry":{"type":"MultiLineString","coordinates":[[[-0.4896814,52.0326192],[-0.4896745,52.0325631],[-0.4896805,52.032538],[-0.4897014,52.0325116],[-0.4897493,52.0324779],[-0.4898041,52.0324644],[-0.489859,52.0324594],[-0.4899407,52.0324534],[-0.4900184,52.0324681],[-0.4900932,52.0325055],[-0.4901121,52.03253],[-0.4901348,52.0325776]]]}},
{"type":"Feature","properties":{"highway":"cycleway","name":null,"category":"Dedicated cycleway"},"geometry":{"type":"MultiLineString","coordinates":[[[-0.5070526,52.0242057],[-0.5071372,52.0242721],[-0.507224,52.0243149],[-0.5072858,52.0243547]]]}},
{"type":"Feature","properties":{"highway":"cycleway","name":null,"category":"Dedicated cycleway"},"geometry":{"type":"MultiLineString","coordinates":[[[-0.5067449,52.0245221],[-0.5067244,52.0244365],[-0.5067752,52.0243186],[-0.5067901,52.0242484]]]}},
{"type":"Feature","properties":{"highway":"cycleway","name":null,"category":"Dedicated cycleway"},"geometry":{"type":"MultiLineString","coordinates":[[[-0.5067449,52.0245221],[-0.5067896,52.0245653],[-0.5068674,52.0246115],[-0.5069264,52.0246599],[-0.5070096,52.0246665]]]}},
{"type":"Feature","properties":{"highway":"cycleway","name":null,"category":"Dedicated cycleway"},"geometry":{"type":"MultiLineString","coordinates":[[[-0.5067901,52.0242484],[-0.5067587,52.0240815],[-0.5067319,52.023947],[-0.5066836,52.0238339],[-0.5066269,52.0237045]]]}},
{"type":"Feature","properties":{"highway":"track","name":null,"category":"Track"},"geometry":{"type":"MultiLineString","coordinates":[[[-0.517259,52.0335569],[-0.5178701,52.0337582],[-0.5193092,52.0341624],[-0.5198443,52.0342964],[-0.5198939,52.0343177]]]}},
{"type":"Feature","properties":{"highway":"track","name":null,"category":"Track"},"geometry":{"type":"MultiLineString","coordinates":[[[-0.517259,52.0335569],[-0.5170401,52.0335521],[-0.5169517,52.0335502]]]}}
]
}
