{
"type": "FeatureCollection",
"name": "BRAIN_73_walking",
"crs": { "type": "name", "properties": { "name": "urn:ogc:def:crs:OGC:1.3:CRS84" } },
"features": [
{"type":"Feature","properties":{"highway":"footway","name":null,"category":"Footpath (pedestrian only)"},"geometry":{"type":"MultiLineString","coordinates":[[[0.6505778,51.7921108],[0.6505375,51.7920329],[0.6504839,51.7919583],[0.6500009,51.7919498],[0.6497872,51.7918149],[0.6491681,51.7912961],[0.6489872,51.7912051],[0.6489416,51.7911553],[0.6489067,51.7910641],[0.6488933,51.7909612],[0.6488547,51.7908387],[0.6487993,51.7906617],[0.6488543,51.7904068],[0.6489093,51.7902064],[0.6489183,51.7899951],[0.6488499,51.78978],[0.6485417,51.78904],[0.6485827,51.7889653]]]}},
{"type":"Feature","properties":{"highway":"footway","name":null,"category":"Footpath (pedestrian only)"},"geometry":{"type":"MultiLineString","coordinates":[[[0.6442063,51.7888135],[0.6448106,51.7890866],[0.6452314,51.7893105],[0.6475488,51.789045],[0.6485827,51.7889653]]]}},
{"type":"Feature","properties":{"highway":"footway","name":null,"category":"Footpath (pedestrian only)"},"geometry":{"type":"MultiLineString","coordinates":[[[0.6418756,51.7980142],[0.6417049,51.7979795],[0.6415442,51.7979337]]]}},
{"type":"Feature","properties":{"highway":"footway","name":null,"category":"Footpath (pedestrian only)"},"geometry":{"type":"MultiLineString","coordinates":[[[0.6447148,51.7971305],[0.6441722,51.797134],[0.6440778,51.7974153],[0.6438375,51.7977762],[0.6436413,51.7980329]]]}},
{"type":"Feature","properties":{"highway":"footway","name":null,"category":"Footpath (pedestrian only)"},"geometry":{"type":"MultiLineString","coordinates":[[[0.6465043,51.7983322],[0.6464941,51.7982624],[0.6462755,51.7981625],[0.6461258,51.7978885],[0.6460046,51.7977548],[0.6457847,51.7972893],[0.6456613,51.7971648],[0.6455385,51.7971144],[0.6454016,51.7970973],[0.6447503,51.7970179]]]}},
{"type":"Feature","properties":{"highway":"footway","name":null,"category":"Footpath (pedestrian only)"},"geometry":{"type":"MultiLineString","coordinates":[[[0.646076,51.7968681],[0.6456571,51.7969482],[0.6453991,51.7970705],[0.6454016,51.7970973],[0.6453903,51.7971307],[0.6448872,51.7973786]]]}},
{"type":"Feature","properties":{"highway":"footway","name":null,"category":"Footpath (pedestrian only)"},"geometry":{"type":"MultiLineString","coordinates":[[[0.6418547,51.7939703],[0.6416541,51.7934558],[0.6414963,51.793051]]]}},
{"type":"Feature","properties":{"highway":"footway","name":null,"category":"Footpath (pedestrian only)"},"geometry":{"type":"MultiLineString","coordinates":[[[0.641143,51.7941943],[0.6412604,51.7941566],[0.641399,51.7941253],[0.6418547,51.7939703],[0.6421499,51.793852],[0.6422804,51.7937941],[0.6424182,51.7937438],[0.6425455,51.7937189],[0.6427627,51.7936889],[0.6430819,51.7936813],[0.6432736,51.7936824],[0.6435587,51.7936838],[0.6437476,51.7936713],[0.6441117,51.7936245],[0.6442993,51.7935595],[0.6444127,51.7934989]]]}},
{"type":"Feature","properties":{"highway":"path","name":null,"category":"Shared path"},"geometry":{"type":"MultiLineString","coordinates":[[[0.6403712,51.7937197],[0.640406,51.7937406],[0.6405991,51.7938229],[0.6408395,51.7939445],[0.6410153,51.7940691],[0.641143,51.7941943]]]}},
{"type":"Feature","properties":{"highway":"footway","name":null,"category":"Footpath (pedestrian only)"},"geometry":{"type":"MultiLineString","coordinates":[[[0.6391996,51.7976272],[0.639401,51.7976151]]]}},
{"type":"Feature","properties":{"highway":"footway","name":null,"category":"Footpath (pedestrian only)"},"geometry":{"type":"MultiLineString","coordinates":[[[0.6415642,51.7981592],[0.6415442,51.7979337]]]}},
{"type":"Feature","properties":{"highway":"footway","name":null,"category":"Footpath (pedestrian only)"},"geometry":{"type":"MultiLineString","coordinates":[[[0.6405845,51.7969353],[0.6400193,51.7972596],[0.6394273,51.7975805],[0.639401,51.7976151]]]}},
{"type":"Feature","properties":{"highway":"footway","name":"Pitt Green","category":"Footpath (pedestrian only)"},"geometry":{"type":"MultiLineString","coordinates":[[[0.6419713,51.791687],[0.6427768,51.7912752]]]}},
{"type":"Feature","properties":{"highway":"footway","name":null,"category":"Footpath (pedestrian only)"},"geometry":{"type":"MultiLineString","coordinates":[[[0.6335673,51.7931576],[0.6337488,51.7930444],[0.6338471,51.7929801],[0.6340913,51.7930064],[0.6342088,51.7929779],[0.6343269,51.7929899],[0.6345783,51.7929992],[0.6346179,51.7930482],[0.6347008,51.793151],[0.6347591,51.7932139],[0.6347719,51.793214],[0.6349429,51.793215],[0.6353585,51.793218],[0.6357077,51.7932709],[0.6356961,51.7934945],[0.6355736,51.793589],[0.6354955,51.7936614],[0.6356652,51.7937377],[0.6357198,51.7937682]]]}},
{"type":"Feature","properties":{"highway":"footway","name":null,"category":"Footpath (pedestrian only)"},"geometry":{"type":"MultiLineString","coordinates":[[[0.6465721,51.7940785],[0.6465978,51.7939689],[0.6466514,51.7938229],[0.6471235,51.7936437],[0.6476921,51.7934115],[0.6480569,51.7931394],[0.648529,51.7928939],[0.6492049,51.7926284],[0.6493992,51.7926009]]]}},
{"type":"Feature","properties":{"highway":"footway","name":null,"category":"Footpath (pedestrian only)"},"geometry":{"type":"MultiLineString","coordinates":[[[0.6441854,51.7925817],[0.6450624,51.7923826],[0.6451849,51.7924392]]]}},
{"type":"Feature","properties":{"highway":"footway","name":null,"category":"Footpath (pedestrian only)"},"geometry":{"type":"MultiLineString","coordinates":[[[0.6450647,51.7918545],[0.6451849,51.7924392],[0.6452312,51.7927103]]]}},
{"type":"Feature","properties":{"highway":"footway","name":null,"category":"Footpath (pedestrian only)"},"geometry":{"type":"MultiLineString","coordinates":[[[0.6439506,51.7895844],[0.6442651,51.7895495],[0.6444766,51.7895256]]]}},
{"type":"Feature","properties":{"highway":"footway","name":null,"category":"Footpath (pedestrian only)"},"geometry":{"type":"MultiLineString","coordinates":[[[0.650634,51.7922076],[0.6509177,51.7921453],[0.6516451,51.7919856],[0.6531256,51.7917069],[0.6539947,51.7917002],[0.6548422,51.791662],[0.655208,51.7915648],[0.6553177,51.7916098],[0.6554538,51.7918064],[0.6555032,51.7919458],[0.6555205,51.7919947],[0.6554454,51.7922163],[0.6556973,51.7924595],[0.6554481,51.7928257],[0.6553703,51.7931505],[0.6553167,51.7933059],[0.6551667,51.7935123],[0.6551828,51.7937902],[0.6547134,51.7940599],[0.6546759,51.7941168],[0.6546413,51.7942085],[0.6545863,51.7944199],[0.6542116,51.7948374],[0.6537776,51.7952155],[0.6532865,51.7954265],[0.6529754,51.7954892],[0.6525652,51.7954952],[0.6522414,51.7953394],[0.6520805,51.7949147],[0.6518873,51.7944436],[0.6518766,51.7943241],[0.6516014,51.7940193],[0.651373,51.7935699],[0.6511861,51.7930622],[0.651111,51.7929678],[0.6510764,51.7929013],[0.6507823,51.7924866]]]}},
{"type":"Feature","properties":{"highway":"footway","name":null,"category":"Footpath (pedestrian only)"},"geometry":{"type":"MultiLineString","coordinates":[[[0.6541617,51.7940541],[0.6542477,51.7939923],[0.6543891,51.7935843],[0.6543087,51.7933995],[0.6541638,51.7933099],[0.6539117,51.7931565],[0.6529354,51.7927799],[0.6517874,51.7924635],[0.6514753,51.7923933],[0.6511973,51.7924673],[0.6507823,51.7924866]]]}},
{"type":"Feature","properties":{"highway":"footway","name":null,"category":"Footpath (pedestrian only)"},"geometry":{"type":"MultiLineString","coordinates":[[[0.6511861,51.7930622],[0.6514763,51.7931137],[0.6516908,51.7930954],[0.6517659,51.7929705],[0.6517981,51.7928413],[0.6517654,51.7925829],[0.6514753,51.7923933]]]}},
{"type":"Feature","properties":{"highway":"footway","name":null,"category":"Footpath (pedestrian only)"},"geometry":{"type":"MultiLineString","coordinates":[[[0.6461327,51.7983309],[0.6461937,51.7982379],[0.6462755,51.7981625]]]}},
{"type":"Feature","properties":{"highway":"footway","name":null,"category":"Footpath (pedestrian only)"},"geometry":{"type":"MultiLineString","coordinates":[[[0.6504839,51.7919583],[0.6504785,51.7918272],[0.6505755,51.7911739],[0.6506229,51.7907022],[0.6513962,51.7904066],[0.6518922,51.7902617],[0.6522595,51.7901134],[0.6522811,51.7900994],[0.6523856,51.7900321],[0.6524043,51.7899127],[0.6522675,51.7897368],[0.6522354,51.789624],[0.6522729,51.7894929],[0.6523695,51.7893668],[0.6525465,51.7892905],[0.6527182,51.789249],[0.6529703,51.7891744],[0.6533833,51.7891296],[0.6534665,51.789103],[0.6534558,51.7890035],[0.6534477,51.7889421]]]}},
{"type":"Feature","properties":{"highway":"footway","name":null,"category":"Footpath (pedestrian only)"},"geometry":{"type":"MultiLineString","coordinates":[[[0.650634,51.7922076],[0.6506126,51.7921722]]]}},
{"type":"Feature","properties":{"highway":"footway","name":null,"category":"Footpath (pedestrian only)"},"geometry":{"type":"MultiLineString","coordinates":[[[0.6400503,51.7843163],[0.6395555,51.7844319],[0.6391567,51.7844682],[0.6388069,51.78436],[0.6384218,51.7841966],[0.6381431,51.784037],[0.6380939,51.7840294],[0.6379649,51.7840424],[0.6375211,51.7840873],[0.6368741,51.7841607],[0.6361966,51.784194],[0.6353082,51.7842725],[0.635187,51.7842845],[0.6350996,51.784298]]]}},
{"type":"Feature","properties":{"highway":"footway","name":null,"category":"Footpath (pedestrian only)"},"geometry":{"type":"MultiLineString","coordinates":[[[0.6429018,51.7829342],[0.6430943,51.7837041],[0.6432993,51.7844237],[0.6436753,51.785771],[0.643696,51.7861595],[0.6438468,51.7862414]]]}},
{"type":"Feature","properties":{"highway":"footway","name":null,"category":"Footpath (pedestrian only)"},"geometry":{"type":"MultiLineString","coordinates":[[[0.639401,51.7976151],[0.6394864,51.7976319],[0.6399232,51.7976888],[0.6402405,51.797741],[0.6404784,51.7977526],[0.6411568,51.7978795],[0.6414664,51.797923],[0.6415442,51.7979337]]]}},
{"type":"Feature","properties":{"highway":"footway","name":null,"category":"Footpath (pedestrian only)"},"geometry":{"type":"MultiLineString","coordinates":[[[0.6404784,51.7977526],[0.640532,51.7977195],[0.6405981,51.7976976],[0.6406892,51.7976632],[0.6407516,51.7976188],[0.6407741,51.7975767],[0.6408087,51.7975379],[0.6408419,51.7975085],[0.6408926,51.7974672],[0.640954,51.7974438]]]}},
{"type":"Feature","properties":{"highway":"footway","name":null,"category":"Footpath (pedestrian only)"},"geometry":{"type":"MultiLineString","coordinates":[[[0.6405845,51.7969353],[0.6402204,51.7967959],[0.6404345,51.7963225],[0.640548,51.7960611],[0.6405817,51.7959994],[0.6406428,51.7959642],[0.6406756,51.7959289],[0.6408072,51.7956003],[0.6408845,51.795434]]]}},
{"type":"Feature","properties":{"highway":"footway","name":null,"category":"Footpath (pedestrian only)"},"geometry":{"type":"MultiLineString","coordinates":[[[0.6415442,51.7979337],[0.6415428,51.7979055],[0.640954,51.7974438],[0.640703,51.7972613],[0.640664,51.7971865],[0.6405657,51.7970057],[0.6405627,51.7969714],[0.6405845,51.7969353]]]}},
{"type":"Feature","properties":{"highway":"footway","name":null,"category":"Footpath (pedestrian only)"},"geometry":{"type":"MultiLineString","coordinates":[[[0.6506126,51.7921722],[0.6505778,51.7921108]]]}},
{"type":"Feature","properties":{"highway":"track","name":null,"category":"Track"},"geometry":{"type":"MultiLineString","coordinates":[[[0.646781,51.794822],[0.646875,51.794795],[0.6475336,51.7946059]]]}},
{"type":"Feature","properties":{"highway":"track","name":null,"category":"Track"},"geometry":{"type":"MultiLineString","coordinates":[[[0.6503716,51.7953193],[0.6500927,51.7951202],[0.6496654,51.7946738],[0.6490735,51.7938064],[0.6481615,51.7940054],[0.6477645,51.7940519],[0.6475821,51.7941182],[0.6477431,51.7944235],[0.6476766,51.7945572],[0.6475336,51.7946059],[0.6475336,51.7947088],[0.6476033,51.7948354],[0.647344,51.7949055],[0.6472761,51.7950306],[0.6473386,51.7951212],[0.647462,51.7952041],[0.6478713,51.7950927],[0.6479262,51.7950777],[0.6481237,51.795024],[0.6481612,51.7949676],[0.6481022,51.7948747],[0.6480432,51.7948083],[0.6479306,51.7947818],[0.6478072,51.7947851],[0.6476033,51.7948354]]]}},
{"type":"Feature","properties":{"highway":"track","name":null,"category":"Track"},"geometry":{"type":"MultiLineString","coordinates":[[[0.6478713,51.7950927],[0.6483096,51.7954264],[0.6485797,51.7954055],[0.6489552,51.7952795],[0.6489337,51.7951733],[0.6487728,51.7948846],[0.6495917,51.7946833],[0.6496654,51.7946738]]]}},
{"type":"Feature","properties":{"highway":"track","name":null,"category":"Track"},"geometry":{"type":"MultiLineString","coordinates":[[[0.6490735,51.7938064],[0.6491641,51.79375],[0.6497856,51.7936017],[0.6500331,51.7936803],[0.6502531,51.7938429]]]}},
{"type":"Feature","properties":{"highway":"path","name":null,"category":"Shared path"},"geometry":{"type":"MultiLineString","coordinates":[[[0.6452299,51.7849467],[0.6450757,51.7850577],[0.6449504,51.7850692],[0.6448058,51.7850598],[0.6447029,51.7850075],[0.6439882,51.7850372],[0.6437725,51.7850457]]]}},
{"type":"Feature","properties":{"highway":"track","name":null,"category":"Track"},"geometry":{"type":"MultiLineString","coordinates":[[[0.6504996,51.7884578],[0.650536,51.7886483],[0.6503536,51.7886881],[0.6502528,51.7885972],[0.6501069,51.7881173],[0.6505103,51.7878472],[0.650545,51.7866763]]]}},
{"type":"Feature","properties":{"highway":"footway","name":null,"category":"Footpath (pedestrian only)"},"geometry":{"type":"MultiLineString","coordinates":[[[0.6506229,51.7907022],[0.6492285,51.7911818],[0.6491681,51.7912961]]]}},
{"type":"Feature","properties":{"highway":"footway","name":null,"category":"Footpath (pedestrian only)"},"geometry":{"type":"MultiLineString","coordinates":[[[0.6504839,51.7919583],[0.650595,51.7918569],[0.6524994,51.791389],[0.6526778,51.7911785],[0.6526241,51.7908932],[0.6525115,51.7904651],[0.6523666,51.7902561],[0.6522862,51.7901831],[0.6522811,51.7900994]]]}},
{"type":"Feature","properties":{"highway":"footway","name":null,"category":"Footpath (pedestrian only)"},"geometry":{"type":"MultiLineString","coordinates":[[[0.650634,51.7922076],[0.650697,51.7922982],[0.6509518,51.7923214]]]}},
{"type":"Feature","properties":{"highway":"footway","name":null,"category":"Footpath (pedestrian only)"},"geometry":{"type":"MultiLineString","coordinates":[[[0.6514753,51.7923933],[0.6512334,51.7923529],[0.6509518,51.7923214],[0.6508659,51.7922534],[0.6508525,51.7922103],[0.6508713,51.7921754],[0.6509177,51.7921453]]]}},
{"type":"Feature","properties":{"highway":"footway","name":null,"category":"Footpath (pedestrian only)"},"geometry":{"type":"MultiLineString","coordinates":[[[0.6423131,51.7980032],[0.6423886,51.7980281],[0.6423975,51.798031],[0.6423779,51.7980552],[0.6430078,51.7982732]]]}},
{"type":"Feature","properties":{"highway":"footway","name":null,"category":"Footpath (pedestrian only)"},"geometry":{"type":"MultiLineString","coordinates":[[[0.6430414,51.7988172],[0.6431428,51.7988576],[0.6431967,51.7988453],[0.6437833,51.7983095],[0.643926,51.7981469]]]}},
{"type":"Feature","properties":{"highway":"footway","name":null,"category":"Footpath (pedestrian only)"},"geometry":{"type":"MultiLineString","coordinates":[[[0.6441152,51.7923542],[0.6437064,51.7924543]]]}},
{"type":"Feature","properties":{"highway":"footway","name":null,"category":"Footpath (pedestrian only)"},"geometry":{"type":"MultiLineString","coordinates":[[[0.6435698,51.7926778],[0.6435581,51.792645],[0.6435627,51.7925908],[0.643657,51.7924671],[0.6436595,51.7922745],[0.6436405,51.7922533],[0.6430791,51.7915565],[0.6429653,51.7914721],[0.6428944,51.7914302]]]}},
{"type":"Feature","properties":{"highway":"footway","name":null,"category":"Footpath (pedestrian only)"},"geometry":{"type":"MultiLineString","coordinates":[[[0.6427445,51.7978745],[0.6428122,51.7977575]]]}},
{"type":"Feature","properties":{"highway":"track","name":null,"category":"Track"},"geometry":{"type":"MultiLineString","coordinates":[[[0.6427946,51.7955127],[0.6436141,51.7956306]]]}},
{"type":"Feature","properties":{"highway":"path","name":null,"category":"Shared path"},"geometry":{"type":"MultiLineString","coordinates":[[[0.6428926,51.7952392],[0.6429105,51.7951842]]]}},
{"type":"Feature","properties":{"highway":"footway","name":null,"category":"Footpath (pedestrian only)"},"geometry":{"type":"MultiLineString","coordinates":[[[0.6406435,51.7971892],[0.640664,51.7971865]]]}},
{"type":"Feature","properties":{"highway":"footway","name":null,"category":"Footpath (pedestrian only)"},"geometry":{"type":"MultiLineString","coordinates":[[[0.6437064,51.7924543],[0.643657,51.7924671],[0.6430099,51.7926557],[0.6429121,51.792668],[0.6427333,51.7926562],[0.6426782,51.7926688]]]}},
{"type":"Feature","properties":{"highway":"footway","name":null,"category":"Footpath (pedestrian only)"},"geometry":{"type":"MultiLineString","coordinates":[[[0.6405744,51.7936628],[0.6407972,51.793617],[0.6410414,51.7936312],[0.641372,51.7936122]]]}},
{"type":"Feature","properties":{"highway":"footway","name":null,"category":"Footpath (pedestrian only)"},"geometry":{"type":"MultiLineString","coordinates":[[[0.6403712,51.7937197],[0.6403388,51.7936816],[0.6403636,51.7935382],[0.640668,51.7935601],[0.6407972,51.793617]]]}},
{"type":"Feature","properties":{"highway":"footway","name":null,"category":"Footpath (pedestrian only)"},"geometry":{"type":"MultiLineString","coordinates":[[[0.6401691,51.7980401],[0.6401574,51.797987],[0.6402862,51.7978604],[0.6404784,51.7977526]]]}},
{"type":"Feature","properties":{"highway":"footway","name":null,"category":"Footpath (pedestrian only)"},"geometry":{"type":"MultiLineString","coordinates":[[[0.6418918,51.7947396],[0.6429722,51.7946531],[0.6434549,51.7945933]]]}},
{"type":"Feature","properties":{"highway":"path","name":null,"category":"Shared path"},"geometry":{"type":"MultiLineString","coordinates":[[[0.6415053,51.7946511],[0.6416367,51.7945715],[0.6418942,51.7945738],[0.6420276,51.7945353],[0.6422462,51.7945015],[0.6426559,51.7944846],[0.6427943,51.7945128],[0.6429423,51.7945538],[0.6429722,51.7946531]]]}},
{"type":"Feature","properties":{"highway":"footway","name":null,"category":"Footpath (pedestrian only)"},"geometry":{"type":"MultiLineString","coordinates":[[[0.6441061,51.7945423],[0.6443778,51.7942144],[0.6447212,51.7941879],[0.6450859,51.7941879],[0.6453483,51.7942119],[0.6455278,51.7942626],[0.6455975,51.7943215]]]}},
{"type":"Feature","properties":{"highway":"footway","name":null,"category":"Footpath (pedestrian only)"},"geometry":{"type":"MultiLineString","coordinates":[[[0.6357077,51.7932709],[0.6361471,51.7930803],[0.6363709,51.7931326],[0.6365652,51.7932701]]]}},
{"type":"Feature","properties":{"highway":"footway","name":"Blott Rise","category":"Footpath (pedestrian only)"},"geometry":{"type":"MultiLineString","coordinates":[[[0.6361471,51.7930803],[0.6362464,51.7930824],[0.6363527,51.7930462],[0.6364081,51.793008],[0.6364482,51.7929614],[0.6364451,51.7929051],[0.6363807,51.7926729],[0.6362192,51.792094]]]}},
{"type":"Feature","properties":{"highway":"footway","name":"Blott Rise","category":"Footpath (pedestrian only)"},"geometry":{"type":"MultiLineString","coordinates":[[[0.6364482,51.7929614],[0.6364744,51.7930051],[0.6365237,51.7930499],[0.6365915,51.7930775],[0.6366855,51.7930956],[0.6367825,51.793088],[0.6368411,51.7930604]]]}},
{"type":"Feature","properties":{"highway":"footway","name":null,"category":"Footpath (pedestrian only)"},"geometry":{"type":"MultiLineString","coordinates":[[[0.6368411,51.7930604],[0.6367594,51.7927421]]]}},
{"type":"Feature","properties":{"highway":"footway","name":"Brook Walk","category":"Footpath (pedestrian only)"},"geometry":{"type":"MultiLineString","coordinates":[[[0.6361471,51.7930803],[0.6354869,51.7929365],[0.6354618,51.792935],[0.6352334,51.7929211],[0.6346197,51.7929204],[0.6345779,51.7929197],[0.6344885,51.7929065],[0.6344112,51.792875],[0.6343482,51.7928247],[0.6343258,51.7927726],[0.6343149,51.7927061],[0.6342301,51.7927044],[0.6342148,51.7926064]]]}},
{"type":"Feature","properties":{"highway":"path","name":null,"category":"Shared path"},"geometry":{"type":"MultiLineString","coordinates":[[[0.6437725,51.7850457],[0.643809,51.7851535],[0.6438613,51.7851749],[0.6439203,51.7851845],[0.6441928,51.7851707],[0.64469,51.7851595],[0.6450718,51.7851299],[0.6451871,51.7851234],[0.645247,51.7850956],[0.6453084,51.7850845]]]}},
{"type":"Feature","properties":{"highway":"path","name":null,"category":"Shared path"},"geometry":{"type":"MultiLineString","coordinates":[[[0.6452299,51.7849467],[0.6456245,51.7849082],[0.646164,51.7848927]]]}},
{"type":"Feature","properties":{"highway":"path","name":null,"category":"Shared path"},"geometry":{"type":"MultiLineString","coordinates":[[[0.6437725,51.7850457],[0.6437596,51.7850075],[0.6437117,51.7844677],[0.6437137,51.7844518],[0.6437285,51.7844329],[0.6437591,51.7844188],[0.6437888,51.7844109],[0.6438461,51.7844103],[0.6438876,51.7844206],[0.6439093,51.7844347],[0.6439152,51.7844573],[0.6439882,51.7850372]]]}},
{"type":"Feature","properties":{"highway":"path","name":null,"category":"Shared path"},"geometry":{"type":"MultiLineString","coordinates":[[[0.6462209,51.7850524],[0.6455555,51.785078],[0.6453952,51.7850836],[0.6453084,51.7850845]]]}},
{"type":"Feature","properties":{"highway":"footway","name":null,"category":"Footpath (pedestrian only)"},"geometry":{"type":"MultiLineString","coordinates":[[[0.6379095,51.7882111],[0.6384127,51.7881714],[0.638583,51.7881614],[0.6387538,51.7882165]]]}},
{"type":"Feature","properties":{"highway":"footway","name":null,"category":"Footpath (pedestrian only)"},"geometry":{"type":"MultiLineString","coordinates":[[[0.6405367,51.7886712],[0.6406014,51.7888773],[0.6410828,51.7888118]]]}},
{"type":"Feature","properties":{"highway":"footway","name":null,"category":"Footpath (pedestrian only)"},"geometry":{"type":"MultiLineString","coordinates":[[[0.6413443,51.7929245],[0.6410304,51.7924925],[0.6410555,51.7924445],[0.6410517,51.7924316],[0.6410014,51.7923613],[0.6404723,51.7916867]]]}},
{"type":"Feature","properties":{"highway":"footway","name":null,"category":"Footpath (pedestrian only)"},"geometry":{"type":"MultiLineString","coordinates":[[[0.6398658,51.7922908],[0.6400541,51.792549],[0.6400528,51.7925716]]]}},
{"type":"Feature","properties":{"highway":"footway","name":null,"category":"Footpath (pedestrian only)"},"geometry":{"type":"MultiLineString","coordinates":[[[0.6397459,51.7921275],[0.6398658,51.7922908],[0.640431,51.7921233],[0.6404947,51.7921075],[0.6405276,51.7921063],[0.6405631,51.7921108],[0.6405893,51.7921274],[0.640946,51.7925874],[0.6411761,51.7928793],[0.6411521,51.7929158]]]}},
{"type":"Feature","properties":{"highway":"footway","name":null,"category":"Footpath (pedestrian only)"},"geometry":{"type":"MultiLineString","coordinates":[[[0.6402769,51.7919243],[0.6403533,51.7920229],[0.640431,51.7921233]]]}},
{"type":"Feature","properties":{"highway":"footway","name":null,"category":"Footpath (pedestrian only)"},"geometry":{"type":"MultiLineString","coordinates":[[[0.639701,51.7920913],[0.6402769,51.7919243],[0.6403144,51.7919134],[0.6403466,51.7918893],[0.6403539,51.7918694],[0.6403553,51.7918512],[0.6403439,51.7918317],[0.6402205,51.79166]]]}},
{"type":"Feature","properties":{"highway":"footway","name":null,"category":"Footpath (pedestrian only)"},"geometry":{"type":"MultiLineString","coordinates":[[[0.6399197,51.7921547],[0.6398506,51.7921278],[0.6398046,51.7921178],[0.6397459,51.7921275],[0.639701,51.7920913],[0.6396553,51.792085],[0.6395614,51.7920419],[0.6395059,51.7920064],[0.6395036,51.7919826],[0.6390171,51.791787]]]}},
{"type":"Feature","properties":{"highway":"footway","name":null,"category":"Footpath (pedestrian only)"},"geometry":{"type":"MultiLineString","coordinates":[[[0.6398227,51.7913782],[0.6397579,51.7912783],[0.6396974,51.7911905]]]}},
{"type":"Feature","properties":{"highway":"footway","name":null,"category":"Footpath (pedestrian only)"},"geometry":{"type":"MultiLineString","coordinates":[[[0.6387975,51.7928434],[0.6387881,51.7927894],[0.6388516,51.7925595],[0.6388914,51.7923753],[0.6389057,51.7923319],[0.6388971,51.7922944],[0.6388829,51.7922621],[0.6386563,51.7919824],[0.6384888,51.7917661],[0.6384068,51.7916609],[0.6383822,51.7916257],[0.6383924,51.7915988],[0.6384089,51.7915762],[0.6384491,51.7915593],[0.6385094,51.7915451],[0.6387767,51.7914577],[0.6388203,51.7914545],[0.6391901,51.7914146],[0.6392158,51.7914157],[0.639302,51.7914732],[0.6393646,51.7914943],[0.6395287,51.7914486],[0.6396671,51.7914128],[0.6398227,51.7913782],[0.6399384,51.7913524],[0.6400385,51.7913484]]]}},
{"type":"Feature","properties":{"highway":"footway","name":null,"category":"Footpath (pedestrian only)"},"geometry":{"type":"MultiLineString","coordinates":[[[0.6378862,51.7909019],[0.6379765,51.7910103],[0.6380547,51.7910395],[0.6382075,51.7911561],[0.6383854,51.7914078],[0.6384256,51.7914652]]]}},
{"type":"Feature","properties":{"highway":"footway","name":null,"category":"Footpath (pedestrian only)"},"geometry":{"type":"MultiLineString","coordinates":[[[0.6397511,51.7910374],[0.6396974,51.7911905],[0.6396746,51.7912018],[0.6396225,51.7912299],[0.639506,51.7912838],[0.6394849,51.7913009],[0.6393299,51.7913158],[0.6387174,51.791386],[0.6385129,51.791385],[0.6383854,51.7914078],[0.6382532,51.7914421],[0.6381242,51.7914717],[0.6380852,51.7914905],[0.63806,51.7915111],[0.638066,51.7915608],[0.6382028,51.791727],[0.6382542,51.7917882],[0.6382722,51.7917982],[0.6383737,51.7918451],[0.6383898,51.7918557],[0.6384317,51.7919039],[0.6385582,51.7920663],[0.6387425,51.7922915],[0.6387558,51.7923214],[0.6387596,51.7923548],[0.638753,51.7924],[0.6387378,51.7924311],[0.638715,51.7924492],[0.6386942,51.7924563],[0.6386591,51.7924662],[0.6386288,51.7924803],[0.6386098,51.7925067],[0.6386022,51.7925448],[0.6385444,51.7928246],[0.6387427,51.7928417],[0.6387975,51.7928434]]]}},
{"type":"Feature","properties":{"highway":"footway","name":null,"category":"Footpath (pedestrian only)"},"geometry":{"type":"MultiLineString","coordinates":[[[0.6384215,51.7917826],[0.6384888,51.7917661],[0.6387028,51.791708],[0.6389673,51.7917659],[0.6390171,51.791787]]]}},
{"type":"Feature","properties":{"highway":"footway","name":null,"category":"Footpath (pedestrian only)"},"geometry":{"type":"MultiLineString","coordinates":[[[0.6386258,51.7920433],[0.6385582,51.7920663],[0.6382817,51.7921507],[0.6381612,51.7919882]]]}},
{"type":"Feature","properties":{"highway":"footway","name":null,"category":"Footpath (pedestrian only)"},"geometry":{"type":"MultiLineString","coordinates":[[[0.6376416,51.7918932],[0.6377724,51.7918451],[0.637808,51.7918314]]]}},
{"type":"Feature","properties":{"highway":"footway","name":null,"category":"Footpath (pedestrian only)"},"geometry":{"type":"MultiLineString","coordinates":[[[0.6370576,51.7919803],[0.6370999,51.7919675],[0.6373893,51.7918803],[0.6374633,51.7918721],[0.6375297,51.7918686],[0.6375885,51.7918803],[0.6376416,51.7918932],[0.6377307,51.7919249],[0.637799,51.7919436],[0.6378748,51.7919577],[0.6379204,51.7919694],[0.6379773,51.79198],[0.6380285,51.7919694],[0.6380835,51.7919601],[0.6381612,51.7919882],[0.6384317,51.7919039],[0.6385004,51.7918832]]]}},
{"type":"Feature","properties":{"highway":"footway","name":null,"category":"Footpath (pedestrian only)"},"geometry":{"type":"MultiLineString","coordinates":[[[0.6363807,51.7926729],[0.636507,51.7926666]]]}},
{"type":"Feature","properties":{"highway":"footway","name":null,"category":"Footpath (pedestrian only)"},"geometry":{"type":"MultiLineString","coordinates":[[[0.6376226,51.7911072],[0.6375326,51.7910273],[0.6374507,51.7909511]]]}},
{"type":"Feature","properties":{"highway":"footway","name":null,"category":"Footpath (pedestrian only)"},"geometry":{"type":"MultiLineString","coordinates":[[[0.6394205,51.7904912],[0.6393461,51.7905115],[0.639208,51.790475],[0.6386026,51.7906482],[0.6385975,51.7906497],[0.6379556,51.7908773],[0.6378862,51.7909019],[0.6375326,51.7910273],[0.6367887,51.7912859],[0.6368127,51.7913465],[0.6369853,51.7917665],[0.6372414,51.7917067],[0.6373893,51.7918803]]]}},
{"type":"Feature","properties":{"highway":"footway","name":null,"category":"Footpath (pedestrian only)"},"geometry":{"type":"MultiLineString","coordinates":[[[0.6379765,51.7910103],[0.6376226,51.7911072],[0.6368127,51.7913465]]]}},
{"type":"Feature","properties":{"highway":"footway","name":null,"category":"Footpath (pedestrian only)"},"geometry":{"type":"MultiLineString","coordinates":[[[0.6411521,51.7929158],[0.6412693,51.7928997],[0.6413443,51.7929245],[0.6414127,51.7929345],[0.641457,51.7929345],[0.6417561,51.792888],[0.642322,51.7927968],[0.6423246,51.7927962],[0.6424373,51.7927711],[0.6425151,51.7927246],[0.6425285,51.7926956],[0.6426159,51.7926842],[0.6426782,51.7926688]]]}},
{"type":"Feature","properties":{"highway":"footway","name":null,"category":"Footpath (pedestrian only)"},"geometry":{"type":"MultiLineString","coordinates":[[[0.6411521,51.7929158],[0.6408964,51.7929984],[0.6408682,51.7930025],[0.6395043,51.7928989],[0.6388365,51.7928441],[0.6387975,51.7928434]]]}},
{"type":"Feature","properties":{"highway":"footway","name":null,"category":"Footpath (pedestrian only)"},"geometry":{"type":"MultiLineString","coordinates":[[[0.6429414,51.7927866],[0.6430545,51.7930604],[0.6428212,51.7931015],[0.6427893,51.7930354],[0.6426993,51.792822]]]}},
{"type":"Feature","properties":{"highway":"footway","name":null,"category":"Footpath (pedestrian only)"},"geometry":{"type":"MultiLineString","coordinates":[[[0.6403388,51.7936816],[0.6402636,51.7937089],[0.6400418,51.7936965],[0.6399939,51.7937818]]]}},
{"type":"Feature","properties":{"highway":"footway","name":null,"category":"Footpath (pedestrian only)"},"geometry":{"type":"MultiLineString","coordinates":[[[0.6391204,51.7930894],[0.6391415,51.7929794]]]}},
{"type":"Feature","properties":{"highway":"footway","name":null,"category":"Footpath (pedestrian only)"},"geometry":{"type":"MultiLineString","coordinates":[[[0.6397558,51.7930224],[0.6397177,51.7931329],[0.6396867,51.7932986],[0.6399657,51.7933185],[0.6400005,51.7931522],[0.6400246,51.7930476]]]}},
{"type":"Feature","properties":{"highway":"footway","name":null,"category":"Footpath (pedestrian only)"},"geometry":{"type":"MultiLineString","coordinates":[[[0.6381037,51.7930175],[0.6389288,51.7930733],[0.6391204,51.7930894],[0.6397177,51.7931329],[0.6398711,51.7931443],[0.6400005,51.7931522],[0.6405698,51.7931953],[0.6406222,51.7931962],[0.6406915,51.7931727],[0.6407549,51.7931564],[0.64083,51.7931629],[0.6410264,51.7931751],[0.6412138,51.793189],[0.6412577,51.7931885]]]}},
{"type":"Feature","properties":{"highway":"footway","name":null,"category":"Footpath (pedestrian only)"},"geometry":{"type":"MultiLineString","coordinates":[[[0.6409407,51.7902444],[0.6404542,51.7902033],[0.6404018,51.7901712]]]}},
{"type":"Feature","properties":{"highway":"footway","name":null,"category":"Footpath (pedestrian only)"},"geometry":{"type":"MultiLineString","coordinates":[[[0.6427333,51.7926562],[0.6424897,51.7923005],[0.6423971,51.7921465],[0.6421114,51.7917674],[0.6421222,51.7917251],[0.6420817,51.7916568]]]}},
{"type":"Feature","properties":{"highway":"footway","name":null,"category":"Footpath (pedestrian only)"},"geometry":{"type":"MultiLineString","coordinates":[[[0.6419109,51.7916479],[0.6418653,51.7917419],[0.6421839,51.7922475],[0.6423496,51.792283]]]}},
{"type":"Feature","properties":{"highway":"footway","name":null,"category":"Footpath (pedestrian only)"},"geometry":{"type":"MultiLineString","coordinates":[[[0.6413625,51.7912927],[0.6409265,51.7915565],[0.640886,51.7915447]]]}},
{"type":"Feature","properties":{"highway":"footway","name":null,"category":"Footpath (pedestrian only)"},"geometry":{"type":"MultiLineString","coordinates":[[[0.6413753,51.7899987],[0.6415334,51.7902992],[0.6417158,51.7903896],[0.6420216,51.7905414],[0.6422254,51.7906501],[0.6425132,51.7908683]]]}},
{"type":"Feature","properties":{"highway":"footway","name":null,"category":"Footpath (pedestrian only)"},"geometry":{"type":"MultiLineString","coordinates":[[[0.6407435,51.7909741],[0.6408051,51.790984],[0.6409312,51.7910093],[0.6409938,51.791054]]]}},
{"type":"Feature","properties":{"highway":"footway","name":null,"category":"Footpath (pedestrian only)"},"geometry":{"type":"MultiLineString","coordinates":[[[0.6409192,51.7908583],[0.6409938,51.791054]]]}},
{"type":"Feature","properties":{"highway":"footway","name":null,"category":"Footpath (pedestrian only)"},"geometry":{"type":"MultiLineString","coordinates":[[[0.641115,51.7904617],[0.6414577,51.7903819],[0.64149,51.7903744]]]}},
{"type":"Feature","properties":{"highway":"footway","name":null,"category":"Footpath (pedestrian only)"},"geometry":{"type":"MultiLineString","coordinates":[[[0.6406704,51.7910084],[0.6407008,51.790977],[0.6407435,51.7909741],[0.6409192,51.7908583],[0.6410158,51.7907736],[0.6410962,51.7906824],[0.6411391,51.7906011],[0.6411499,51.7905513],[0.641115,51.7904617],[0.6409407,51.7902444],[0.6409506,51.7902233]]]}},
{"type":"Feature","properties":{"highway":"footway","name":null,"category":"Footpath (pedestrian only)"},"geometry":{"type":"MultiLineString","coordinates":[[[0.6434852,51.7907251],[0.6425132,51.7908683],[0.6423075,51.7908983]]]}},
{"type":"Feature","properties":{"highway":"footway","name":"Pitt Green","category":"Footpath (pedestrian only)"},"geometry":{"type":"MultiLineString","coordinates":[[[0.6419713,51.791687],[0.6420817,51.7916568],[0.6423755,51.7915765],[0.6428944,51.7914302],[0.6429677,51.7914095]]]}},
{"type":"Feature","properties":{"highway":"footway","name":null,"category":"Footpath (pedestrian only)"},"geometry":{"type":"MultiLineString","coordinates":[[[0.6368497,51.7883681],[0.637089,51.7883149]]]}},
{"type":"Feature","properties":{"highway":"footway","name":null,"category":"Footpath (pedestrian only)"},"geometry":{"type":"MultiLineString","coordinates":[[[0.6358184,51.7886653],[0.6355766,51.7886635],[0.6354853,51.7886639],[0.6354841,51.7887211],[0.6353647,51.7887243]]]}},
{"type":"Feature","properties":{"highway":"footway","name":null,"category":"Footpath (pedestrian only)"},"geometry":{"type":"MultiLineString","coordinates":[[[0.6346703,51.7947686],[0.6347461,51.7947013],[0.6347803,51.7946917],[0.6349379,51.7945445],[0.6350314,51.7944539],[0.6351257,51.7943625],[0.6353476,51.79416],[0.6354421,51.7940729],[0.6356272,51.7939278],[0.6357513,51.7938365],[0.6359035,51.7937266],[0.6359504,51.7937018],[0.6363945,51.7934393],[0.6370206,51.7930863],[0.636992,51.7930488]]]}},
{"type":"Feature","properties":{"highway":"footway","name":null,"category":"Footpath (pedestrian only)"},"geometry":{"type":"MultiLineString","coordinates":[[[0.6369191,51.7954572],[0.6365472,51.7952313],[0.6364426,51.7951633],[0.6363568,51.7951035],[0.6363299,51.7950538],[0.6363514,51.7949413]]]}},
{"type":"Feature","properties":{"highway":"footway","name":null,"category":"Footpath (pedestrian only)"},"geometry":{"type":"MultiLineString","coordinates":[[[0.6349379,51.7945445],[0.6350867,51.7945262],[0.6353979,51.7946606],[0.6356232,51.7947626],[0.635772,51.7948547],[0.6360202,51.7950397],[0.6361891,51.7951757],[0.6362646,51.7952645],[0.6367615,51.7955543],[0.6369191,51.7954572]]]}},
{"type":"Feature","properties":{"highway":"footway","name":null,"category":"Footpath (pedestrian only)"},"geometry":{"type":"MultiLineString","coordinates":[[[0.6362741,51.7949418],[0.6363514,51.7949413],[0.6365351,51.7949401],[0.6367122,51.7949277],[0.6369039,51.7948937],[0.6370702,51.7948489],[0.6372164,51.7947983],[0.6373854,51.7947137],[0.6375152,51.7946907],[0.6379352,51.7944665],[0.6378501,51.7944043]]]}},
{"type":"Feature","properties":{"highway":"footway","name":null,"category":"Footpath (pedestrian only)"},"geometry":{"type":"MultiLineString","coordinates":[[[0.6351257,51.7943625],[0.6351511,51.7944557],[0.6357251,51.7946971],[0.6360273,51.7947092],[0.6362937,51.7947991],[0.6363983,51.7948323],[0.6365311,51.7948439],[0.636629,51.7948472],[0.6367041,51.7948439],[0.6367752,51.7948348],[0.6368825,51.7948124],[0.6369938,51.7947859],[0.6371346,51.7947311],[0.6372727,51.7946656],[0.637439,51.7945743],[0.6377931,51.7943628],[0.6378501,51.7944043]]]}},
{"type":"Feature","properties":{"highway":"footway","name":null,"category":"Footpath (pedestrian only)"},"geometry":{"type":"MultiLineString","coordinates":[[[0.640433,51.7841735],[0.6400503,51.7843163],[0.6394568,51.7867989]]]}},
{"type":"Feature","properties":{"highway":"footway","name":null,"category":"Footpath (pedestrian only)"},"geometry":{"type":"MultiLineString","coordinates":[[[0.6485827,51.7889653],[0.6487198,51.7886816],[0.6489164,51.7882513],[0.6497194,51.7875418],[0.650545,51.7866763]]]}},
{"type":"Feature","properties":{"highway":"footway","name":null,"category":"Footpath (pedestrian only)"},"geometry":{"type":"MultiLineString","coordinates":[[[0.6507823,51.7924866],[0.6501189,51.7923207]]]}},
{"type":"Feature","properties":{"highway":"footway","name":null,"category":"Footpath (pedestrian only)"},"geometry":{"type":"MultiLineString","coordinates":[[[0.6501189,51.7923207],[0.650634,51.7922076]]]}},
{"type":"Feature","properties":{"highway":"path","name":null,"category":"Shared path"},"geometry":{"type":"MultiLineString","coordinates":[[[0.6376279,51.7929311],[0.6378461,51.7929689],[0.6380381,51.7930131],[0.6381037,51.7930175],[0.6382011,51.7930918],[0.6382775,51.7931661],[0.638308,51.7932925],[0.638309,51.7934308],[0.6383393,51.7934814],[0.6386621,51.7937581],[0.6393643,51.794262]]]}},
{"type":"Feature","properties":{"highway":"footway","name":null,"category":"Footpath (pedestrian only)"},"geometry":{"type":"MultiLineString","coordinates":[[[0.637677,51.787367],[0.6381131,51.7869206],[0.6384008,51.7869922],[0.6389183,51.7871369]]]}},
{"type":"Feature","properties":{"highway":"footway","name":null,"category":"Footpath (pedestrian only)"},"geometry":{"type":"MultiLineString","coordinates":[[[0.6410423,51.7951646],[0.6410926,51.7950774],[0.6411474,51.7949991],[0.6411948,51.7949446]]]}},
{"type":"Feature","properties":{"highway":"footway","name":null,"category":"Footpath (pedestrian only)"},"geometry":{"type":"MultiLineString","coordinates":[[[0.6408845,51.795434],[0.6409509,51.7954035],[0.641009,51.7953631],[0.641055,51.7953187],[0.6411072,51.7952552],[0.6411488,51.795186]]]}},
{"type":"Feature","properties":{"highway":"footway","name":null,"category":"Footpath (pedestrian only)"},"geometry":{"type":"MultiLineString","coordinates":[[[0.6411948,51.7949446],[0.6412383,51.7948786],[0.6412776,51.7947955],[0.6413095,51.7947283],[0.6413137,51.7946591]]]}},
{"type":"Feature","properties":{"highway":"footway","name":null,"category":"Footpath (pedestrian only)"},"geometry":{"type":"MultiLineString","coordinates":[[[0.6411488,51.795186],[0.6410998,51.7951761],[0.6410423,51.7951646]]]}},
{"type":"Feature","properties":{"highway":"footway","name":null,"category":"Footpath (pedestrian only)"},"geometry":{"type":"MultiLineString","coordinates":[[[0.637947,51.7929012],[0.6378355,51.7928758],[0.6376639,51.7928143],[0.6376469,51.792764],[0.6375761,51.7926255],[0.6374333,51.79241],[0.6373416,51.7922771],[0.6371491,51.7919886],[0.6370999,51.7919675]]]}},
{"type":"Feature","properties":{"highway":"footway","name":null,"category":"Footpath (pedestrian only)"},"geometry":{"type":"MultiLineString","coordinates":[[[0.6411488,51.795186],[0.6414379,51.7952277],[0.6418979,51.7952923],[0.6426286,51.7952715],[0.6428684,51.7953066]]]}},
{"type":"Feature","properties":{"highway":"path","name":null,"category":"Shared path"},"geometry":{"type":"MultiLineString","coordinates":[[[0.6434549,51.7945933],[0.6435924,51.7944219],[0.6437016,51.7943616],[0.6437836,51.7943012],[0.6438001,51.794237]]]}},
{"type":"Feature","properties":{"highway":"path","name":null,"category":"Shared path"},"geometry":{"type":"MultiLineString","coordinates":[[[0.6429423,51.7945538],[0.6431334,51.7944243],[0.6432696,51.7943665],[0.6434525,51.7943263],[0.6436192,51.7942973],[0.6437249,51.7942697],[0.6438001,51.794237]]]}},
{"type":"Feature","properties":{"highway":"path","name":null,"category":"Shared path"},"geometry":{"type":"MultiLineString","coordinates":[[[0.6432736,51.7936824],[0.6428702,51.7936117],[0.6424261,51.7935384],[0.6422597,51.7934935],[0.6421341,51.7934859],[0.6419288,51.7934826],[0.6418085,51.7934519],[0.6416541,51.7934558]]]}},
{"type":"Feature","properties":{"highway":"pedestrian","name":"The Grove Centre","category":"Pedestrian area/street"},"geometry":{"type":"MultiLineString","coordinates":[[[0.6430922,51.7987715],[0.6430414,51.7988172],[0.6429738,51.7988779],[0.6425114,51.7992936],[0.6423688,51.7993568],[0.6422091,51.7994253],[0.6421006,51.79947],[0.6419707,51.7995042],[0.6419026,51.7995345],[0.6417642,51.7995622],[0.6416833,51.799603],[0.6415795,51.7996183],[0.6414261,51.7996227],[0.6413346,51.7996254],[0.6412895,51.7996267],[0.6410905,51.7997068],[0.6409978,51.7997715],[0.6408318,51.7998768],[0.640713,51.7999307]]]}},
{"type":"Feature","properties":{"highway":"pedestrian","name":null,"category":"Pedestrian area/street"},"geometry":{"type":"MultiLineString","coordinates":[[[0.6429223,51.7988565],[0.6429738,51.7988779]]]}}
]
}
