{
"type": "FeatureCollection",
"name": "WATFO_28_walking",
"crs": { "type": "name", "properties": { "name": "urn:ogc:def:crs:OGC:1.3:CRS84" } },
"features": [
{"type":"Feature","properties":{"highway":"footway","name":null,"category":"Footpath (pedestrian only)"},"geometry":{"type":"MultiLineString","coordinates":[[[-0.3931234,51.6567814],[-0.3931209,51.6566673],[-0.3933379,51.6562061]]]}},
{"type":"Feature","properties":{"highway":"bridleway","name":null,"category":"Bridleway"},"geometry":{"type":"MultiLineString","coordinates":[[[-0.3981459,51.662039],[-0.398129,51.6620979],[-0.3981015,51.6622468],[-0.3980251,51.662785],[-0.3979741,51.6629547]]]}},
{"type":"Feature","properties":{"highway":"footway","name":"Derby Road","category":"Footpath (pedestrian only)"},"geometry":{"type":"MultiLineString","coordinates":[[[-0.3923754,51.6558815],[-0.3923336,51.6558307],[-0.3922677,51.6557618],[-0.3922888,51.6557203]]]}},
{"type":"Feature","properties":{"highway":"path","name":null,"category":"Shared path"},"geometry":{"type":"MultiLineString","coordinates":[[[-0.3897692,51.6530861],[-0.389853,51.6530543],[-0.3900429,51.6529821]]]}},
{"type":"Feature","properties":{"highway":"footway","name":null,"category":"Footpath (pedestrian only)"},"geometry":{"type":"MultiLineString","coordinates":[[[-0.3858005,51.666997],[-0.3857952,51.6670272],[-0.3863034,51.6671184],[-0.3868406,51.6671897]]]}},
{"type":"Feature","properties":{"highway":"footway","name":null,"category":"Footpath (pedestrian only)"},"geometry":{"type":"MultiLineString","coordinates":[[[-0.3885431,51.6665161],[-0.3880039,51.6673422],[-0.3869232,51.6671001],[-0.3868406,51.6671897]]]}},
{"type":"Feature","properties":{"highway":"footway","name":"Reeds Walk","category":"Footpath (pedestrian only)"},"geometry":{"type":"MultiLineString","coordinates":[[[-0.3884747,51.6665009],[-0.3890037,51.6656961],[-0.3892075,51.6652726],[-0.3895341,51.6645892],[-0.3896014,51.6644372],[-0.3896132,51.6640349],[-0.3896198,51.6639879],[-0.3896668,51.6636556],[-0.3896746,51.6635408],[-0.3896598,51.6634555],[-0.3897357,51.6633732],[-0.3898792,51.6629631],[-0.3900553,51.6625371],[-0.3901074,51.6624053],[-0.3902222,51.662173],[-0.3901065,51.6621457],[-0.3901325,51.6621012]]]}},
{"type":"Feature","properties":{"highway":"footway","name":null,"category":"Footpath (pedestrian only)"},"geometry":{"type":"MultiLineString","coordinates":[[[-0.3901325,51.6621012],[-0.3901655,51.6620473],[-0.3902397,51.6620625],[-0.3904918,51.6616707],[-0.3906449,51.6614835],[-0.3907079,51.6614066],[-0.390934,51.6611861],[-0.3909668,51.6611541],[-0.3914242,51.6607562],[-0.391559,51.6605901]]]}},
{"type":"Feature","properties":{"highway":"footway","name":null,"category":"Footpath (pedestrian only)"},"geometry":{"type":"MultiLineString","coordinates":[[[-0.3865784,51.6623824],[-0.3865728,51.6624499],[-0.3864603,51.6626271],[-0.3865133,51.6627613]]]}},
{"type":"Feature","properties":{"highway":"footway","name":null,"category":"Footpath (pedestrian only)"},"geometry":{"type":"MultiLineString","coordinates":[[[-0.3848845,51.6651054],[-0.3851077,51.6654024]]]}},
{"type":"Feature","properties":{"highway":"footway","name":null,"category":"Footpath (pedestrian only)"},"geometry":{"type":"MultiLineString","coordinates":[[[-0.3851077,51.6654024],[-0.3852543,51.6653478],[-0.385284,51.6652996]]]}},
{"type":"Feature","properties":{"highway":"footway","name":null,"category":"Footpath (pedestrian only)"},"geometry":{"type":"MultiLineString","coordinates":[[[-0.3865133,51.6627613],[-0.3865438,51.6628412]]]}},
{"type":"Feature","properties":{"highway":"footway","name":null,"category":"Footpath (pedestrian only)"},"geometry":{"type":"MultiLineString","coordinates":[[[-0.3865438,51.6628412],[-0.3865456,51.6628701],[-0.3865707,51.6630103],[-0.3865657,51.6631068],[-0.3865557,51.6632221],[-0.3865054,51.6633061],[-0.3864402,51.6634463],[-0.38639,51.663546],[-0.3863046,51.6636456],[-0.386169,51.6636924],[-0.3859933,51.6637609],[-0.385692,51.663845],[-0.3855162,51.6639291],[-0.3853907,51.6640568],[-0.3853455,51.6641253],[-0.3853304,51.6642032],[-0.3853154,51.6643153],[-0.3852953,51.6644523],[-0.3852702,51.6645614],[-0.38522,51.6646268],[-0.3851446,51.6647015],[-0.3850894,51.6647669],[-0.384984,51.6648417],[-0.3848835,51.6649008],[-0.3848233,51.6649382],[-0.3848132,51.6649756],[-0.3848383,51.6650099],[-0.3848845,51.6651054]]]}},
{"type":"Feature","properties":{"highway":"footway","name":null,"category":"Footpath (pedestrian only)"},"geometry":{"type":"MultiLineString","coordinates":[[[-0.3906821,51.6545905],[-0.3906968,51.6546915]]]}},
{"type":"Feature","properties":{"highway":"footway","name":null,"category":"Footpath (pedestrian only)"},"geometry":{"type":"MultiLineString","coordinates":[[[-0.393765,51.6582832],[-0.3937789,51.6582904],[-0.3942344,51.6584465]]]}},
{"type":"Feature","properties":{"highway":"footway","name":null,"category":"Footpath (pedestrian only)"},"geometry":{"type":"MultiLineString","coordinates":[[[-0.3933165,51.6588851],[-0.3934526,51.6586646],[-0.3937789,51.6582904],[-0.3938126,51.6582487],[-0.394321,51.657682],[-0.3944244,51.657567],[-0.394493,51.6574944],[-0.3948529,51.6571388],[-0.3948798,51.6571193]]]}},
{"type":"Feature","properties":{"highway":"footway","name":null,"category":"Footpath (pedestrian only)"},"geometry":{"type":"MultiLineString","coordinates":[[[-0.3956223,51.6579233],[-0.3952644,51.657841],[-0.3948377,51.6577061]]]}},
{"type":"Feature","properties":{"highway":"footway","name":null,"category":"Footpath (pedestrian only)"},"geometry":{"type":"MultiLineString","coordinates":[[[-0.3898901,51.6545136],[-0.3901316,51.6545337]]]}},
{"type":"Feature","properties":{"highway":"footway","name":null,"category":"Footpath (pedestrian only)"},"geometry":{"type":"MultiLineString","coordinates":[[[-0.3906821,51.6545905],[-0.3907837,51.6546172],[-0.391004,51.6547365],[-0.391066,51.654686],[-0.3911284,51.6546444],[-0.3911972,51.6543954],[-0.391136,51.6543446]]]}},
{"type":"Feature","properties":{"highway":"footway","name":null,"category":"Footpath (pedestrian only)"},"geometry":{"type":"MultiLineString","coordinates":[[[-0.3933782,51.6520712],[-0.392694,51.6524662],[-0.3922382,51.6526688],[-0.3921129,51.6527047],[-0.3919353,51.6527555],[-0.3918101,51.652771]]]}},
{"type":"Feature","properties":{"highway":"footway","name":null,"category":"Footpath (pedestrian only)"},"geometry":{"type":"MultiLineString","coordinates":[[[-0.3898901,51.6545136],[-0.3896707,51.6545038]]]}},
{"type":"Feature","properties":{"highway":"footway","name":null,"category":"Footpath (pedestrian only)"},"geometry":{"type":"MultiLineString","coordinates":[[[-0.3936365,51.6552278],[-0.393869,51.6545006],[-0.3940353,51.6542393]]]}},
{"type":"Feature","properties":{"highway":"footway","name":null,"category":"Footpath (pedestrian only)"},"geometry":{"type":"MultiLineString","coordinates":[[[-0.3934298,51.6559747],[-0.3934323,51.6559684],[-0.3934704,51.6558723],[-0.3935143,51.6556134]]]}},
{"type":"Feature","properties":{"highway":"footway","name":null,"category":"Footpath (pedestrian only)"},"geometry":{"type":"MultiLineString","coordinates":[[[-0.3946817,51.6565955],[-0.3945315,51.6565206],[-0.3944805,51.6564657],[-0.3944993,51.6564224],[-0.3940765,51.6562106],[-0.3937188,51.6560314],[-0.393691,51.6560008],[-0.3936115,51.6559133],[-0.3935659,51.6558551],[-0.3935337,51.6557569],[-0.3935143,51.6556134]]]}},
{"type":"Feature","properties":{"highway":"footway","name":null,"category":"Footpath (pedestrian only)"},"geometry":{"type":"MultiLineString","coordinates":[[[-0.3933379,51.6562061],[-0.3934298,51.6559747]]]}},
{"type":"Feature","properties":{"highway":"footway","name":null,"category":"Footpath (pedestrian only)"},"geometry":{"type":"MultiLineString","coordinates":[[[-0.3924474,51.6554956],[-0.3927388,51.6557021],[-0.3928229,51.6557469],[-0.3929597,51.6557968],[-0.3930536,51.6558168],[-0.3931582,51.6558235],[-0.3932601,51.6558151],[-0.3933486,51.6557918],[-0.3934452,51.6557286],[-0.3935143,51.6556134]]]}},
{"type":"Feature","properties":{"highway":"footway","name":null,"category":"Footpath (pedestrian only)"},"geometry":{"type":"MultiLineString","coordinates":[[[-0.3935143,51.6556134],[-0.3935921,51.6553886],[-0.3936365,51.6552278]]]}},
{"type":"Feature","properties":{"highway":"footway","name":null,"category":"Footpath (pedestrian only)"},"geometry":{"type":"MultiLineString","coordinates":[[[-0.3845524,51.6582606],[-0.384199,51.6585463],[-0.3840181,51.6585546]]]}},
{"type":"Feature","properties":{"highway":"footway","name":null,"category":"Footpath (pedestrian only)"},"geometry":{"type":"MultiLineString","coordinates":[[[-0.3845524,51.6582606],[-0.3844411,51.658231],[-0.3842969,51.6582261],[-0.3839868,51.6582397]]]}},
{"type":"Feature","properties":{"highway":"footway","name":null,"category":"Footpath (pedestrian only)"},"geometry":{"type":"MultiLineString","coordinates":[[[-0.388004,51.6565393],[-0.387847,51.6564255]]]}},
{"type":"Feature","properties":{"highway":"footway","name":null,"category":"Footpath (pedestrian only)"},"geometry":{"type":"MultiLineString","coordinates":[[[-0.3851578,51.6581367],[-0.3846938,51.6580207]]]}},
{"type":"Feature","properties":{"highway":"footway","name":null,"category":"Footpath (pedestrian only)"},"geometry":{"type":"MultiLineString","coordinates":[[[-0.387847,51.6564255],[-0.3873003,51.6567268],[-0.3871931,51.6567667],[-0.3869946,51.6568699],[-0.3866424,51.6570539]]]}},
{"type":"Feature","properties":{"highway":"footway","name":null,"category":"Footpath (pedestrian only)"},"geometry":{"type":"MultiLineString","coordinates":[[[-0.4002952,51.6604161],[-0.4002753,51.6604419],[-0.3999202,51.6603291],[-0.399902,51.6603554],[-0.4002087,51.6604492]]]}},
{"type":"Feature","properties":{"highway":"path","name":"Wells Yard","category":"Shared path"},"geometry":{"type":"MultiLineString","coordinates":[[[-0.3985019,51.6568809],[-0.3984632,51.6569084],[-0.3984108,51.6569457]]]}},
{"type":"Feature","properties":{"highway":"path","name":null,"category":"Shared path"},"geometry":{"type":"MultiLineString","coordinates":[[[-0.3926232,51.6534364],[-0.3931073,51.6531543],[-0.3931761,51.6530485]]]}},
{"type":"Feature","properties":{"highway":"footway","name":null,"category":"Footpath (pedestrian only)"},"geometry":{"type":"MultiLineString","coordinates":[[[-0.3962088,51.6543889],[-0.3961974,51.6543525],[-0.3961277,51.6543009],[-0.3960418,51.6542693],[-0.3959404,51.6542472],[-0.3958299,51.6542643],[-0.3957092,51.6542993],[-0.395573,51.6543603],[-0.3953652,51.654444]]]}},
{"type":"Feature","properties":{"highway":"footway","name":null,"category":"Footpath (pedestrian only)"},"geometry":{"type":"MultiLineString","coordinates":[[[-0.3961678,51.6545288],[-0.3962088,51.6543889],[-0.3963233,51.6539464],[-0.3963314,51.6539371],[-0.3963421,51.6539248],[-0.3964103,51.6539017]]]}},
{"type":"Feature","properties":{"highway":"footway","name":null,"category":"Footpath (pedestrian only)"},"geometry":{"type":"MultiLineString","coordinates":[[[-0.3957583,51.6549535],[-0.3951402,51.6545653],[-0.3950387,51.6545035]]]}},
{"type":"Feature","properties":{"highway":"footway","name":null,"category":"Footpath (pedestrian only)"},"geometry":{"type":"MultiLineString","coordinates":[[[-0.3948872,51.6545657],[-0.3949581,51.6545321],[-0.3950387,51.6545035],[-0.3952451,51.6544107],[-0.395494,51.6542448],[-0.395634,51.6541411],[-0.39573,51.654075],[-0.3958293,51.6540318],[-0.395921,51.6540213],[-0.3960229,51.6540379],[-0.3961141,51.654018],[-0.396237,51.6539768],[-0.3962992,51.6539514],[-0.3963314,51.6539371]]]}},
{"type":"Feature","properties":{"highway":"footway","name":null,"category":"Footpath (pedestrian only)"},"geometry":{"type":"MultiLineString","coordinates":[[[-0.391004,51.6547365],[-0.3908931,51.6548063]]]}},
{"type":"Feature","properties":{"highway":"footway","name":null,"category":"Footpath (pedestrian only)"},"geometry":{"type":"MultiLineString","coordinates":[[[-0.3936575,51.6540513],[-0.3934302,51.6539553],[-0.3932469,51.6538682],[-0.3931314,51.6538133],[-0.3925716,51.6534878]]]}},
{"type":"Feature","properties":{"highway":"footway","name":null,"category":"Footpath (pedestrian only)"},"geometry":{"type":"MultiLineString","coordinates":[[[-0.3905105,51.6528953],[-0.3904905,51.6528603],[-0.3905549,51.6528437],[-0.390622,51.6528038],[-0.3905925,51.6527389],[-0.3904074,51.6525491],[-0.3903028,51.6524343],[-0.390217,51.6523345],[-0.390174,51.6522363],[-0.3901901,51.6521581],[-0.3902384,51.6520998],[-0.3903712,51.6520199]]]}},
{"type":"Feature","properties":{"highway":"footway","name":null,"category":"Footpath (pedestrian only)"},"geometry":{"type":"MultiLineString","coordinates":[[[-0.3925716,51.6534878],[-0.3925095,51.6534437],[-0.3924422,51.6533971]]]}},
{"type":"Feature","properties":{"highway":"footway","name":null,"category":"Footpath (pedestrian only)"},"geometry":{"type":"MultiLineString","coordinates":[[[-0.3924422,51.6533971],[-0.3921699,51.6532229]]]}},
{"type":"Feature","properties":{"highway":"footway","name":null,"category":"Footpath (pedestrian only)"},"geometry":{"type":"MultiLineString","coordinates":[[[-0.3912839,51.6527425],[-0.3912056,51.6527655],[-0.391094,51.6527971],[-0.3906944,51.6528803]]]}},
{"type":"Feature","properties":{"highway":"footway","name":null,"category":"Footpath (pedestrian only)"},"geometry":{"type":"MultiLineString","coordinates":[[[-0.3835531,51.6672105],[-0.3835327,51.66731],[-0.3834844,51.6674032],[-0.3834307,51.6675129],[-0.3833899,51.6675587],[-0.3833449,51.6676094],[-0.3832876,51.6676577],[-0.3832572,51.6677212],[-0.3832386,51.6677601],[-0.3831919,51.6678575],[-0.3831523,51.6679403],[-0.3831518,51.668032],[-0.3831571,51.6681494],[-0.383227,51.6682306],[-0.3832689,51.6682891],[-0.3833878,51.668368],[-0.3835166,51.6684445],[-0.3836078,51.6684878],[-0.3837208,51.6684998],[-0.3837853,51.6684994],[-0.3838325,51.6684904],[-0.3838459,51.6684878],[-0.3839475,51.668457],[-0.3841049,51.6684563],[-0.3842398,51.6684612]]]}},
{"type":"Feature","properties":{"highway":"footway","name":null,"category":"Footpath (pedestrian only)"},"geometry":{"type":"MultiLineString","coordinates":[[[-0.3867689,51.657879],[-0.3866011,51.6579098],[-0.3865279,51.6579351],[-0.3864724,51.6579963],[-0.3864455,51.6580795],[-0.3864455,51.6581993],[-0.3864455,51.6583025],[-0.3864563,51.658389],[-0.386408,51.6584323],[-0.3863812,51.6584755],[-0.3863543,51.6586319],[-0.3863382,51.6587517],[-0.3862953,51.6588416],[-0.3862846,51.6589215],[-0.3862363,51.6590213],[-0.3861988,51.6591012],[-0.3861631,51.6591797],[-0.3861255,51.6592529],[-0.3861041,51.6593061],[-0.3860378,51.6594106],[-0.3859914,51.6594692],[-0.3859539,51.6595291],[-0.3859145,51.6595803],[-0.385834,51.6596336],[-0.3857803,51.6596802],[-0.3857267,51.6597334],[-0.3856945,51.6597767],[-0.3856749,51.6598386],[-0.385691,51.6599417],[-0.3856945,51.6600229],[-0.3856803,51.6600748],[-0.3856427,51.6601214],[-0.3855891,51.660158],[-0.3855408,51.6602013],[-0.3855033,51.6602446],[-0.3854872,51.6603078],[-0.3854872,51.660401],[-0.3854907,51.6604822],[-0.3855389,51.6605953],[-0.3855711,51.6606552],[-0.3855765,51.6607018],[-0.385598,51.660755],[-0.3856623,51.6608282],[-0.3857643,51.6608715],[-0.3858233,51.6609281],[-0.3858715,51.6609846],[-0.3859949,51.6610578],[-0.3861612,51.6611543],[-0.3862739,51.6612176],[-0.386343,51.6612788]]]}},
{"type":"Feature","properties":{"highway":"footway","name":null,"category":"Footpath (pedestrian only)"},"geometry":{"type":"MultiLineString","coordinates":[[[-0.3847028,51.6654211],[-0.3845699,51.6654388],[-0.3843875,51.6654621],[-0.3842729,51.6655033],[-0.3841496,51.6655665],[-0.3840227,51.6656218],[-0.3839672,51.6656564],[-0.3839154,51.6657515],[-0.3838671,51.665848],[-0.3838296,51.6659478],[-0.383792,51.666031],[-0.3837598,51.6661042],[-0.3837526,51.6661921],[-0.3837545,51.6662573],[-0.383758,51.6663318],[-0.3837403,51.6664075],[-0.3836678,51.6665474],[-0.3836399,51.6666534],[-0.3836161,51.6667781],[-0.3836024,51.6668863],[-0.3835812,51.6669902],[-0.3835662,51.6671112],[-0.3835531,51.6672105]]]}},
{"type":"Feature","properties":{"highway":"footway","name":null,"category":"Footpath (pedestrian only)"},"geometry":{"type":"MultiLineString","coordinates":[[[-0.3982026,51.6637145],[-0.3982672,51.6637254]]]}},
{"type":"Feature","properties":{"highway":"footway","name":null,"category":"Footpath (pedestrian only)"},"geometry":{"type":"MultiLineString","coordinates":[[[-0.3978707,51.6649528],[-0.3967419,51.6641106]]]}},
{"type":"Feature","properties":{"highway":"footway","name":null,"category":"Footpath (pedestrian only)"},"geometry":{"type":"MultiLineString","coordinates":[[[-0.3906944,51.6528803],[-0.3902411,51.6529718],[-0.3900614,51.6530038],[-0.3900429,51.6529821]]]}},
{"type":"Feature","properties":{"highway":"footway","name":null,"category":"Footpath (pedestrian only)"},"geometry":{"type":"MultiLineString","coordinates":[[[-0.3939401,51.6542301],[-0.3935257,51.6542973],[-0.3928567,51.6542307],[-0.3926819,51.6542143],[-0.3917302,51.6541367],[-0.3916318,51.654126]]]}},
{"type":"Feature","properties":{"highway":"path","name":null,"category":"Shared path"},"geometry":{"type":"MultiLineString","coordinates":[[[-0.3884785,51.6593642],[-0.3889581,51.6595576],[-0.3894169,51.6595814],[-0.3896291,51.6596756]]]}},
{"type":"Feature","properties":{"highway":"path","name":null,"category":"Shared path"},"geometry":{"type":"MultiLineString","coordinates":[[[-0.3955793,51.6561627],[-0.3950125,51.6561073],[-0.3945411,51.6559066],[-0.3941991,51.6556161],[-0.3938571,51.6554594],[-0.3936723,51.6554001],[-0.3935921,51.6553886],[-0.3935059,51.6553791],[-0.3932717,51.6552491],[-0.3927849,51.6548209],[-0.3927634,51.6544979],[-0.3928567,51.6542307]]]}},
{"type":"Feature","properties":{"highway":"footway","name":null,"category":"Footpath (pedestrian only)"},"geometry":{"type":"MultiLineString","coordinates":[[[-0.391559,51.6605901],[-0.3919338,51.6604089]]]}},
{"type":"Feature","properties":{"highway":"footway","name":"Reeds Walk","category":"Footpath (pedestrian only)"},"geometry":{"type":"MultiLineString","coordinates":[[[-0.3919338,51.6604089],[-0.3928146,51.660117]]]}},
{"type":"Feature","properties":{"highway":"path","name":"Wells Yard","category":"Shared path"},"geometry":{"type":"MultiLineString","coordinates":[[[-0.3985896,51.6568187],[-0.3985019,51.6568809]]]}},
{"type":"Feature","properties":{"highway":"path","name":"Wells Yard","category":"Shared path"},"geometry":{"type":"MultiLineString","coordinates":[[[-0.3989247,51.6565654],[-0.3985896,51.6568187]]]}},
{"type":"Feature","properties":{"highway":"footway","name":null,"category":"Footpath (pedestrian only)"},"geometry":{"type":"MultiLineString","coordinates":[[[-0.3959137,51.6573892],[-0.3959429,51.6573654],[-0.3958538,51.6573234],[-0.3959104,51.6572772],[-0.3959595,51.6572372]]]}},
{"type":"Feature","properties":{"highway":"footway","name":null,"category":"Footpath (pedestrian only)"},"geometry":{"type":"MultiLineString","coordinates":[[[-0.4004489,51.6600944],[-0.399877,51.6598467]]]}},
{"type":"Feature","properties":{"highway":"footway","name":null,"category":"Footpath (pedestrian only)"},"geometry":{"type":"MultiLineString","coordinates":[[[-0.3995892,51.656979],[-0.3995772,51.6570302],[-0.3995703,51.65706],[-0.3992436,51.6572889],[-0.3991623,51.6573801],[-0.3991178,51.657414]]]}},
{"type":"Feature","properties":{"highway":"footway","name":"High Street","category":"Footpath (pedestrian only)"},"geometry":{"type":"MultiLineString","coordinates":[[[-0.3938801,51.6541391],[-0.3939848,51.6542067],[-0.3940353,51.6542393]]]}},
{"type":"Feature","properties":{"highway":"footway","name":"High Street","category":"Footpath (pedestrian only)"},"geometry":{"type":"MultiLineString","coordinates":[[[-0.3939401,51.6542301],[-0.3939848,51.6542067]]]}},
{"type":"Feature","properties":{"highway":"footway","name":null,"category":"Footpath (pedestrian only)"},"geometry":{"type":"MultiLineString","coordinates":[[[-0.3917165,51.6624324],[-0.3917353,51.6623604],[-0.391736,51.6623159]]]}},
{"type":"Feature","properties":{"highway":"footway","name":null,"category":"Footpath (pedestrian only)"},"geometry":{"type":"MultiLineString","coordinates":[[[-0.3912677,51.664213],[-0.3909663,51.6649821],[-0.3907453,51.665546]]]}},
{"type":"Feature","properties":{"highway":"path","name":null,"category":"Shared path"},"geometry":{"type":"MultiLineString","coordinates":[[[-0.3897543,51.6569589],[-0.3877893,51.6567548]]]}},
{"type":"Feature","properties":{"highway":"footway","name":null,"category":"Footpath (pedestrian only)"},"geometry":{"type":"MultiLineString","coordinates":[[[-0.3959595,51.6572372],[-0.3966524,51.6567455],[-0.3961279,51.6564804],[-0.3963757,51.6562836],[-0.396525,51.6561747],[-0.3965571,51.6561455],[-0.3967788,51.655944],[-0.3967215,51.65567]]]}},
{"type":"Feature","properties":{"highway":"footway","name":null,"category":"Footpath (pedestrian only)"},"geometry":{"type":"MultiLineString","coordinates":[[[-0.3968075,51.6635232],[-0.3968078,51.6635143],[-0.3968082,51.6635035],[-0.3968151,51.6633021],[-0.3966642,51.6632339],[-0.396709,51.6631933]]]}},
{"type":"Feature","properties":{"highway":"footway","name":null,"category":"Footpath (pedestrian only)"},"geometry":{"type":"MultiLineString","coordinates":[[[-0.3969141,51.6631441],[-0.3969513,51.6631067],[-0.396933,51.6621394],[-0.3969171,51.6618095],[-0.3969151,51.6615365],[-0.3969059,51.6612045],[-0.3969026,51.661187],[-0.3968932,51.6611745],[-0.3968804,51.6611683],[-0.3968603,51.6611645],[-0.3968561,51.6611143],[-0.3968576,51.6610797],[-0.3968838,51.6610797],[-0.3968972,51.661073],[-0.3969046,51.6610626],[-0.3969059,51.6610439],[-0.3969073,51.6605244],[-0.3969073,51.6604239],[-0.3969086,51.6603131],[-0.3969056,51.6602439],[-0.396903,51.6601333],[-0.3968932,51.6599299],[-0.3969027,51.6590768],[-0.3968999,51.6588862],[-0.3968853,51.6579039],[-0.3968848,51.6578747],[-0.396917,51.6577782],[-0.396922,51.6577627],[-0.396924,51.6577403],[-0.3969227,51.6577199],[-0.3970485,51.6577428]]]}},
{"type":"Feature","properties":{"highway":"footway","name":null,"category":"Footpath (pedestrian only)"},"geometry":{"type":"MultiLineString","coordinates":[[[-0.3965887,51.6640935],[-0.3965537,51.6641072]]]}},
{"type":"Feature","properties":{"highway":"footway","name":null,"category":"Footpath (pedestrian only)"},"geometry":{"type":"MultiLineString","coordinates":[[[-0.3963952,51.6640745],[-0.3963592,51.6640909],[-0.3963361,51.6641024],[-0.3963168,51.6641119],[-0.3962842,51.6641289]]]}},
{"type":"Feature","properties":{"highway":"footway","name":null,"category":"Footpath (pedestrian only)"},"geometry":{"type":"MultiLineString","coordinates":[[[-0.3965266,51.6645897],[-0.3964993,51.6645676],[-0.396433,51.6645055],[-0.3963901,51.6644412]]]}},
{"type":"Feature","properties":{"highway":"footway","name":null,"category":"Footpath (pedestrian only)"},"geometry":{"type":"MultiLineString","coordinates":[[[-0.3963901,51.6644412],[-0.3964175,51.6644237]]]}},
{"type":"Feature","properties":{"highway":"footway","name":null,"category":"Footpath (pedestrian only)"},"geometry":{"type":"MultiLineString","coordinates":[[[-0.3977398,51.6636438],[-0.3979973,51.6636858]]]}},
{"type":"Feature","properties":{"highway":"footway","name":null,"category":"Footpath (pedestrian only)"},"geometry":{"type":"MultiLineString","coordinates":[[[-0.3979973,51.6636858],[-0.3982026,51.6637145]]]}},
{"type":"Feature","properties":{"highway":"footway","name":null,"category":"Footpath (pedestrian only)"},"geometry":{"type":"MultiLineString","coordinates":[[[-0.3959099,51.6552138],[-0.3959113,51.6551038],[-0.3957583,51.6549535],[-0.3957445,51.6549766],[-0.3957191,51.6549859],[-0.3957498,51.6550191]]]}},
{"type":"Feature","properties":{"highway":"footway","name":null,"category":"Footpath (pedestrian only)"},"geometry":{"type":"MultiLineString","coordinates":[[[-0.3948798,51.6571193],[-0.3949592,51.6571627],[-0.3948638,51.6572467]]]}},
{"type":"Feature","properties":{"highway":"footway","name":null,"category":"Footpath (pedestrian only)"},"geometry":{"type":"MultiLineString","coordinates":[[[-0.3964424,51.6550806],[-0.3965405,51.655037]]]}},
{"type":"Feature","properties":{"highway":"footway","name":null,"category":"Footpath (pedestrian only)"},"geometry":{"type":"MultiLineString","coordinates":[[[-0.3958612,51.6642279],[-0.3955228,51.664535]]]}},
{"type":"Feature","properties":{"highway":"footway","name":null,"category":"Footpath (pedestrian only)"},"geometry":{"type":"MultiLineString","coordinates":[[[-0.3876958,51.6626248],[-0.3877153,51.6625492],[-0.3877278,51.6624838]]]}},
{"type":"Feature","properties":{"highway":"footway","name":null,"category":"Footpath (pedestrian only)"},"geometry":{"type":"MultiLineString","coordinates":[[[-0.3858005,51.666997],[-0.3856376,51.6669667],[-0.3855325,51.6669465]]]}},
{"type":"Feature","properties":{"highway":"footway","name":null,"category":"Footpath (pedestrian only)"},"geometry":{"type":"MultiLineString","coordinates":[[[-0.3871819,51.6662007],[-0.3871681,51.666229],[-0.3871519,51.6662622]]]}},
{"type":"Feature","properties":{"highway":"footway","name":null,"category":"Footpath (pedestrian only)"},"geometry":{"type":"MultiLineString","coordinates":[[[-0.3896889,51.6597635],[-0.3895887,51.6597009]]]}},
{"type":"Feature","properties":{"highway":"footway","name":null,"category":"Footpath (pedestrian only)"},"geometry":{"type":"MultiLineString","coordinates":[[[-0.3923464,51.656067],[-0.3922884,51.656056],[-0.3922414,51.6560469]]]}},
{"type":"Feature","properties":{"highway":"footway","name":null,"category":"Footpath (pedestrian only)"},"geometry":{"type":"MultiLineString","coordinates":[[[-0.3921572,51.6584753],[-0.3921782,51.6584053],[-0.3922014,51.6583279]]]}},
{"type":"Feature","properties":{"highway":"footway","name":null,"category":"Footpath (pedestrian only)"},"geometry":{"type":"MultiLineString","coordinates":[[[-0.3924311,51.6583078],[-0.392444,51.658272],[-0.3924478,51.6582252]]]}},
{"type":"Feature","properties":{"highway":"footway","name":null,"category":"Footpath (pedestrian only)"},"geometry":{"type":"MultiLineString","coordinates":[[[-0.3914933,51.6577433],[-0.3914733,51.6576988],[-0.3914561,51.6576605]]]}},
{"type":"Feature","properties":{"highway":"footway","name":null,"category":"Footpath (pedestrian only)"},"geometry":{"type":"MultiLineString","coordinates":[[[-0.3968284,51.6637178],[-0.3968714,51.6636981],[-0.3968044,51.6636132],[-0.3968075,51.6635232]]]}},
{"type":"Feature","properties":{"highway":"footway","name":null,"category":"Footpath (pedestrian only)"},"geometry":{"type":"MultiLineString","coordinates":[[[-0.3968404,51.6631603],[-0.3969141,51.6631441]]]}},
{"type":"Feature","properties":{"highway":"footway","name":null,"category":"Footpath (pedestrian only)"},"geometry":{"type":"MultiLineString","coordinates":[[[-0.3842398,51.6684612],[-0.3844941,51.6685047],[-0.3847783,51.6685873]]]}},
{"type":"Feature","properties":{"highway":"footway","name":null,"category":"Footpath (pedestrian only)"},"geometry":{"type":"MultiLineString","coordinates":[[[-0.3842768,51.6687275],[-0.3840747,51.6685484],[-0.3842398,51.6684612]]]}},
{"type":"Feature","properties":{"highway":"footway","name":null,"category":"Footpath (pedestrian only)"},"geometry":{"type":"MultiLineString","coordinates":[[[-0.3840747,51.6685484],[-0.3840319,51.6685176],[-0.3838325,51.6684904]]]}},
{"type":"Feature","properties":{"highway":"footway","name":null,"category":"Footpath (pedestrian only)"},"geometry":{"type":"MultiLineString","coordinates":[[[-0.3842398,51.6684612],[-0.384031,51.6683457],[-0.3837928,51.6683198],[-0.3835267,51.6682377],[-0.3834096,51.6681194],[-0.3834124,51.6679785],[-0.3835224,51.6678424],[-0.383678,51.6676344],[-0.383694,51.6675959],[-0.3837557,51.6674481],[-0.3837369,51.667223],[-0.3837662,51.6670392],[-0.3838076,51.6668039],[-0.383853,51.666642],[-0.3838984,51.6664395],[-0.3839314,51.6663301],[-0.3840165,51.6660636],[-0.384183,51.6658996],[-0.3843681,51.6658303],[-0.384448,51.665809],[-0.3845706,51.6657267],[-0.3847021,51.6656646],[-0.3848001,51.6655786],[-0.3848193,51.6655618]]]}},
{"type":"Feature","properties":{"highway":"footway","name":null,"category":"Footpath (pedestrian only)"},"geometry":{"type":"MultiLineString","coordinates":[[[-0.383694,51.6675959],[-0.3833899,51.6675587]]]}},
{"type":"Feature","properties":{"highway":"footway","name":null,"category":"Footpath (pedestrian only)"},"geometry":{"type":"MultiLineString","coordinates":[[[-0.3842398,51.6684612],[-0.3843917,51.6686878],[-0.3844815,51.6688021],[-0.3845113,51.66884],[-0.3845183,51.6690518]]]}},
{"type":"Feature","properties":{"highway":"footway","name":null,"category":"Footpath (pedestrian only)"},"geometry":{"type":"MultiLineString","coordinates":[[[-0.3842398,51.6684612],[-0.3842768,51.6687275]]]}},
{"type":"Feature","properties":{"highway":"footway","name":null,"category":"Footpath (pedestrian only)"},"geometry":{"type":"MultiLineString","coordinates":[[[-0.396709,51.6631933],[-0.3967565,51.6631491],[-0.3968404,51.6631603]]]}},
{"type":"Feature","properties":{"highway":"footway","name":null,"category":"Footpath (pedestrian only)"},"geometry":{"type":"MultiLineString","coordinates":[[[-0.3972308,51.6637369],[-0.3971459,51.6637288],[-0.3970715,51.6637268],[-0.3970051,51.6637322],[-0.3969575,51.6637392],[-0.3968845,51.6637614]]]}},
{"type":"Feature","properties":{"highway":"footway","name":null,"category":"Footpath (pedestrian only)"},"geometry":{"type":"MultiLineString","coordinates":[[[-0.3910862,51.6522937],[-0.391152,51.6522688],[-0.3916325,51.6520873]]]}},
{"type":"Feature","properties":{"highway":"footway","name":null,"category":"Footpath (pedestrian only)"},"geometry":{"type":"MultiLineString","coordinates":[[[-0.397415,51.6636395],[-0.3973591,51.6636835],[-0.3973129,51.6636656],[-0.3972908,51.6636877],[-0.3972607,51.6637123]]]}},
{"type":"Feature","properties":{"highway":"footway","name":null,"category":"Footpath (pedestrian only)"},"geometry":{"type":"MultiLineString","coordinates":[[[-0.3972607,51.6637123],[-0.3972308,51.6637369]]]}},
{"type":"Feature","properties":{"highway":"footway","name":null,"category":"Footpath (pedestrian only)"},"geometry":{"type":"MultiLineString","coordinates":[[[-0.3915704,51.6530994],[-0.3915555,51.6531594],[-0.3915304,51.6532829],[-0.3913347,51.6536165],[-0.391315,51.6536247],[-0.3913197,51.6536594],[-0.3913175,51.6537059],[-0.3912511,51.6537474],[-0.3911871,51.6537827],[-0.391244,51.6538206],[-0.3912724,51.6538607],[-0.3912855,51.6539217],[-0.3912658,51.6540017],[-0.3912623,51.6540821],[-0.3912232,51.6541828],[-0.3911445,51.6542533],[-0.3910707,51.6542939],[-0.391136,51.6543446]]]}},
{"type":"Feature","properties":{"highway":"footway","name":null,"category":"Footpath (pedestrian only)"},"geometry":{"type":"MultiLineString","coordinates":[[[-0.3932469,51.6538682],[-0.393178,51.6539285],[-0.3931083,51.6540068],[-0.3930562,51.654097],[-0.3929469,51.6540801],[-0.3929371,51.6541043]]]}},
{"type":"Feature","properties":{"highway":"footway","name":null,"category":"Footpath (pedestrian only)"},"geometry":{"type":"MultiLineString","coordinates":[[[-0.3752378,51.6672052],[-0.375518,51.6672682],[-0.3755669,51.6672674],[-0.3756534,51.6672441],[-0.3757587,51.6671742],[-0.3758103,51.6671226],[-0.37598,51.6669172],[-0.3761221,51.66674],[-0.3762525,51.6665575],[-0.3763106,51.6664763],[-0.3764212,51.6663129],[-0.3764708,51.6662372],[-0.3765801,51.6659612],[-0.3768453,51.6656075],[-0.3770613,51.6653136],[-0.3771347,51.6652138],[-0.3772091,51.6651205],[-0.3773328,51.6650075],[-0.3774364,51.6649368],[-0.3774723,51.6649036],[-0.3784268,51.6635749]]]}},
{"type":"Feature","properties":{"highway":"track","name":null,"category":"Track"},"geometry":{"type":"MultiLineString","coordinates":[[[-0.3829309,51.6667063],[-0.3827046,51.6666601],[-0.3825479,51.6666297],[-0.3819656,51.6665166],[-0.3818782,51.6664996]]]}},
{"type":"Feature","properties":{"highway":"track","name":null,"category":"Track"},"geometry":{"type":"MultiLineString","coordinates":[[[-0.3780126,51.6684898],[-0.3782545,51.668196],[-0.3803332,51.6643198],[-0.3818876,51.6627551]]]}},
{"type":"Feature","properties":{"highway":"footway","name":null,"category":"Footpath (pedestrian only)"},"geometry":{"type":"MultiLineString","coordinates":[[[-0.3819152,51.6600112],[-0.3820977,51.6598036],[-0.3826556,51.6595693]]]}},
{"type":"Feature","properties":{"highway":"path","name":null,"category":"Shared path"},"geometry":{"type":"MultiLineString","coordinates":[[[-0.3819152,51.6600112],[-0.3817077,51.6599007],[-0.3815953,51.6598191],[-0.3813802,51.6595786],[-0.3813474,51.6594809],[-0.3813816,51.6592412],[-0.3814446,51.6591478],[-0.3816392,51.6590441],[-0.3817844,51.6589999]]]}},
{"type":"Feature","properties":{"highway":"footway","name":null,"category":"Footpath (pedestrian only)"},"geometry":{"type":"MultiLineString","coordinates":[[[-0.3915775,51.6526426],[-0.3915897,51.6526364],[-0.3916588,51.6526012]]]}},
{"type":"Feature","properties":{"highway":"footway","name":null,"category":"Footpath (pedestrian only)"},"geometry":{"type":"MultiLineString","coordinates":[[[-0.3916875,51.6527255],[-0.3917015,51.6527181],[-0.39177,51.6526815]]]}},
{"type":"Feature","properties":{"highway":"footway","name":null,"category":"Footpath (pedestrian only)"},"geometry":{"type":"MultiLineString","coordinates":[[[-0.391726,51.6527546],[-0.3916875,51.6527255],[-0.3915775,51.6526426],[-0.3915364,51.6526116]]]}},
{"type":"Feature","properties":{"highway":"footway","name":null,"category":"Footpath (pedestrian only)"},"geometry":{"type":"MultiLineString","coordinates":[[[-0.3917871,51.6527455],[-0.3920384,51.6526367],[-0.3921129,51.6527047]]]}},
{"type":"Feature","properties":{"highway":"footway","name":null,"category":"Footpath (pedestrian only)"},"geometry":{"type":"MultiLineString","coordinates":[[[-0.3953261,51.6544601],[-0.3952295,51.6545034],[-0.3951517,51.6545088],[-0.3950387,51.6545035]]]}},
{"type":"Feature","properties":{"highway":"footway","name":null,"category":"Footpath (pedestrian only)"},"geometry":{"type":"MultiLineString","coordinates":[[[-0.3956892,51.6549969],[-0.3955121,51.6549874]]]}},
{"type":"Feature","properties":{"highway":"footway","name":null,"category":"Footpath (pedestrian only)"},"geometry":{"type":"MultiLineString","coordinates":[[[-0.3957661,51.6550367],[-0.3957321,51.6551073]]]}},
{"type":"Feature","properties":{"highway":"track","name":null,"category":"Track"},"geometry":{"type":"MultiLineString","coordinates":[[[-0.3873192,51.664091],[-0.386922,51.6640214],[-0.3873786,51.6628668],[-0.3876105,51.6629017]]]}},
{"type":"Feature","properties":{"highway":"track","name":null,"category":"Track"},"geometry":{"type":"MultiLineString","coordinates":[[[-0.3873786,51.6628668],[-0.3870994,51.662808]]]}},
{"type":"Feature","properties":{"highway":"track","name":null,"category":"Track"},"geometry":{"type":"MultiLineString","coordinates":[[[-0.386922,51.6640214],[-0.3867433,51.6640571],[-0.3865132,51.6644221],[-0.3859426,51.6653276]]]}},
{"type":"Feature","properties":{"highway":"track","name":null,"category":"Track"},"geometry":{"type":"MultiLineString","coordinates":[[[-0.3858798,51.6642621],[-0.3865132,51.6644221]]]}},
{"type":"Feature","properties":{"highway":"footway","name":null,"category":"Footpath (pedestrian only)"},"geometry":{"type":"MultiLineString","coordinates":[[[-0.3800891,51.6615697],[-0.3779222,51.6616279],[-0.3773674,51.6616758],[-0.3764546,51.6618745],[-0.3754785,51.6621384],[-0.3726107,51.6633319],[-0.3710169,51.6640509]]]}},
{"type":"Feature","properties":{"highway":"footway","name":null,"category":"Footpath (pedestrian only)"},"geometry":{"type":"MultiLineString","coordinates":[[[-0.3866424,51.6570539],[-0.386383,51.6571894],[-0.3858037,51.6575022],[-0.3855555,51.6577091]]]}},
{"type":"Feature","properties":{"highway":"footway","name":null,"category":"Footpath (pedestrian only)"},"geometry":{"type":"MultiLineString","coordinates":[[[-0.383882,51.6586089],[-0.3838523,51.6583019],[-0.3838965,51.6582607],[-0.3839868,51.6582397]]]}},
{"type":"Feature","properties":{"highway":"footway","name":null,"category":"Footpath (pedestrian only)"},"geometry":{"type":"MultiLineString","coordinates":[[[-0.383882,51.6586089],[-0.3840233,51.658603]]]}},
{"type":"Feature","properties":{"highway":"footway","name":null,"category":"Footpath (pedestrian only)"},"geometry":{"type":"MultiLineString","coordinates":[[[-0.3822657,51.658975],[-0.3830092,51.6589258],[-0.383181,51.6588979],[-0.3836112,51.6587832],[-0.3836807,51.6587564],[-0.3837632,51.6587101],[-0.3838448,51.6586319],[-0.383882,51.6586089]]]}},
{"type":"Feature","properties":{"highway":"footway","name":null,"category":"Footpath (pedestrian only)"},"geometry":{"type":"MultiLineString","coordinates":[[[-0.3800891,51.6615697],[-0.3817199,51.6602062],[-0.3819152,51.6600112]]]}},
{"type":"Feature","properties":{"highway":"footway","name":null,"category":"Footpath (pedestrian only)"},"geometry":{"type":"MultiLineString","coordinates":[[[-0.3896144,51.6634432],[-0.3896598,51.6634555]]]}},
{"type":"Feature","properties":{"highway":"footway","name":null,"category":"Footpath (pedestrian only)"},"geometry":{"type":"MultiLineString","coordinates":[[[-0.3895338,51.6640023],[-0.3896132,51.6640349]]]}},
{"type":"Feature","properties":{"highway":"footway","name":null,"category":"Footpath (pedestrian only)"},"geometry":{"type":"MultiLineString","coordinates":[[[-0.3896014,51.6644372],[-0.3880783,51.6643377],[-0.3873841,51.66422],[-0.3873727,51.6642075]]]}},
{"type":"Feature","properties":{"highway":"footway","name":null,"category":"Footpath (pedestrian only)"},"geometry":{"type":"MultiLineString","coordinates":[[[-0.3880783,51.6643377],[-0.3884861,51.664121],[-0.3885383,51.664022],[-0.388464,51.6639975],[-0.3885844,51.6634189],[-0.3885584,51.6632682]]]}},
{"type":"Feature","properties":{"highway":"footway","name":null,"category":"Footpath (pedestrian only)"},"geometry":{"type":"MultiLineString","coordinates":[[[-0.3907,51.6649395],[-0.3909663,51.6649821]]]}},
{"type":"Feature","properties":{"highway":"footway","name":null,"category":"Footpath (pedestrian only)"},"geometry":{"type":"MultiLineString","coordinates":[[[-0.3918101,51.652771],[-0.3917004,51.6528139]]]}},
{"type":"Feature","properties":{"highway":"footway","name":null,"category":"Footpath (pedestrian only)"},"geometry":{"type":"MultiLineString","coordinates":[[[-0.3918101,51.652771],[-0.3917871,51.6527455],[-0.391726,51.6527546]]]}},
{"type":"Feature","properties":{"highway":"footway","name":null,"category":"Footpath (pedestrian only)"},"geometry":{"type":"MultiLineString","coordinates":[[[-0.3899296,51.6599416],[-0.3903734,51.6602341],[-0.3904252,51.6603155]]]}},
{"type":"Feature","properties":{"highway":"footway","name":null,"category":"Footpath (pedestrian only)"},"geometry":{"type":"MultiLineString","coordinates":[[[-0.3906449,51.6614835],[-0.3904773,51.661417],[-0.390187,51.6613217]]]}},
{"type":"Feature","properties":{"highway":"footway","name":null,"category":"Footpath (pedestrian only)"},"geometry":{"type":"MultiLineString","coordinates":[[[-0.390934,51.6611861],[-0.3905237,51.6609707]]]}},
{"type":"Feature","properties":{"highway":"footway","name":null,"category":"Footpath (pedestrian only)"},"geometry":{"type":"MultiLineString","coordinates":[[[-0.3963574,51.6546041],[-0.3961678,51.6545288]]]}},
{"type":"Feature","properties":{"highway":"footway","name":null,"category":"Footpath (pedestrian only)"},"geometry":{"type":"MultiLineString","coordinates":[[[-0.3961644,51.6547955],[-0.3957583,51.6549535]]]}},
{"type":"Feature","properties":{"highway":"footway","name":null,"category":"Footpath (pedestrian only)"},"geometry":{"type":"MultiLineString","coordinates":[[[-0.3901316,51.6545337],[-0.3906821,51.6545905]]]}},
{"type":"Feature","properties":{"highway":"footway","name":null,"category":"Footpath (pedestrian only)"},"geometry":{"type":"MultiLineString","coordinates":[[[-0.3949592,51.6571627],[-0.3951114,51.657206]]]}},
{"type":"Feature","properties":{"highway":"footway","name":null,"category":"Footpath (pedestrian only)"},"geometry":{"type":"MultiLineString","coordinates":[[[-0.3942532,51.6566005],[-0.3942686,51.6566285],[-0.3942845,51.656659]]]}},
{"type":"Feature","properties":{"highway":"footway","name":null,"category":"Footpath (pedestrian only)"},"geometry":{"type":"MultiLineString","coordinates":[[[-0.3947139,51.6569745],[-0.3947038,51.6569458],[-0.3945449,51.656806],[-0.3944094,51.6566699],[-0.3943518,51.6566575],[-0.3943075,51.6566575],[-0.3942845,51.656659],[-0.3942586,51.6566666],[-0.3942183,51.6566899],[-0.3941501,51.6567751]]]}},
{"type":"Feature","properties":{"highway":"footway","name":null,"category":"Footpath (pedestrian only)"},"geometry":{"type":"MultiLineString","coordinates":[[[-0.3948798,51.6571193],[-0.3947139,51.6569745],[-0.3945187,51.6568534],[-0.394398,51.6568072],[-0.3942432,51.6567685],[-0.3941501,51.6567751],[-0.3940802,51.6567773]]]}},
{"type":"Feature","properties":{"highway":"footway","name":null,"category":"Footpath (pedestrian only)"},"geometry":{"type":"MultiLineString","coordinates":[[[-0.3868406,51.6671897],[-0.3866967,51.6674616]]]}},
{"type":"Feature","properties":{"highway":"footway","name":null,"category":"Footpath (pedestrian only)"},"geometry":{"type":"MultiLineString","coordinates":[[[-0.3959976,51.6634667],[-0.3958916,51.663514]]]}},
{"type":"Feature","properties":{"highway":"footway","name":null,"category":"Footpath (pedestrian only)"},"geometry":{"type":"MultiLineString","coordinates":[[[-0.3961267,51.6634005],[-0.3960577,51.6634363]]]}},
{"type":"Feature","properties":{"highway":"footway","name":null,"category":"Footpath (pedestrian only)"},"geometry":{"type":"MultiLineString","coordinates":[[[-0.3915364,51.6526116],[-0.391152,51.6522688]]]}},
{"type":"Feature","properties":{"highway":"footway","name":null,"category":"Footpath (pedestrian only)"},"geometry":{"type":"MultiLineString","coordinates":[[[-0.3917688,51.6526034],[-0.3918923,51.6525447]]]}},
{"type":"Feature","properties":{"highway":"footway","name":null,"category":"Footpath (pedestrian only)"},"geometry":{"type":"MultiLineString","coordinates":[[[-0.39177,51.6526815],[-0.3918307,51.6526494],[-0.3917688,51.6526034],[-0.3917236,51.6525698],[-0.3916588,51.6526012]]]}},
{"type":"Feature","properties":{"highway":"footway","name":null,"category":"Footpath (pedestrian only)"},"geometry":{"type":"MultiLineString","coordinates":[[[-0.3919259,51.6524619],[-0.3919763,51.6524985],[-0.3920213,51.6525314]]]}},
{"type":"Feature","properties":{"highway":"footway","name":null,"category":"Footpath (pedestrian only)"},"geometry":{"type":"MultiLineString","coordinates":[[[-0.3960202,51.6641109],[-0.3960098,51.6641029],[-0.3960172,51.6641091]]]}},
{"type":"Feature","properties":{"highway":"footway","name":null,"category":"Footpath (pedestrian only)"},"geometry":{"type":"MultiLineString","coordinates":[[[-0.3963394,51.6637785],[-0.3962275,51.6636854],[-0.3961612,51.6637232]]]}},
{"type":"Feature","properties":{"highway":"footway","name":null,"category":"Footpath (pedestrian only)"},"geometry":{"type":"MultiLineString","coordinates":[[[-0.3962369,51.6640238],[-0.3962337,51.6640208],[-0.396235,51.6640219]]]}},
{"type":"Feature","properties":{"highway":"footway","name":null,"category":"Footpath (pedestrian only)"},"geometry":{"type":"MultiLineString","coordinates":[[[-0.3891688,51.6538337],[-0.3892351,51.6538239]]]}},
{"type":"Feature","properties":{"highway":"footway","name":null,"category":"Footpath (pedestrian only)"},"geometry":{"type":"MultiLineString","coordinates":[[[-0.3948377,51.6577061],[-0.3944244,51.657567]]]}},
{"type":"Feature","properties":{"highway":"footway","name":null,"category":"Footpath (pedestrian only)"},"geometry":{"type":"MultiLineString","coordinates":[[[-0.3913175,51.6537059],[-0.3913846,51.6537032],[-0.3914606,51.6537121],[-0.391581,51.6537288],[-0.3916321,51.6537344],[-0.3916501,51.6536814],[-0.3916816,51.6536452],[-0.3917426,51.6536676],[-0.3918097,51.6536968]]]}},
{"type":"Feature","properties":{"highway":"footway","name":null,"category":"Footpath (pedestrian only)"},"geometry":{"type":"MultiLineString","coordinates":[[[-0.3891081,51.6605181],[-0.3889444,51.6604632],[-0.3888814,51.6604316],[-0.3888506,51.6604008],[-0.3888278,51.6603742],[-0.3887875,51.6603509],[-0.3886412,51.6602816]]]}},
{"type":"Feature","properties":{"highway":"footway","name":null,"category":"Footpath (pedestrian only)"},"geometry":{"type":"MultiLineString","coordinates":[[[-0.3886325,51.661267],[-0.3884536,51.6612219],[-0.388404,51.6612169],[-0.3883282,51.6612136],[-0.3882853,51.6612074],[-0.3882464,51.6611936],[-0.3882162,51.6611724],[-0.3882042,51.6611404],[-0.3881887,51.6611142],[-0.3881673,51.6610963],[-0.3881485,51.6610905],[-0.3880947,51.6610791]]]}},
{"type":"Feature","properties":{"highway":"footway","name":null,"category":"Footpath (pedestrian only)"},"geometry":{"type":"MultiLineString","coordinates":[[[-0.3894246,51.660371],[-0.3893012,51.6603859],[-0.3891791,51.6604607],[-0.3891081,51.6605181],[-0.3890075,51.6606471],[-0.3889444,51.6607344],[-0.3889579,51.6607943],[-0.3886937,51.661157],[-0.3886325,51.661267],[-0.3886279,51.6612752],[-0.3885877,51.6614266],[-0.3887302,51.6614327]]]}},
{"type":"Feature","properties":{"highway":"footway","name":null,"category":"Footpath (pedestrian only)"},"geometry":{"type":"MultiLineString","coordinates":[[[-0.3879651,51.6608711],[-0.3878783,51.6608434],[-0.3878689,51.6608326],[-0.3878635,51.6608089],[-0.3878655,51.6607773],[-0.3878588,51.6607598],[-0.3878454,51.6607436],[-0.3878213,51.6607319],[-0.387779,51.6607099],[-0.3877448,51.6606787],[-0.3877247,51.6606504],[-0.3877214,51.6606213],[-0.3877261,51.6605888],[-0.3877368,51.660566],[-0.3877556,51.6605327]]]}},
{"type":"Feature","properties":{"highway":"footway","name":null,"category":"Footpath (pedestrian only)"},"geometry":{"type":"MultiLineString","coordinates":[[[-0.3993291,51.6570538],[-0.3995368,51.6569132],[-0.3996436,51.6568346],[-0.3996668,51.65682],[-0.3996877,51.6568169],[-0.3998199,51.6568124]]]}},
{"type":"Feature","properties":{"highway":"footway","name":null,"category":"Footpath (pedestrian only)"},"geometry":{"type":"MultiLineString","coordinates":[[[-0.3989351,51.6573951],[-0.3988716,51.6574641],[-0.3987821,51.6576163],[-0.3986768,51.657793],[-0.3986481,51.6578375],[-0.398599,51.6578785],[-0.3985573,51.6579065],[-0.3984886,51.6579373],[-0.3984199,51.6579505],[-0.3983399,51.6579545],[-0.3982281,51.6579481],[-0.3980755,51.657892],[-0.3980394,51.6578466]]]}},
{"type":"Feature","properties":{"highway":"footway","name":null,"category":"Footpath (pedestrian only)"},"geometry":{"type":"MultiLineString","coordinates":[[[-0.3980394,51.6578466],[-0.3978389,51.6577839]]]}},
{"type":"Feature","properties":{"highway":"footway","name":null,"category":"Footpath (pedestrian only)"},"geometry":{"type":"MultiLineString","coordinates":[[[-0.3968932,51.6599299],[-0.3967548,51.6599312]]]}},
{"type":"Feature","properties":{"highway":"footway","name":null,"category":"Footpath (pedestrian only)"},"geometry":{"type":"MultiLineString","coordinates":[[[-0.396922,51.6588863],[-0.3968999,51.6588862]]]}},
{"type":"Feature","properties":{"highway":"footway","name":null,"category":"Footpath (pedestrian only)"},"geometry":{"type":"MultiLineString","coordinates":[[[-0.3970119,51.6588867],[-0.3969717,51.6588865],[-0.396922,51.6588863]]]}},
{"type":"Feature","properties":{"highway":"footway","name":null,"category":"Footpath (pedestrian only)"},"geometry":{"type":"MultiLineString","coordinates":[[[-0.3969404,51.6603135],[-0.3969086,51.6603131]]]}},
{"type":"Feature","properties":{"highway":"footway","name":null,"category":"Footpath (pedestrian only)"},"geometry":{"type":"MultiLineString","coordinates":[[[-0.39703,51.6603135],[-0.3969823,51.6603135],[-0.3969404,51.6603135]]]}},
{"type":"Feature","properties":{"highway":"footway","name":null,"category":"Footpath (pedestrian only)"},"geometry":{"type":"MultiLineString","coordinates":[[[-0.3929322,51.6622036],[-0.392945,51.662199],[-0.392943,51.6621657],[-0.392949,51.6621399],[-0.3929611,51.6621158],[-0.3929832,51.662095],[-0.3929758,51.6620863]]]}},
{"type":"Feature","properties":{"highway":"footway","name":null,"category":"Footpath (pedestrian only)"},"geometry":{"type":"MultiLineString","coordinates":[[[-0.3925601,51.6622306],[-0.3925628,51.6622401],[-0.3925976,51.6622339],[-0.3926251,51.6622318],[-0.3926754,51.6622339],[-0.3927136,51.6622389],[-0.3927552,51.6622476],[-0.3927746,51.6622551],[-0.3927894,51.6622514]]]}},
{"type":"Feature","properties":{"highway":"footway","name":null,"category":"Footpath (pedestrian only)"},"geometry":{"type":"MultiLineString","coordinates":[[[-0.3925627,51.661969],[-0.392543,51.6619685],[-0.3925245,51.6620879],[-0.3925205,51.6621012],[-0.3925084,51.662115],[-0.3924917,51.6621314],[-0.3925011,51.6621362]]]}},
{"type":"Feature","properties":{"highway":"footway","name":null,"category":"Footpath (pedestrian only)"},"geometry":{"type":"MultiLineString","coordinates":[[[-0.3929148,51.6619848],[-0.3929116,51.6619759],[-0.3928796,51.6619823],[-0.3928447,51.6619837],[-0.3928152,51.6619823],[-0.3927847,51.661976],[-0.3927626,51.6619667],[-0.3927485,51.6619554],[-0.392729,51.6619586]]]}},
{"type":"Feature","properties":{"highway":"footway","name":null,"category":"Footpath (pedestrian only)"},"geometry":{"type":"MultiLineString","coordinates":[[[-0.392729,51.6619586],[-0.392657,51.6619624],[-0.3925627,51.661969]]]}},
{"type":"Feature","properties":{"highway":"footway","name":null,"category":"Footpath (pedestrian only)"},"geometry":{"type":"MultiLineString","coordinates":[[[-0.3925601,51.6622306],[-0.392552,51.6622026],[-0.3925205,51.6621535],[-0.3925011,51.6621362]]]}},
{"type":"Feature","properties":{"highway":"footway","name":null,"category":"Footpath (pedestrian only)"},"geometry":{"type":"MultiLineString","coordinates":[[[-0.3929322,51.6622036],[-0.3928695,51.662226],[-0.3927894,51.6622514]]]}},
{"type":"Feature","properties":{"highway":"footway","name":null,"category":"Footpath (pedestrian only)"},"geometry":{"type":"MultiLineString","coordinates":[[[-0.3929148,51.6619848],[-0.3929222,51.6620056],[-0.3929624,51.6620667],[-0.3929758,51.6620863]]]}},
{"type":"Feature","properties":{"highway":"footway","name":null,"category":"Footpath (pedestrian only)"},"geometry":{"type":"MultiLineString","coordinates":[[[-0.3875182,51.6662297],[-0.3874834,51.6662229],[-0.3874498,51.6662318],[-0.3874216,51.6662334],[-0.3873894,51.6662313],[-0.3871869,51.666191]]]}},
{"type":"Feature","properties":{"highway":"footway","name":null,"category":"Footpath (pedestrian only)"},"geometry":{"type":"MultiLineString","coordinates":[[[-0.3876764,51.6662609],[-0.3875992,51.6662457],[-0.3875182,51.6662297]]]}},
{"type":"Feature","properties":{"highway":"footway","name":null,"category":"Footpath (pedestrian only)"},"geometry":{"type":"MultiLineString","coordinates":[[[-0.3865859,51.6662672],[-0.3864889,51.6662384],[-0.3864419,51.6662189],[-0.3864074,51.6662004]]]}},
{"type":"Feature","properties":{"highway":"footway","name":null,"category":"Footpath (pedestrian only)"},"geometry":{"type":"MultiLineString","coordinates":[[[-0.3862909,51.666116],[-0.3863514,51.6661619]]]}},
{"type":"Feature","properties":{"highway":"footway","name":null,"category":"Footpath (pedestrian only)"},"geometry":{"type":"MultiLineString","coordinates":[[[-0.3862272,51.6661327],[-0.3862696,51.6661178],[-0.3862909,51.666116],[-0.3863132,51.6661141],[-0.3863789,51.6661145],[-0.3864413,51.6661228],[-0.387146,51.6662771],[-0.3871519,51.6662622]]]}},
{"type":"Feature","properties":{"highway":"footway","name":null,"category":"Footpath (pedestrian only)"},"geometry":{"type":"MultiLineString","coordinates":[[[-0.3863162,51.6659784],[-0.3863353,51.6659968],[-0.3863561,51.6660093],[-0.386444,51.6660346],[-0.3871869,51.666191],[-0.3871819,51.6662007]]]}},
{"type":"Feature","properties":{"highway":"footway","name":null,"category":"Footpath (pedestrian only)"},"geometry":{"type":"MultiLineString","coordinates":[[[-0.3874523,51.6640886],[-0.3874291,51.664139],[-0.3874089,51.664183]]]}},
{"type":"Feature","properties":{"highway":"footway","name":null,"category":"Footpath (pedestrian only)"},"geometry":{"type":"MultiLineString","coordinates":[[[-0.3874089,51.664183],[-0.3874026,51.6641967],[-0.3873727,51.6642075],[-0.3873526,51.6642179],[-0.3873331,51.6642354],[-0.3872158,51.6644367],[-0.3869817,51.6648148],[-0.3867343,51.6652273],[-0.3865519,51.6655567],[-0.3864433,51.665758],[-0.3863836,51.6658583]]]}},
{"type":"Feature","properties":{"highway":"footway","name":null,"category":"Footpath (pedestrian only)"},"geometry":{"type":"MultiLineString","coordinates":[[[-0.3854682,51.6656979],[-0.385528,51.6656387],[-0.3855763,51.6655513],[-0.3856071,51.6655324]]]}},
{"type":"Feature","properties":{"highway":"footway","name":null,"category":"Footpath (pedestrian only)"},"geometry":{"type":"MultiLineString","coordinates":[[[-0.3856534,51.6657705],[-0.3855253,51.6657248],[-0.3854682,51.6656979],[-0.3854033,51.6656674],[-0.3853101,51.6656116],[-0.3852504,51.6655692],[-0.3852041,51.6655239],[-0.3851518,51.6654682],[-0.3851077,51.6654024]]]}},
{"type":"Feature","properties":{"highway":"footway","name":null,"category":"Footpath (pedestrian only)"},"geometry":{"type":"MultiLineString","coordinates":[[[-0.3863105,51.6655746],[-0.386344,51.6655228],[-0.3863629,51.6654935]]]}},
{"type":"Feature","properties":{"highway":"footway","name":null,"category":"Footpath (pedestrian only)"},"geometry":{"type":"MultiLineString","coordinates":[[[-0.3861231,51.6657275],[-0.3861932,51.6656815],[-0.3862482,51.6656379],[-0.3862897,51.6656004],[-0.3863105,51.6655746]]]}},
{"type":"Feature","properties":{"highway":"footway","name":null,"category":"Footpath (pedestrian only)"},"geometry":{"type":"MultiLineString","coordinates":[[[-0.386247,51.666099],[-0.3862272,51.6661327],[-0.3861503,51.6662634],[-0.3860852,51.6662555]]]}},
{"type":"Feature","properties":{"highway":"footway","name":null,"category":"Footpath (pedestrian only)"},"geometry":{"type":"MultiLineString","coordinates":[[[-0.3862746,51.6658173],[-0.3863836,51.6658583],[-0.3863162,51.6659784],[-0.3863051,51.665998]]]}},
{"type":"Feature","properties":{"highway":"footway","name":null,"category":"Footpath (pedestrian only)"},"geometry":{"type":"MultiLineString","coordinates":[[[-0.3861772,51.6657699],[-0.3861945,51.6657834],[-0.3862177,51.6657937]]]}},
{"type":"Feature","properties":{"highway":"footway","name":null,"category":"Footpath (pedestrian only)"},"geometry":{"type":"MultiLineString","coordinates":[[[-0.3862177,51.6657937],[-0.3862523,51.665809],[-0.3862746,51.6658173]]]}},
{"type":"Feature","properties":{"highway":"footway","name":null,"category":"Footpath (pedestrian only)"},"geometry":{"type":"MultiLineString","coordinates":[[[-0.3863051,51.665998],[-0.386277,51.6660482],[-0.386247,51.666099]]]}},
{"type":"Feature","properties":{"highway":"footway","name":null,"category":"Footpath (pedestrian only)"},"geometry":{"type":"MultiLineString","coordinates":[[[-0.3856494,51.6657766],[-0.3856534,51.6657705],[-0.3857312,51.6657826],[-0.3857815,51.665788],[-0.3858592,51.6657905],[-0.385931,51.6657855],[-0.3859893,51.6657759],[-0.386057,51.6657547],[-0.3861231,51.6657275],[-0.3861325,51.6657349]]]}},
{"type":"Feature","properties":{"highway":"footway","name":null,"category":"Footpath (pedestrian only)"},"geometry":{"type":"MultiLineString","coordinates":[[[-0.3855929,51.6658493],[-0.3856265,51.6658117],[-0.3856494,51.6657766]]]}},
{"type":"Feature","properties":{"highway":"footway","name":null,"category":"Footpath (pedestrian only)"},"geometry":{"type":"MultiLineString","coordinates":[[[-0.385551,51.6658885],[-0.3855749,51.6658695],[-0.3855929,51.6658493]]]}},
{"type":"Feature","properties":{"highway":"footway","name":null,"category":"Footpath (pedestrian only)"},"geometry":{"type":"MultiLineString","coordinates":[[[-0.3854877,51.6659269],[-0.3855351,51.6659011],[-0.385551,51.6658885]]]}},
{"type":"Feature","properties":{"highway":"footway","name":null,"category":"Footpath (pedestrian only)"},"geometry":{"type":"MultiLineString","coordinates":[[[-0.3854497,51.6659476],[-0.3854877,51.6659269]]]}},
{"type":"Feature","properties":{"highway":"footway","name":null,"category":"Footpath (pedestrian only)"},"geometry":{"type":"MultiLineString","coordinates":[[[-0.3858218,51.6662516],[-0.3857815,51.6662564]]]}},
{"type":"Feature","properties":{"highway":"footway","name":null,"category":"Footpath (pedestrian only)"},"geometry":{"type":"MultiLineString","coordinates":[[[-0.3859726,51.6662467],[-0.3859162,51.666246]]]}},
{"type":"Feature","properties":{"highway":"footway","name":null,"category":"Footpath (pedestrian only)"},"geometry":{"type":"MultiLineString","coordinates":[[[-0.3859162,51.666246],[-0.3858733,51.6662455],[-0.3858218,51.6662516]]]}},
{"type":"Feature","properties":{"highway":"footway","name":null,"category":"Footpath (pedestrian only)"},"geometry":{"type":"MultiLineString","coordinates":[[[-0.3860852,51.6662555],[-0.3860339,51.6662515],[-0.3859726,51.6662467]]]}},
{"type":"Feature","properties":{"highway":"footway","name":null,"category":"Footpath (pedestrian only)"},"geometry":{"type":"MultiLineString","coordinates":[[[-0.3861325,51.6657349],[-0.3861536,51.6657514],[-0.3861772,51.6657699]]]}},
{"type":"Feature","properties":{"highway":"pedestrian","name":"Market Place","category":"Pedestrian area/street"},"geometry":{"type":"MultiLineString","coordinates":[[[-0.3965579,51.6551584],[-0.3965777,51.6552449],[-0.3962883,51.6554405],[-0.3962474,51.6554659]]]}}
]
}
