{
"type": "FeatureCollection",
"name": "EPPFO_68_cycling",
"crs": { "type": "name", "properties": { "name": "urn:ogc:def:crs:OGC:1.3:CRS84" } },
"features": [
{"type":"Feature","properties":{"highway":"path","name":null,"category":"Shared path"},"geometry":{"type":"MultiLineString","coordinates":[[[0.1601493,51.8168098],[0.1605839,51.8168374],[0.1607697,51.8168372],[0.1608413,51.8168297],[0.161084,51.8168101]]]}},
{"type":"Feature","properties":{"highway":"track","name":null,"category":"Track"},"geometry":{"type":"MultiLineString","coordinates":[[[0.1640239,51.8193689],[0.1651022,51.8191218],[0.1667437,51.8187239],[0.1670419,51.8186579],[0.1684228,51.8183525],[0.168565,51.8183143],[0.1686803,51.8182596]]]}},
{"type":"Feature","properties":{"highway":"bridleway","name":null,"category":"Bridleway"},"geometry":{"type":"MultiLineString","coordinates":[[[0.1776224,51.8152468],[0.177596,51.8153391],[0.177581,51.815348],[0.175375,51.8166118]]]}},
{"type":"Feature","properties":{"highway":"bridleway","name":null,"category":"Bridleway"},"geometry":{"type":"MultiLineString","coordinates":[[[0.1789796,51.8178817],[0.1791319,51.8176834]]]}},
{"type":"Feature","properties":{"highway":"bridleway","name":null,"category":"Bridleway"},"geometry":{"type":"MultiLineString","coordinates":[[[0.1766684,51.8212441],[0.1767071,51.8215608],[0.1768023,51.8220093],[0.1768667,51.822394],[0.1771242,51.8226327],[0.1774461,51.8228582],[0.177725,51.8231765],[0.1779548,51.8234508],[0.178098,51.8234784],[0.1784117,51.8234285],[0.1784909,51.8236778],[0.1786427,51.8241327],[0.1787335,51.824264],[0.1789115,51.8244192],[0.1790106,51.8245336],[0.1790786,51.8246374],[0.1790551,51.8246686],[0.1795536,51.8245974],[0.1798778,51.8245393],[0.1808545,51.8243858],[0.181646,51.8246],[0.1821587,51.8246753],[0.1830722,51.8247114]]]}},
{"type":"Feature","properties":{"highway":"path","name":null,"category":"Shared path"},"geometry":{"type":"MultiLineString","coordinates":[[[0.1691394,51.8170967],[0.1703513,51.8168273]]]}},
{"type":"Feature","properties":{"highway":"track","name":null,"category":"Track"},"geometry":{"type":"MultiLineString","coordinates":[[[0.1717249,51.8257344],[0.1717302,51.8256437],[0.1716836,51.8254469]]]}},
{"type":"Feature","properties":{"highway":"bridleway","name":null,"category":"Bridleway"},"geometry":{"type":"MultiLineString","coordinates":[[[0.1767413,51.8210759],[0.1769752,51.8207421],[0.177118,51.8204558],[0.1772475,51.8201738]]]}},
{"type":"Feature","properties":{"highway":"bridleway","name":null,"category":"Bridleway"},"geometry":{"type":"MultiLineString","coordinates":[[[0.1766684,51.8212441],[0.1767413,51.8210759]]]}},
{"type":"Feature","properties":{"highway":"bridleway","name":null,"category":"Bridleway"},"geometry":{"type":"MultiLineString","coordinates":[[[0.1794436,51.8172773],[0.1795275,51.817168],[0.1797635,51.8169691],[0.1801712,51.8167038],[0.1803429,51.8165977],[0.180467,51.8165279],[0.1805107,51.8163911],[0.1805329,51.8163531],[0.1806194,51.8161364],[0.1806433,51.8161069],[0.180772,51.8160803],[0.1810939,51.8160538],[0.1813599,51.8160613]]]}},
{"type":"Feature","properties":{"highway":"bridleway","name":null,"category":"Bridleway"},"geometry":{"type":"MultiLineString","coordinates":[[[0.1791319,51.8176834],[0.1794436,51.8172773]]]}},
{"type":"Feature","properties":{"highway":"bridleway","name":null,"category":"Bridleway"},"geometry":{"type":"MultiLineString","coordinates":[[[0.1779346,51.8195959],[0.1779845,51.8194927],[0.1779985,51.8194224],[0.178005,51.819295],[0.1780833,51.8191385],[0.1782993,51.8188941],[0.1786167,51.8184878],[0.1787852,51.8183092],[0.1788766,51.8181564],[0.1789088,51.8180445],[0.1789267,51.8179506],[0.1789796,51.8178817]]]}},
{"type":"Feature","properties":{"highway":"bridleway","name":null,"category":"Bridleway"},"geometry":{"type":"MultiLineString","coordinates":[[[0.1772475,51.8201738],[0.1772964,51.820056]]]}},
{"type":"Feature","properties":{"highway":"track","name":null,"category":"Track"},"geometry":{"type":"MultiLineString","coordinates":[[[0.1662084,51.8186469],[0.166938,51.8184819],[0.1670419,51.8186579]]]}},
{"type":"Feature","properties":{"highway":"track","name":null,"category":"Track"},"geometry":{"type":"MultiLineString","coordinates":[[[0.172706,51.8163154],[0.1726712,51.8162352],[0.1732371,51.8141144],[0.1732836,51.8140663],[0.1733522,51.8139953]]]}},
{"type":"Feature","properties":{"highway":"track","name":null,"category":"Track"},"geometry":{"type":"MultiLineString","coordinates":[[[0.1713866,51.8257451],[0.1717249,51.8257344],[0.1723392,51.8258422],[0.1731545,51.8259616],[0.1741738,51.8260444],[0.1746566,51.8260809],[0.1749141,51.8260544]]]}},
{"type":"Feature","properties":{"highway":"track","name":null,"category":"Track"},"geometry":{"type":"MultiLineString","coordinates":[[[0.1623503,51.8145162],[0.1624331,51.814615]]]}},
{"type":"Feature","properties":{"highway":"path","name":null,"category":"Shared path"},"geometry":{"type":"MultiLineString","coordinates":[[[0.1624331,51.814615],[0.1626276,51.8146266],[0.1628448,51.8146565],[0.1631908,51.8147236],[0.1633839,51.8147966],[0.1635502,51.8148447],[0.1636361,51.8148538],[0.1637058,51.8148496],[0.1637635,51.814843],[0.1640532,51.814741],[0.1642141,51.8146954],[0.1644313,51.8146772],[0.164666,51.8146888],[0.1652454,51.8147684],[0.165472,51.8148206],[0.1657054,51.814906],[0.1658368,51.8149964],[0.1659468,51.8151514],[0.1662579,51.8154955],[0.1663961,51.8156033],[0.1665516,51.8156712],[0.1667568,51.8156903],[0.1670733,51.8157019],[0.1672141,51.8157135],[0.1672989,51.8157714],[0.1675937,51.8161612]]]}},
{"type":"Feature","properties":{"highway":"path","name":null,"category":"Shared path"},"geometry":{"type":"MultiLineString","coordinates":[[[0.1753678,51.8146239],[0.1758728,51.8147813],[0.1760123,51.8148248],[0.176574,51.815],[0.1769348,51.8150928],[0.1773076,51.8151732],[0.1773526,51.8151773],[0.1776349,51.8152031],[0.1776224,51.8152468]]]}},
{"type":"Feature","properties":{"highway":"path","name":null,"category":"Shared path"},"geometry":{"type":"MultiLineString","coordinates":[[[0.1760123,51.8148248],[0.1759859,51.8148535],[0.1759233,51.8149206],[0.176184,51.8149807],[0.1767069,51.8151905],[0.1768625,51.815244],[0.1770808,51.8152964],[0.177581,51.815348]]]}},
{"type":"Feature","properties":{"highway":"track","name":null,"category":"Track"},"geometry":{"type":"MultiLineString","coordinates":[[[0.1690114,51.8095578],[0.1688603,51.8092861],[0.1686782,51.8090204],[0.1686715,51.8090047],[0.1685731,51.8087721],[0.1685848,51.8086653]]]}},
{"type":"Feature","properties":{"highway":"bridleway","name":null,"category":"Bridleway"},"geometry":{"type":"MultiLineString","coordinates":[[[0.1772964,51.820056],[0.1774388,51.8200036],[0.177712,51.819815],[0.1779346,51.8195959]]]}}
]
}
