{
"type": "FeatureCollection",
"name": "BROAD_23",
"crs": { "type": "name", "properties": { "name": "urn:ogc:def:crs:OGC:1.3:CRS84" } },
"features": [
{ "type": "Feature", "properties": { "osm_id": 13384042664, "name": null, "amenity": "bench", "man_made": null, "leisure": null, "playground": null, "memorial": null }, "geometry": { "type": "Point", "coordinates": [ 1.2187589, 52.8100105 ] } },
{ "type": "Feature", "properties": { "osm_id": 12666490052, "name": null, "amenity": "bench", "man_made": null, "leisure": null, "playground": null, "memorial": null }, "geometry": { "type": "Point", "coordinates": [ 1.2354515, 52.8104939 ] } },
{ "type": "Feature", "properties": { "osm_id": 12666495418, "name": null, "amenity": "bench", "man_made": null, "leisure": null, "playground": null, "memorial": null }, "geometry": { "type": "Point", "coordinates": [ 1.228897, 52.8113508 ] } },
{ "type": "Feature", "properties": { "osm_id": 12151551326, "name": null, "amenity": null, "man_made": null, "leisure": "picnic_table", "playground": null, "memorial": null }, "geometry": { "type": "Point", "coordinates": [ 1.2270382, 52.8120568 ] } },
{ "type": "Feature", "properties": { "osm_id": 12151551327, "name": null, "amenity": null, "man_made": null, "leisure": "picnic_table", "playground": null, "memorial": null }, "geometry": { "type": "Point", "coordinates": [ 1.2269349, 52.8120657 ] } },
{ "type": "Feature", "properties": { "osm_id": 12151551357, "name": null, "amenity": "bench", "man_made": null, "leisure": null, "playground": null, "memorial": null }, "geometry": { "type": "Point", "coordinates": [ 1.2264146, 52.812467 ] } },
{ "type": "Feature", "properties": { "osm_id": 13381908561, "name": null, "amenity": "bench", "man_made": null, "leisure": null, "playground": null, "memorial": null }, "geometry": { "type": "Point", "coordinates": [ 1.2030817, 52.8134428 ] } },
{ "type": "Feature", "properties": { "osm_id": 12151551378, "name": null, "amenity": "bench", "man_made": null, "leisure": null, "playground": null, "memorial": null }, "geometry": { "type": "Point", "coordinates": [ 1.2167935, 52.8150689 ] } },
{ "type": "Feature", "properties": { "osm_id": 12151551246, "name": null, "amenity": "bench", "man_made": null, "leisure": null, "playground": null, "memorial": null }, "geometry": { "type": "Point", "coordinates": [ 1.2247751, 52.8162784 ] } },
{ "type": "Feature", "properties": { "osm_id": 12151551383, "name": null, "amenity": "bench", "man_made": null, "leisure": null, "playground": null, "memorial": null }, "geometry": { "type": "Point", "coordinates": [ 1.2124282, 52.8170337 ] } },
{ "type": "Feature", "properties": { "osm_id": 12151551392, "name": null, "amenity": "bench", "man_made": null, "leisure": null, "playground": null, "memorial": null }, "geometry": { "type": "Point", "coordinates": [ 1.2122029, 52.8171552 ] } },
{ "type": "Feature", "properties": { "osm_id": 12151551228, "name": null, "amenity": "bench", "man_made": null, "leisure": null, "playground": null, "memorial": null }, "geometry": { "type": "Point", "coordinates": [ 1.228386, 52.8182518 ] } },
{ "type": "Feature", "properties": { "osm_id": 13381908565, "name": null, "amenity": "bench", "man_made": null, "leisure": null, "playground": null, "memorial": null }, "geometry": { "type": "Point", "coordinates": [ 1.2213363, 52.8186023 ] } },
{ "type": "Feature", "properties": { "osm_id": 12151551400, "name": null, "amenity": "bench", "man_made": null, "leisure": null, "playground": null, "memorial": null }, "geometry": { "type": "Point", "coordinates": [ 1.2145793, 52.8186376 ] } },
{ "type": "Feature", "properties": { "osm_id": 12151551401, "name": null, "amenity": "bench", "man_made": null, "leisure": null, "playground": null, "memorial": null }, "geometry": { "type": "Point", "coordinates": [ 1.2150702, 52.8187811 ] } },
{ "type": "Feature", "properties": { "osm_id": 13381908562, "name": null, "amenity": "bench", "man_made": null, "leisure": null, "playground": null, "memorial": null }, "geometry": { "type": "Point", "coordinates": [ 1.2176577, 52.8190569 ] } },
{ "type": "Feature", "properties": { "osm_id": 13384042666, "name": null, "amenity": "bench", "man_made": null, "leisure": null, "playground": null, "memorial": null }, "geometry": { "type": "Point", "coordinates": [ 1.2324024, 52.8191995 ] } },
{ "type": "Feature", "properties": { "osm_id": 13381908567, "name": null, "amenity": "bench", "man_made": null, "leisure": null, "playground": null, "memorial": null }, "geometry": { "type": "Point", "coordinates": [ 1.2010549, 52.8194976 ] } },
{ "type": "Feature", "properties": { "osm_id": 12151551229, "name": null, "amenity": "bench", "man_made": null, "leisure": null, "playground": null, "memorial": null }, "geometry": { "type": "Point", "coordinates": [ 1.2274124, 52.8197399 ] } },
{ "type": "Feature", "properties": { "osm_id": 12666591898, "name": null, "amenity": "bench", "man_made": null, "leisure": null, "playground": null, "memorial": null }, "geometry": { "type": "Point", "coordinates": [ 1.2299901, 52.8197735 ] } },
{ "type": "Feature", "properties": { "osm_id": 13384042667, "name": null, "amenity": "bench", "man_made": null, "leisure": null, "playground": null, "memorial": null }, "geometry": { "type": "Point", "coordinates": [ 1.2301635, 52.8198577 ] } },
{ "type": "Feature", "properties": { "osm_id": 13384042663, "name": null, "amenity": "bench", "man_made": null, "leisure": null, "playground": null, "memorial": null }, "geometry": { "type": "Point", "coordinates": [ 1.230382, 52.8199306 ] } },
{ "type": "Feature", "properties": { "osm_id": 12151551198, "name": null, "amenity": "bench", "man_made": null, "leisure": null, "playground": null, "memorial": null }, "geometry": { "type": "Point", "coordinates": [ 1.2308947, 52.8200332 ] } },
{ "type": "Feature", "properties": { "osm_id": 12151551411, "name": null, "amenity": "bench", "man_made": null, "leisure": null, "playground": null, "memorial": null }, "geometry": { "type": "Point", "coordinates": [ 1.2105896, 52.8223154 ] } },
{ "type": "Feature", "properties": { "osm_id": 3424483302, "name": null, "amenity": "bench", "man_made": null, "leisure": null, "playground": null, "memorial": null }, "geometry": { "type": "Point", "coordinates": [ 1.2085433, 52.8234963 ] } },
{ "type": "Feature", "properties": { "osm_id": 13381908563, "name": null, "amenity": "bench", "man_made": null, "leisure": null, "playground": null, "memorial": null }, "geometry": { "type": "Point", "coordinates": [ 1.2112222, 52.8236132 ] } }
]
}
