{
"type": "FeatureCollection",
"name": "4857248f3a64_visibility",
"crs": { "type": "name", "properties": { "name": "urn:ogc:def:crs:OGC:1.3:CRS84" } },
"features": [
{ "type": "Feature", "properties": { "visible_points": 7, "total_points": 61, "visibility_pct": 11.475409836065573 }, "geometry": { "type": "Point", "coordinates": [ -0.406613804619039, 51.673794336328925 ] } },
{ "type": "Feature", "properties": { "visible_points": 6, "total_points": 63, "visibility_pct": 9.5238095238095237 }, "geometry": { "type": "Point", "coordinates": [ -0.406413493227773, 51.673791617834269 ] } },
{ "type": "Feature", "properties": { "visible_points": 6, "total_points": 64, "visibility_pct": 9.375 }, "geometry": { "type": "Point", "coordinates": [ -0.40621318186807, 51.673788898998538 ] } },
{ "type": "Feature", "properties": { "visible_points": 5, "total_points": 69, "visibility_pct": 7.2463768115942031 }, "geometry": { "type": "Point", "coordinates": [ -0.406710174930012, 51.673903549263812 ] } },
{ "type": "Feature", "properties": { "visible_points": 7, "total_points": 73, "visibility_pct": 9.5890410958904102 }, "geometry": { "type": "Point", "coordinates": [ -0.40650986304653, 51.673900830920388 ] } },
{ "type": "Feature", "properties": { "visible_points": 7, "total_points": 75, "visibility_pct": 9.3333333333333339 }, "geometry": { "type": "Point", "coordinates": [ -0.40630955119461, 51.673898112235925 ] } },
{ "type": "Feature", "properties": { "visible_points": 9, "total_points": 75, "visibility_pct": 12.0 }, "geometry": { "type": "Point", "coordinates": [ -0.406109239374255, 51.673895393210422 ] } },
{ "type": "Feature", "properties": { "visible_points": 2, "total_points": 77, "visibility_pct": 2.5974025974025974 }, "geometry": { "type": "Point", "coordinates": [ -0.406806545701632, 51.674012762130175 ] } },
{ "type": "Feature", "properties": { "visible_points": 5, "total_points": 82, "visibility_pct": 6.0975609756097562 }, "geometry": { "type": "Point", "coordinates": [ -0.406606233325932, 51.674010043938019 ] } },
{ "type": "Feature", "properties": { "visible_points": 2, "total_points": 85, "visibility_pct": 2.3529411764705883 }, "geometry": { "type": "Point", "coordinates": [ -0.406405920981795, 51.674007325404823 ] } },
{ "type": "Feature", "properties": { "visible_points": 3, "total_points": 87, "visibility_pct": 3.4482758620689653 }, "geometry": { "type": "Point", "coordinates": [ -0.406205608669216, 51.674004606530552 ] } },
{ "type": "Feature", "properties": { "visible_points": 6, "total_points": 85, "visibility_pct": 7.0588235294117645 }, "geometry": { "type": "Point", "coordinates": [ -0.406005296388213, 51.674001887315278 ] } },
{ "type": "Feature", "properties": { "visible_points": 8, "total_points": 82, "visibility_pct": 9.7560975609756095 }, "geometry": { "type": "Point", "coordinates": [ -0.405804984138773, 51.673999167758929 ] } },
{ "type": "Feature", "properties": { "visible_points": 3, "total_points": 83, "visibility_pct": 3.6144578313253009 }, "geometry": { "type": "Point", "coordinates": [ -0.406902916933908, 51.674121974928021 ] } },
{ "type": "Feature", "properties": { "visible_points": 1, "total_points": 90, "visibility_pct": 1.1111111111111112 }, "geometry": { "type": "Point", "coordinates": [ -0.406702604065991, 51.674119256887117 ] } },
{ "type": "Feature", "properties": { "visible_points": 9, "total_points": 95, "visibility_pct": 9.4736842105263168 }, "geometry": { "type": "Point", "coordinates": [ -0.406502291229626, 51.674116538505181 ] } },
{ "type": "Feature", "properties": { "visible_points": 0, "total_points": 98, "visibility_pct": 0.0 }, "geometry": { "type": "Point", "coordinates": [ -0.406301978424826, 51.674113819782193 ] } },
{ "type": "Feature", "properties": { "visible_points": 2, "total_points": 98, "visibility_pct": 2.0408163265306123 }, "geometry": { "type": "Point", "coordinates": [ -0.406101665651597, 51.674111100718157 ] } },
{ "type": "Feature", "properties": { "visible_points": 4, "total_points": 95, "visibility_pct": 4.2105263157894735 }, "geometry": { "type": "Point", "coordinates": [ -0.405901352909929, 51.674108381313069 ] } },
{ "type": "Feature", "properties": { "visible_points": 12, "total_points": 88, "visibility_pct": 13.636363636363635 }, "geometry": { "type": "Point", "coordinates": [ -0.405701040199848, 51.674105661566934 ] } },
{ "type": "Feature", "properties": { "visible_points": 4, "total_points": 81, "visibility_pct": 4.9382716049382713 }, "geometry": { "type": "Point", "coordinates": [ -0.405500727521339, 51.674102941479759 ] } },
{ "type": "Feature", "properties": { "visible_points": 10, "total_points": 85, "visibility_pct": 11.76470588235294 }, "geometry": { "type": "Point", "coordinates": [ -0.40699928862684, 51.674231187657355 ] } },
{ "type": "Feature", "properties": { "visible_points": 0, "total_points": 95, "visibility_pct": 0.0 }, "geometry": { "type": "Point", "coordinates": [ -0.406798975266696, 51.674228469767712 ] } },
{ "type": "Feature", "properties": { "visible_points": 11, "total_points": 103, "visibility_pct": 10.679611650485436 }, "geometry": { "type": "Point", "coordinates": [ -0.406598661938113, 51.674225751537044 ] } },
{ "type": "Feature", "properties": { "visible_points": 10, "total_points": 108, "visibility_pct": 9.2592592592592595 }, "geometry": { "type": "Point", "coordinates": [ -0.406398348641086, 51.674223032965308 ] } },
{ "type": "Feature", "properties": { "visible_points": 9, "total_points": 110, "visibility_pct": 8.1818181818181817 }, "geometry": { "type": "Point", "coordinates": [ -0.406198035375627, 51.674220314052533 ] } },
{ "type": "Feature", "properties": { "visible_points": 0, "total_points": 106, "visibility_pct": 0.0 }, "geometry": { "type": "Point", "coordinates": [ -0.405997722141735, 51.674217594798698 ] } },
{ "type": "Feature", "properties": { "visible_points": 18, "total_points": 100, "visibility_pct": 18.0 }, "geometry": { "type": "Point", "coordinates": [ -0.405797408939418, 51.674214875203823 ] } },
{ "type": "Feature", "properties": { "visible_points": 5, "total_points": 93, "visibility_pct": 5.376344086021505 }, "geometry": { "type": "Point", "coordinates": [ -0.405597095768677, 51.674212155267888 ] } },
{ "type": "Feature", "properties": { "visible_points": 15, "total_points": 86, "visibility_pct": 17.441860465116278 }, "geometry": { "type": "Point", "coordinates": [ -0.405396782629515, 51.674209434990921 ] } },
{ "type": "Feature", "properties": { "visible_points": 7, "total_points": 79, "visibility_pct": 8.8607594936708853 }, "geometry": { "type": "Point", "coordinates": [ -0.405196469521939, 51.674206714372886 ] } },
{ "type": "Feature", "properties": { "visible_points": 25, "total_points": 86, "visibility_pct": 29.069767441860467 }, "geometry": { "type": "Point", "coordinates": [ -0.40709566078043, 51.674340400318165 ] } },
{ "type": "Feature", "properties": { "visible_points": 0, "total_points": 96, "visibility_pct": 0.0 }, "geometry": { "type": "Point", "coordinates": [ -0.406895346928064, 51.674337682579804 ] } },
{ "type": "Feature", "properties": { "visible_points": 11, "total_points": 105, "visibility_pct": 10.476190476190476 }, "geometry": { "type": "Point", "coordinates": [ -0.406695033107253, 51.674334964500389 ] } },
{ "type": "Feature", "properties": { "visible_points": 10, "total_points": 113, "visibility_pct": 8.8495575221238933 }, "geometry": { "type": "Point", "coordinates": [ -0.406494719317998, 51.674332246079921 ] } },
{ "type": "Feature", "properties": { "visible_points": 10, "total_points": 117, "visibility_pct": 8.5470085470085468 }, "geometry": { "type": "Point", "coordinates": [ -0.406294405560314, 51.674329527318392 ] } },
{ "type": "Feature", "properties": { "visible_points": 9, "total_points": 115, "visibility_pct": 7.8260869565217401 }, "geometry": { "type": "Point", "coordinates": [ -0.406094091834185, 51.674326808215831 ] } },
{ "type": "Feature", "properties": { "visible_points": 26, "total_points": 110, "visibility_pct": 23.636363636363637 }, "geometry": { "type": "Point", "coordinates": [ -0.405893778139638, 51.674324088772202 ] } },
{ "type": "Feature", "properties": { "visible_points": 26, "total_points": 104, "visibility_pct": 25.0 }, "geometry": { "type": "Point", "coordinates": [ -0.405693464476662, 51.674321368987535 ] } },
{ "type": "Feature", "properties": { "visible_points": 25, "total_points": 98, "visibility_pct": 25.510204081632654 }, "geometry": { "type": "Point", "coordinates": [ -0.405493150845262, 51.674318648861806 ] } },
{ "type": "Feature", "properties": { "visible_points": 0, "total_points": 92, "visibility_pct": 0.0 }, "geometry": { "type": "Point", "coordinates": [ -0.405292837245451, 51.674315928395032 ] } },
{ "type": "Feature", "properties": { "visible_points": 7, "total_points": 85, "visibility_pct": 8.235294117647058 }, "geometry": { "type": "Point", "coordinates": [ -0.405092523677222, 51.674313207587204 ] } },
{ "type": "Feature", "properties": { "visible_points": 12, "total_points": 78, "visibility_pct": 15.384615384615385 }, "geometry": { "type": "Point", "coordinates": [ -0.404892210140586, 51.67431048643833 ] } },
{ "type": "Feature", "properties": { "visible_points": 29, "total_points": 87, "visibility_pct": 33.333333333333329 }, "geometry": { "type": "Point", "coordinates": [ -0.407192033394689, 51.674449612910465 ] } },
{ "type": "Feature", "properties": { "visible_points": 33, "total_points": 97, "visibility_pct": 34.020618556701031 }, "geometry": { "type": "Point", "coordinates": [ -0.406991719050092, 51.674446895323356 ] } },
{ "type": "Feature", "properties": { "visible_points": 0, "total_points": 106, "visibility_pct": 0.0 }, "geometry": { "type": "Point", "coordinates": [ -0.406791404737053, 51.674444177395209 ] } },
{ "type": "Feature", "properties": { "visible_points": 10, "total_points": 114, "visibility_pct": 8.7719298245614024 }, "geometry": { "type": "Point", "coordinates": [ -0.406591090455573, 51.674441459125994 ] } },
{ "type": "Feature", "properties": { "visible_points": 10, "total_points": 120, "visibility_pct": 8.3333333333333321 }, "geometry": { "type": "Point", "coordinates": [ -0.406390776205649, 51.674438740515747 ] } },
{ "type": "Feature", "properties": { "visible_points": 9, "total_points": 120, "visibility_pct": 7.5 }, "geometry": { "type": "Point", "coordinates": [ -0.406190461987292, 51.674436021564432 ] } },
{ "type": "Feature", "properties": { "visible_points": 34, "total_points": 118, "visibility_pct": 28.8135593220339 }, "geometry": { "type": "Point", "coordinates": [ -0.40599014780051, 51.674433302272071 ] } },
{ "type": "Feature", "properties": { "visible_points": 34, "total_points": 114, "visibility_pct": 29.82456140350877 }, "geometry": { "type": "Point", "coordinates": [ -0.405789833645292, 51.674430582638657 ] } },
{ "type": "Feature", "properties": { "visible_points": 36, "total_points": 109, "visibility_pct": 33.027522935779821 }, "geometry": { "type": "Point", "coordinates": [ -0.405589519521661, 51.674427862664174 ] } },
{ "type": "Feature", "properties": { "visible_points": 35, "total_points": 103, "visibility_pct": 33.980582524271846 }, "geometry": { "type": "Point", "coordinates": [ -0.405389205429604, 51.67442514234866 ] } },
{ "type": "Feature", "properties": { "visible_points": 25, "total_points": 97, "visibility_pct": 25.773195876288657 }, "geometry": { "type": "Point", "coordinates": [ -0.405188891369133, 51.674422421692078 ] } },
{ "type": "Feature", "properties": { "visible_points": 22, "total_points": 91, "visibility_pct": 24.175824175824175 }, "geometry": { "type": "Point", "coordinates": [ -0.404988577340253, 51.674419700694465 ] } },
{ "type": "Feature", "properties": { "visible_points": 10, "total_points": 84, "visibility_pct": 11.904761904761903 }, "geometry": { "type": "Point", "coordinates": [ -0.404788263342966, 51.67441697935579 ] } },
{ "type": "Feature", "properties": { "visible_points": 34, "total_points": 86, "visibility_pct": 39.534883720930232 }, "geometry": { "type": "Point", "coordinates": [ -0.407288406469612, 51.674558825434232 ] } },
{ "type": "Feature", "properties": { "visible_points": 37, "total_points": 98, "visibility_pct": 37.755102040816325 }, "geometry": { "type": "Point", "coordinates": [ -0.40708809163279, 51.674556107998406 ] } },
{ "type": "Feature", "properties": { "visible_points": 39, "total_points": 107, "visibility_pct": 36.44859813084112 }, "geometry": { "type": "Point", "coordinates": [ -0.406887776827521, 51.674553390221533 ] } },
{ "type": "Feature", "properties": { "visible_points": 35, "total_points": 115, "visibility_pct": 30.434782608695656 }, "geometry": { "type": "Point", "coordinates": [ -0.406687462053801, 51.674550672103585 ] } },
{ "type": "Feature", "properties": { "visible_points": 3, "total_points": 120, "visibility_pct": 2.5 }, "geometry": { "type": "Point", "coordinates": [ -0.406487147311651, 51.674547953644584 ] } },
{ "type": "Feature", "properties": { "visible_points": 7, "total_points": 120, "visibility_pct": 5.833333333333333 }, "geometry": { "type": "Point", "coordinates": [ -0.406286832601058, 51.674545234844537 ] } },
{ "type": "Feature", "properties": { "visible_points": 44, "total_points": 120, "visibility_pct": 36.666666666666664 }, "geometry": { "type": "Point", "coordinates": [ -0.406086517922036, 51.674542515703422 ] } },
{ "type": "Feature", "properties": { "visible_points": 46, "total_points": 120, "visibility_pct": 38.333333333333336 }, "geometry": { "type": "Point", "coordinates": [ -0.405886203274579, 51.674539796221254 ] } },
{ "type": "Feature", "properties": { "visible_points": 48, "total_points": 117, "visibility_pct": 41.025641025641022 }, "geometry": { "type": "Point", "coordinates": [ -0.405685888658705, 51.67453707639806 ] } },
{ "type": "Feature", "properties": { "visible_points": 44, "total_points": 113, "visibility_pct": 38.938053097345133 }, "geometry": { "type": "Point", "coordinates": [ -0.405485574074408, 51.674534356233778 ] } },
{ "type": "Feature", "properties": { "visible_points": 37, "total_points": 108, "visibility_pct": 34.25925925925926 }, "geometry": { "type": "Point", "coordinates": [ -0.405285259521693, 51.674531635728457 ] } },
{ "type": "Feature", "properties": { "visible_points": 26, "total_points": 102, "visibility_pct": 25.490196078431371 }, "geometry": { "type": "Point", "coordinates": [ -0.405084945000567, 51.674528914882082 ] } },
{ "type": "Feature", "properties": { "visible_points": 23, "total_points": 96, "visibility_pct": 23.958333333333336 }, "geometry": { "type": "Point", "coordinates": [ -0.40488463051103, 51.67452619369466 ] } },
{ "type": "Feature", "properties": { "visible_points": 18, "total_points": 89, "visibility_pct": 20.224719101123593 }, "geometry": { "type": "Point", "coordinates": [ -0.404684316053093, 51.674523472166186 ] } },
{ "type": "Feature", "properties": { "visible_points": 5, "total_points": 78, "visibility_pct": 6.4102564102564097 }, "geometry": { "type": "Point", "coordinates": [ -0.404484001626751, 51.674520750296651 ] } },
{ "type": "Feature", "properties": { "visible_points": 33, "total_points": 83, "visibility_pct": 39.75903614457831 }, "geometry": { "type": "Point", "coordinates": [ -0.40738478000521, 51.674668037889496 ] } },
{ "type": "Feature", "properties": { "visible_points": 39, "total_points": 95, "visibility_pct": 41.05263157894737 }, "geometry": { "type": "Point", "coordinates": [ -0.407184464676157, 51.67466532060493 ] } },
{ "type": "Feature", "properties": { "visible_points": 42, "total_points": 107, "visibility_pct": 39.252336448598129 }, "geometry": { "type": "Point", "coordinates": [ -0.406984149378651, 51.674662602979325 ] } },
{ "type": "Feature", "properties": { "visible_points": 45, "total_points": 115, "visibility_pct": 39.130434782608695 }, "geometry": { "type": "Point", "coordinates": [ -0.406783834112702, 51.674659885012638 ] } },
{ "type": "Feature", "properties": { "visible_points": 44, "total_points": 120, "visibility_pct": 36.666666666666664 }, "geometry": { "type": "Point", "coordinates": [ -0.406583518878312, 51.674657166704904 ] } },
{ "type": "Feature", "properties": { "visible_points": 49, "total_points": 120, "visibility_pct": 40.833333333333336 }, "geometry": { "type": "Point", "coordinates": [ -0.406383203675484, 51.67465444805611 ] } },
{ "type": "Feature", "properties": { "visible_points": 57, "total_points": 120, "visibility_pct": 47.5 }, "geometry": { "type": "Point", "coordinates": [ -0.406182888504217, 51.674651729066262 ] } },
{ "type": "Feature", "properties": { "visible_points": 61, "total_points": 120, "visibility_pct": 50.833333333333329 }, "geometry": { "type": "Point", "coordinates": [ -0.405982573364522, 51.674649009735361 ] } },
{ "type": "Feature", "properties": { "visible_points": 58, "total_points": 120, "visibility_pct": 48.333333333333336 }, "geometry": { "type": "Point", "coordinates": [ -0.405782258256406, 51.674646290063407 ] } },
{ "type": "Feature", "properties": { "visible_points": 59, "total_points": 119, "visibility_pct": 49.579831932773111 }, "geometry": { "type": "Point", "coordinates": [ -0.40558194317986, 51.674643570050399 ] } },
{ "type": "Feature", "properties": { "visible_points": 52, "total_points": 116, "visibility_pct": 44.827586206896555 }, "geometry": { "type": "Point", "coordinates": [ -0.405381628134902, 51.674640849696324 ] } },
{ "type": "Feature", "properties": { "visible_points": 40, "total_points": 112, "visibility_pct": 35.714285714285715 }, "geometry": { "type": "Point", "coordinates": [ -0.405181313121525, 51.674638129001202 ] } },
{ "type": "Feature", "properties": { "visible_points": 0, "total_points": 107, "visibility_pct": 0.0 }, "geometry": { "type": "Point", "coordinates": [ -0.404980998139743, 51.674635407965035 ] } },
{ "type": "Feature", "properties": { "visible_points": 24, "total_points": 101, "visibility_pct": 23.762376237623762 }, "geometry": { "type": "Point", "coordinates": [ -0.404780683189548, 51.674632686587813 ] } },
{ "type": "Feature", "properties": { "visible_points": 6, "total_points": 89, "visibility_pct": 6.7415730337078648 }, "geometry": { "type": "Point", "coordinates": [ -0.404580368270958, 51.674629964869524 ] } },
{ "type": "Feature", "properties": { "visible_points": 10, "total_points": 77, "visibility_pct": 12.987012987012985 }, "geometry": { "type": "Point", "coordinates": [ -0.40438005338396, 51.67462724281021 ] } },
{ "type": "Feature", "properties": { "visible_points": 7, "total_points": 65, "visibility_pct": 10.76923076923077 }, "geometry": { "type": "Point", "coordinates": [ -0.404179738528577, 51.674624520409793 ] } },
{ "type": "Feature", "properties": { "visible_points": 13, "total_points": 67, "visibility_pct": 19.402985074626866 }, "geometry": { "type": "Point", "coordinates": [ -0.407681469854314, 51.674779967068481 ] } },
{ "type": "Feature", "properties": { "visible_points": 34, "total_points": 80, "visibility_pct": 42.5 }, "geometry": { "type": "Point", "coordinates": [ -0.407481154001483, 51.674777250276229 ] } },
{ "type": "Feature", "properties": { "visible_points": 38, "total_points": 92, "visibility_pct": 41.304347826086953 }, "geometry": { "type": "Point", "coordinates": [ -0.4072808381802, 51.674774533142937 ] } },
{ "type": "Feature", "properties": { "visible_points": 43, "total_points": 104, "visibility_pct": 41.346153846153847 }, "geometry": { "type": "Point", "coordinates": [ -0.407080522390456, 51.674771815668578 ] } },
{ "type": "Feature", "properties": { "visible_points": 49, "total_points": 115, "visibility_pct": 42.608695652173914 }, "geometry": { "type": "Point", "coordinates": [ -0.406880206632274, 51.674769097853172 ] } },
{ "type": "Feature", "properties": { "visible_points": 54, "total_points": 120, "visibility_pct": 45.0 }, "geometry": { "type": "Point", "coordinates": [ -0.40667989090564, 51.674766379696713 ] } },
{ "type": "Feature", "properties": { "visible_points": 63, "total_points": 120, "visibility_pct": 52.5 }, "geometry": { "type": "Point", "coordinates": [ -0.406479575210572, 51.674763661199194 ] } },
{ "type": "Feature", "properties": { "visible_points": 68, "total_points": 120, "visibility_pct": 56.666666666666664 }, "geometry": { "type": "Point", "coordinates": [ -0.406279259547067, 51.674760942360585 ] } },
{ "type": "Feature", "properties": { "visible_points": 73, "total_points": 120, "visibility_pct": 60.833333333333329 }, "geometry": { "type": "Point", "coordinates": [ -0.406078943915129, 51.674758223180952 ] } },
{ "type": "Feature", "properties": { "visible_points": 70, "total_points": 120, "visibility_pct": 58.333333333333336 }, "geometry": { "type": "Point", "coordinates": [ -0.405878628314762, 51.674755503660251 ] } },
{ "type": "Feature", "properties": { "visible_points": 69, "total_points": 120, "visibility_pct": 57.5 }, "geometry": { "type": "Point", "coordinates": [ -0.405678312745975, 51.67475278379851 ] } },
{ "type": "Feature", "properties": { "visible_points": 62, "total_points": 120, "visibility_pct": 51.666666666666671 }, "geometry": { "type": "Point", "coordinates": [ -0.405477997208764, 51.674750063595695 ] } },
{ "type": "Feature", "properties": { "visible_points": 55, "total_points": 118, "visibility_pct": 46.610169491525419 }, "geometry": { "type": "Point", "coordinates": [ -0.405277681703139, 51.674747343051834 ] } },
{ "type": "Feature", "properties": { "visible_points": 43, "total_points": 115, "visibility_pct": 37.391304347826086 }, "geometry": { "type": "Point", "coordinates": [ -0.4050773662291, 51.674744622166905 ] } },
{ "type": "Feature", "properties": { "visible_points": 31, "total_points": 111, "visibility_pct": 27.927927927927925 }, "geometry": { "type": "Point", "coordinates": [ -0.404877050786658, 51.674741900940937 ] } },
{ "type": "Feature", "properties": { "visible_points": 8, "total_points": 100, "visibility_pct": 8.0 }, "geometry": { "type": "Point", "coordinates": [ -0.404676735375808, 51.674739179373908 ] } },
{ "type": "Feature", "properties": { "visible_points": 9, "total_points": 87, "visibility_pct": 10.344827586206897 }, "geometry": { "type": "Point", "coordinates": [ -0.404476419996557, 51.674736457465812 ] } },
{ "type": "Feature", "properties": { "visible_points": 11, "total_points": 75, "visibility_pct": 14.666666666666666 }, "geometry": { "type": "Point", "coordinates": [ -0.404276104648908, 51.674733735216684 ] } },
{ "type": "Feature", "properties": { "visible_points": 9, "total_points": 63, "visibility_pct": 14.285714285714285 }, "geometry": { "type": "Point", "coordinates": [ -0.404075789332873, 51.674731012626481 ] } },
{ "type": "Feature", "properties": { "visible_points": 6, "total_points": 51, "visibility_pct": 11.76470588235294 }, "geometry": { "type": "Point", "coordinates": [ -0.403875474048446, 51.674728289695231 ] } },
{ "type": "Feature", "properties": { "visible_points": 0, "total_points": 63, "visibility_pct": 0.0 }, "geometry": { "type": "Point", "coordinates": [ -0.407777844803503, 51.674889179235421 ] } },
{ "type": "Feature", "properties": { "visible_points": 26, "total_points": 76, "visibility_pct": 34.210526315789473 }, "geometry": { "type": "Point", "coordinates": [ -0.407577528458437, 51.674886462594436 ] } },
{ "type": "Feature", "properties": { "visible_points": 34, "total_points": 89, "visibility_pct": 38.202247191011232 }, "geometry": { "type": "Point", "coordinates": [ -0.407377212144916, 51.674883745612426 ] } },
{ "type": "Feature", "properties": { "visible_points": 42, "total_points": 101, "visibility_pct": 41.584158415841586 }, "geometry": { "type": "Point", "coordinates": [ -0.407176895862941, 51.674881028289327 ] } },
{ "type": "Feature", "properties": { "visible_points": 45, "total_points": 112, "visibility_pct": 40.178571428571431 }, "geometry": { "type": "Point", "coordinates": [ -0.406976579612512, 51.674878310625196 ] } },
{ "type": "Feature", "properties": { "visible_points": 54, "total_points": 120, "visibility_pct": 45.0 }, "geometry": { "type": "Point", "coordinates": [ -0.406776263393644, 51.674875592619991 ] } },
{ "type": "Feature", "properties": { "visible_points": 61, "total_points": 120, "visibility_pct": 50.833333333333329 }, "geometry": { "type": "Point", "coordinates": [ -0.406575947206331, 51.674872874273724 ] } },
{ "type": "Feature", "properties": { "visible_points": 69, "total_points": 120, "visibility_pct": 57.5 }, "geometry": { "type": "Point", "coordinates": [ -0.406375631050579, 51.674870155586419 ] } },
{ "type": "Feature", "properties": { "visible_points": 75, "total_points": 120, "visibility_pct": 62.5 }, "geometry": { "type": "Point", "coordinates": [ -0.406175314926397, 51.674867436558024 ] } },
{ "type": "Feature", "properties": { "visible_points": 74, "total_points": 120, "visibility_pct": 61.666666666666671 }, "geometry": { "type": "Point", "coordinates": [ -0.405974998833786, 51.674864717188605 ] } },
{ "type": "Feature", "properties": { "visible_points": 76, "total_points": 120, "visibility_pct": 63.333333333333329 }, "geometry": { "type": "Point", "coordinates": [ -0.405774682772745, 51.674861997478089 ] } },
{ "type": "Feature", "properties": { "visible_points": 70, "total_points": 120, "visibility_pct": 58.333333333333336 }, "geometry": { "type": "Point", "coordinates": [ -0.405574366743282, 51.674859277426549 ] } },
{ "type": "Feature", "properties": { "visible_points": 61, "total_points": 120, "visibility_pct": 50.833333333333329 }, "geometry": { "type": "Point", "coordinates": [ -0.405374050745406, 51.674856557033927 ] } },
{ "type": "Feature", "properties": { "visible_points": 53, "total_points": 120, "visibility_pct": 44.166666666666664 }, "geometry": { "type": "Point", "coordinates": [ -0.405173734779114, 51.674853836300279 ] } },
{ "type": "Feature", "properties": { "visible_points": 41, "total_points": 118, "visibility_pct": 34.745762711864408 }, "geometry": { "type": "Point", "coordinates": [ -0.404973418844413, 51.674851115225565 ] } },
{ "type": "Feature", "properties": { "visible_points": 33, "total_points": 110, "visibility_pct": 30.0 }, "geometry": { "type": "Point", "coordinates": [ -0.404773102941306, 51.674848393809768 ] } },
{ "type": "Feature", "properties": { "visible_points": 19, "total_points": 97, "visibility_pct": 19.587628865979383 }, "geometry": { "type": "Point", "coordinates": [ -0.404572787069796, 51.674845672052925 ] } },
{ "type": "Feature", "properties": { "visible_points": 7, "total_points": 84, "visibility_pct": 8.3333333333333321 }, "geometry": { "type": "Point", "coordinates": [ -0.404372471229888, 51.674842949955043 ] } },
{ "type": "Feature", "properties": { "visible_points": 14, "total_points": 71, "visibility_pct": 19.718309859154928 }, "geometry": { "type": "Point", "coordinates": [ -0.404172155421587, 51.6748402275161 ] } },
{ "type": "Feature", "properties": { "visible_points": 8, "total_points": 59, "visibility_pct": 13.559322033898304 }, "geometry": { "type": "Point", "coordinates": [ -0.403971839644896, 51.674837504736082 ] } },
{ "type": "Feature", "properties": { "visible_points": 32, "total_points": 83, "visibility_pct": 38.554216867469883 }, "geometry": { "type": "Point", "coordinates": [ -0.407473586570316, 51.674992958013391 ] } },
{ "type": "Feature", "properties": { "visible_points": 41, "total_points": 96, "visibility_pct": 42.708333333333329 }, "geometry": { "type": "Point", "coordinates": [ -0.407273269796102, 51.674990240841566 ] } },
{ "type": "Feature", "properties": { "visible_points": 46, "total_points": 109, "visibility_pct": 42.201834862385326 }, "geometry": { "type": "Point", "coordinates": [ -0.407072953053436, 51.674987523328703 ] } },
{ "type": "Feature", "properties": { "visible_points": 56, "total_points": 118, "visibility_pct": 47.457627118644069 }, "geometry": { "type": "Point", "coordinates": [ -0.40687263634232, 51.674984805474764 ] } },
{ "type": "Feature", "properties": { "visible_points": 62, "total_points": 120, "visibility_pct": 51.666666666666671 }, "geometry": { "type": "Point", "coordinates": [ -0.406672319662763, 51.674982087279766 ] } },
{ "type": "Feature", "properties": { "visible_points": 67, "total_points": 120, "visibility_pct": 55.833333333333336 }, "geometry": { "type": "Point", "coordinates": [ -0.406472003014769, 51.674979368743699 ] } },
{ "type": "Feature", "properties": { "visible_points": 67, "total_points": 120, "visibility_pct": 55.833333333333336 }, "geometry": { "type": "Point", "coordinates": [ -0.406271686398334, 51.674976649866601 ] } },
{ "type": "Feature", "properties": { "visible_points": 67, "total_points": 120, "visibility_pct": 55.833333333333336 }, "geometry": { "type": "Point", "coordinates": [ -0.406071369813471, 51.67497393064842 ] } },
{ "type": "Feature", "properties": { "visible_points": 76, "total_points": 120, "visibility_pct": 63.333333333333329 }, "geometry": { "type": "Point", "coordinates": [ -0.405871053260182, 51.674971211089186 ] } },
{ "type": "Feature", "properties": { "visible_points": 72, "total_points": 120, "visibility_pct": 60.0 }, "geometry": { "type": "Point", "coordinates": [ -0.405670736738469, 51.674968491188892 ] } },
{ "type": "Feature", "properties": { "visible_points": 62, "total_points": 120, "visibility_pct": 51.666666666666671 }, "geometry": { "type": "Point", "coordinates": [ -0.405470420248334, 51.674965770947544 ] } },
{ "type": "Feature", "properties": { "visible_points": 58, "total_points": 120, "visibility_pct": 48.333333333333336 }, "geometry": { "type": "Point", "coordinates": [ -0.405270103789784, 51.674963050365129 ] } },
{ "type": "Feature", "properties": { "visible_points": 48, "total_points": 120, "visibility_pct": 40.0 }, "geometry": { "type": "Point", "coordinates": [ -0.405069787362826, 51.67496032944166 ] } },
{ "type": "Feature", "properties": { "visible_points": 42, "total_points": 114, "visibility_pct": 36.84210526315789 }, "geometry": { "type": "Point", "coordinates": [ -0.404869470967459, 51.674957608177131 ] } },
{ "type": "Feature", "properties": { "visible_points": 34, "total_points": 104, "visibility_pct": 32.692307692307693 }, "geometry": { "type": "Point", "coordinates": [ -0.404669154603685, 51.674954886571541 ] } },
{ "type": "Feature", "properties": { "visible_points": 19, "total_points": 91, "visibility_pct": 20.87912087912088 }, "geometry": { "type": "Point", "coordinates": [ -0.404468838271516, 51.674952164624898 ] } },
{ "type": "Feature", "properties": { "visible_points": 15, "total_points": 78, "visibility_pct": 19.230769230769234 }, "geometry": { "type": "Point", "coordinates": [ -0.404268521970946, 51.674949442337216 ] } },
{ "type": "Feature", "properties": { "visible_points": 9, "total_points": 65, "visibility_pct": 13.846153846153847 }, "geometry": { "type": "Point", "coordinates": [ -0.404068205701991, 51.674946719708451 ] } },
{ "type": "Feature", "properties": { "visible_points": 31, "total_points": 89, "visibility_pct": 34.831460674157306 }, "geometry": { "type": "Point", "coordinates": [ -0.407369644189944, 51.675099453325288 ] } },
{ "type": "Feature", "properties": { "visible_points": 42, "total_points": 102, "visibility_pct": 41.17647058823529 }, "geometry": { "type": "Point", "coordinates": [ -0.407169326955036, 51.67509673596367 ] } },
{ "type": "Feature", "properties": { "visible_points": 56, "total_points": 114, "visibility_pct": 49.122807017543856 }, "geometry": { "type": "Point", "coordinates": [ -0.406969009751676, 51.675094018261014 ] } },
{ "type": "Feature", "properties": { "visible_points": 62, "total_points": 119, "visibility_pct": 52.100840336134461 }, "geometry": { "type": "Point", "coordinates": [ -0.406768692579872, 51.675091300217282 ] } },
{ "type": "Feature", "properties": { "visible_points": 65, "total_points": 120, "visibility_pct": 54.166666666666664 }, "geometry": { "type": "Point", "coordinates": [ -0.406568375439627, 51.67508858183249 ] } },
{ "type": "Feature", "properties": { "visible_points": 63, "total_points": 120, "visibility_pct": 52.5 }, "geometry": { "type": "Point", "coordinates": [ -0.406368058330948, 51.675085863106645 ] } },
{ "type": "Feature", "properties": { "visible_points": 64, "total_points": 120, "visibility_pct": 53.333333333333336 }, "geometry": { "type": "Point", "coordinates": [ -0.406167741253832, 51.675083144039746 ] } },
{ "type": "Feature", "properties": { "visible_points": 63, "total_points": 120, "visibility_pct": 52.5 }, "geometry": { "type": "Point", "coordinates": [ -0.405967424208283, 51.675080424631759 ] } },
{ "type": "Feature", "properties": { "visible_points": 65, "total_points": 120, "visibility_pct": 54.166666666666664 }, "geometry": { "type": "Point", "coordinates": [ -0.405767107194318, 51.675077704882717 ] } },
{ "type": "Feature", "properties": { "visible_points": 64, "total_points": 120, "visibility_pct": 53.333333333333336 }, "geometry": { "type": "Point", "coordinates": [ -0.405566790211924, 51.67507498479263 ] } },
{ "type": "Feature", "properties": { "visible_points": 61, "total_points": 120, "visibility_pct": 50.833333333333329 }, "geometry": { "type": "Point", "coordinates": [ -0.405366473261117, 51.675072264361482 ] } },
{ "type": "Feature", "properties": { "visible_points": 55, "total_points": 119, "visibility_pct": 46.218487394957982 }, "geometry": { "type": "Point", "coordinates": [ -0.405166156341897, 51.67506954358926 ] } },
{ "type": "Feature", "properties": { "visible_points": 49, "total_points": 113, "visibility_pct": 43.362831858407077 }, "geometry": { "type": "Point", "coordinates": [ -0.404965839454266, 51.675066822476005 ] } },
{ "type": "Feature", "properties": { "visible_points": 53, "total_points": 105, "visibility_pct": 50.476190476190474 }, "geometry": { "type": "Point", "coordinates": [ -0.40476552259823, 51.675064101021661 ] } },
{ "type": "Feature", "properties": { "visible_points": 45, "total_points": 96, "visibility_pct": 46.875 }, "geometry": { "type": "Point", "coordinates": [ -0.404565205773793, 51.675061379226271 ] } },
{ "type": "Feature", "properties": { "visible_points": 25, "total_points": 83, "visibility_pct": 30.120481927710845 }, "geometry": { "type": "Point", "coordinates": [ -0.404364888980959, 51.675058657089821 ] } },
{ "type": "Feature", "properties": { "visible_points": 14, "total_points": 70, "visibility_pct": 20.0 }, "geometry": { "type": "Point", "coordinates": [ -0.404164572219735, 51.675055934612317 ] } },
{ "type": "Feature", "properties": { "visible_points": 32, "total_points": 93, "visibility_pct": 34.408602150537639 }, "geometry": { "type": "Point", "coordinates": [ -0.407265701317323, 51.675205948530149 ] } },
{ "type": "Feature", "properties": { "visible_points": 41, "total_points": 105, "visibility_pct": 39.047619047619051 }, "geometry": { "type": "Point", "coordinates": [ -0.407065383621719, 51.675203230978759 ] } },
{ "type": "Feature", "properties": { "visible_points": 56, "total_points": 114, "visibility_pct": 49.122807017543856 }, "geometry": { "type": "Point", "coordinates": [ -0.406865065957662, 51.675200513086295 ] } },
{ "type": "Feature", "properties": { "visible_points": 63, "total_points": 120, "visibility_pct": 52.5 }, "geometry": { "type": "Point", "coordinates": [ -0.406664748325168, 51.675197794852757 ] } },
{ "type": "Feature", "properties": { "visible_points": 62, "total_points": 120, "visibility_pct": 51.666666666666671 }, "geometry": { "type": "Point", "coordinates": [ -0.406464430724231, 51.675195076278179 ] } },
{ "type": "Feature", "properties": { "visible_points": 59, "total_points": 120, "visibility_pct": 49.166666666666664 }, "geometry": { "type": "Point", "coordinates": [ -0.406264113154867, 51.675192357362526 ] } },
{ "type": "Feature", "properties": { "visible_points": 60, "total_points": 120, "visibility_pct": 50.0 }, "geometry": { "type": "Point", "coordinates": [ -0.406063795617061, 51.67518963810582 ] } },
{ "type": "Feature", "properties": { "visible_points": 64, "total_points": 120, "visibility_pct": 53.333333333333336 }, "geometry": { "type": "Point", "coordinates": [ -0.405863478110835, 51.675186918508047 ] } },
{ "type": "Feature", "properties": { "visible_points": 64, "total_points": 120, "visibility_pct": 53.333333333333336 }, "geometry": { "type": "Point", "coordinates": [ -0.405663160636185, 51.675184198569212 ] } },
{ "type": "Feature", "properties": { "visible_points": 60, "total_points": 120, "visibility_pct": 50.0 }, "geometry": { "type": "Point", "coordinates": [ -0.405462843193117, 51.675181478289304 ] } },
{ "type": "Feature", "properties": { "visible_points": 56, "total_points": 117, "visibility_pct": 47.863247863247864 }, "geometry": { "type": "Point", "coordinates": [ -0.405262525781632, 51.675178757668377 ] } },
{ "type": "Feature", "properties": { "visible_points": 52, "total_points": 111, "visibility_pct": 46.846846846846844 }, "geometry": { "type": "Point", "coordinates": [ -0.405062208401735, 51.675176036706347 ] } },
{ "type": "Feature", "properties": { "visible_points": 45, "total_points": 103, "visibility_pct": 43.689320388349515 }, "geometry": { "type": "Point", "coordinates": [ -0.404861891053434, 51.675173315403271 ] } },
{ "type": "Feature", "properties": { "visible_points": 50, "total_points": 94, "visibility_pct": 53.191489361702125 }, "geometry": { "type": "Point", "coordinates": [ -0.404661573736731, 51.675170593759134 ] } },
{ "type": "Feature", "properties": { "visible_points": 31, "total_points": 84, "visibility_pct": 36.904761904761905 }, "geometry": { "type": "Point", "coordinates": [ -0.404461256451623, 51.67516787177393 ] } },
{ "type": "Feature", "properties": { "visible_points": 19, "total_points": 73, "visibility_pct": 26.027397260273972 }, "geometry": { "type": "Point", "coordinates": [ -0.404260939198128, 51.675165149447679 ] } },
{ "type": "Feature", "properties": { "visible_points": 0, "total_points": 83, "visibility_pct": 0.0 }, "geometry": { "type": "Point", "coordinates": [ -0.407362076140302, 51.675315161028088 ] } },
{ "type": "Feature", "properties": { "visible_points": 35, "total_points": 95, "visibility_pct": 36.84210526315789 }, "geometry": { "type": "Point", "coordinates": [ -0.407161757952444, 51.675312443627945 ] } },
{ "type": "Feature", "properties": { "visible_points": 46, "total_points": 105, "visibility_pct": 43.80952380952381 }, "geometry": { "type": "Point", "coordinates": [ -0.406961439796139, 51.675309725886777 ] } },
{ "type": "Feature", "properties": { "visible_points": 48, "total_points": 114, "visibility_pct": 42.105263157894733 }, "geometry": { "type": "Point", "coordinates": [ -0.406761121671391, 51.67530700780452 ] } },
{ "type": "Feature", "properties": { "visible_points": 58, "total_points": 119, "visibility_pct": 48.739495798319325 }, "geometry": { "type": "Point", "coordinates": [ -0.406560803578196, 51.675304289381195 ] } },
{ "type": "Feature", "properties": { "visible_points": 57, "total_points": 120, "visibility_pct": 47.5 }, "geometry": { "type": "Point", "coordinates": [ -0.40636048551658, 51.675301570616796 ] } },
{ "type": "Feature", "properties": { "visible_points": 55, "total_points": 120, "visibility_pct": 45.833333333333329 }, "geometry": { "type": "Point", "coordinates": [ -0.406160167486513, 51.675298851511371 ] } },
{ "type": "Feature", "properties": { "visible_points": 52, "total_points": 120, "visibility_pct": 43.333333333333336 }, "geometry": { "type": "Point", "coordinates": [ -0.405959849488029, 51.675296132064865 ] } },
{ "type": "Feature", "properties": { "visible_points": 60, "total_points": 120, "visibility_pct": 50.0 }, "geometry": { "type": "Point", "coordinates": [ -0.405759531521115, 51.67529341227727 ] } },
{ "type": "Feature", "properties": { "visible_points": 61, "total_points": 118, "visibility_pct": 51.694915254237287 }, "geometry": { "type": "Point", "coordinates": [ -0.405559213585785, 51.67529069214865 ] } },
{ "type": "Feature", "properties": { "visible_points": 57, "total_points": 114, "visibility_pct": 50.0 }, "geometry": { "type": "Point", "coordinates": [ -0.405358895682034, 51.675287971678955 ] } },
{ "type": "Feature", "properties": { "visible_points": 54, "total_points": 108, "visibility_pct": 50.0 }, "geometry": { "type": "Point", "coordinates": [ -0.405158577809871, 51.675285250868185 ] } },
{ "type": "Feature", "properties": { "visible_points": 50, "total_points": 100, "visibility_pct": 50.0 }, "geometry": { "type": "Point", "coordinates": [ -0.4049582599693, 51.67528252971637 ] } },
{ "type": "Feature", "properties": { "visible_points": 47, "total_points": 91, "visibility_pct": 51.648351648351657 }, "geometry": { "type": "Point", "coordinates": [ -0.404757942160327, 51.675279808223493 ] } },
{ "type": "Feature", "properties": { "visible_points": 34, "total_points": 82, "visibility_pct": 41.463414634146339 }, "geometry": { "type": "Point", "coordinates": [ -0.404557624382949, 51.675277086389542 ] } },
{ "type": "Feature", "properties": { "visible_points": 26, "total_points": 72, "visibility_pct": 36.111111111111107 }, "geometry": { "type": "Point", "coordinates": [ -0.404357306637174, 51.675274364214545 ] } },
{ "type": "Feature", "properties": { "visible_points": 0, "total_points": 72, "visibility_pct": 0.0 }, "geometry": { "type": "Point", "coordinates": [ -0.407458451424687, 51.675424373452955 ] } },
{ "type": "Feature", "properties": { "visible_points": 0, "total_points": 83, "visibility_pct": 0.0 }, "geometry": { "type": "Point", "coordinates": [ -0.407258132744137, 51.675421656206915 ] } },
{ "type": "Feature", "properties": { "visible_points": 17, "total_points": 94, "visibility_pct": 18.085106382978726 }, "geometry": { "type": "Point", "coordinates": [ -0.407057814095304, 51.675418938618719 ] } },
{ "type": "Feature", "properties": { "visible_points": 37, "total_points": 104, "visibility_pct": 35.57692307692308 }, "geometry": { "type": "Point", "coordinates": [ -0.406857495478302, 51.675416220687744 ] } },
{ "type": "Feature", "properties": { "visible_points": 46, "total_points": 112, "visibility_pct": 41.071428571428569 }, "geometry": { "type": "Point", "coordinates": [ -0.40665717689285, 51.67541350241568 ] } },
{ "type": "Feature", "properties": { "visible_points": 57, "total_points": 117, "visibility_pct": 48.717948717948715 }, "geometry": { "type": "Point", "coordinates": [ -0.406456858338967, 51.675410783802569 ] } },
{ "type": "Feature", "properties": { "visible_points": 57, "total_points": 120, "visibility_pct": 47.5 }, "geometry": { "type": "Point", "coordinates": [ -0.40625653981665, 51.675408064848398 ] } },
{ "type": "Feature", "properties": { "visible_points": 55, "total_points": 120, "visibility_pct": 45.833333333333329 }, "geometry": { "type": "Point", "coordinates": [ -0.406056221325899, 51.675405345553152 ] } },
{ "type": "Feature", "properties": { "visible_points": 51, "total_points": 119, "visibility_pct": 42.857142857142854 }, "geometry": { "type": "Point", "coordinates": [ -0.405855902866722, 51.675402625916831 ] } },
{ "type": "Feature", "properties": { "visible_points": 48, "total_points": 116, "visibility_pct": 41.379310344827587 }, "geometry": { "type": "Point", "coordinates": [ -0.405655584439127, 51.675399905939464 ] } },
{ "type": "Feature", "properties": { "visible_points": 48, "total_points": 111, "visibility_pct": 43.243243243243242 }, "geometry": { "type": "Point", "coordinates": [ -0.405455266043108, 51.67539718562103 ] } },
{ "type": "Feature", "properties": { "visible_points": 54, "total_points": 105, "visibility_pct": 51.428571428571423 }, "geometry": { "type": "Point", "coordinates": [ -0.405254947678675, 51.675394464961528 ] } },
{ "type": "Feature", "properties": { "visible_points": 50, "total_points": 97, "visibility_pct": 51.546391752577314 }, "geometry": { "type": "Point", "coordinates": [ -0.405054629345835, 51.675391743960951 ] } },
{ "type": "Feature", "properties": { "visible_points": 38, "total_points": 88, "visibility_pct": 43.18181818181818 }, "geometry": { "type": "Point", "coordinates": [ -0.404854311044588, 51.675389022619342 ] } },
{ "type": "Feature", "properties": { "visible_points": 26, "total_points": 79, "visibility_pct": 32.911392405063289 }, "geometry": { "type": "Point", "coordinates": [ -0.404653992774937, 51.675386300936637 ] } },
{ "type": "Feature", "properties": { "visible_points": 0, "total_points": 71, "visibility_pct": 0.0 }, "geometry": { "type": "Point", "coordinates": [ -0.407354508096819, 51.675530868540847 ] } },
{ "type": "Feature", "properties": { "visible_points": 0, "total_points": 82, "visibility_pct": 0.0 }, "geometry": { "type": "Point", "coordinates": [ -0.407154188950597, 51.675528151108018 ] } },
{ "type": "Feature", "properties": { "visible_points": 0, "total_points": 93, "visibility_pct": 0.0 }, "geometry": { "type": "Point", "coordinates": [ -0.406953869836931, 51.675525433333206 ] } },
{ "type": "Feature", "properties": { "visible_points": 34, "total_points": 103, "visibility_pct": 33.009708737864081 }, "geometry": { "type": "Point", "coordinates": [ -0.406753550756609, 51.675522715216466 ] } },
{ "type": "Feature", "properties": { "visible_points": 40, "total_points": 109, "visibility_pct": 36.697247706422019 }, "geometry": { "type": "Point", "coordinates": [ -0.406553231707783, 51.675519996758759 ] } },
{ "type": "Feature", "properties": { "visible_points": 47, "total_points": 115, "visibility_pct": 40.869565217391305 }, "geometry": { "type": "Point", "coordinates": [ -0.40635291269046, 51.675517277960033 ] } },
{ "type": "Feature", "properties": { "visible_points": 41, "total_points": 119, "visibility_pct": 34.45378151260504 }, "geometry": { "type": "Point", "coordinates": [ -0.406152593704647, 51.675514558820304 ] } },
{ "type": "Feature", "properties": { "visible_points": 45, "total_points": 117, "visibility_pct": 38.461538461538467 }, "geometry": { "type": "Point", "coordinates": [ -0.405952274750344, 51.675511839339606 ] } },
{ "type": "Feature", "properties": { "visible_points": 42, "total_points": 113, "visibility_pct": 37.168141592920357 }, "geometry": { "type": "Point", "coordinates": [ -0.405751955827558, 51.675509119517905 ] } },
{ "type": "Feature", "properties": { "visible_points": 42, "total_points": 107, "visibility_pct": 39.252336448598129 }, "geometry": { "type": "Point", "coordinates": [ -0.405551636936291, 51.6755063993552 ] } },
{ "type": "Feature", "properties": { "visible_points": 42, "total_points": 101, "visibility_pct": 41.584158415841586 }, "geometry": { "type": "Point", "coordinates": [ -0.405351318076547, 51.675503678851499 ] } },
{ "type": "Feature", "properties": { "visible_points": 47, "total_points": 93, "visibility_pct": 50.537634408602152 }, "geometry": { "type": "Point", "coordinates": [ -0.405150999248336, 51.675500958006808 ] } },
{ "type": "Feature", "properties": { "visible_points": 40, "total_points": 85, "visibility_pct": 47.058823529411761 }, "geometry": { "type": "Point", "coordinates": [ -0.404950680451648, 51.67549823682112 ] } },
{ "type": "Feature", "properties": { "visible_points": 0, "total_points": 81, "visibility_pct": 0.0 }, "geometry": { "type": "Point", "coordinates": [ -0.407050244827765, 51.675634645710019 ] } },
{ "type": "Feature", "properties": { "visible_points": 24, "total_points": 91, "visibility_pct": 26.373626373626376 }, "geometry": { "type": "Point", "coordinates": [ -0.406849925254138, 51.675631927747254 ] } },
{ "type": "Feature", "properties": { "visible_points": 26, "total_points": 98, "visibility_pct": 26.530612244897959 }, "geometry": { "type": "Point", "coordinates": [ -0.406649605711949, 51.675629209443549 ] } },
{ "type": "Feature", "properties": { "visible_points": 33, "total_points": 104, "visibility_pct": 31.73076923076923 }, "geometry": { "type": "Point", "coordinates": [ -0.406449286201201, 51.675626490798898 ] } },
{ "type": "Feature", "properties": { "visible_points": 12, "total_points": 108, "visibility_pct": 11.111111111111111 }, "geometry": { "type": "Point", "coordinates": [ -0.406248966721902, 51.675623771813321 ] } },
{ "type": "Feature", "properties": { "visible_points": 13, "total_points": 109, "visibility_pct": 11.926605504587156 }, "geometry": { "type": "Point", "coordinates": [ -0.406048647274049, 51.675621052486825 ] } },
{ "type": "Feature", "properties": { "visible_points": 33, "total_points": 107, "visibility_pct": 30.841121495327101 }, "geometry": { "type": "Point", "coordinates": [ -0.405848327857656, 51.67561833281939 ] } },
{ "type": "Feature", "properties": { "visible_points": 35, "total_points": 102, "visibility_pct": 34.313725490196077 }, "geometry": { "type": "Point", "coordinates": [ -0.405648008472713, 51.675615612811036 ] } },
{ "type": "Feature", "properties": { "visible_points": 37, "total_points": 96, "visibility_pct": 38.541666666666671 }, "geometry": { "type": "Point", "coordinates": [ -0.405447689119237, 51.675612892461757 ] } },
{ "type": "Feature", "properties": { "visible_points": 42, "total_points": 89, "visibility_pct": 47.191011235955052 }, "geometry": { "type": "Point", "coordinates": [ -0.405247369797223, 51.675610171771531 ] } },
{ "type": "Feature", "properties": { "visible_points": 35, "total_points": 81, "visibility_pct": 43.209876543209873 }, "geometry": { "type": "Point", "coordinates": [ -0.405047050506683, 51.675607450740408 ] } },
{ "type": "Feature", "properties": { "visible_points": 2, "total_points": 78, "visibility_pct": 2.5641025641025639 }, "geometry": { "type": "Point", "coordinates": [ -0.406946300220957, 51.675741140164398 ] } },
{ "type": "Feature", "properties": { "visible_points": 18, "total_points": 85, "visibility_pct": 21.176470588235293 }, "geometry": { "type": "Point", "coordinates": [ -0.406745980188935, 51.675738422009175 ] } },
{ "type": "Feature", "properties": { "visible_points": 25, "total_points": 91, "visibility_pct": 27.472527472527474 }, "geometry": { "type": "Point", "coordinates": [ -0.406545660188343, 51.675735703513006 ] } },
{ "type": "Feature", "properties": { "visible_points": 19, "total_points": 96, "visibility_pct": 19.791666666666664 }, "geometry": { "type": "Point", "coordinates": [ -0.4063453402192, 51.675732984675911 ] } },
{ "type": "Feature", "properties": { "visible_points": 17, "total_points": 97, "visibility_pct": 17.525773195876287 }, "geometry": { "type": "Point", "coordinates": [ -0.406145020281505, 51.67573026549789 ] } },
{ "type": "Feature", "properties": { "visible_points": 27, "total_points": 97, "visibility_pct": 27.835051546391753 }, "geometry": { "type": "Point", "coordinates": [ -0.405944700375263, 51.67572754597893 ] } },
{ "type": "Feature", "properties": { "visible_points": 34, "total_points": 95, "visibility_pct": 35.789473684210527 }, "geometry": { "type": "Point", "coordinates": [ -0.405744380500475, 51.675724826119044 ] } },
{ "type": "Feature", "properties": { "visible_points": 39, "total_points": 89, "visibility_pct": 43.820224719101127 }, "geometry": { "type": "Point", "coordinates": [ -0.405544060657146, 51.675722105918226 ] } },
{ "type": "Feature", "properties": { "visible_points": 36, "total_points": 83, "visibility_pct": 43.373493975903614 }, "geometry": { "type": "Point", "coordinates": [ -0.405343740845283, 51.675719385376482 ] } },
{ "type": "Feature", "properties": { "visible_points": 17, "total_points": 78, "visibility_pct": 21.794871794871796 }, "geometry": { "type": "Point", "coordinates": [ -0.406642034633874, 51.675844916161246 ] } },
{ "type": "Feature", "properties": { "visible_points": 23, "total_points": 83, "visibility_pct": 27.710843373493976 }, "geometry": { "type": "Point", "coordinates": [ -0.406441714174888, 51.675842197472633 ] } },
{ "type": "Feature", "properties": { "visible_points": 20, "total_points": 85, "visibility_pct": 23.52941176470588 }, "geometry": { "type": "Point", "coordinates": [ -0.406241393747347, 51.675839478443088 ] } },
{ "type": "Feature", "properties": { "visible_points": 22, "total_points": 86, "visibility_pct": 25.581395348837212 }, "geometry": { "type": "Point", "coordinates": [ -0.406041073351255, 51.675836759072602 ] } },
{ "type": "Feature", "properties": { "visible_points": 32, "total_points": 85, "visibility_pct": 37.647058823529413 }, "geometry": { "type": "Point", "coordinates": [ -0.405840752986617, 51.675834039361177 ] } },
{ "type": "Feature", "properties": { "visible_points": 33, "total_points": 82, "visibility_pct": 40.243902439024396 }, "geometry": { "type": "Point", "coordinates": [ -0.405640432653437, 51.675831319308855 ] } },
{ "type": "Feature", "properties": { "visible_points": 32, "total_points": 76, "visibility_pct": 42.105263157894733 }, "geometry": { "type": "Point", "coordinates": [ -0.405440112351723, 51.675828598915572 ] } },
{ "type": "Feature", "properties": { "visible_points": 2, "total_points": 70, "visibility_pct": 2.8571428571428572 }, "geometry": { "type": "Point", "coordinates": [ -0.406538088588964, 51.675951410203503 ] } },
{ "type": "Feature", "properties": { "visible_points": 15, "total_points": 73, "visibility_pct": 20.547945205479451 }, "geometry": { "type": "Point", "coordinates": [ -0.406337767671573, 51.675948691322425 ] } },
{ "type": "Feature", "properties": { "visible_points": 23, "total_points": 74, "visibility_pct": 31.081081081081081 }, "geometry": { "type": "Point", "coordinates": [ -0.406137446785633, 51.675945972100429 ] } },
{ "type": "Feature", "properties": { "visible_points": 25, "total_points": 74, "visibility_pct": 33.783783783783782 }, "geometry": { "type": "Point", "coordinates": [ -0.405937125931146, 51.675943252537479 ] } },
{ "type": "Feature", "properties": { "visible_points": 22, "total_points": 72, "visibility_pct": 30.555555555555557 }, "geometry": { "type": "Point", "coordinates": [ -0.40573680510811, 51.675940532633604 ] } },
{ "type": "Feature", "properties": { "visible_points": 15, "total_points": 62, "visibility_pct": 24.193548387096776 }, "geometry": { "type": "Point", "coordinates": [ -0.406233820678403, 51.676055185062388 ] } },
{ "type": "Feature", "properties": { "visible_points": 16, "total_points": 63, "visibility_pct": 25.396825396825395 }, "geometry": { "type": "Point", "coordinates": [ -0.406033499334055, 51.676052465647899 ] } }
]
}
