{
"type": "FeatureCollection",
"name": "BRAIN_73_cycling",
"crs": { "type": "name", "properties": { "name": "urn:ogc:def:crs:OGC:1.3:CRS84" } },
"features": [
{"type":"Feature","properties":{"highway":"cycleway","name":"Blackwater Rail Trail","category":"Dedicated cycleway"},"geometry":{"type":"MultiLineString","coordinates":[[[0.6438468,51.7862414],[0.6439004,51.7863543],[0.6438225,51.7867256],[0.6440984,51.7882259],[0.6442063,51.7888135],[0.6444766,51.7895256],[0.6445093,51.7896626],[0.6447148,51.7904953],[0.6448274,51.7909709],[0.6450213,51.7917386],[0.6450647,51.7918545]]]}},
{"type":"Feature","properties":{"highway":"cycleway","name":"Blackwater Rail Trail","category":"Dedicated cycleway"},"geometry":{"type":"MultiLineString","coordinates":[[[0.6458251,51.7942711],[0.6458354,51.7943002],[0.6456415,51.7943501],[0.6456497,51.794385],[0.6458169,51.7943396],[0.6456497,51.7946911],[0.6457387,51.7950051],[0.646076,51.7968681],[0.6464941,51.7982624]]]}},
{"type":"Feature","properties":{"highway":"cycleway","name":null,"category":"Dedicated cycleway"},"geometry":{"type":"MultiLineString","coordinates":[[[0.6418895,51.7948413],[0.6418918,51.7947396],[0.6418738,51.7947238],[0.6418193,51.7946922],[0.6417239,51.7946656],[0.64159,51.7946476],[0.6415053,51.7946511],[0.6413137,51.7946591]]]}},
{"type":"Feature","properties":{"highway":"cycleway","name":null,"category":"Dedicated cycleway"},"geometry":{"type":"MultiLineString","coordinates":[[[0.6370254,51.7956567],[0.6369589,51.7955983],[0.6369191,51.7954572],[0.6367802,51.795462]]]}},
{"type":"Feature","properties":{"highway":"cycleway","name":null,"category":"Dedicated cycleway"},"geometry":{"type":"MultiLineString","coordinates":[[[0.6391283,51.7937123],[0.6391237,51.7937389],[0.6391126,51.7938034],[0.6391174,51.7938355],[0.6391364,51.7938676],[0.6392026,51.7939094],[0.6392848,51.7939567],[0.6393527,51.7940055],[0.6393808,51.7940356],[0.6394003,51.7940968],[0.6393803,51.7941791],[0.6394008,51.7942117],[0.6394354,51.7942443]]]}},
{"type":"Feature","properties":{"highway":"path","name":null,"category":"Shared path"},"geometry":{"type":"MultiLineString","coordinates":[[[0.6403712,51.7937197],[0.640406,51.7937406],[0.6405991,51.7938229],[0.6408395,51.7939445],[0.6410153,51.7940691],[0.641143,51.7941943]]]}},
{"type":"Feature","properties":{"highway":"cycleway","name":null,"category":"Dedicated cycleway"},"geometry":{"type":"MultiLineString","coordinates":[[[0.6412454,51.7930899],[0.6412577,51.7931885],[0.641372,51.7936122],[0.641374,51.7936209],[0.6413186,51.7938794]]]}},
{"type":"Feature","properties":{"highway":"cycleway","name":null,"category":"Dedicated cycleway"},"geometry":{"type":"MultiLineString","coordinates":[[[0.6358202,51.7881852],[0.6368323,51.7882681]]]}},
{"type":"Feature","properties":{"highway":"cycleway","name":null,"category":"Dedicated cycleway"},"geometry":{"type":"MultiLineString","coordinates":[[[0.636237,51.7912531],[0.6362256,51.7912197],[0.6362172,51.7911717],[0.636074,51.7911737],[0.6359575,51.7911693],[0.635841,51.7911512],[0.6356962,51.7911156],[0.6356418,51.7910742],[0.6356309,51.7904527],[0.635635,51.7900644],[0.6356554,51.7899502],[0.6357065,51.7897805],[0.6357502,51.7896646],[0.6357547,51.7896396],[0.6358048,51.7895597],[0.6358176,51.788874],[0.6358184,51.7886653],[0.6358202,51.7881852],[0.6358518,51.787903],[0.6358651,51.7874608],[0.6359365,51.7873848],[0.6360298,51.7873536],[0.6361693,51.7873138]]]}},
{"type":"Feature","properties":{"highway":"cycleway","name":"Blackwater Rail Trail","category":"Dedicated cycleway"},"geometry":{"type":"MultiLineString","coordinates":[[[0.6467397,51.7983392],[0.6467587,51.7990582]]]}},
{"type":"Feature","properties":{"highway":"cycleway","name":null,"category":"Dedicated cycleway"},"geometry":{"type":"MultiLineString","coordinates":[[[0.6413137,51.7946591],[0.6412693,51.7943489]]]}},
{"type":"Feature","properties":{"highway":"cycleway","name":null,"category":"Dedicated cycleway"},"geometry":{"type":"MultiLineString","coordinates":[[[0.6412578,51.7942835],[0.6412445,51.7942646],[0.6412462,51.7941891],[0.6412604,51.7941566]]]}},
{"type":"Feature","properties":{"highway":"cycleway","name":"Blackwater Rail Trail","category":"Dedicated cycleway"},"geometry":{"type":"MultiLineString","coordinates":[[[0.6467587,51.7990582],[0.6469085,51.8000522],[0.6469785,51.8005169],[0.6469411,51.8017187],[0.6468932,51.801979],[0.6468875,51.8019907]]]}},
{"type":"Feature","properties":{"highway":"cycleway","name":null,"category":"Dedicated cycleway"},"geometry":{"type":"MultiLineString","coordinates":[[[0.6349622,51.791203],[0.6350103,51.7912075],[0.6351176,51.7912149],[0.6352624,51.7912365],[0.6357157,51.7912548],[0.6360644,51.7912631],[0.636237,51.7912531]]]}},
{"type":"Feature","properties":{"highway":"cycleway","name":null,"category":"Dedicated cycleway"},"geometry":{"type":"MultiLineString","coordinates":[[[0.6412693,51.7943489],[0.6412578,51.7942835]]]}},
{"type":"Feature","properties":{"highway":"track","name":null,"category":"Track"},"geometry":{"type":"MultiLineString","coordinates":[[[0.646781,51.794822],[0.646875,51.794795],[0.6475336,51.7946059]]]}},
{"type":"Feature","properties":{"highway":"track","name":null,"category":"Track"},"geometry":{"type":"MultiLineString","coordinates":[[[0.6503716,51.7953193],[0.6500927,51.7951202],[0.6496654,51.7946738],[0.6490735,51.7938064],[0.6481615,51.7940054],[0.6477645,51.7940519],[0.6475821,51.7941182],[0.6477431,51.7944235],[0.6476766,51.7945572],[0.6475336,51.7946059],[0.6475336,51.7947088],[0.6476033,51.7948354],[0.647344,51.7949055],[0.6472761,51.7950306],[0.6473386,51.7951212],[0.647462,51.7952041],[0.6478713,51.7950927],[0.6479262,51.7950777],[0.6481237,51.795024],[0.6481612,51.7949676],[0.6481022,51.7948747],[0.6480432,51.7948083],[0.6479306,51.7947818],[0.6478072,51.7947851],[0.6476033,51.7948354]]]}},
{"type":"Feature","properties":{"highway":"track","name":null,"category":"Track"},"geometry":{"type":"MultiLineString","coordinates":[[[0.6478713,51.7950927],[0.6483096,51.7954264],[0.6485797,51.7954055],[0.6489552,51.7952795],[0.6489337,51.7951733],[0.6487728,51.7948846],[0.6495917,51.7946833],[0.6496654,51.7946738]]]}},
{"type":"Feature","properties":{"highway":"track","name":null,"category":"Track"},"geometry":{"type":"MultiLineString","coordinates":[[[0.6490735,51.7938064],[0.6491641,51.79375],[0.6497856,51.7936017],[0.6500331,51.7936803],[0.6502531,51.7938429]]]}},
{"type":"Feature","properties":{"highway":"path","name":null,"category":"Shared path"},"geometry":{"type":"MultiLineString","coordinates":[[[0.6452299,51.7849467],[0.6450757,51.7850577],[0.6449504,51.7850692],[0.6448058,51.7850598],[0.6447029,51.7850075],[0.6439882,51.7850372],[0.6437725,51.7850457]]]}},
{"type":"Feature","properties":{"highway":"track","name":null,"category":"Track"},"geometry":{"type":"MultiLineString","coordinates":[[[0.6504996,51.7884578],[0.650536,51.7886483],[0.6503536,51.7886881],[0.6502528,51.7885972],[0.6501069,51.7881173],[0.6505103,51.7878472],[0.650545,51.7866763]]]}},
{"type":"Feature","properties":{"highway":"cycleway","name":"Templar Green cycle path","category":"Dedicated cycleway"},"geometry":{"type":"MultiLineString","coordinates":[[[0.6434449,51.7906267],[0.6440559,51.7905441],[0.6447148,51.7904953],[0.6448921,51.7905458],[0.6453182,51.7907488],[0.6460087,51.7910773],[0.6461616,51.7911038],[0.6466362,51.7913188],[0.6475046,51.7917503],[0.6476367,51.791815],[0.6485882,51.7922811]]]}},
{"type":"Feature","properties":{"highway":"track","name":null,"category":"Track"},"geometry":{"type":"MultiLineString","coordinates":[[[0.6427946,51.7955127],[0.6436141,51.7956306]]]}},
{"type":"Feature","properties":{"highway":"path","name":null,"category":"Shared path"},"geometry":{"type":"MultiLineString","coordinates":[[[0.6428926,51.7952392],[0.6429105,51.7951842]]]}},
{"type":"Feature","properties":{"highway":"path","name":null,"category":"Shared path"},"geometry":{"type":"MultiLineString","coordinates":[[[0.6415053,51.7946511],[0.6416367,51.7945715],[0.6418942,51.7945738],[0.6420276,51.7945353],[0.6422462,51.7945015],[0.6426559,51.7944846],[0.6427943,51.7945128],[0.6429423,51.7945538],[0.6429722,51.7946531]]]}},
{"type":"Feature","properties":{"highway":"path","name":null,"category":"Shared path"},"geometry":{"type":"MultiLineString","coordinates":[[[0.6437725,51.7850457],[0.643809,51.7851535],[0.6438613,51.7851749],[0.6439203,51.7851845],[0.6441928,51.7851707],[0.64469,51.7851595],[0.6450718,51.7851299],[0.6451871,51.7851234],[0.645247,51.7850956],[0.6453084,51.7850845]]]}},
{"type":"Feature","properties":{"highway":"path","name":null,"category":"Shared path"},"geometry":{"type":"MultiLineString","coordinates":[[[0.6452299,51.7849467],[0.6456245,51.7849082],[0.646164,51.7848927]]]}},
{"type":"Feature","properties":{"highway":"path","name":null,"category":"Shared path"},"geometry":{"type":"MultiLineString","coordinates":[[[0.6437725,51.7850457],[0.6437596,51.7850075],[0.6437117,51.7844677],[0.6437137,51.7844518],[0.6437285,51.7844329],[0.6437591,51.7844188],[0.6437888,51.7844109],[0.6438461,51.7844103],[0.6438876,51.7844206],[0.6439093,51.7844347],[0.6439152,51.7844573],[0.6439882,51.7850372]]]}},
{"type":"Feature","properties":{"highway":"path","name":null,"category":"Shared path"},"geometry":{"type":"MultiLineString","coordinates":[[[0.6462209,51.7850524],[0.6455555,51.785078],[0.6453952,51.7850836],[0.6453084,51.7850845]]]}},
{"type":"Feature","properties":{"highway":"cycleway","name":null,"category":"Dedicated cycleway"},"geometry":{"type":"MultiLineString","coordinates":[[[0.6413186,51.7938794],[0.6412645,51.7940599],[0.6412572,51.7941049],[0.6412604,51.7941566]]]}},
{"type":"Feature","properties":{"highway":"path","name":null,"category":"Shared path"},"geometry":{"type":"MultiLineString","coordinates":[[[0.6376279,51.7929311],[0.6378461,51.7929689],[0.6380381,51.7930131],[0.6381037,51.7930175],[0.6382011,51.7930918],[0.6382775,51.7931661],[0.638308,51.7932925],[0.638309,51.7934308],[0.6383393,51.7934814],[0.6386621,51.7937581],[0.6393643,51.794262]]]}},
{"type":"Feature","properties":{"highway":"cycleway","name":null,"category":"Dedicated cycleway"},"geometry":{"type":"MultiLineString","coordinates":[[[0.6412445,51.7942646],[0.641143,51.7941943]]]}},
{"type":"Feature","properties":{"highway":"cycleway","name":null,"category":"Dedicated cycleway"},"geometry":{"type":"MultiLineString","coordinates":[[[0.641143,51.7941943],[0.6410499,51.7941641],[0.6409794,51.7941404],[0.6408723,51.7941362],[0.6407351,51.7941442],[0.6405418,51.7941566],[0.640307,51.7941523],[0.6400878,51.7941546],[0.6396318,51.794193],[0.6395318,51.7942164],[0.6394354,51.7942443],[0.6393643,51.794262],[0.6386023,51.7947212],[0.6378543,51.7951699],[0.6370254,51.7956567],[0.63652,51.7960544],[0.6362826,51.7963301],[0.6361295,51.7965228],[0.6359759,51.7966261]]]}},
{"type":"Feature","properties":{"highway":"path","name":null,"category":"Shared path"},"geometry":{"type":"MultiLineString","coordinates":[[[0.6434549,51.7945933],[0.6435924,51.7944219],[0.6437016,51.7943616],[0.6437836,51.7943012],[0.6438001,51.794237]]]}},
{"type":"Feature","properties":{"highway":"path","name":null,"category":"Shared path"},"geometry":{"type":"MultiLineString","coordinates":[[[0.6429423,51.7945538],[0.6431334,51.7944243],[0.6432696,51.7943665],[0.6434525,51.7943263],[0.6436192,51.7942973],[0.6437249,51.7942697],[0.6438001,51.794237]]]}},
{"type":"Feature","properties":{"highway":"path","name":null,"category":"Shared path"},"geometry":{"type":"MultiLineString","coordinates":[[[0.6432736,51.7936824],[0.6428702,51.7936117],[0.6424261,51.7935384],[0.6422597,51.7934935],[0.6421341,51.7934859],[0.6419288,51.7934826],[0.6418085,51.7934519],[0.6416541,51.7934558]]]}}
]
}
