{
"type": "FeatureCollection",
"name": "dea31765eb2a_visibility",
"crs": { "type": "name", "properties": { "name": "urn:ogc:def:crs:OGC:1.3:CRS84" } },
"features": [
{ "type": "Feature", "properties": { "visible_points": 0, "total_points": 56, "visibility_pct": 0.0 }, "geometry": { "type": "Point", "coordinates": [ -0.413516998927775, 52.117031072140861 ] } },
{ "type": "Feature", "properties": { "visible_points": 0, "total_points": 54, "visibility_pct": 0.0 }, "geometry": { "type": "Point", "coordinates": [ -0.413314714828813, 52.117028349388463 ] } },
{ "type": "Feature", "properties": { "visible_points": 0, "total_points": 65, "visibility_pct": 0.0 }, "geometry": { "type": "Point", "coordinates": [ -0.413614315195723, 52.117140279407778 ] } },
{ "type": "Feature", "properties": { "visible_points": 14, "total_points": 64, "visibility_pct": 21.875 }, "geometry": { "type": "Point", "coordinates": [ -0.413412030586961, 52.117137556817028 ] } },
{ "type": "Feature", "properties": { "visible_points": 18, "total_points": 61, "visibility_pct": 29.508196721311474 }, "geometry": { "type": "Point", "coordinates": [ -0.413209746010606, 52.117134833879412 ] } },
{ "type": "Feature", "properties": { "visible_points": 18, "total_points": 56, "visibility_pct": 32.142857142857146 }, "geometry": { "type": "Point", "coordinates": [ -0.41300746146666, 52.117132110594866 ] } },
{ "type": "Feature", "properties": { "visible_points": 13, "total_points": 75, "visibility_pct": 17.333333333333336 }, "geometry": { "type": "Point", "coordinates": [ -0.413711631937208, 52.11724948659981 ] } },
{ "type": "Feature", "properties": { "visible_points": 17, "total_points": 74, "visibility_pct": 22.972972972972975 }, "geometry": { "type": "Point", "coordinates": [ -0.413509346820059, 52.117246764171462 ] } },
{ "type": "Feature", "properties": { "visible_points": 15, "total_points": 71, "visibility_pct": 21.12676056338028 }, "geometry": { "type": "Point", "coordinates": [ -0.413307061735264, 52.117244041396198 ] } },
{ "type": "Feature", "properties": { "visible_points": 18, "total_points": 66, "visibility_pct": 27.27272727272727 }, "geometry": { "type": "Point", "coordinates": [ -0.413104776682818, 52.117241318273983 ] } },
{ "type": "Feature", "properties": { "visible_points": 11, "total_points": 59, "visibility_pct": 18.64406779661017 }, "geometry": { "type": "Point", "coordinates": [ -0.412902491662732, 52.11723859480481 ] } },
{ "type": "Feature", "properties": { "visible_points": 22, "total_points": 85, "visibility_pct": 25.882352941176475 }, "geometry": { "type": "Point", "coordinates": [ -0.41380894915433, 52.117358693714444 ] } },
{ "type": "Feature", "properties": { "visible_points": 20, "total_points": 85, "visibility_pct": 23.52941176470588 }, "geometry": { "type": "Point", "coordinates": [ -0.413606663528901, 52.117355971448788 ] } },
{ "type": "Feature", "properties": { "visible_points": 19, "total_points": 80, "visibility_pct": 23.75 }, "geometry": { "type": "Point", "coordinates": [ -0.413404377935818, 52.117353248836181 ] } },
{ "type": "Feature", "properties": { "visible_points": 17, "total_points": 75, "visibility_pct": 22.666666666666664 }, "geometry": { "type": "Point", "coordinates": [ -0.413202092375085, 52.11735052587666 ] } },
{ "type": "Feature", "properties": { "visible_points": 18, "total_points": 68, "visibility_pct": 26.47058823529412 }, "geometry": { "type": "Point", "coordinates": [ -0.412999806846711, 52.117347802570187 ] } },
{ "type": "Feature", "properties": { "visible_points": 0, "total_points": 78, "visibility_pct": 0.0 }, "geometry": { "type": "Point", "coordinates": [ -0.414108553013437, 52.117470622506985 ] } },
{ "type": "Feature", "properties": { "visible_points": 20, "total_points": 89, "visibility_pct": 22.471910112359549 }, "geometry": { "type": "Point", "coordinates": [ -0.413906266847378, 52.117467900750938 ] } },
{ "type": "Feature", "properties": { "visible_points": 18, "total_points": 94, "visibility_pct": 19.148936170212767 }, "geometry": { "type": "Point", "coordinates": [ -0.41370398071366, 52.117465178647961 ] } },
{ "type": "Feature", "properties": { "visible_points": 16, "total_points": 89, "visibility_pct": 17.977528089887642 }, "geometry": { "type": "Point", "coordinates": [ -0.413501694612292, 52.117462456198041 ] } },
{ "type": "Feature", "properties": { "visible_points": 13, "total_points": 83, "visibility_pct": 15.66265060240964 }, "geometry": { "type": "Point", "coordinates": [ -0.413299408543268, 52.117459733401191 ] } },
{ "type": "Feature", "properties": { "visible_points": 9, "total_points": 76, "visibility_pct": 11.842105263157894 }, "geometry": { "type": "Point", "coordinates": [ -0.413097122506603, 52.117457010257411 ] } },
{ "type": "Feature", "properties": { "visible_points": 0, "total_points": 79, "visibility_pct": 0.0 }, "geometry": { "type": "Point", "coordinates": [ -0.414205871690699, 52.117579829302635 ] } },
{ "type": "Feature", "properties": { "visible_points": 17, "total_points": 89, "visibility_pct": 19.101123595505616 }, "geometry": { "type": "Point", "coordinates": [ -0.414003585016351, 52.117577107709288 ] } },
{ "type": "Feature", "properties": { "visible_points": 18, "total_points": 96, "visibility_pct": 18.75 }, "geometry": { "type": "Point", "coordinates": [ -0.413801298374349, 52.117574385769011 ] } },
{ "type": "Feature", "properties": { "visible_points": 12, "total_points": 95, "visibility_pct": 12.631578947368421 }, "geometry": { "type": "Point", "coordinates": [ -0.413599011764688, 52.11757166348179 ] } },
{ "type": "Feature", "properties": { "visible_points": 7, "total_points": 89, "visibility_pct": 7.8651685393258424 }, "geometry": { "type": "Point", "coordinates": [ -0.41339672518737, 52.117568940847612 ] } },
{ "type": "Feature", "properties": { "visible_points": 7, "total_points": 82, "visibility_pct": 8.536585365853659 }, "geometry": { "type": "Point", "coordinates": [ -0.413194438642412, 52.117566217866518 ] } },
{ "type": "Feature", "properties": { "visible_points": 9, "total_points": 69, "visibility_pct": 13.043478260869565 }, "geometry": { "type": "Point", "coordinates": [ -0.412992152129807, 52.117563494538466 ] } },
{ "type": "Feature", "properties": { "visible_points": 0, "total_points": 79, "visibility_pct": 0.0 }, "geometry": { "type": "Point", "coordinates": [ -0.414303190843892, 52.117689036020153 ] } },
{ "type": "Feature", "properties": { "visible_points": 15, "total_points": 88, "visibility_pct": 17.045454545454543 }, "geometry": { "type": "Point", "coordinates": [ -0.414100903661255, 52.117686314589491 ] } },
{ "type": "Feature", "properties": { "visible_points": 12, "total_points": 94, "visibility_pct": 12.76595744680851 }, "geometry": { "type": "Point", "coordinates": [ -0.413898616510963, 52.1176835928119 ] } },
{ "type": "Feature", "properties": { "visible_points": 8, "total_points": 96, "visibility_pct": 8.3333333333333321 }, "geometry": { "type": "Point", "coordinates": [ -0.41369632939301, 52.117680870687366 ] } },
{ "type": "Feature", "properties": { "visible_points": 7, "total_points": 92, "visibility_pct": 7.608695652173914 }, "geometry": { "type": "Point", "coordinates": [ -0.413494042307397, 52.117678148215887 ] } },
{ "type": "Feature", "properties": { "visible_points": 1, "total_points": 84, "visibility_pct": 1.1904761904761905 }, "geometry": { "type": "Point", "coordinates": [ -0.413291755254144, 52.117675425397479 ] } },
{ "type": "Feature", "properties": { "visible_points": 2, "total_points": 72, "visibility_pct": 2.7777777777777777 }, "geometry": { "type": "Point", "coordinates": [ -0.413089468233242, 52.117672702232127 ] } },
{ "type": "Feature", "properties": { "visible_points": 0, "total_points": 76, "visibility_pct": 0.0 }, "geometry": { "type": "Point", "coordinates": [ -0.414400510473024, 52.117798242659518 ] } },
{ "type": "Feature", "properties": { "visible_points": 11, "total_points": 84, "visibility_pct": 13.095238095238097 }, "geometry": { "type": "Point", "coordinates": [ -0.4141982227821, 52.117795521391557 ] } },
{ "type": "Feature", "properties": { "visible_points": 2, "total_points": 90, "visibility_pct": 2.2222222222222223 }, "geometry": { "type": "Point", "coordinates": [ -0.413995935123508, 52.117792799776645 ] } },
{ "type": "Feature", "properties": { "visible_points": 6, "total_points": 93, "visibility_pct": 6.4516129032258061 }, "geometry": { "type": "Point", "coordinates": [ -0.41379364749726, 52.117790077814817 ] } },
{ "type": "Feature", "properties": { "visible_points": 5, "total_points": 91, "visibility_pct": 5.4945054945054945 }, "geometry": { "type": "Point", "coordinates": [ -0.413591359903357, 52.117787355506024 ] } },
{ "type": "Feature", "properties": { "visible_points": 1, "total_points": 84, "visibility_pct": 1.1904761904761905 }, "geometry": { "type": "Point", "coordinates": [ -0.413389072341801, 52.117784632850302 ] } },
{ "type": "Feature", "properties": { "visible_points": 5, "total_points": 73, "visibility_pct": 6.8493150684931505 }, "geometry": { "type": "Point", "coordinates": [ -0.4131867848126, 52.117781909847629 ] } },
{ "type": "Feature", "properties": { "visible_points": 5, "total_points": 68, "visibility_pct": 7.3529411764705888 }, "geometry": { "type": "Point", "coordinates": [ -0.414497830578096, 52.117907449220759 ] } },
{ "type": "Feature", "properties": { "visible_points": 9, "total_points": 76, "visibility_pct": 11.842105263157894 }, "geometry": { "type": "Point", "coordinates": [ -0.414295542378877, 52.117904728115484 ] } },
{ "type": "Feature", "properties": { "visible_points": 5, "total_points": 83, "visibility_pct": 6.024096385542169 }, "geometry": { "type": "Point", "coordinates": [ -0.414093254211997, 52.117902006663272 ] } },
{ "type": "Feature", "properties": { "visible_points": 0, "total_points": 88, "visibility_pct": 0.0 }, "geometry": { "type": "Point", "coordinates": [ -0.413890966077446, 52.117899284864123 ] } },
{ "type": "Feature", "properties": { "visible_points": 0, "total_points": 89, "visibility_pct": 0.0 }, "geometry": { "type": "Point", "coordinates": [ -0.413688677975246, 52.117896562718016 ] } },
{ "type": "Feature", "properties": { "visible_points": 1, "total_points": 82, "visibility_pct": 1.2195121951219512 }, "geometry": { "type": "Point", "coordinates": [ -0.413486389905388, 52.117893840224987 ] } },
{ "type": "Feature", "properties": { "visible_points": 10, "total_points": 67, "visibility_pct": 14.925373134328357 }, "geometry": { "type": "Point", "coordinates": [ -0.414392862451602, 52.118013934761258 ] } },
{ "type": "Feature", "properties": { "visible_points": 7, "total_points": 74, "visibility_pct": 9.4594594594594597 }, "geometry": { "type": "Point", "coordinates": [ -0.41419057377642, 52.118011213471732 ] } },
{ "type": "Feature", "properties": { "visible_points": 3, "total_points": 80, "visibility_pct": 3.75 }, "geometry": { "type": "Point", "coordinates": [ -0.413988285133575, 52.118008491835283 ] } },
{ "type": "Feature", "properties": { "visible_points": 0, "total_points": 83, "visibility_pct": 0.0 }, "geometry": { "type": "Point", "coordinates": [ -0.41378599652307, 52.118005769851877 ] } },
{ "type": "Feature", "properties": { "visible_points": 0, "total_points": 78, "visibility_pct": 0.0 }, "geometry": { "type": "Point", "coordinates": [ -0.41358370794491, 52.118003047521519 ] } },
{ "type": "Feature", "properties": { "visible_points": 7, "total_points": 59, "visibility_pct": 11.864406779661017 }, "geometry": { "type": "Point", "coordinates": [ -0.414490183000273, 52.118123141328887 ] } },
{ "type": "Feature", "properties": { "visible_points": 5, "total_points": 65, "visibility_pct": 7.6923076923076925 }, "geometry": { "type": "Point", "coordinates": [ -0.41428789381679, 52.118120420202061 ] } },
{ "type": "Feature", "properties": { "visible_points": 3, "total_points": 70, "visibility_pct": 4.2857142857142856 }, "geometry": { "type": "Point", "coordinates": [ -0.414085604665643, 52.118117698728298 ] } },
{ "type": "Feature", "properties": { "visible_points": 3, "total_points": 75, "visibility_pct": 4.0 }, "geometry": { "type": "Point", "coordinates": [ -0.413883315546835, 52.118114976907584 ] } },
{ "type": "Feature", "properties": { "visible_points": 2, "total_points": 51, "visibility_pct": 3.9215686274509802 }, "geometry": { "type": "Point", "coordinates": [ -0.414587504024897, 52.118232347818356 ] } },
{ "type": "Feature", "properties": { "visible_points": 1, "total_points": 56, "visibility_pct": 1.7857142857142856 }, "geometry": { "type": "Point", "coordinates": [ -0.414385214333111, 52.118229626854237 ] } },
{ "type": "Feature", "properties": { "visible_points": 4, "total_points": 61, "visibility_pct": 6.557377049180328 }, "geometry": { "type": "Point", "coordinates": [ -0.414182924673658, 52.118226905543168 ] } }
]
}
