{
"type": "FeatureCollection",
"name": "f613076e5da2_visibility",
"crs": { "type": "name", "properties": { "name": "urn:ogc:def:crs:OGC:1.3:CRS84" } },
"features": [
{ "type": "Feature", "properties": { "visible_points": 2, "total_points": 62, "visibility_pct": 3.225806451612903 }, "geometry": { "type": "Point", "coordinates": [ -0.55922280781061, 52.243392533560595 ] } },
{ "type": "Feature", "properties": { "visible_points": 0, "total_points": 67, "visibility_pct": 0.0 }, "geometry": { "type": "Point", "coordinates": [ -0.559019931987335, 52.243390055821422 ] } },
{ "type": "Feature", "properties": { "visible_points": 0, "total_points": 71, "visibility_pct": 0.0 }, "geometry": { "type": "Point", "coordinates": [ -0.558817056195162, 52.243387577734374 ] } },
{ "type": "Feature", "properties": { "visible_points": 4, "total_points": 69, "visibility_pct": 5.7971014492753623 }, "geometry": { "type": "Point", "coordinates": [ -0.559320753868297, 52.243501622448115 ] } },
{ "type": "Feature", "properties": { "visible_points": 0, "total_points": 75, "visibility_pct": 0.0 }, "geometry": { "type": "Point", "coordinates": [ -0.559117877500953, 52.243499144858291 ] } },
{ "type": "Feature", "properties": { "visible_points": 1, "total_points": 80, "visibility_pct": 1.25 }, "geometry": { "type": "Point", "coordinates": [ -0.558915001164702, 52.243496666920578 ] } },
{ "type": "Feature", "properties": { "visible_points": 0, "total_points": 84, "visibility_pct": 0.0 }, "geometry": { "type": "Point", "coordinates": [ -0.558712124859554, 52.24349418863499 ] } },
{ "type": "Feature", "properties": { "visible_points": 0, "total_points": 71, "visibility_pct": 0.0 }, "geometry": { "type": "Point", "coordinates": [ -0.557900619950069, 52.243484272013674 ] } },
{ "type": "Feature", "properties": { "visible_points": 0, "total_points": 82, "visibility_pct": 0.0 }, "geometry": { "type": "Point", "coordinates": [ -0.559215823527528, 52.243608233830116 ] } },
{ "type": "Feature", "properties": { "visible_points": 0, "total_points": 88, "visibility_pct": 0.0 }, "geometry": { "type": "Point", "coordinates": [ -0.559012946647204, 52.243605756041774 ] } },
{ "type": "Feature", "properties": { "visible_points": 1, "total_points": 93, "visibility_pct": 1.0752688172043012 }, "geometry": { "type": "Point", "coordinates": [ -0.558810069797982, 52.243603277905521 ] } },
{ "type": "Feature", "properties": { "visible_points": 1, "total_points": 97, "visibility_pct": 1.0309278350515463 }, "geometry": { "type": "Point", "coordinates": [ -0.558607192979857, 52.243600799421408 ] } },
{ "type": "Feature", "properties": { "visible_points": 0, "total_points": 90, "visibility_pct": 0.0 }, "geometry": { "type": "Point", "coordinates": [ -0.558201439436947, 52.243595841409451 ] } },
{ "type": "Feature", "properties": { "visible_points": 8, "total_points": 84, "visibility_pct": 9.5238095238095237 }, "geometry": { "type": "Point", "coordinates": [ -0.557998562712167, 52.243593361881643 ] } },
{ "type": "Feature", "properties": { "visible_points": 0, "total_points": 76, "visibility_pct": 0.0 }, "geometry": { "type": "Point", "coordinates": [ -0.557795686018505, 52.243590882005954 ] } },
{ "type": "Feature", "properties": { "visible_points": 2, "total_points": 87, "visibility_pct": 2.2988505747126435 }, "geometry": { "type": "Point", "coordinates": [ -0.559313770067075, 52.243717322736892 ] } },
{ "type": "Feature", "properties": { "visible_points": 0, "total_points": 95, "visibility_pct": 0.0 }, "geometry": { "type": "Point", "coordinates": [ -0.559110892642673, 52.243714845097912 ] } },
{ "type": "Feature", "properties": { "visible_points": 0, "total_points": 101, "visibility_pct": 0.0 }, "geometry": { "type": "Point", "coordinates": [ -0.558908015249368, 52.243712367111037 ] } },
{ "type": "Feature", "properties": { "visible_points": 1, "total_points": 106, "visibility_pct": 0.94339622641509435 }, "geometry": { "type": "Point", "coordinates": [ -0.558705137887164, 52.243709888776259 ] } },
{ "type": "Feature", "properties": { "visible_points": 2, "total_points": 107, "visibility_pct": 1.8691588785046727 }, "geometry": { "type": "Point", "coordinates": [ -0.558502260556068, 52.243707410093585 ] } },
{ "type": "Feature", "properties": { "visible_points": 0, "total_points": 102, "visibility_pct": 0.0 }, "geometry": { "type": "Point", "coordinates": [ -0.558299383256085, 52.243704931063029 ] } },
{ "type": "Feature", "properties": { "visible_points": 5, "total_points": 97, "visibility_pct": 5.1546391752577314 }, "geometry": { "type": "Point", "coordinates": [ -0.558096505987216, 52.243702451684577 ] } },
{ "type": "Feature", "properties": { "visible_points": 7, "total_points": 89, "visibility_pct": 7.8651685393258424 }, "geometry": { "type": "Point", "coordinates": [ -0.557893628749462, 52.243699971958215 ] } },
{ "type": "Feature", "properties": { "visible_points": 11, "total_points": 79, "visibility_pct": 13.924050632911392 }, "geometry": { "type": "Point", "coordinates": [ -0.557690751542839, 52.243697491883985 ] } },
{ "type": "Feature", "properties": { "visible_points": 0, "total_points": 69, "visibility_pct": 0.0 }, "geometry": { "type": "Point", "coordinates": [ -0.55748787436734, 52.243695011461853 ] } },
{ "type": "Feature", "properties": { "visible_points": 0, "total_points": 74, "visibility_pct": 0.0 }, "geometry": { "type": "Point", "coordinates": [ -0.559614595119165, 52.243828888720351 ] } },
{ "type": "Feature", "properties": { "visible_points": 2, "total_points": 87, "visibility_pct": 2.2988505747126435 }, "geometry": { "type": "Point", "coordinates": [ -0.55941171711959, 52.243826411578624 ] } },
{ "type": "Feature", "properties": { "visible_points": 8, "total_points": 99, "visibility_pct": 8.0808080808080813 }, "geometry": { "type": "Point", "coordinates": [ -0.559208839151107, 52.243823934089001 ] } },
{ "type": "Feature", "properties": { "visible_points": 0, "total_points": 108, "visibility_pct": 0.0 }, "geometry": { "type": "Point", "coordinates": [ -0.559005961213721, 52.243821456251474 ] } },
{ "type": "Feature", "properties": { "visible_points": 4, "total_points": 113, "visibility_pct": 3.5398230088495577 }, "geometry": { "type": "Point", "coordinates": [ -0.558803083307436, 52.243818978066074 ] } },
{ "type": "Feature", "properties": { "visible_points": 2, "total_points": 115, "visibility_pct": 1.7391304347826086 }, "geometry": { "type": "Point", "coordinates": [ -0.55860020543225, 52.24381649953277 ] } },
{ "type": "Feature", "properties": { "visible_points": 0, "total_points": 113, "visibility_pct": 0.0 }, "geometry": { "type": "Point", "coordinates": [ -0.558397327588177, 52.243814020651563 ] } },
{ "type": "Feature", "properties": { "visible_points": 2, "total_points": 108, "visibility_pct": 1.8518518518518516 }, "geometry": { "type": "Point", "coordinates": [ -0.558194449775221, 52.243811541422446 ] } },
{ "type": "Feature", "properties": { "visible_points": 0, "total_points": 101, "visibility_pct": 0.0 }, "geometry": { "type": "Point", "coordinates": [ -0.557991571993376, 52.243809061845461 ] } },
{ "type": "Feature", "properties": { "visible_points": 11, "total_points": 92, "visibility_pct": 11.956521739130435 }, "geometry": { "type": "Point", "coordinates": [ -0.557788694242657, 52.24380658192058 ] } },
{ "type": "Feature", "properties": { "visible_points": 11, "total_points": 81, "visibility_pct": 13.580246913580247 }, "geometry": { "type": "Point", "coordinates": [ -0.557585816523064, 52.243804101647804 ] } },
{ "type": "Feature", "properties": { "visible_points": 0, "total_points": 71, "visibility_pct": 0.0 }, "geometry": { "type": "Point", "coordinates": [ -0.557382938834604, 52.243801621027124 ] } },
{ "type": "Feature", "properties": { "visible_points": 2, "total_points": 69, "visibility_pct": 2.8985507246376812 }, "geometry": { "type": "Point", "coordinates": [ -0.559712543228737, 52.243937977347663 ] } },
{ "type": "Feature", "properties": { "visible_points": 7, "total_points": 82, "visibility_pct": 8.536585365853659 }, "geometry": { "type": "Point", "coordinates": [ -0.559509664685084, 52.243935500355299 ] } },
{ "type": "Feature", "properties": { "visible_points": 10, "total_points": 95, "visibility_pct": 10.526315789473683 }, "geometry": { "type": "Point", "coordinates": [ -0.559306786172519, 52.243933023015039 ] } },
{ "type": "Feature", "properties": { "visible_points": 9, "total_points": 107, "visibility_pct": 8.4112149532710276 }, "geometry": { "type": "Point", "coordinates": [ -0.559103907691045, 52.243930545326897 ] } },
{ "type": "Feature", "properties": { "visible_points": 16, "total_points": 115, "visibility_pct": 13.913043478260869 }, "geometry": { "type": "Point", "coordinates": [ -0.558901029240674, 52.243928067290838 ] } },
{ "type": "Feature", "properties": { "visible_points": 20, "total_points": 119, "visibility_pct": 16.806722689075631 }, "geometry": { "type": "Point", "coordinates": [ -0.558698150821405, 52.243925588906883 ] } },
{ "type": "Feature", "properties": { "visible_points": 18, "total_points": 118, "visibility_pct": 15.254237288135593 }, "geometry": { "type": "Point", "coordinates": [ -0.558495272433236, 52.243923110175047 ] } },
{ "type": "Feature", "properties": { "visible_points": 15, "total_points": 117, "visibility_pct": 12.820512820512819 }, "geometry": { "type": "Point", "coordinates": [ -0.558292394076185, 52.2439206310953 ] } },
{ "type": "Feature", "properties": { "visible_points": 0, "total_points": 113, "visibility_pct": 0.0 }, "geometry": { "type": "Point", "coordinates": [ -0.558089515750251, 52.243918151667664 ] } },
{ "type": "Feature", "properties": { "visible_points": 0, "total_points": 104, "visibility_pct": 0.0 }, "geometry": { "type": "Point", "coordinates": [ -0.557886637455435, 52.243915671892132 ] } },
{ "type": "Feature", "properties": { "visible_points": 9, "total_points": 94, "visibility_pct": 9.5744680851063837 }, "geometry": { "type": "Point", "coordinates": [ -0.557683759191742, 52.243913191768719 ] } },
{ "type": "Feature", "properties": { "visible_points": 10, "total_points": 83, "visibility_pct": 12.048192771084338 }, "geometry": { "type": "Point", "coordinates": [ -0.557480880959181, 52.243910711297374 ] } },
{ "type": "Feature", "properties": { "visible_points": 2, "total_points": 71, "visibility_pct": 2.8169014084507045 }, "geometry": { "type": "Point", "coordinates": [ -0.55727800275775, 52.243908230478176 ] } },
{ "type": "Feature", "properties": { "visible_points": 4, "total_points": 75, "visibility_pct": 5.3333333333333339 }, "geometry": { "type": "Point", "coordinates": [ -0.559607612763556, 52.244044589066938 ] } },
{ "type": "Feature", "properties": { "visible_points": 12, "total_points": 88, "visibility_pct": 13.636363636363635 }, "geometry": { "type": "Point", "coordinates": [ -0.559404733706905, 52.244042111876048 ] } },
{ "type": "Feature", "properties": { "visible_points": 12, "total_points": 101, "visibility_pct": 11.881188118811881 }, "geometry": { "type": "Point", "coordinates": [ -0.559201854681352, 52.244039634337256 ] } },
{ "type": "Feature", "properties": { "visible_points": 13, "total_points": 114, "visibility_pct": 11.403508771929824 }, "geometry": { "type": "Point", "coordinates": [ -0.558998975686886, 52.244037156450567 ] } },
{ "type": "Feature", "properties": { "visible_points": 15, "total_points": 120, "visibility_pct": 12.5 }, "geometry": { "type": "Point", "coordinates": [ -0.55879609672352, 52.244034678215968 ] } },
{ "type": "Feature", "properties": { "visible_points": 23, "total_points": 120, "visibility_pct": 19.166666666666668 }, "geometry": { "type": "Point", "coordinates": [ -0.558593217791269, 52.244032199633487 ] } },
{ "type": "Feature", "properties": { "visible_points": 23, "total_points": 120, "visibility_pct": 19.166666666666668 }, "geometry": { "type": "Point", "coordinates": [ -0.558390338890119, 52.244029720703111 ] } },
{ "type": "Feature", "properties": { "visible_points": 20, "total_points": 120, "visibility_pct": 16.666666666666664 }, "geometry": { "type": "Point", "coordinates": [ -0.558187460020085, 52.244027241424824 ] } },
{ "type": "Feature", "properties": { "visible_points": 14, "total_points": 116, "visibility_pct": 12.068965517241379 }, "geometry": { "type": "Point", "coordinates": [ -0.55798458118117, 52.244024761798642 ] } },
{ "type": "Feature", "properties": { "visible_points": 5, "total_points": 106, "visibility_pct": 4.716981132075472 }, "geometry": { "type": "Point", "coordinates": [ -0.557781702373378, 52.24402228182457 ] } },
{ "type": "Feature", "properties": { "visible_points": 9, "total_points": 94, "visibility_pct": 9.5744680851063837 }, "geometry": { "type": "Point", "coordinates": [ -0.557578823596713, 52.24401980150261 ] } },
{ "type": "Feature", "properties": { "visible_points": 10, "total_points": 82, "visibility_pct": 12.195121951219512 }, "geometry": { "type": "Point", "coordinates": [ -0.557375944851179, 52.244017320832739 ] } },
{ "type": "Feature", "properties": { "visible_points": 0, "total_points": 68, "visibility_pct": 0.0 }, "geometry": { "type": "Point", "coordinates": [ -0.559705561355016, 52.244153677713513 ] } },
{ "type": "Feature", "properties": { "visible_points": 4, "total_points": 81, "visibility_pct": 4.9382716049382713 }, "geometry": { "type": "Point", "coordinates": [ -0.559502681754276, 52.244151200671986 ] } },
{ "type": "Feature", "properties": { "visible_points": 6, "total_points": 94, "visibility_pct": 6.3829787234042552 }, "geometry": { "type": "Point", "coordinates": [ -0.559299802184629, 52.244148723282578 ] } },
{ "type": "Feature", "properties": { "visible_points": 10, "total_points": 107, "visibility_pct": 9.3457943925233646 }, "geometry": { "type": "Point", "coordinates": [ -0.559096922646077, 52.244146245545231 ] } },
{ "type": "Feature", "properties": { "visible_points": 17, "total_points": 119, "visibility_pct": 14.285714285714285 }, "geometry": { "type": "Point", "coordinates": [ -0.558894043138619, 52.244143767460002 ] } },
{ "type": "Feature", "properties": { "visible_points": 21, "total_points": 120, "visibility_pct": 17.5 }, "geometry": { "type": "Point", "coordinates": [ -0.558691163662269, 52.244141289026885 ] } },
{ "type": "Feature", "properties": { "visible_points": 21, "total_points": 120, "visibility_pct": 17.5 }, "geometry": { "type": "Point", "coordinates": [ -0.558488284217021, 52.24413881024585 ] } },
{ "type": "Feature", "properties": { "visible_points": 24, "total_points": 120, "visibility_pct": 20.0 }, "geometry": { "type": "Point", "coordinates": [ -0.558285404802892, 52.244136331116941 ] } },
{ "type": "Feature", "properties": { "visible_points": 18, "total_points": 120, "visibility_pct": 15.0 }, "geometry": { "type": "Point", "coordinates": [ -0.558082525419871, 52.244133851640122 ] } },
{ "type": "Feature", "properties": { "visible_points": 11, "total_points": 114, "visibility_pct": 9.6491228070175428 }, "geometry": { "type": "Point", "coordinates": [ -0.557879646067979, 52.244131371815399 ] } },
{ "type": "Feature", "properties": { "visible_points": 0, "total_points": 103, "visibility_pct": 0.0 }, "geometry": { "type": "Point", "coordinates": [ -0.557676766747207, 52.244128891642788 ] } },
{ "type": "Feature", "properties": { "visible_points": 9, "total_points": 91, "visibility_pct": 9.8901098901098905 }, "geometry": { "type": "Point", "coordinates": [ -0.557473887457568, 52.244126411122267 ] } },
{ "type": "Feature", "properties": { "visible_points": 2, "total_points": 78, "visibility_pct": 2.5641025641025639 }, "geometry": { "type": "Point", "coordinates": [ -0.557271008199062, 52.244123930253878 ] } },
{ "type": "Feature", "properties": { "visible_points": 1, "total_points": 72, "visibility_pct": 1.3888888888888888 }, "geometry": { "type": "Point", "coordinates": [ -0.559600630314635, 52.244260289402881 ] } },
{ "type": "Feature", "properties": { "visible_points": 5, "total_points": 85, "visibility_pct": 5.8823529411764701 }, "geometry": { "type": "Point", "coordinates": [ -0.559397750200894, 52.244257812162807 ] } },
{ "type": "Feature", "properties": { "visible_points": 8, "total_points": 98, "visibility_pct": 8.1632653061224492 }, "geometry": { "type": "Point", "coordinates": [ -0.559194870118247, 52.244255334574866 ] } },
{ "type": "Feature", "properties": { "visible_points": 12, "total_points": 110, "visibility_pct": 10.909090909090908 }, "geometry": { "type": "Point", "coordinates": [ -0.558991990066699, 52.244252856639008 ] } },
{ "type": "Feature", "properties": { "visible_points": 22, "total_points": 117, "visibility_pct": 18.803418803418804 }, "geometry": { "type": "Point", "coordinates": [ -0.55878911004624, 52.24425037835524 ] } },
{ "type": "Feature", "properties": { "visible_points": 23, "total_points": 120, "visibility_pct": 19.166666666666668 }, "geometry": { "type": "Point", "coordinates": [ -0.558586230056904, 52.244247899723582 ] } },
{ "type": "Feature", "properties": { "visible_points": 24, "total_points": 120, "visibility_pct": 20.0 }, "geometry": { "type": "Point", "coordinates": [ -0.558383350098666, 52.244245420744008 ] } },
{ "type": "Feature", "properties": { "visible_points": 21, "total_points": 120, "visibility_pct": 17.5 }, "geometry": { "type": "Point", "coordinates": [ -0.558180470171547, 52.244242941416537 ] } },
{ "type": "Feature", "properties": { "visible_points": 19, "total_points": 118, "visibility_pct": 16.101694915254235 }, "geometry": { "type": "Point", "coordinates": [ -0.557977590275541, 52.244240461741185 ] } },
{ "type": "Feature", "properties": { "visible_points": 0, "total_points": 111, "visibility_pct": 0.0 }, "geometry": { "type": "Point", "coordinates": [ -0.557774710410665, 52.244237981717944 ] } },
{ "type": "Feature", "properties": { "visible_points": 0, "total_points": 99, "visibility_pct": 0.0 }, "geometry": { "type": "Point", "coordinates": [ -0.557571830576917, 52.244235501346779 ] } },
{ "type": "Feature", "properties": { "visible_points": 6, "total_points": 86, "visibility_pct": 6.9767441860465116 }, "geometry": { "type": "Point", "coordinates": [ -0.557368950774299, 52.244233020627718 ] } },
{ "type": "Feature", "properties": { "visible_points": 1, "total_points": 73, "visibility_pct": 1.3698630136986301 }, "geometry": { "type": "Point", "coordinates": [ -0.557166071002818, 52.244230539560753 ] } },
{ "type": "Feature", "properties": { "visible_points": 0, "total_points": 75, "visibility_pct": 0.0 }, "geometry": { "type": "Point", "coordinates": [ -0.559495698730149, 52.244366900978051 ] } },
{ "type": "Feature", "properties": { "visible_points": 5, "total_points": 87, "visibility_pct": 5.7471264367816088 }, "geometry": { "type": "Point", "coordinates": [ -0.559292818103404, 52.244364423539444 ] } },
{ "type": "Feature", "properties": { "visible_points": 10, "total_points": 98, "visibility_pct": 10.204081632653061 }, "geometry": { "type": "Point", "coordinates": [ -0.559089937507756, 52.244361945752956 ] } },
{ "type": "Feature", "properties": { "visible_points": 10, "total_points": 106, "visibility_pct": 9.433962264150944 }, "geometry": { "type": "Point", "coordinates": [ -0.558887056943207, 52.244359467618544 ] } },
{ "type": "Feature", "properties": { "visible_points": 11, "total_points": 112, "visibility_pct": 9.8214285714285712 }, "geometry": { "type": "Point", "coordinates": [ -0.558684176409759, 52.24435698913625 ] } },
{ "type": "Feature", "properties": { "visible_points": 30, "total_points": 116, "visibility_pct": 25.862068965517242 }, "geometry": { "type": "Point", "coordinates": [ -0.558481295907417, 52.244354510306046 ] } },
{ "type": "Feature", "properties": { "visible_points": 22, "total_points": 118, "visibility_pct": 18.64406779661017 }, "geometry": { "type": "Point", "coordinates": [ -0.558278415436195, 52.244352031127939 ] } },
{ "type": "Feature", "properties": { "visible_points": 18, "total_points": 119, "visibility_pct": 15.126050420168067 }, "geometry": { "type": "Point", "coordinates": [ -0.558075534996083, 52.244349551601935 ] } },
{ "type": "Feature", "properties": { "visible_points": 15, "total_points": 115, "visibility_pct": 13.043478260869565 }, "geometry": { "type": "Point", "coordinates": [ -0.557872654587096, 52.244347071728043 ] } },
{ "type": "Feature", "properties": { "visible_points": 0, "total_points": 105, "visibility_pct": 0.0 }, "geometry": { "type": "Point", "coordinates": [ -0.557669774209232, 52.244344591506241 ] } },
{ "type": "Feature", "properties": { "visible_points": 2, "total_points": 93, "visibility_pct": 2.1505376344086025 }, "geometry": { "type": "Point", "coordinates": [ -0.557466893862499, 52.244342110936522 ] } },
{ "type": "Feature", "properties": { "visible_points": 1, "total_points": 80, "visibility_pct": 1.25 }, "geometry": { "type": "Point", "coordinates": [ -0.557264013546905, 52.244339630018928 ] } },
{ "type": "Feature", "properties": { "visible_points": 0, "total_points": 75, "visibility_pct": 0.0 }, "geometry": { "type": "Point", "coordinates": [ -0.559390766601552, 52.244473512438972 ] } },
{ "type": "Feature", "properties": { "visible_points": 6, "total_points": 85, "visibility_pct": 7.0588235294117645 }, "geometry": { "type": "Point", "coordinates": [ -0.559187885461806, 52.244471034801862 ] } },
{ "type": "Feature", "properties": { "visible_points": 8, "total_points": 94, "visibility_pct": 8.5106382978723403 }, "geometry": { "type": "Point", "coordinates": [ -0.558985004353149, 52.244468556816813 ] } },
{ "type": "Feature", "properties": { "visible_points": 6, "total_points": 101, "visibility_pct": 5.9405940594059405 }, "geometry": { "type": "Point", "coordinates": [ -0.558782123275598, 52.244466078483875 ] } },
{ "type": "Feature", "properties": { "visible_points": 14, "total_points": 106, "visibility_pct": 13.20754716981132 }, "geometry": { "type": "Point", "coordinates": [ -0.558579242229156, 52.244463599803041 ] } },
{ "type": "Feature", "properties": { "visible_points": 27, "total_points": 110, "visibility_pct": 24.545454545454547 }, "geometry": { "type": "Point", "coordinates": [ -0.558376361213815, 52.244461120774289 ] } },
{ "type": "Feature", "properties": { "visible_points": 21, "total_points": 113, "visibility_pct": 18.584070796460178 }, "geometry": { "type": "Point", "coordinates": [ -0.558173480229597, 52.24445864139765 ] } },
{ "type": "Feature", "properties": { "visible_points": 18, "total_points": 113, "visibility_pct": 15.929203539823009 }, "geometry": { "type": "Point", "coordinates": [ -0.557970599276497, 52.244456161673099 ] } },
{ "type": "Feature", "properties": { "visible_points": 12, "total_points": 106, "visibility_pct": 11.320754716981133 }, "geometry": { "type": "Point", "coordinates": [ -0.557767718354518, 52.244453681600653 ] } },
{ "type": "Feature", "properties": { "visible_points": 0, "total_points": 96, "visibility_pct": 0.0 }, "geometry": { "type": "Point", "coordinates": [ -0.557564837463673, 52.244451201180311 ] } },
{ "type": "Feature", "properties": { "visible_points": 1, "total_points": 85, "visibility_pct": 1.1764705882352942 }, "geometry": { "type": "Point", "coordinates": [ -0.557361956603955, 52.244448720412059 ] } },
{ "type": "Feature", "properties": { "visible_points": 3, "total_points": 72, "visibility_pct": 4.1666666666666661 }, "geometry": { "type": "Point", "coordinates": [ -0.55715907577538, 52.244446239295918 ] } },
{ "type": "Feature", "properties": { "visible_points": 0, "total_points": 72, "visibility_pct": 0.0 }, "geometry": { "type": "Point", "coordinates": [ -0.559285833928842, 52.244580123785688 ] } },
{ "type": "Feature", "properties": { "visible_points": 1, "total_points": 81, "visibility_pct": 1.2345679012345678 }, "geometry": { "type": "Point", "coordinates": [ -0.559082952276086, 52.244577645950017 ] } },
{ "type": "Feature", "properties": { "visible_points": 6, "total_points": 88, "visibility_pct": 6.8181818181818175 }, "geometry": { "type": "Point", "coordinates": [ -0.558880070654426, 52.244575167766463 ] } },
{ "type": "Feature", "properties": { "visible_points": 13, "total_points": 94, "visibility_pct": 13.829787234042554 }, "geometry": { "type": "Point", "coordinates": [ -0.558677189063874, 52.244572689234985 ] } },
{ "type": "Feature", "properties": { "visible_points": 20, "total_points": 99, "visibility_pct": 20.202020202020201 }, "geometry": { "type": "Point", "coordinates": [ -0.558474307504424, 52.244570210355597 ] } },
{ "type": "Feature", "properties": { "visible_points": 29, "total_points": 104, "visibility_pct": 27.884615384615387 }, "geometry": { "type": "Point", "coordinates": [ -0.558271425976093, 52.244567731128313 ] } },
{ "type": "Feature", "properties": { "visible_points": 21, "total_points": 107, "visibility_pct": 19.626168224299064 }, "geometry": { "type": "Point", "coordinates": [ -0.558068544478879, 52.244565251553134 ] } },
{ "type": "Feature", "properties": { "visible_points": 1, "total_points": 101, "visibility_pct": 0.99009900990099009 }, "geometry": { "type": "Point", "coordinates": [ -0.557865663012783, 52.244562771630029 ] } },
{ "type": "Feature", "properties": { "visible_points": 0, "total_points": 93, "visibility_pct": 0.0 }, "geometry": { "type": "Point", "coordinates": [ -0.557662781577817, 52.244560291359058 ] } },
{ "type": "Feature", "properties": { "visible_points": 3, "total_points": 84, "visibility_pct": 3.5714285714285712 }, "geometry": { "type": "Point", "coordinates": [ -0.55745990017398, 52.244557810740154 ] } },
{ "type": "Feature", "properties": { "visible_points": 0, "total_points": 73, "visibility_pct": 0.0 }, "geometry": { "type": "Point", "coordinates": [ -0.557257018801278, 52.244555329773348 ] } },
{ "type": "Feature", "properties": { "visible_points": 0, "total_points": 75, "visibility_pct": 0.0 }, "geometry": { "type": "Point", "coordinates": [ -0.558978018546248, 52.244684256984009 ] } },
{ "type": "Feature", "properties": { "visible_points": 6, "total_points": 81, "visibility_pct": 7.4074074074074066 }, "geometry": { "type": "Point", "coordinates": [ -0.55877513641158, 52.24468177860188 ] } },
{ "type": "Feature", "properties": { "visible_points": 7, "total_points": 87, "visibility_pct": 8.0459770114942533 }, "geometry": { "type": "Point", "coordinates": [ -0.558572254308021, 52.244679299871862 ] } },
{ "type": "Feature", "properties": { "visible_points": 14, "total_points": 92, "visibility_pct": 15.217391304347828 }, "geometry": { "type": "Point", "coordinates": [ -0.558369372235574, 52.244676820793941 ] } },
{ "type": "Feature", "properties": { "visible_points": 18, "total_points": 96, "visibility_pct": 18.75 }, "geometry": { "type": "Point", "coordinates": [ -0.55816649019424, 52.244674341368111 ] } },
{ "type": "Feature", "properties": { "visible_points": 15, "total_points": 94, "visibility_pct": 15.957446808510639 }, "geometry": { "type": "Point", "coordinates": [ -0.557963608184026, 52.244671861594377 ] } },
{ "type": "Feature", "properties": { "visible_points": 0, "total_points": 88, "visibility_pct": 0.0 }, "geometry": { "type": "Point", "coordinates": [ -0.557760726204939, 52.244669381472733 ] } },
{ "type": "Feature", "properties": { "visible_points": 2, "total_points": 80, "visibility_pct": 2.5 }, "geometry": { "type": "Point", "coordinates": [ -0.557557844256977, 52.244666901003207 ] } },
{ "type": "Feature", "properties": { "visible_points": 0, "total_points": 72, "visibility_pct": 0.0 }, "geometry": { "type": "Point", "coordinates": [ -0.557354962340152, 52.24466442018575 ] } },
{ "type": "Feature", "properties": { "visible_points": 0, "total_points": 74, "visibility_pct": 0.0 }, "geometry": { "type": "Point", "coordinates": [ -0.558670201624611, 52.244788389323077 ] } },
{ "type": "Feature", "properties": { "visible_points": 0, "total_points": 84, "visibility_pct": 0.0 }, "geometry": { "type": "Point", "coordinates": [ -0.558264436422589, 52.244783431118059 ] } },
{ "type": "Feature", "properties": { "visible_points": 14, "total_points": 84, "visibility_pct": 16.666666666666664 }, "geometry": { "type": "Point", "coordinates": [ -0.558061553868255, 52.244780951493681 ] } },
{ "type": "Feature", "properties": { "visible_points": 0, "total_points": 81, "visibility_pct": 0.0 }, "geometry": { "type": "Point", "coordinates": [ -0.557858671345043, 52.244778471521407 ] } },
{ "type": "Feature", "properties": { "visible_points": 0, "total_points": 75, "visibility_pct": 0.0 }, "geometry": { "type": "Point", "coordinates": [ -0.557655788852957, 52.24477599120123 ] } },
{ "type": "Feature", "properties": { "visible_points": 0, "total_points": 68, "visibility_pct": 0.0 }, "geometry": { "type": "Point", "coordinates": [ -0.557452906392003, 52.244773510533129 ] } },
{ "type": "Feature", "properties": { "visible_points": 0, "total_points": 72, "visibility_pct": 0.0 }, "geometry": { "type": "Point", "coordinates": [ -0.557956616998132, 52.24488756150501 ] } },
{ "type": "Feature", "properties": { "visible_points": 0, "total_points": 68, "visibility_pct": 0.0 }, "geometry": { "type": "Point", "coordinates": [ -0.557753733961919, 52.244885081334203 ] } },
{ "type": "Feature", "properties": { "visible_points": 0, "total_points": 62, "visibility_pct": 0.0 }, "geometry": { "type": "Point", "coordinates": [ -0.557550850956832, 52.244882600815473 ] } }
]
}
