{
"type": "FeatureCollection",
"name": "BEDFO_186_NACH_800m",
"crs": { "type": "name", "properties": { "name": "urn:ogc:def:crs:OGC:1.3:CRS84" } },
"features": [
{ "type": "Feature", "properties": { "id": 42684, "nach": 0.0 }, "geometry": { "type": "LineString", "coordinates": [ [ -0.4360067, 52.23961820000001 ], [ -0.4359698, 52.2406561 ], [ -0.435938, 52.241626599999982 ], [ -0.4373113, 52.2432033 ], [ -0.4385987, 52.2450821 ], [ -0.4392391, 52.246078100000013 ], [ -0.4394999, 52.246987100000013 ], [ -0.4393749, 52.2474743 ], [ -0.4393647, 52.2476579 ], [ -0.4400833, 52.2482809 ] ] } },
{ "type": "Feature", "properties": { "id": 43128, "nach": 0.23789206298657065 }, "geometry": { "type": "LineString", "coordinates": [ [ -0.4413238, 52.2504686 ], [ -0.4404767, 52.2509586 ], [ -0.4370671, 52.2525825 ], [ -0.436951, 52.2525453 ] ] } },
{ "type": "Feature", "properties": { "id": 44328, "nach": 0.18763002566378909 }, "geometry": { "type": "LineString", "coordinates": [ [ -0.4422703, 52.2509983 ], [ -0.4413799, 52.251517 ], [ -0.4400887, 52.2523445 ], [ -0.4379982, 52.2530463 ], [ -0.436951, 52.2525453 ] ] } },
{ "type": "Feature", "properties": { "id": 5492, "nach": 0.15233647184698981 }, "geometry": { "type": "LineString", "coordinates": [ [ -0.4400833, 52.2482809 ], [ -0.4398144, 52.248543 ], [ -0.439278, 52.2491326 ], [ -0.4389322, 52.249764 ], [ -0.4385325, 52.25071530000001 ], [ -0.4378401, 52.2516789 ], [ -0.4374161, 52.2521714 ], [ -0.4371712, 52.2523942 ], [ -0.436951, 52.2525453 ] ] } },
{ "type": "Feature", "properties": { "id": 43126, "nach": 0.27499146795397039 }, "geometry": { "type": "LineString", "coordinates": [ [ -0.4413238, 52.2504686 ], [ -0.4435454, 52.249129 ] ] } },
{ "type": "Feature", "properties": { "id": 44325, "nach": 0.21084994597397225 }, "geometry": { "type": "LineString", "coordinates": [ [ -0.4422703, 52.2509983 ], [ -0.4413238, 52.2504686 ] ] } },
{ "type": "Feature", "properties": { "id": 44326, "nach": 0.15215902019198108 }, "geometry": { "type": "LineString", "coordinates": [ [ -0.4422703, 52.2509983 ], [ -0.4445095, 52.2495402 ] ] } },
{ "type": "Feature", "properties": { "id": 57845, "nach": 0.15215332434341552 }, "geometry": { "type": "LineString", "coordinates": [ [ -0.4458993, 52.2514855 ], [ -0.4424052, 52.2510599 ], [ -0.4422703, 52.2509983 ] ] } },
{ "type": "Feature", "properties": { "id": 43031, "nach": 0.0 }, "geometry": { "type": "LineString", "coordinates": [ [ -0.4420307, 52.2388663 ], [ -0.4421251, 52.2389177 ], [ -0.4422465, 52.2401813 ], [ -0.4423538, 52.2411273 ], [ -0.4420963, 52.2424675 ], [ -0.4420105, 52.243269 ], [ -0.441517, 52.244372599999984 ], [ -0.4414545, 52.24608940000001 ], [ -0.4412131, 52.2466911 ], [ -0.4409888, 52.24712550000001 ], [ -0.4404662, 52.2476969 ], [ -0.4401088, 52.247977400000011 ], [ -0.4401859, 52.2480702 ], [ -0.4400833, 52.2482809 ] ] } },
{ "type": "Feature", "properties": { "id": 43034, "nach": 0.076163708357683352 }, "geometry": { "type": "LineString", "coordinates": [ [ -0.4326543, 52.243313 ], [ -0.4341033, 52.2442675 ], [ -0.4350689, 52.2452004 ], [ -0.4362598, 52.2464353 ], [ -0.4376117, 52.2479002 ], [ -0.4400833, 52.2482809 ] ] } },
{ "type": "Feature", "properties": { "id": 24365, "nach": 0.23341306814595325 }, "geometry": { "type": "LineString", "coordinates": [ [ -0.4435454, 52.249129 ], [ -0.4434038, 52.2491294 ], [ -0.4432603, 52.2491041 ], [ -0.4430603, 52.2490171 ], [ -0.4425349, 52.248791 ], [ -0.4408242, 52.248167100000011 ], [ -0.4404995, 52.2481671 ], [ -0.4400833, 52.2482809 ] ] } },
{ "type": "Feature", "properties": { "id": 24213, "nach": 0.21135001033350531 }, "geometry": { "type": "LineString", "coordinates": [ [ -0.4618063, 52.2415201 ], [ -0.4600872, 52.2427065 ], [ -0.4582337, 52.2438559 ], [ -0.4580533, 52.2440014 ], [ -0.4580152, 52.2441112 ], [ -0.4580315, 52.2441839 ], [ -0.4580434, 52.244237 ] ] } },
{ "type": "Feature", "properties": { "id": 34731, "nach": 0.20443471015090453 }, "geometry": { "type": "LineString", "coordinates": [ [ -0.4554852, 52.2451072 ], [ -0.4559575, 52.2450056 ], [ -0.4575595, 52.244372300000016 ], [ -0.4577081, 52.2443134 ], [ -0.457871, 52.2442655 ], [ -0.4580434, 52.244237 ] ] } },
{ "type": "Feature", "properties": { "id": 24247, "nach": 0.2042921691855365 }, "geometry": { "type": "LineString", "coordinates": [ [ -0.4594244, 52.245622 ], [ -0.4595372, 52.2452091 ], [ -0.4595266, 52.24508190000001 ], [ -0.4594923, 52.2449647 ], [ -0.4594231, 52.2448368 ], [ -0.4593359, 52.2447269 ], [ -0.4592321, 52.2446276 ], [ -0.458991, 52.2444362 ], [ -0.4588683, 52.2443632 ], [ -0.4587536, 52.2443167 ], [ -0.4586044, 52.2442761 ], [ -0.4584557, 52.2442484 ], [ -0.458229, 52.2442356 ], [ -0.4580434, 52.244237 ] ] } },
{ "type": "Feature", "properties": { "id": 34733, "nach": 0.18813556025908779 }, "geometry": { "type": "LineString", "coordinates": [ [ -0.4554852, 52.2451072 ], [ -0.4549778, 52.2445573 ], [ -0.4539285, 52.2435189 ], [ -0.4520751, 52.24181750000001 ], [ -0.4518825, 52.2417922 ], [ -0.4511708, 52.2421498 ], [ -0.4507342, 52.2423198 ] ] } },
{ "type": "Feature", "properties": { "id": 41813, "nach": 0.23376802840256894 }, "geometry": { "type": "LineString", "coordinates": [ [ -0.4570548, 52.2455901 ], [ -0.455831, 52.2452026 ], [ -0.4556958, 52.2451653 ], [ -0.4554852, 52.2451072 ] ] } },
{ "type": "Feature", "properties": { "id": 43017, "nach": 0.21764606186258134 }, "geometry": { "type": "LineString", "coordinates": [ [ -0.4491836, 52.2468546 ], [ -0.4516853, 52.2458556 ], [ -0.4525256, 52.2454814 ], [ -0.4526884, 52.2454199 ], [ -0.4529008, 52.2453738 ], [ -0.4554852, 52.2451072 ] ] } },
{ "type": "Feature", "properties": { "id": 24248, "nach": 0.25039446503757828 }, "geometry": { "type": "LineString", "coordinates": [ [ -0.4594244, 52.245622 ], [ -0.4594298, 52.24572 ], [ -0.4594549, 52.2458215 ] ] } },
{ "type": "Feature", "properties": { "id": 41812, "nach": 0.22330871105990105 }, "geometry": { "type": "LineString", "coordinates": [ [ -0.4570548, 52.2455901 ], [ -0.4574515, 52.2457067 ], [ -0.4591132, 52.2457355 ], [ -0.4592532, 52.2456774 ], [ -0.4593106, 52.2456266 ], [ -0.4593443, 52.2455968 ], [ -0.4594244, 52.245622 ] ] } },
{ "type": "Feature", "properties": { "id": 37539, "nach": 0.16628415235049085 }, "geometry": { "type": "LineString", "coordinates": [ [ -0.4640812, 52.2486029 ], [ -0.4634375, 52.2483134 ], [ -0.4626601, 52.247941800000014 ], [ -0.4624529, 52.247815 ], [ -0.4620804, 52.2475595 ], [ -0.4615229, 52.2471363 ], [ -0.4612057, 52.246963 ], [ -0.4609347, 52.246839 ], [ -0.4605905, 52.2466947 ], [ -0.4602645, 52.2465076 ], [ -0.4597133, 52.246121899999984 ], [ -0.459542, 52.2459678 ], [ -0.4594549, 52.2458215 ] ] } },
{ "type": "Feature", "properties": { "id": 55286, "nach": 0.19633199690683309 }, "geometry": { "type": "LineString", "coordinates": [ [ -0.4580584, 52.2504902 ], [ -0.4587331, 52.2488699 ], [ -0.4587438, 52.248351 ], [ -0.4591623, 52.246027 ], [ -0.459318, 52.245868 ], [ -0.4594549, 52.2458215 ] ] } },
{ "type": "Feature", "properties": { "id": 55288, "nach": 0.23326820218505884 }, "geometry": { "type": "LineString", "coordinates": [ [ -0.4580584, 52.2504902 ], [ -0.4579719, 52.2504534 ], [ -0.4578851, 52.2504188 ] ] } },
{ "type": "Feature", "properties": { "id": 55287, "nach": 0.23770848815830997 }, "geometry": { "type": "LineString", "coordinates": [ [ -0.4580584, 52.2504902 ], [ -0.4618331, 52.2523383 ], [ -0.4627349, 52.2528302 ] ] } },
{ "type": "Feature", "properties": { "id": 43030, "nach": 0.076239611002162297 }, "geometry": { "type": "LineString", "coordinates": [ [ -0.4420307, 52.2388663 ], [ -0.4422176, 52.2389335 ], [ -0.4422982, 52.2390372 ], [ -0.4423835, 52.2393002 ], [ -0.4423652, 52.2398272 ], [ -0.4423863, 52.2402042 ], [ -0.4424796, 52.24109450000001 ], [ -0.4425968, 52.2411425 ], [ -0.4432246, 52.2411952 ], [ -0.4438898, 52.2412544 ], [ -0.4446622, 52.2413792 ], [ -0.4463464, 52.2416931 ], [ -0.4472962, 52.2419245 ], [ -0.44838, 52.2422715 ] ] } },
{ "type": "Feature", "properties": { "id": 53578, "nach": 0.32615710860782432 }, "geometry": { "type": "LineString", "coordinates": [ [ -0.4452119, 52.2484404 ], [ -0.4442161, 52.248838 ], [ -0.4436277, 52.2491012 ], [ -0.4435454, 52.249129 ] ] } },
{ "type": "Feature", "properties": { "id": 42704, "nach": 0.31391568710460821 }, "geometry": { "type": "LineString", "coordinates": [ [ -0.4445095, 52.2495402 ], [ -0.4436509, 52.2491644 ], [ -0.4435454, 52.249129 ] ] } },
{ "type": "Feature", "properties": { "id": 41827, "nach": 0.15239433866184349 }, "geometry": { "type": "LineString", "coordinates": [ [ -0.4523282, 52.2486815 ], [ -0.4529438, 52.2480442 ], [ -0.4548609, 52.2468944 ], [ -0.4570288, 52.2457771 ], [ -0.4570548, 52.2455901 ] ] } },
{ "type": "Feature", "properties": { "id": 53577, "nach": 0.31239660602669006 }, "geometry": { "type": "LineString", "coordinates": [ [ -0.4452119, 52.2484404 ], [ -0.4474059, 52.2475674 ] ] } },
{ "type": "Feature", "properties": { "id": 53580, "nach": 0.23760260903220143 }, "geometry": { "type": "LineString", "coordinates": [ [ -0.4463164, 52.2491716 ], [ -0.4460106, 52.2489844 ], [ -0.4456345, 52.24870030000001 ], [ -0.4453322, 52.2485131 ], [ -0.4452119, 52.2484404 ] ] } },
{ "type": "Feature", "properties": { "id": 57843, "nach": 0.30911761024357859 }, "geometry": { "type": "LineString", "coordinates": [ [ -0.4457182, 52.2503706 ], [ -0.4449783, 52.2497991 ], [ -0.4447384, 52.2496529 ], [ -0.4445095, 52.2495402 ] ] } },
{ "type": "Feature", "properties": { "id": 43124, "nach": 0.07602547269730911 }, "geometry": { "type": "LineString", "coordinates": [ [ -0.4543965, 52.2541019 ], [ -0.4542825, 52.2541543 ], [ -0.4534274, 52.254459 ], [ -0.4524899, 52.254804900000011 ], [ -0.4521785, 52.2550431 ], [ -0.4518468, 52.2555355 ], [ -0.4515437, 52.256203799999987 ], [ -0.4515712, 52.2566072 ], [ -0.4517728, 52.2573102 ], [ -0.4517782, 52.2576057 ], [ -0.4511775, 52.2580736 ], [ -0.4504397, 52.2588202 ], [ -0.4504075, 52.2589909 ], [ -0.4515605, 52.259665 ] ] } },
{ "type": "Feature", "properties": { "id": 43125, "nach": 0.11147459405483492 }, "geometry": { "type": "LineString", "coordinates": [ [ -0.4543965, 52.2541019 ], [ -0.4560352, 52.2530986 ], [ -0.4566846, 52.252657 ], [ -0.4573592, 52.252142499999984 ], [ -0.4574918, 52.2519017 ], [ -0.4577139, 52.2510714 ], [ -0.4578851, 52.2504188 ] ] } },
{ "type": "Feature", "properties": { "id": 57846, "nach": 0.076061351527490939 }, "geometry": { "type": "LineString", "coordinates": [ [ -0.4458993, 52.2514855 ], [ -0.4460328, 52.2515018 ], [ -0.4478352, 52.252001 ], [ -0.4543965, 52.2541019 ] ] } },
{ "type": "Feature", "properties": { "id": 46483, "nach": 0.1113732932838338 }, "geometry": { "type": "LineString", "coordinates": [ [ -0.4644735, 52.255903 ], [ -0.4596729, 52.2553833 ], [ -0.4596155, 52.2553769 ], [ -0.4571693, 52.25477260000001 ], [ -0.4543965, 52.2541019 ] ] } },
{ "type": "Feature", "properties": { "id": 41828, "nach": 0.16618527459400445 }, "geometry": { "type": "LineString", "coordinates": [ [ -0.4523282, 52.2486815 ], [ -0.4560626, 52.249858099999983 ], [ -0.4578851, 52.2504188 ] ] } },
{ "type": "Feature", "properties": { "id": 41830, "nach": 0.17770810035569998 }, "geometry": { "type": "LineString", "coordinates": [ [ -0.4523282, 52.2486815 ], [ -0.451652, 52.2490175 ], [ -0.4505904, 52.2494451 ], [ -0.449874, 52.2498286 ], [ -0.449813, 52.2498613 ], [ -0.4473819, 52.250256400000012 ], [ -0.4460926, 52.250443 ], [ -0.445862, 52.2504798 ] ] } },
{ "type": "Feature", "properties": { "id": 43018, "nach": 0.20419201850891114 }, "geometry": { "type": "LineString", "coordinates": [ [ -0.4491836, 52.2468546 ], [ -0.4497061, 52.2472411 ], [ -0.4501222, 52.24757910000001 ], [ -0.4505358, 52.2478122 ], [ -0.4522742, 52.2486004 ], [ -0.4523282, 52.2486815 ] ] } },
{ "type": "Feature", "properties": { "id": 57850, "nach": 0.0 }, "geometry": { "type": "LineString", "coordinates": [ [ -0.4399443, 52.257306 ], [ -0.4399656, 52.257246600000016 ], [ -0.4399296, 52.2571528 ], [ -0.4398761, 52.257026500000023 ], [ -0.4397022, 52.2568056 ], [ -0.439619, 52.256712 ], [ -0.439542, 52.2566132 ], [ -0.4394923, 52.2565234 ], [ -0.4394774, 52.2564611 ], [ -0.4394761, 52.2564208 ], [ -0.4394836, 52.2563751 ], [ -0.439496, 52.2563265 ], [ -0.4395308, 52.2562048 ], [ -0.4395283, 52.256170600000011 ], [ -0.4395159, 52.256137099999982 ], [ -0.4394848, 52.2561037 ], [ -0.4394339, 52.2560748 ], [ -0.439342, 52.2560512 ], [ -0.4392401, 52.2560307 ], [ -0.4391618, 52.2560002 ], [ -0.4391308, 52.2559789 ], [ -0.4391096, 52.2559539 ], [ -0.4391009, 52.2559234 ], [ -0.4391072, 52.25589 ], [ -0.4393898, 52.2555978 ], [ -0.4398373, 52.2551156 ], [ -0.4400896, 52.2548487 ], [ -0.4403267, 52.254641200000016 ], [ -0.4405226, 52.2545308 ], [ -0.44124, 52.2541286 ], [ -0.4419668, 52.253711299999985 ], [ -0.4426447, 52.253339 ], [ -0.4436088, 52.2528202 ], [ -0.4443676, 52.2523845 ], [ -0.4451434, 52.2519522 ], [ -0.4458037, 52.2516041 ], [ -0.4458832, 52.2515653 ], [ -0.4458993, 52.251541 ], [ -0.4458993, 52.2514855 ] ] } },
{ "type": "Feature", "properties": { "id": 31215, "nach": 0.21777448589055187 }, "geometry": { "type": "LineString", "coordinates": [ [ -0.4501065, 52.2424203 ], [ -0.4507342, 52.2423198 ] ] } },
{ "type": "Feature", "properties": { "id": 56146, "nach": 0.11189698706779515 }, "geometry": { "type": "LineString", "coordinates": [ [ -0.443307, 52.23766220000001 ], [ -0.4469125, 52.2388366 ], [ -0.4483287, 52.2394279 ], [ -0.4500239, 52.2411886 ], [ -0.4502812, 52.2414213 ], [ -0.4507342, 52.2423198 ] ] } },
{ "type": "Feature", "properties": { "id": 31218, "nach": 0.19659517783743999 }, "geometry": { "type": "LineString", "coordinates": [ [ -0.44838, 52.2422715 ], [ -0.4495812, 52.2424453 ], [ -0.4501065, 52.2424203 ] ] } },
{ "type": "Feature", "properties": { "id": 43131, "nach": 0.21755767736572373 }, "geometry": { "type": "LineString", "coordinates": [ [ -0.4483513, 52.2471869 ], [ -0.4482811, 52.247119 ], [ -0.4481947, 52.2460018 ], [ -0.448137, 52.2443998 ], [ -0.4482, 52.24425 ], [ -0.4501065, 52.2424203 ] ] } },
{ "type": "Feature", "properties": { "id": 62632, "nach": 0.1348972685874642 }, "geometry": { "type": "LineString", "coordinates": [ [ -0.4423172, 52.2389559 ], [ -0.4431438, 52.23914520000001 ], [ -0.4445386, 52.239513100000011 ], [ -0.4452603, 52.2396776 ], [ -0.44838, 52.2422715 ] ] } },
{ "type": "Feature", "properties": { "id": 43130, "nach": 0.28044933207776845 }, "geometry": { "type": "LineString", "coordinates": [ [ -0.4483513, 52.2471869 ], [ -0.4491836, 52.2468546 ] ] } },
{ "type": "Feature", "properties": { "id": 52345, "nach": 0.29927475609612886 }, "geometry": { "type": "LineString", "coordinates": [ [ -0.4474059, 52.2475674 ], [ -0.4483513, 52.2471869 ] ] } },
{ "type": "Feature", "properties": { "id": 57842, "nach": 0.28456480446232646 }, "geometry": { "type": "LineString", "coordinates": [ [ -0.4457182, 52.2503706 ], [ -0.445862, 52.2504798 ] ] } },
{ "type": "Feature", "properties": { "id": 59781, "nach": 0.23765636562121306 }, "geometry": { "type": "LineString", "coordinates": [ [ -0.446337, 52.2507815 ], [ -0.445862, 52.2504798 ] ] } },
{ "type": "Feature", "properties": { "id": 57848, "nach": 0.22279326075306108 }, "geometry": { "type": "LineString", "coordinates": [ [ -0.4458993, 52.2514855 ], [ -0.4458955, 52.251435 ], [ -0.4458931, 52.251364 ], [ -0.4458839, 52.2512207 ], [ -0.4458445, 52.2511043 ], [ -0.4457656, 52.2510276 ], [ -0.4456391, 52.250958 ], [ -0.4453879, 52.250863600000017 ], [ -0.4452823, 52.250785 ], [ -0.4452538, 52.2507395 ], [ -0.4453023, 52.2506801 ], [ -0.445465, 52.2505683 ], [ -0.4457182, 52.2503706 ] ] } },
{ "type": "Feature", "properties": { "id": 52347, "nach": 0.2500176914538445 }, "geometry": { "type": "LineString", "coordinates": [ [ -0.447879, 52.2479916 ], [ -0.4477869, 52.247877399999986 ], [ -0.4476258, 52.2477678 ], [ -0.4474059, 52.2475674 ] ] } }
]
}
