{
"type": "FeatureCollection",
"name": "59d2bbf502d4_visibility",
"crs": { "type": "name", "properties": { "name": "urn:ogc:def:crs:OGC:1.3:CRS84" } },
"features": [
{ "type": "Feature", "properties": { "visible_points": 0, "total_points": 71, "visibility_pct": 0.0 }, "geometry": { "type": "Point", "coordinates": [ 0.588415587403082, 51.940689213269252 ] } },
{ "type": "Feature", "properties": { "visible_points": 6, "total_points": 66, "visibility_pct": 9.0909090909090917 }, "geometry": { "type": "Point", "coordinates": [ 0.58861695127037, 51.940684784940629 ] } },
{ "type": "Feature", "properties": { "visible_points": 12, "total_points": 60, "visibility_pct": 20.0 }, "geometry": { "type": "Point", "coordinates": [ 0.588818315085867, 51.940680356267954 ] } },
{ "type": "Feature", "properties": { "visible_points": 0, "total_points": 79, "visibility_pct": 0.0 }, "geometry": { "type": "Point", "coordinates": [ 0.587717021322591, 51.940812489660146 ] } },
{ "type": "Feature", "properties": { "visible_points": 15, "total_points": 83, "visibility_pct": 18.072289156626507 }, "geometry": { "type": "Point", "coordinates": [ 0.587918385851534, 51.940808062517114 ] } },
{ "type": "Feature", "properties": { "visible_points": 20, "total_points": 86, "visibility_pct": 23.255813953488371 }, "geometry": { "type": "Point", "coordinates": [ 0.588119750328689, 51.940803635030051 ] } },
{ "type": "Feature", "properties": { "visible_points": 28, "total_points": 84, "visibility_pct": 33.333333333333329 }, "geometry": { "type": "Point", "coordinates": [ 0.588321114754065, 51.940799207198936 ] } },
{ "type": "Feature", "properties": { "visible_points": 22, "total_points": 79, "visibility_pct": 27.848101265822784 }, "geometry": { "type": "Point", "coordinates": [ 0.588522479127648, 51.940794779023783 ] } },
{ "type": "Feature", "properties": { "visible_points": 9, "total_points": 72, "visibility_pct": 12.5 }, "geometry": { "type": "Point", "coordinates": [ 0.588723843449445, 51.940790350504614 ] } },
{ "type": "Feature", "properties": { "visible_points": 5, "total_points": 65, "visibility_pct": 7.6923076923076925 }, "geometry": { "type": "Point", "coordinates": [ 0.588925207719436, 51.940785921641393 ] } },
{ "type": "Feature", "properties": { "visible_points": 0, "total_points": 74, "visibility_pct": 0.0 }, "geometry": { "type": "Point", "coordinates": [ 0.58721981647439, 51.940931336006251 ] } },
{ "type": "Feature", "properties": { "visible_points": 13, "total_points": 82, "visibility_pct": 15.853658536585366 }, "geometry": { "type": "Point", "coordinates": [ 0.587421181613172, 51.940926909704793 ] } },
{ "type": "Feature", "properties": { "visible_points": 30, "total_points": 87, "visibility_pct": 34.482758620689658 }, "geometry": { "type": "Point", "coordinates": [ 0.587622546700179, 51.940922483059296 ] } },
{ "type": "Feature", "properties": { "visible_points": 37, "total_points": 91, "visibility_pct": 40.659340659340657 }, "geometry": { "type": "Point", "coordinates": [ 0.587823911735414, 51.940918056069734 ] } },
{ "type": "Feature", "properties": { "visible_points": 44, "total_points": 95, "visibility_pct": 46.315789473684212 }, "geometry": { "type": "Point", "coordinates": [ 0.588025276718867, 51.940913628736155 ] } },
{ "type": "Feature", "properties": { "visible_points": 44, "total_points": 97, "visibility_pct": 45.360824742268044 }, "geometry": { "type": "Point", "coordinates": [ 0.588226641650542, 51.940909201058552 ] } },
{ "type": "Feature", "properties": { "visible_points": 34, "total_points": 92, "visibility_pct": 36.95652173913043 }, "geometry": { "type": "Point", "coordinates": [ 0.588428006530425, 51.940904773036891 ] } },
{ "type": "Feature", "properties": { "visible_points": 29, "total_points": 85, "visibility_pct": 34.117647058823529 }, "geometry": { "type": "Point", "coordinates": [ 0.588629371358518, 51.940900344671185 ] } },
{ "type": "Feature", "properties": { "visible_points": 0, "total_points": 77, "visibility_pct": 0.0 }, "geometry": { "type": "Point", "coordinates": [ 0.58883073613482, 51.940895915961455 ] } },
{ "type": "Feature", "properties": { "visible_points": 0, "total_points": 57, "visibility_pct": 0.0 }, "geometry": { "type": "Point", "coordinates": [ 0.586722608939431, 51.941050180292152 ] } },
{ "type": "Feature", "properties": { "visible_points": 0, "total_points": 67, "visibility_pct": 0.0 }, "geometry": { "type": "Point", "coordinates": [ 0.586923974688032, 51.94104575483226 ] } },
{ "type": "Feature", "properties": { "visible_points": 22, "total_points": 77, "visibility_pct": 28.571428571428569 }, "geometry": { "type": "Point", "coordinates": [ 0.587125340384869, 51.94104132902833 ] } },
{ "type": "Feature", "properties": { "visible_points": 37, "total_points": 87, "visibility_pct": 42.528735632183903 }, "geometry": { "type": "Point", "coordinates": [ 0.587326706029947, 51.94103690288037 ] } },
{ "type": "Feature", "properties": { "visible_points": 41, "total_points": 95, "visibility_pct": 43.15789473684211 }, "geometry": { "type": "Point", "coordinates": [ 0.587528071623252, 51.941032476388351 ] } },
{ "type": "Feature", "properties": { "visible_points": 46, "total_points": 99, "visibility_pct": 46.464646464646464 }, "geometry": { "type": "Point", "coordinates": [ 0.58772943716478, 51.941028049552301 ] } },
{ "type": "Feature", "properties": { "visible_points": 50, "total_points": 103, "visibility_pct": 48.543689320388353 }, "geometry": { "type": "Point", "coordinates": [ 0.587930802654536, 51.941023622372207 ] } },
{ "type": "Feature", "properties": { "visible_points": 50, "total_points": 106, "visibility_pct": 47.169811320754718 }, "geometry": { "type": "Point", "coordinates": [ 0.588132168092509, 51.941019194848074 ] } },
{ "type": "Feature", "properties": { "visible_points": 44, "total_points": 105, "visibility_pct": 41.904761904761905 }, "geometry": { "type": "Point", "coordinates": [ 0.588333533478694, 51.941014766979897 ] } },
{ "type": "Feature", "properties": { "visible_points": 39, "total_points": 98, "visibility_pct": 39.795918367346935 }, "geometry": { "type": "Point", "coordinates": [ 0.588534898813091, 51.94101033876769 ] } },
{ "type": "Feature", "properties": { "visible_points": 25, "total_points": 89, "visibility_pct": 28.08988764044944 }, "geometry": { "type": "Point", "coordinates": [ 0.588736264095698, 51.941005910211445 ] } },
{ "type": "Feature", "properties": { "visible_points": 6, "total_points": 79, "visibility_pct": 7.59493670886076 }, "geometry": { "type": "Point", "coordinates": [ 0.588937629326503, 51.941001481311169 ] } },
{ "type": "Feature", "properties": { "visible_points": 0, "total_points": 57, "visibility_pct": 0.0 }, "geometry": { "type": "Point", "coordinates": [ 0.586628131382798, 51.941160172937153 ] } },
{ "type": "Feature", "properties": { "visible_points": 16, "total_points": 68, "visibility_pct": 23.52941176470588 }, "geometry": { "type": "Point", "coordinates": [ 0.586829497637694, 51.941155747630766 ] } },
{ "type": "Feature", "properties": { "visible_points": 35, "total_points": 79, "visibility_pct": 44.303797468354425 }, "geometry": { "type": "Point", "coordinates": [ 0.587030863840828, 51.941151321980335 ] } },
{ "type": "Feature", "properties": { "visible_points": 37, "total_points": 90, "visibility_pct": 41.111111111111107 }, "geometry": { "type": "Point", "coordinates": [ 0.587232229992196, 51.941146895985852 ] } },
{ "type": "Feature", "properties": { "visible_points": 44, "total_points": 100, "visibility_pct": 44.0 }, "geometry": { "type": "Point", "coordinates": [ 0.587433596091803, 51.941142469647346 ] } },
{ "type": "Feature", "properties": { "visible_points": 47, "total_points": 107, "visibility_pct": 43.925233644859816 }, "geometry": { "type": "Point", "coordinates": [ 0.587634962139632, 51.941138042964781 ] } },
{ "type": "Feature", "properties": { "visible_points": 52, "total_points": 110, "visibility_pct": 47.272727272727273 }, "geometry": { "type": "Point", "coordinates": [ 0.587836328135688, 51.941133615938178 ] } },
{ "type": "Feature", "properties": { "visible_points": 58, "total_points": 112, "visibility_pct": 51.785714285714292 }, "geometry": { "type": "Point", "coordinates": [ 0.588037694079962, 51.941129188567537 ] } },
{ "type": "Feature", "properties": { "visible_points": 57, "total_points": 114, "visibility_pct": 50.0 }, "geometry": { "type": "Point", "coordinates": [ 0.588239059972453, 51.941124760852858 ] } },
{ "type": "Feature", "properties": { "visible_points": 51, "total_points": 110, "visibility_pct": 46.36363636363636 }, "geometry": { "type": "Point", "coordinates": [ 0.588440425813158, 51.941120332794121 ] } },
{ "type": "Feature", "properties": { "visible_points": 38, "total_points": 102, "visibility_pct": 37.254901960784316 }, "geometry": { "type": "Point", "coordinates": [ 0.588641791602069, 51.94111590439136 ] } },
{ "type": "Feature", "properties": { "visible_points": 16, "total_points": 91, "visibility_pct": 17.582417582417584 }, "geometry": { "type": "Point", "coordinates": [ 0.588843157339183, 51.941111475644561 ] } },
{ "type": "Feature", "properties": { "visible_points": 6, "total_points": 79, "visibility_pct": 7.59493670886076 }, "geometry": { "type": "Point", "coordinates": [ 0.5890445230245, 51.941107046553711 ] } },
{ "type": "Feature", "properties": { "visible_points": 0, "total_points": 67, "visibility_pct": 0.0 }, "geometry": { "type": "Point", "coordinates": [ 0.586735020132827, 51.941265740359185 ] } },
{ "type": "Feature", "properties": { "visible_points": 29, "total_points": 79, "visibility_pct": 36.708860759493675 }, "geometry": { "type": "Point", "coordinates": [ 0.586936386842255, 51.94126131486226 ] } },
{ "type": "Feature", "properties": { "visible_points": 41, "total_points": 91, "visibility_pct": 45.054945054945058 }, "geometry": { "type": "Point", "coordinates": [ 0.587137753499926, 51.941256889021282 ] } },
{ "type": "Feature", "properties": { "visible_points": 46, "total_points": 102, "visibility_pct": 45.098039215686278 }, "geometry": { "type": "Point", "coordinates": [ 0.587339120105827, 51.941252462836253 ] } },
{ "type": "Feature", "properties": { "visible_points": 53, "total_points": 112, "visibility_pct": 47.321428571428569 }, "geometry": { "type": "Point", "coordinates": [ 0.587540486659962, 51.941248036307179 ] } },
{ "type": "Feature", "properties": { "visible_points": 59, "total_points": 116, "visibility_pct": 50.862068965517238 }, "geometry": { "type": "Point", "coordinates": [ 0.587741853162318, 51.941243609434075 ] } },
{ "type": "Feature", "properties": { "visible_points": 62, "total_points": 118, "visibility_pct": 52.542372881355938 }, "geometry": { "type": "Point", "coordinates": [ 0.587943219612902, 51.941239182216918 ] } },
{ "type": "Feature", "properties": { "visible_points": 68, "total_points": 119, "visibility_pct": 57.142857142857139 }, "geometry": { "type": "Point", "coordinates": [ 0.588144586011697, 51.941234754655724 ] } },
{ "type": "Feature", "properties": { "visible_points": 61, "total_points": 118, "visibility_pct": 51.694915254237287 }, "geometry": { "type": "Point", "coordinates": [ 0.588345952358714, 51.941230326750492 ] } },
{ "type": "Feature", "properties": { "visible_points": 47, "total_points": 110, "visibility_pct": 42.727272727272727 }, "geometry": { "type": "Point", "coordinates": [ 0.58854731865393, 51.941225898501223 ] } },
{ "type": "Feature", "properties": { "visible_points": 32, "total_points": 99, "visibility_pct": 32.323232323232325 }, "geometry": { "type": "Point", "coordinates": [ 0.588748684897357, 51.941221469907909 ] } },
{ "type": "Feature", "properties": { "visible_points": 0, "total_points": 87, "visibility_pct": 0.0 }, "geometry": { "type": "Point", "coordinates": [ 0.588950051088991, 51.941217040970535 ] } },
{ "type": "Feature", "properties": { "visible_points": 0, "total_points": 76, "visibility_pct": 0.0 }, "geometry": { "type": "Point", "coordinates": [ 0.58684190938915, 51.941371307674089 ] } },
{ "type": "Feature", "properties": { "visible_points": 42, "total_points": 89, "visibility_pct": 47.191011235955052 }, "geometry": { "type": "Point", "coordinates": [ 0.58704327655312, 51.941366881986603 ] } },
{ "type": "Feature", "properties": { "visible_points": 49, "total_points": 102, "visibility_pct": 48.03921568627451 }, "geometry": { "type": "Point", "coordinates": [ 0.587244643665326, 51.94136245595508 ] } },
{ "type": "Feature", "properties": { "visible_points": 52, "total_points": 114, "visibility_pct": 45.614035087719294 }, "geometry": { "type": "Point", "coordinates": [ 0.587446010725766, 51.941358029579504 ] } },
{ "type": "Feature", "properties": { "visible_points": 63, "total_points": 120, "visibility_pct": 52.5 }, "geometry": { "type": "Point", "coordinates": [ 0.587647377734431, 51.941353602859891 ] } },
{ "type": "Feature", "properties": { "visible_points": 65, "total_points": 120, "visibility_pct": 54.166666666666664 }, "geometry": { "type": "Point", "coordinates": [ 0.587848744691315, 51.94134917579624 ] } },
{ "type": "Feature", "properties": { "visible_points": 70, "total_points": 120, "visibility_pct": 58.333333333333336 }, "geometry": { "type": "Point", "coordinates": [ 0.588050111596425, 51.941344748388538 ] } },
{ "type": "Feature", "properties": { "visible_points": 69, "total_points": 120, "visibility_pct": 57.5 }, "geometry": { "type": "Point", "coordinates": [ 0.588251478449747, 51.94134032063679 ] } },
{ "type": "Feature", "properties": { "visible_points": 54, "total_points": 115, "visibility_pct": 46.956521739130437 }, "geometry": { "type": "Point", "coordinates": [ 0.588452845251282, 51.941335892541005 ] } },
{ "type": "Feature", "properties": { "visible_points": 43, "total_points": 105, "visibility_pct": 40.952380952380949 }, "geometry": { "type": "Point", "coordinates": [ 0.588654212001025, 51.941331464101161 ] } },
{ "type": "Feature", "properties": { "visible_points": 1, "total_points": 94, "visibility_pct": 1.0638297872340425 }, "geometry": { "type": "Point", "coordinates": [ 0.588855578698966, 51.941327035317286 ] } },
{ "type": "Feature", "properties": { "visible_points": 6, "total_points": 81, "visibility_pct": 7.4074074074074066 }, "geometry": { "type": "Point", "coordinates": [ 0.589056945345111, 51.94132260618936 ] } },
{ "type": "Feature", "properties": { "visible_points": 0, "total_points": 84, "visibility_pct": 0.0 }, "geometry": { "type": "Point", "coordinates": [ 0.586948799151782, 51.941476874881857 ] } },
{ "type": "Feature", "properties": { "visible_points": 45, "total_points": 97, "visibility_pct": 46.391752577319586 }, "geometry": { "type": "Point", "coordinates": [ 0.587150166770295, 51.941472449003832 ] } },
{ "type": "Feature", "properties": { "visible_points": 54, "total_points": 110, "visibility_pct": 49.090909090909093 }, "geometry": { "type": "Point", "coordinates": [ 0.587351534337038, 51.941468022781756 ] } },
{ "type": "Feature", "properties": { "visible_points": 64, "total_points": 118, "visibility_pct": 54.237288135593218 }, "geometry": { "type": "Point", "coordinates": [ 0.587552901852013, 51.941463596215627 ] } },
{ "type": "Feature", "properties": { "visible_points": 67, "total_points": 120, "visibility_pct": 55.833333333333336 }, "geometry": { "type": "Point", "coordinates": [ 0.587754269315208, 51.941459169305475 ] } },
{ "type": "Feature", "properties": { "visible_points": 70, "total_points": 120, "visibility_pct": 58.333333333333336 }, "geometry": { "type": "Point", "coordinates": [ 0.587955636726631, 51.941454742051256 ] } },
{ "type": "Feature", "properties": { "visible_points": 77, "total_points": 120, "visibility_pct": 64.166666666666671 }, "geometry": { "type": "Point", "coordinates": [ 0.588157004086265, 51.941450314452993 ] } },
{ "type": "Feature", "properties": { "visible_points": 66, "total_points": 118, "visibility_pct": 55.932203389830505 }, "geometry": { "type": "Point", "coordinates": [ 0.588358371394116, 51.941445886510706 ] } },
{ "type": "Feature", "properties": { "visible_points": 49, "total_points": 111, "visibility_pct": 44.144144144144143 }, "geometry": { "type": "Point", "coordinates": [ 0.588559738650169, 51.941441458224354 ] } },
{ "type": "Feature", "properties": { "visible_points": 33, "total_points": 100, "visibility_pct": 33.0 }, "geometry": { "type": "Point", "coordinates": [ 0.588761105854436, 51.941437029593963 ] } },
{ "type": "Feature", "properties": { "visible_points": 13, "total_points": 88, "visibility_pct": 14.772727272727273 }, "geometry": { "type": "Point", "coordinates": [ 0.588962473006895, 51.941432600619528 ] } },
{ "type": "Feature", "properties": { "visible_points": 12, "total_points": 75, "visibility_pct": 16.0 }, "geometry": { "type": "Point", "coordinates": [ 0.589163840107558, 51.941428171301048 ] } },
{ "type": "Feature", "properties": { "visible_points": 0, "total_points": 77, "visibility_pct": 0.0 }, "geometry": { "type": "Point", "coordinates": [ 0.586854321295906, 51.941586867707024 ] } },
{ "type": "Feature", "properties": { "visible_points": 38, "total_points": 90, "visibility_pct": 42.222222222222221 }, "geometry": { "type": "Point", "coordinates": [ 0.587055689420725, 51.941582441982497 ] } },
{ "type": "Feature", "properties": { "visible_points": 49, "total_points": 102, "visibility_pct": 48.03921568627451 }, "geometry": { "type": "Point", "coordinates": [ 0.587257057493778, 51.941578015913919 ] } },
{ "type": "Feature", "properties": { "visible_points": 60, "total_points": 112, "visibility_pct": 53.571428571428569 }, "geometry": { "type": "Point", "coordinates": [ 0.587458425515064, 51.941573589501289 ] } },
{ "type": "Feature", "properties": { "visible_points": 64, "total_points": 120, "visibility_pct": 53.333333333333336 }, "geometry": { "type": "Point", "coordinates": [ 0.587659793484574, 51.941569162744628 ] } },
{ "type": "Feature", "properties": { "visible_points": 69, "total_points": 120, "visibility_pct": 57.5 }, "geometry": { "type": "Point", "coordinates": [ 0.587861161402307, 51.941564735643908 ] } },
{ "type": "Feature", "properties": { "visible_points": 73, "total_points": 120, "visibility_pct": 60.833333333333329 }, "geometry": { "type": "Point", "coordinates": [ 0.588062529268258, 51.941560308199143 ] } },
{ "type": "Feature", "properties": { "visible_points": 76, "total_points": 120, "visibility_pct": 63.333333333333329 }, "geometry": { "type": "Point", "coordinates": [ 0.588263897082427, 51.941555880410341 ] } },
{ "type": "Feature", "properties": { "visible_points": 62, "total_points": 115, "visibility_pct": 53.913043478260867 }, "geometry": { "type": "Point", "coordinates": [ 0.588465264844801, 51.94155145227748 ] } },
{ "type": "Feature", "properties": { "visible_points": 32, "total_points": 106, "visibility_pct": 30.188679245283019 }, "geometry": { "type": "Point", "coordinates": [ 0.58866663255538, 51.941547023800581 ] } },
{ "type": "Feature", "properties": { "visible_points": 27, "total_points": 95, "visibility_pct": 28.421052631578945 }, "geometry": { "type": "Point", "coordinates": [ 0.58886800021417, 51.941542594979637 ] } },
{ "type": "Feature", "properties": { "visible_points": 13, "total_points": 82, "visibility_pct": 15.853658536585366 }, "geometry": { "type": "Point", "coordinates": [ 0.589069367821153, 51.941538165814634 ] } },
{ "type": "Feature", "properties": { "visible_points": 0, "total_points": 81, "visibility_pct": 0.0 }, "geometry": { "type": "Point", "coordinates": [ 0.586961211616617, 51.941692434891081 ] } },
{ "type": "Feature", "properties": { "visible_points": 49, "total_points": 93, "visibility_pct": 52.688172043010752 }, "geometry": { "type": "Point", "coordinates": [ 0.587162580195981, 51.941688008976016 ] } },
{ "type": "Feature", "properties": { "visible_points": 54, "total_points": 104, "visibility_pct": 51.923076923076927 }, "geometry": { "type": "Point", "coordinates": [ 0.587363948723579, 51.941683582716884 ] } },
{ "type": "Feature", "properties": { "visible_points": 58, "total_points": 114, "visibility_pct": 50.877192982456144 }, "geometry": { "type": "Point", "coordinates": [ 0.587565317199405, 51.941679156113707 ] } },
{ "type": "Feature", "properties": { "visible_points": 64, "total_points": 120, "visibility_pct": 53.333333333333336 }, "geometry": { "type": "Point", "coordinates": [ 0.587766685623455, 51.941674729166479 ] } },
{ "type": "Feature", "properties": { "visible_points": 67, "total_points": 120, "visibility_pct": 55.833333333333336 }, "geometry": { "type": "Point", "coordinates": [ 0.587968053995726, 51.941670301875199 ] } },
{ "type": "Feature", "properties": { "visible_points": 73, "total_points": 120, "visibility_pct": 60.833333333333329 }, "geometry": { "type": "Point", "coordinates": [ 0.58816942231621, 51.941665874239895 ] } },
{ "type": "Feature", "properties": { "visible_points": 71, "total_points": 118, "visibility_pct": 60.169491525423723 }, "geometry": { "type": "Point", "coordinates": [ 0.588370790584907, 51.941661446260525 ] } },
{ "type": "Feature", "properties": { "visible_points": 66, "total_points": 111, "visibility_pct": 59.45945945945946 }, "geometry": { "type": "Point", "coordinates": [ 0.588572158801812, 51.941657017937096 ] } },
{ "type": "Feature", "properties": { "visible_points": 51, "total_points": 100, "visibility_pct": 51.0 }, "geometry": { "type": "Point", "coordinates": [ 0.588773526966924, 51.941652589269651 ] } },
{ "type": "Feature", "properties": { "visible_points": 9, "total_points": 89, "visibility_pct": 10.112359550561797 }, "geometry": { "type": "Point", "coordinates": [ 0.588974895080231, 51.94164816025814 ] } },
{ "type": "Feature", "properties": { "visible_points": 17, "total_points": 83, "visibility_pct": 20.481927710843372 }, "geometry": { "type": "Point", "coordinates": [ 0.58706810244364, 51.94179800196801 ] } },
{ "type": "Feature", "properties": { "visible_points": 51, "total_points": 95, "visibility_pct": 53.684210526315788 }, "geometry": { "type": "Point", "coordinates": [ 0.587269471477555, 51.941793575862377 ] } },
{ "type": "Feature", "properties": { "visible_points": 56, "total_points": 106, "visibility_pct": 52.830188679245282 }, "geometry": { "type": "Point", "coordinates": [ 0.5874708404597, 51.941789149412699 ] } },
{ "type": "Feature", "properties": { "visible_points": 60, "total_points": 115, "visibility_pct": 52.173913043478258 }, "geometry": { "type": "Point", "coordinates": [ 0.58767220939007, 51.941784722618976 ] } },
{ "type": "Feature", "properties": { "visible_points": 64, "total_points": 120, "visibility_pct": 53.333333333333336 }, "geometry": { "type": "Point", "coordinates": [ 0.587873578268656, 51.941780295481195 ] } },
{ "type": "Feature", "properties": { "visible_points": 65, "total_points": 120, "visibility_pct": 54.166666666666664 }, "geometry": { "type": "Point", "coordinates": [ 0.588074947095465, 51.941775867999382 ] } },
{ "type": "Feature", "properties": { "visible_points": 66, "total_points": 120, "visibility_pct": 55.000000000000007 }, "geometry": { "type": "Point", "coordinates": [ 0.588276315870489, 51.94177144017349 ] } },
{ "type": "Feature", "properties": { "visible_points": 59, "total_points": 115, "visibility_pct": 51.304347826086961 }, "geometry": { "type": "Point", "coordinates": [ 0.588477684593719, 51.941767012003581 ] } },
{ "type": "Feature", "properties": { "visible_points": 58, "total_points": 106, "visibility_pct": 54.716981132075468 }, "geometry": { "type": "Point", "coordinates": [ 0.588679053265152, 51.941762583489599 ] } },
{ "type": "Feature", "properties": { "visible_points": 47, "total_points": 95, "visibility_pct": 49.473684210526315 }, "geometry": { "type": "Point", "coordinates": [ 0.588880421884792, 51.941758154631579 ] } },
{ "type": "Feature", "properties": { "visible_points": 9, "total_points": 82, "visibility_pct": 10.975609756097562 }, "geometry": { "type": "Point", "coordinates": [ 0.589081790452627, 51.941753725429514 ] } },
{ "type": "Feature", "properties": { "visible_points": 0, "total_points": 73, "visibility_pct": 0.0 }, "geometry": { "type": "Point", "coordinates": [ 0.586973624236757, 51.941907994889924 ] } },
{ "type": "Feature", "properties": { "visible_points": 35, "total_points": 85, "visibility_pct": 41.17647058823529 }, "geometry": { "type": "Point", "coordinates": [ 0.587174993776993, 51.941903568937811 ] } },
{ "type": "Feature", "properties": { "visible_points": 53, "total_points": 97, "visibility_pct": 54.639175257731956 }, "geometry": { "type": "Point", "coordinates": [ 0.587376363265448, 51.941899142641624 ] } },
{ "type": "Feature", "properties": { "visible_points": 56, "total_points": 107, "visibility_pct": 52.336448598130836 }, "geometry": { "type": "Point", "coordinates": [ 0.587577732702144, 51.941894716001393 ] } },
{ "type": "Feature", "properties": { "visible_points": 60, "total_points": 115, "visibility_pct": 52.173913043478258 }, "geometry": { "type": "Point", "coordinates": [ 0.587779102087059, 51.941890289017117 ] } },
{ "type": "Feature", "properties": { "visible_points": 60, "total_points": 120, "visibility_pct": 50.0 }, "geometry": { "type": "Point", "coordinates": [ 0.587980471420184, 51.941885861688775 ] } },
{ "type": "Feature", "properties": { "visible_points": 59, "total_points": 120, "visibility_pct": 49.166666666666664 }, "geometry": { "type": "Point", "coordinates": [ 0.588181840701538, 51.941881434016388 ] } },
{ "type": "Feature", "properties": { "visible_points": 56, "total_points": 117, "visibility_pct": 47.863247863247864 }, "geometry": { "type": "Point", "coordinates": [ 0.588383209931093, 51.941877005999963 ] } },
{ "type": "Feature", "properties": { "visible_points": 48, "total_points": 109, "visibility_pct": 44.036697247706428 }, "geometry": { "type": "Point", "coordinates": [ 0.588584579108858, 51.941872577639479 ] } },
{ "type": "Feature", "properties": { "visible_points": 48, "total_points": 97, "visibility_pct": 49.484536082474229 }, "geometry": { "type": "Point", "coordinates": [ 0.588785948234831, 51.941868148934944 ] } },
{ "type": "Feature", "properties": { "visible_points": 8, "total_points": 85, "visibility_pct": 9.4117647058823533 }, "geometry": { "type": "Point", "coordinates": [ 0.588987317308993, 51.941863719886356 ] } },
{ "type": "Feature", "properties": { "visible_points": 10, "total_points": 72, "visibility_pct": 13.888888888888889 }, "geometry": { "type": "Point", "coordinates": [ 0.589188686331362, 51.941859290493731 ] } },
{ "type": "Feature", "properties": { "visible_points": 0, "total_points": 74, "visibility_pct": 0.0 }, "geometry": { "type": "Point", "coordinates": [ 0.587080515621873, 51.942013561943142 ] } },
{ "type": "Feature", "properties": { "visible_points": 39, "total_points": 85, "visibility_pct": 45.882352941176471 }, "geometry": { "type": "Point", "coordinates": [ 0.587281885616663, 51.942009135800468 ] } },
{ "type": "Feature", "properties": { "visible_points": 50, "total_points": 95, "visibility_pct": 52.631578947368418 }, "geometry": { "type": "Point", "coordinates": [ 0.587483255559674, 51.942004709313721 ] } },
{ "type": "Feature", "properties": { "visible_points": 55, "total_points": 103, "visibility_pct": 53.398058252427184 }, "geometry": { "type": "Point", "coordinates": [ 0.587684625450914, 51.94200028248293 ] } },
{ "type": "Feature", "properties": { "visible_points": 57, "total_points": 110, "visibility_pct": 51.81818181818182 }, "geometry": { "type": "Point", "coordinates": [ 0.587885995290372, 51.941995855308114 ] } },
{ "type": "Feature", "properties": { "visible_points": 53, "total_points": 114, "visibility_pct": 46.491228070175438 }, "geometry": { "type": "Point", "coordinates": [ 0.58808736507805, 51.941991427789212 ] } },
{ "type": "Feature", "properties": { "visible_points": 51, "total_points": 113, "visibility_pct": 45.132743362831853 }, "geometry": { "type": "Point", "coordinates": [ 0.588288734813938, 51.941986999926272 ] } },
{ "type": "Feature", "properties": { "visible_points": 47, "total_points": 107, "visibility_pct": 43.925233644859816 }, "geometry": { "type": "Point", "coordinates": [ 0.588490104498038, 51.941982571719279 ] } },
{ "type": "Feature", "properties": { "visible_points": 43, "total_points": 97, "visibility_pct": 44.329896907216494 }, "geometry": { "type": "Point", "coordinates": [ 0.588691474130335, 51.941978143168242 ] } },
{ "type": "Feature", "properties": { "visible_points": 38, "total_points": 86, "visibility_pct": 44.186046511627907 }, "geometry": { "type": "Point", "coordinates": [ 0.588892843710838, 51.941973714273153 ] } },
{ "type": "Feature", "properties": { "visible_points": 11, "total_points": 74, "visibility_pct": 14.864864864864865 }, "geometry": { "type": "Point", "coordinates": [ 0.58909421323954, 51.941969285033998 ] } },
{ "type": "Feature", "properties": { "visible_points": 0, "total_points": 72, "visibility_pct": 0.0 }, "geometry": { "type": "Point", "coordinates": [ 0.587187407505106, 51.942119128884322 ] } },
{ "type": "Feature", "properties": { "visible_points": 34, "total_points": 82, "visibility_pct": 41.463414634146339 }, "geometry": { "type": "Point", "coordinates": [ 0.587388777957906, 51.942114702552217 ] } },
{ "type": "Feature", "properties": { "visible_points": 47, "total_points": 90, "visibility_pct": 52.222222222222229 }, "geometry": { "type": "Point", "coordinates": [ 0.587590148357205, 51.942110275875429 ] } },
{ "type": "Feature", "properties": { "visible_points": 53, "total_points": 97, "visibility_pct": 54.639175257731956 }, "geometry": { "type": "Point", "coordinates": [ 0.587791518703481, 51.942105848854716 ] } },
{ "type": "Feature", "properties": { "visible_points": 50, "total_points": 102, "visibility_pct": 49.019607843137251 }, "geometry": { "type": "Point", "coordinates": [ 0.587992888997911, 51.942101421489902 ] } },
{ "type": "Feature", "properties": { "visible_points": 47, "total_points": 105, "visibility_pct": 44.761904761904766 }, "geometry": { "type": "Point", "coordinates": [ 0.588194259240538, 51.94209699378095 ] } },
{ "type": "Feature", "properties": { "visible_points": 44, "total_points": 102, "visibility_pct": 43.137254901960787 }, "geometry": { "type": "Point", "coordinates": [ 0.588395629431366, 51.942092565727904 ] } },
{ "type": "Feature", "properties": { "visible_points": 38, "total_points": 94, "visibility_pct": 40.425531914893611 }, "geometry": { "type": "Point", "coordinates": [ 0.58859699957038, 51.942088137330749 ] } },
{ "type": "Feature", "properties": { "visible_points": 43, "total_points": 84, "visibility_pct": 51.19047619047619 }, "geometry": { "type": "Point", "coordinates": [ 0.588798369657582, 51.942083708589472 ] } },
{ "type": "Feature", "properties": { "visible_points": 8, "total_points": 74, "visibility_pct": 10.810810810810811 }, "geometry": { "type": "Point", "coordinates": [ 0.588999739692972, 51.942079279504071 ] } },
{ "type": "Feature", "properties": { "visible_points": 0, "total_points": 69, "visibility_pct": 0.0 }, "geometry": { "type": "Point", "coordinates": [ 0.587294299794434, 51.942224695700673 ] } },
{ "type": "Feature", "properties": { "visible_points": 26, "total_points": 77, "visibility_pct": 33.766233766233768 }, "geometry": { "type": "Point", "coordinates": [ 0.587495670706771, 51.942220269180297 ] } },
{ "type": "Feature", "properties": { "visible_points": 44, "total_points": 84, "visibility_pct": 52.380952380952387 }, "geometry": { "type": "Point", "coordinates": [ 0.587697041566762, 51.942215842315264 ] } },
{ "type": "Feature", "properties": { "visible_points": 42, "total_points": 89, "visibility_pct": 47.191011235955052 }, "geometry": { "type": "Point", "coordinates": [ 0.587898412374764, 51.942211415105994 ] } },
{ "type": "Feature", "properties": { "visible_points": 42, "total_points": 93, "visibility_pct": 45.161290322580641 }, "geometry": { "type": "Point", "coordinates": [ 0.588099783130795, 51.942206987552488 ] } },
{ "type": "Feature", "properties": { "visible_points": 39, "total_points": 95, "visibility_pct": 41.05263157894737 }, "geometry": { "type": "Point", "coordinates": [ 0.588301153834844, 51.942202559654788 ] } },
{ "type": "Feature", "properties": { "visible_points": 36, "total_points": 89, "visibility_pct": 40.449438202247187 }, "geometry": { "type": "Point", "coordinates": [ 0.588502524486908, 51.942198131412873 ] } },
{ "type": "Feature", "properties": { "visible_points": 26, "total_points": 81, "visibility_pct": 32.098765432098766 }, "geometry": { "type": "Point", "coordinates": [ 0.588703895086989, 51.942193702826728 ] } },
{ "type": "Feature", "properties": { "visible_points": 5, "total_points": 72, "visibility_pct": 6.9444444444444446 }, "geometry": { "type": "Point", "coordinates": [ 0.588905265635081, 51.942189273896389 ] } },
{ "type": "Feature", "properties": { "visible_points": 8, "total_points": 62, "visibility_pct": 12.903225806451612 }, "geometry": { "type": "Point", "coordinates": [ 0.589106636130769, 51.94218484462192 ] } },
{ "type": "Feature", "properties": { "visible_points": 0, "total_points": 71, "visibility_pct": 0.0 }, "geometry": { "type": "Point", "coordinates": [ 0.587602563908657, 51.942325835688528 ] } },
{ "type": "Feature", "properties": { "visible_points": 32, "total_points": 76, "visibility_pct": 42.105263157894733 }, "geometry": { "type": "Point", "coordinates": [ 0.587803935225953, 51.942321408635941 ] } },
{ "type": "Feature", "properties": { "visible_points": 38, "total_points": 80, "visibility_pct": 47.5 }, "geometry": { "type": "Point", "coordinates": [ 0.588005306491271, 51.942316981239067 ] } },
{ "type": "Feature", "properties": { "visible_points": 35, "total_points": 83, "visibility_pct": 42.168674698795186 }, "geometry": { "type": "Point", "coordinates": [ 0.588206677704589, 51.942312553497928 ] } },
{ "type": "Feature", "properties": { "visible_points": 0, "total_points": 82, "visibility_pct": 0.0 }, "geometry": { "type": "Point", "coordinates": [ 0.588408048865917, 51.942308125412509 ] } },
{ "type": "Feature", "properties": { "visible_points": 0, "total_points": 76, "visibility_pct": 0.0 }, "geometry": { "type": "Point", "coordinates": [ 0.588609419975247, 51.942303696982783 ] } },
{ "type": "Feature", "properties": { "visible_points": 0, "total_points": 68, "visibility_pct": 0.0 }, "geometry": { "type": "Point", "coordinates": [ 0.58881079103257, 51.942299268208806 ] } },
{ "type": "Feature", "properties": { "visible_points": 0, "total_points": 60, "visibility_pct": 0.0 }, "geometry": { "type": "Point", "coordinates": [ 0.589012162037889, 51.942294839090536 ] } },
{ "type": "Feature", "properties": { "visible_points": 0, "total_points": 63, "visibility_pct": 0.0 }, "geometry": { "type": "Point", "coordinates": [ 0.587709457619471, 51.94243140209246 ] } },
{ "type": "Feature", "properties": { "visible_points": 23, "total_points": 67, "visibility_pct": 34.328358208955223 }, "geometry": { "type": "Point", "coordinates": [ 0.587910829393715, 51.942426974851912 ] } },
{ "type": "Feature", "properties": { "visible_points": 0, "total_points": 70, "visibility_pct": 0.0 }, "geometry": { "type": "Point", "coordinates": [ 0.588112201115971, 51.942422547267121 ] } }
]
}
