{
"type": "FeatureCollection",
"name": "MIDSU_19_walking",
"crs": { "type": "name", "properties": { "name": "urn:ogc:def:crs:OGC:1.3:CRS84" } },
"features": [
{"type":"Feature","properties":{"highway":"track","name":"London Lane","category":"Track"},"geometry":{"type":"MultiLineString","coordinates":[[[0.9614201,52.2089058],[0.9611099,52.2090383],[0.961004,52.2090855],[0.9607907,52.2092121],[0.960554,52.209335],[0.9602711,52.2094821],[0.9599881,52.2096053],[0.9596568,52.2097376],[0.9594235,52.2098264],[0.9591472,52.2099102],[0.9588267,52.2099858],[0.9583858,52.2100786],[0.9580851,52.2101189],[0.9576854,52.2101493],[0.9570578,52.2101567],[0.956634,52.210151],[0.9561807,52.2101428],[0.9557663,52.2101222],[0.9553573,52.2100861],[0.9551829,52.2101074],[0.9550609,52.2101329],[0.954971,52.2101569],[0.9547739,52.2102381],[0.9545003,52.2103893],[0.9543903,52.2104481]]]}},
{"type":"Feature","properties":{"highway":"track","name":null,"category":"Track"},"geometry":{"type":"MultiLineString","coordinates":[[[0.9487294,52.2182301],[0.9487643,52.2183451],[0.948966,52.2185957],[0.9490438,52.2186253],[0.9491344,52.2186228],[0.9498377,52.2185546],[0.9500303,52.2185604],[0.9518735,52.2188175]]]}},
{"type":"Feature","properties":{"highway":"footway","name":null,"category":"Footpath (pedestrian only)"},"geometry":{"type":"MultiLineString","coordinates":[[[0.9568714,52.2222805],[0.9568928,52.2222099],[0.9569679,52.2219856],[0.9570229,52.2216085],[0.9570913,52.2209685],[0.9570752,52.2208017],[0.957039,52.2207425],[0.957067,52.2206173],[0.9569237,52.2204829],[0.9565911,52.2203252],[0.9560949,52.2201444],[0.9557354,52.2200738],[0.9552178,52.2200508],[0.9548289,52.220031],[0.9545848,52.2199653],[0.9543219,52.2199439],[0.9540363,52.2199166],[0.9532867,52.2198754],[0.9528683,52.2196831],[0.9527052,52.219536],[0.9526997,52.2194381]]]}},
{"type":"Feature","properties":{"highway":"footway","name":null,"category":"Footpath (pedestrian only)"},"geometry":{"type":"MultiLineString","coordinates":[[[0.9490329,52.2124372],[0.9486536,52.2123202],[0.9485699,52.2122803]]]}},
{"type":"Feature","properties":{"highway":"footway","name":null,"category":"Footpath (pedestrian only)"},"geometry":{"type":"MultiLineString","coordinates":[[[0.9490329,52.2124372],[0.9494948,52.2125983],[0.9497135,52.2126902],[0.9498918,52.2127711],[0.9500022,52.2128034],[0.9500716,52.2127995],[0.9502045,52.2127541],[0.9503489,52.2127321],[0.9512137,52.2130859],[0.9519443,52.2133487],[0.9520653,52.2133966],[0.9520673,52.213428],[0.9520328,52.2135344],[0.9520603,52.2135659],[0.9535913,52.2138975],[0.9539447,52.2139809],[0.9540158,52.2140488]]]}},
{"type":"Feature","properties":{"highway":"footway","name":null,"category":"Footpath (pedestrian only)"},"geometry":{"type":"MultiLineString","coordinates":[[[0.9666252,52.2205548],[0.9666621,52.2205762],[0.9669846,52.2208662],[0.9671952,52.2208756],[0.9672294,52.2209323],[0.9673166,52.2210013],[0.9673984,52.221005]]]}},
{"type":"Feature","properties":{"highway":"track","name":null,"category":"Track"},"geometry":{"type":"MultiLineString","coordinates":[[[0.9654947,52.2210519],[0.9655456,52.220959],[0.965602,52.2208732],[0.9656677,52.2208206],[0.9658454,52.2207471],[0.9659889,52.2206838],[0.9660599,52.2206378],[0.9661189,52.2205823],[0.9661739,52.2205273]]]}},
{"type":"Feature","properties":{"highway":"footway","name":null,"category":"Footpath (pedestrian only)"},"geometry":{"type":"MultiLineString","coordinates":[[[0.9669558,52.2203194],[0.9668686,52.2203584],[0.9666413,52.2204702],[0.9666212,52.2205195],[0.9666259,52.2205441],[0.9666252,52.2205548],[0.9666055,52.2205676],[0.9665796,52.2205827],[0.9664877,52.220625],[0.9662215,52.2207462],[0.9661585,52.2207807],[0.9661216,52.2207606]]]}},
{"type":"Feature","properties":{"highway":"track","name":null,"category":"Track"},"geometry":{"type":"MultiLineString","coordinates":[[[0.9665258,52.220518],[0.9666105,52.2204628],[0.9666809,52.2204225],[0.966872,52.2203371],[0.9669431,52.2203042]]]}},
{"type":"Feature","properties":{"highway":"track","name":null,"category":"Track"},"geometry":{"type":"MultiLineString","coordinates":[[[0.9645552,52.2194715],[0.964865,52.2194382]]]}},
{"type":"Feature","properties":{"highway":"track","name":null,"category":"Track"},"geometry":{"type":"MultiLineString","coordinates":[[[0.9621371,52.2181233],[0.9628688,52.2177334],[0.9632155,52.2175707],[0.9633978,52.217528],[0.9635333,52.2175185],[0.963652,52.2175292],[0.9637794,52.2175641],[0.9638498,52.2176056],[0.9639249,52.2176483],[0.9639953,52.2177095],[0.9640463,52.2177609],[0.9640912,52.2178324],[0.9641965,52.2181988],[0.9645552,52.2194715],[0.964576,52.2195529],[0.9646336,52.2197977]]]}},
{"type":"Feature","properties":{"highway":"track","name":null,"category":"Track"},"geometry":{"type":"MultiLineString","coordinates":[[[0.973878,52.2138338],[0.9736552,52.213786],[0.9728201,52.2137397],[0.9717836,52.2136625],[0.9709401,52.213714],[0.9700421,52.2137551],[0.9689678,52.2137783],[0.968418,52.2137705],[0.9677298,52.2138502],[0.96752,52.2139222],[0.9674906,52.2139891],[0.9676452,52.2142406],[0.9677917,52.2148304],[0.9678848,52.2152133],[0.9678056,52.2153359],[0.9676117,52.2154147],[0.9674606,52.2154658],[0.9669151,52.215579],[0.9663221,52.2157123],[0.9658422,52.2157733],[0.965518,52.2158281],[0.9651299,52.2159219],[0.9648594,52.2159735],[0.9646577,52.2159876],[0.9645326,52.2160017],[0.9644458,52.2160486],[0.9644075,52.2161315],[0.9643286,52.2162267],[0.9642564,52.2162799],[0.9641494,52.2163259],[0.9639587,52.2164003],[0.9637592,52.2164871],[0.9634441,52.2166341],[0.9627562,52.2169599],[0.9625828,52.2170325],[0.9623342,52.2170963],[0.9616694,52.2171937],[0.9610248,52.2172698],[0.960786,52.2173386]]]}},
{"type":"Feature","properties":{"highway":"footway","name":null,"category":"Footpath (pedestrian only)"},"geometry":{"type":"MultiLineString","coordinates":[[[0.9527059,52.2194054],[0.9527294,52.2192945],[0.9527522,52.2189354],[0.9527481,52.2186704]]]}},
{"type":"Feature","properties":{"highway":"footway","name":null,"category":"Footpath (pedestrian only)"},"geometry":{"type":"MultiLineString","coordinates":[[[0.9650259,52.2213639],[0.9650436,52.2214347],[0.9650964,52.2215189],[0.9651379,52.2217079],[0.965142,52.2217876],[0.965099,52.2220287],[0.965145,52.2220889],[0.9652834,52.222244],[0.9653223,52.2223894],[0.9653699,52.2225048],[0.9653834,52.2226022],[0.9653901,52.2227788],[0.9653612,52.2229172],[0.9652593,52.2230717],[0.9651996,52.2232044],[0.9651782,52.2233325],[0.9651896,52.2233991],[0.9652244,52.2234714],[0.9652258,52.2235478],[0.9652244,52.2235987]]]}},
{"type":"Feature","properties":{"highway":"footway","name":null,"category":"Footpath (pedestrian only)"},"geometry":{"type":"MultiLineString","coordinates":[[[0.9540233,52.2140992],[0.9557369,52.2148794],[0.9562166,52.2150663],[0.9566842,52.215283],[0.9569524,52.2153528],[0.9570313,52.2153428],[0.9570467,52.2153387],[0.9570487,52.2150984],[0.9570789,52.2150953],[0.9571835,52.2153201],[0.9572844,52.215314]]]}},
{"type":"Feature","properties":{"highway":"footway","name":null,"category":"Footpath (pedestrian only)"},"geometry":{"type":"MultiLineString","coordinates":[[[0.9540158,52.2140488],[0.9540233,52.2140992]]]}},
{"type":"Feature","properties":{"highway":"path","name":null,"category":"Shared path"},"geometry":{"type":"MultiLineString","coordinates":[[[0.9671094,52.2201481],[0.9670168,52.2200635],[0.9667157,52.2201744],[0.966241,52.2203354],[0.9660832,52.2203924],[0.9654256,52.2205983],[0.9652942,52.2206234],[0.9653069,52.2206568]]]}},
{"type":"Feature","properties":{"highway":"path","name":null,"category":"Shared path"},"geometry":{"type":"MultiLineString","coordinates":[[[0.9591936,52.2151534],[0.9596577,52.2149233],[0.9600082,52.2146954],[0.9602013,52.2144631],[0.9604436,52.2141816],[0.9606233,52.2141476],[0.9606591,52.2140424],[0.9610024,52.2138321],[0.9611884,52.2137882],[0.9613815,52.2136349],[0.9616175,52.2135209],[0.9619465,52.213442],[0.9622827,52.2134289],[0.9626117,52.2135122],[0.9627977,52.2136349],[0.9629551,52.2138102],[0.962998,52.2139285],[0.9630623,52.214038],[0.9632698,52.2140775]]]}},
{"type":"Feature","properties":{"highway":"path","name":null,"category":"Shared path"},"geometry":{"type":"MultiLineString","coordinates":[[[0.9632698,52.2140775],[0.9634128,52.2142747],[0.9634411,52.2143176],[0.9635344,52.2144588],[0.9635845,52.2145859],[0.96347,52.2147743],[0.9632125,52.2149277],[0.9628263,52.2150592],[0.962626,52.2151337],[0.9623614,52.2151994],[0.9620538,52.2153221],[0.9619179,52.2153922],[0.9616891,52.2154755],[0.961453,52.21555],[0.9611955,52.2156113],[0.9609727,52.2156367],[0.9606805,52.215791],[0.960373,52.2159049],[0.9600869,52.2159663],[0.9598008,52.2160715],[0.9595004,52.2161153],[0.9592643,52.2161328],[0.9590426,52.2161635],[0.958867,52.2161789],[0.958808,52.2161638]]]}},
{"type":"Feature","properties":{"highway":"path","name":null,"category":"Shared path"},"geometry":{"type":"MultiLineString","coordinates":[[[0.9623614,52.2151994],[0.9619322,52.2148181],[0.9618046,52.2147546],[0.9614387,52.2145727],[0.9609166,52.2142878],[0.9606233,52.2141476]]]}},
{"type":"Feature","properties":{"highway":"path","name":null,"category":"Shared path"},"geometry":{"type":"MultiLineString","coordinates":[[[0.9618046,52.2147546],[0.9620896,52.2145727],[0.9623256,52.214393],[0.9626403,52.2141827],[0.9628263,52.2140468],[0.9630623,52.214038]]]}},
{"type":"Feature","properties":{"highway":"path","name":null,"category":"Shared path"},"geometry":{"type":"MultiLineString","coordinates":[[[0.9619322,52.2148181],[0.9621969,52.214691],[0.9625688,52.2146384],[0.9628263,52.2146647],[0.9630623,52.2145508],[0.9632626,52.2144719],[0.9634411,52.2143176]]]}},
{"type":"Feature","properties":{"highway":"footway","name":null,"category":"Footpath (pedestrian only)"},"geometry":{"type":"MultiLineString","coordinates":[[[0.9526997,52.2194381],[0.9527059,52.2194054]]]}}
]
}
