{
"type": "FeatureCollection",
"name": "EPPFO_58_NACH_800m",
"crs": { "type": "name", "properties": { "name": "urn:ogc:def:crs:OGC:1.3:CRS84" } },
"features": [
{ "type": "Feature", "properties": { "id": 52311, "nach": 0.51439717665256079 }, "geometry": { "type": "LineString", "coordinates": [ [ 0.0990672, 51.69443840000001 ], [ 0.0990796, 51.6943942 ] ] } },
{ "type": "Feature", "properties": { "id": 20807, "nach": 0.43950035653620062 }, "geometry": { "type": "LineString", "coordinates": [ [ 0.0994829, 51.694442 ], [ 0.0990796, 51.6943942 ] ] } },
{ "type": "Feature", "properties": { "id": 44033, "nach": 0.50413181043765909 }, "geometry": { "type": "LineString", "coordinates": [ [ 0.0992612, 51.6940353 ], [ 0.0991815, 51.6941698 ], [ 0.0990796, 51.6943942 ] ] } },
{ "type": "Feature", "properties": { "id": 52312, "nach": 0.51139589894411375 }, "geometry": { "type": "LineString", "coordinates": [ [ 0.0990672, 51.69443840000001 ], [ 0.0990253, 51.6945879 ], [ 0.0990164, 51.6946977 ], [ 0.0990152, 51.69479650000001 ], [ 0.0990045, 51.695834 ], [ 0.098983, 51.6961199 ], [ 0.098865, 51.6964192 ], [ 0.0986376, 51.6967245 ], [ 0.0986191, 51.6967494 ] ] } },
{ "type": "Feature", "properties": { "id": 52322, "nach": 0.37615649363710535 }, "geometry": { "type": "LineString", "coordinates": [ [ 0.0995138, 51.6946212 ], [ 0.0993135, 51.6945536 ], [ 0.099164, 51.6944868 ], [ 0.0990672, 51.69443840000001 ] ] } },
{ "type": "Feature", "properties": { "id": 20810, "nach": 0.47860683878830101 }, "geometry": { "type": "LineString", "coordinates": [ [ 0.0995766, 51.694385300000015 ], [ 0.0994829, 51.694442 ] ] } },
{ "type": "Feature", "properties": { "id": 44035, "nach": 0.41262225448382345 }, "geometry": { "type": "LineString", "coordinates": [ [ 0.0994703, 51.6945159 ], [ 0.0994829, 51.694442 ] ] } },
{ "type": "Feature", "properties": { "id": 44034, "nach": 0.29787221837905237 }, "geometry": { "type": "LineString", "coordinates": [ [ 0.0992612, 51.6940353 ], [ 0.0989089, 51.69390820000001 ], [ 0.0990654, 51.6937471 ] ] } },
{ "type": "Feature", "properties": { "id": 44032, "nach": 0.51173655311794275 }, "geometry": { "type": "LineString", "coordinates": [ [ 0.0992612, 51.6940353 ], [ 0.099432, 51.6938374 ] ] } },
{ "type": "Feature", "properties": { "id": 27983, "nach": 0.59115228393164998 }, "geometry": { "type": "LineString", "coordinates": [ [ 0.0987708, 51.6927144 ], [ 0.0991985, 51.692849099999989 ] ] } },
{ "type": "Feature", "properties": { "id": 5443, "nach": 0.59204095788170719 }, "geometry": { "type": "LineString", "coordinates": [ [ 0.1002362, 51.693239200000015 ], [ 0.0999702, 51.6931256 ], [ 0.0991985, 51.692849099999989 ] ] } },
{ "type": "Feature", "properties": { "id": 38853, "nach": 0.40703814053693305 }, "geometry": { "type": "LineString", "coordinates": [ [ 0.0979723, 51.6931984 ], [ 0.0987234, 51.693371300000017 ], [ 0.0987662, 51.6932454 ], [ 0.0991985, 51.692849099999989 ] ] } },
{ "type": "Feature", "properties": { "id": 41228, "nach": 0.52992372773780005 }, "geometry": { "type": "LineString", "coordinates": [ [ 0.099005, 51.6924858 ], [ 0.0987708, 51.6927144 ] ] } },
{ "type": "Feature", "properties": { "id": 43796, "nach": 0.57234657188147942 }, "geometry": { "type": "LineString", "coordinates": [ [ 0.0983921, 51.692576399999986 ], [ 0.0987708, 51.6927144 ] ] } },
{ "type": "Feature", "properties": { "id": 52329, "nach": 0.60461007363743902 }, "geometry": { "type": "LineString", "coordinates": [ [ 0.1000752, 51.6933874 ], [ 0.1001108, 51.693361 ], [ 0.1002362, 51.693239200000015 ] ] } },
{ "type": "Feature", "properties": { "id": 52330, "nach": 0.55645156959798681 }, "geometry": { "type": "LineString", "coordinates": [ [ 0.1000752, 51.6933874 ], [ 0.1002331, 51.6934846 ], [ 0.0999485, 51.693792 ], [ 0.0999964, 51.6938963 ] ] } },
{ "type": "Feature", "properties": { "id": 52328, "nach": 0.54496714918292111 }, "geometry": { "type": "LineString", "coordinates": [ [ 0.1000752, 51.6933874 ], [ 0.1000291, 51.6934216 ], [ 0.0997356, 51.6936035 ] ] } },
{ "type": "Feature", "properties": { "id": 58453, "nach": 0.54867897833550883 }, "geometry": { "type": "LineString", "coordinates": [ [ 0.0956605, 51.6916359 ], [ 0.0956846, 51.6916428 ] ] } },
{ "type": "Feature", "properties": { "id": 43809, "nach": 0.57512530370139325 }, "geometry": { "type": "LineString", "coordinates": [ [ 0.0960271, 51.6917587 ], [ 0.0960074, 51.6917519 ], [ 0.095953, 51.6917335 ], [ 0.0959036, 51.6917168 ], [ 0.0956846, 51.6916428 ] ] } },
{ "type": "Feature", "properties": { "id": 41209, "nach": 0.56399052234449443 }, "geometry": { "type": "LineString", "coordinates": [ [ 0.0959124, 51.6913346 ], [ 0.0958286, 51.691448 ], [ 0.0956846, 51.6916428 ] ] } },
{ "type": "Feature", "properties": { "id": 58455, "nach": 0.40702989449900234 }, "geometry": { "type": "LineString", "coordinates": [ [ 0.0956605, 51.6916359 ], [ 0.0956216, 51.6916901 ], [ 0.0955706, 51.691743 ], [ 0.0952932, 51.6919081 ], [ 0.0951087, 51.69196 ], [ 0.0950585, 51.6919479 ] ] } },
{ "type": "Feature", "properties": { "id": 73607, "nach": 0.53206725669708232 }, "geometry": { "type": "LineString", "coordinates": [ [ 0.0950876, 51.6914351 ], [ 0.0953547, 51.6915271 ], [ 0.0953994, 51.691542700000014 ], [ 0.0956605, 51.6916359 ] ] } },
{ "type": "Feature", "properties": { "id": 43808, "nach": 0.5255249931904219 }, "geometry": { "type": "LineString", "coordinates": [ [ 0.0960271, 51.6917587 ], [ 0.0964354, 51.6918999 ] ] } },
{ "type": "Feature", "properties": { "id": 43825, "nach": 0.52435857449130141 }, "geometry": { "type": "LineString", "coordinates": [ [ 0.0959957, 51.691983299999983 ], [ 0.0960119, 51.691964400000018 ], [ 0.0960142, 51.691921 ], [ 0.0959933, 51.6918675 ], [ 0.0960271, 51.6917587 ] ] } },
{ "type": "Feature", "properties": { "id": 41210, "nach": 0.56279031449606587 }, "geometry": { "type": "LineString", "coordinates": [ [ 0.0959124, 51.6913346 ], [ 0.0959357, 51.691304 ], [ 0.0960862, 51.6910988 ], [ 0.0961337, 51.6910504 ] ] } },
{ "type": "Feature", "properties": { "id": 41211, "nach": 0.47803411508880611 }, "geometry": { "type": "LineString", "coordinates": [ [ 0.0959124, 51.6913346 ], [ 0.095204, 51.691153 ], [ 0.093922, 51.690667 ], [ 0.093692, 51.6905922 ], [ 0.0934811, 51.690451500000016 ], [ 0.093251, 51.690331800000017 ], [ 0.0931018, 51.6903095 ], [ 0.0930263, 51.690284099999985 ], [ 0.0929717, 51.6901732 ] ] } },
{ "type": "Feature", "properties": { "id": 41232, "nach": 0.42256726109614418 }, "geometry": { "type": "LineString", "coordinates": [ [ 0.0967269, 51.6916659 ], [ 0.0964449, 51.691610800000014 ], [ 0.0962207, 51.6914904 ], [ 0.0960539, 51.6913849 ], [ 0.0959124, 51.6913346 ] ] } },
{ "type": "Feature", "properties": { "id": 28462, "nach": 0.49646105285151387 }, "geometry": { "type": "LineString", "coordinates": [ [ 0.091967, 51.6901754 ], [ 0.0921722, 51.690277 ] ] } },
{ "type": "Feature", "properties": { "id": 73608, "nach": 0.48449367060513054 }, "geometry": { "type": "LineString", "coordinates": [ [ 0.0950876, 51.6914351 ], [ 0.0942878, 51.6911595 ], [ 0.0939674, 51.6910271 ], [ 0.0931345, 51.6907014 ], [ 0.0926316, 51.6905023 ], [ 0.0921722, 51.690277 ] ] } },
{ "type": "Feature", "properties": { "id": 35596, "nach": 0.37938035554177235 }, "geometry": { "type": "LineString", "coordinates": [ [ 0.0893587, 51.6936416 ], [ 0.0897711, 51.6933441 ], [ 0.0901788, 51.6928852 ], [ 0.0909405, 51.69153510000001 ], [ 0.0913879, 51.690882 ], [ 0.0916409, 51.690638 ], [ 0.0917741, 51.6905095 ], [ 0.0921722, 51.690277 ] ] } },
{ "type": "Feature", "properties": { "id": 28464, "nach": 0.4871372946552896 }, "geometry": { "type": "LineString", "coordinates": [ [ 0.091967, 51.6901754 ], [ 0.0921731, 51.69002 ] ] } },
{ "type": "Feature", "properties": { "id": 53322, "nach": 0.49272759576809921 }, "geometry": { "type": "LineString", "coordinates": [ [ 0.0915051, 51.6899593 ], [ 0.091967, 51.6901754 ] ] } },
{ "type": "Feature", "properties": { "id": 73609, "nach": 0.48045554316115952 }, "geometry": { "type": "LineString", "coordinates": [ [ 0.0950876, 51.6914351 ], [ 0.0950247, 51.6914988 ], [ 0.0949793, 51.6915352 ] ] } },
{ "type": "Feature", "properties": { "id": 35595, "nach": 0.34696617356582482 }, "geometry": { "type": "LineString", "coordinates": [ [ 0.0893587, 51.6936416 ], [ 0.0889525, 51.6939346 ], [ 0.0883731, 51.69430040000001 ], [ 0.0881478, 51.6945139 ] ] } },
{ "type": "Feature", "properties": { "id": 54352, "nach": 0.25727551470222199 }, "geometry": { "type": "LineString", "coordinates": [ [ 0.0863245, 51.6931475 ], [ 0.0864326, 51.6930653 ], [ 0.0864815, 51.6930415 ], [ 0.0865687, 51.6930221 ], [ 0.0866559, 51.69301560000001 ], [ 0.0868687, 51.692981 ], [ 0.0869838, 51.692944199999985 ], [ 0.0870849, 51.6929031 ], [ 0.0871823, 51.6928972 ], [ 0.0893587, 51.6936416 ] ] } },
{ "type": "Feature", "properties": { "id": 28533, "nach": 0.60283455137049269 }, "geometry": { "type": "LineString", "coordinates": [ [ 0.0969255, 51.6902772 ], [ 0.096931, 51.6903559 ] ] } },
{ "type": "Feature", "properties": { "id": 73470, "nach": 0.56046300944731142 }, "geometry": { "type": "LineString", "coordinates": [ [ 0.0970637, 51.6904187 ], [ 0.0970383, 51.690394799999986 ], [ 0.096931, 51.6903559 ] ] } },
{ "type": "Feature", "properties": { "id": 39790, "nach": 0.55863360428693243 }, "geometry": { "type": "LineString", "coordinates": [ [ 0.0961337, 51.6910504 ], [ 0.0962901, 51.6908927 ], [ 0.0966499, 51.6906465 ], [ 0.0967972, 51.6905383 ], [ 0.0968717, 51.6904842 ], [ 0.0969005, 51.6904431 ], [ 0.0969216, 51.6904001 ], [ 0.096931, 51.6903559 ] ] } },
{ "type": "Feature", "properties": { "id": 76004, "nach": 0.48841356553177584 }, "geometry": { "type": "LineString", "coordinates": [ [ 0.0972324, 51.6902565 ], [ 0.0971273, 51.6902418 ], [ 0.0970441, 51.6902451 ], [ 0.0969255, 51.6902772 ] ] } },
{ "type": "Feature", "properties": { "id": 39147, "nach": 0.61134884988903593 }, "geometry": { "type": "LineString", "coordinates": [ [ 0.0968339, 51.6900819 ], [ 0.0968995, 51.6902211 ], [ 0.0969255, 51.6902772 ] ] } },
{ "type": "Feature", "properties": { "id": 73469, "nach": 0.55355910654486973 }, "geometry": { "type": "LineString", "coordinates": [ [ 0.0970637, 51.6904187 ], [ 0.0971714, 51.6905201 ] ] } },
{ "type": "Feature", "properties": { "id": 73471, "nach": 0.34592990018555531 }, "geometry": { "type": "LineString", "coordinates": [ [ 0.0970637, 51.6904187 ], [ 0.0971226, 51.6906363 ], [ 0.0971023, 51.690764 ], [ 0.096846, 51.690995 ], [ 0.096759, 51.691137 ], [ 0.096716, 51.69135 ], [ 0.0967269, 51.6916659 ] ] } },
{ "type": "Feature", "properties": { "id": 39788, "nach": 0.47398515550112774 }, "geometry": { "type": "LineString", "coordinates": [ [ 0.0961337, 51.6910504 ], [ 0.094601, 51.6904828 ] ] } },
{ "type": "Feature", "properties": { "id": 50703, "nach": 0.42013554880409448 }, "geometry": { "type": "LineString", "coordinates": [ [ 0.0884491, 51.688576 ], [ 0.0891353, 51.688881099999989 ], [ 0.0897408, 51.6891551 ], [ 0.0903573, 51.6894402 ] ] } },
{ "type": "Feature", "properties": { "id": 21101, "nach": 0.48199673375756552 }, "geometry": { "type": "LineString", "coordinates": [ [ 0.0903573, 51.6894402 ], [ 0.091129033114424, 51.689787711000669 ] ] } },
{ "type": "Feature", "properties": { "id": 21087, "nach": 0.45089160501587439 }, "geometry": { "type": "LineString", "coordinates": [ [ 0.0903573, 51.6894402 ], [ 0.090307001496987, 51.689773897181041 ] ] } },
{ "type": "Feature", "properties": { "id": 21102, "nach": 0.31481176643342623 }, "geometry": { "type": "LineString", "coordinates": [ [ 0.0914357, 51.6899258 ], [ 0.0902892, 51.6898976 ] ] } },
{ "type": "Feature", "properties": { "id": 53323, "nach": 0.46230133943898211 }, "geometry": { "type": "LineString", "coordinates": [ [ 0.0915051, 51.6899593 ], [ 0.0914357, 51.6899258 ] ] } },
{ "type": "Feature", "properties": { "id": 21101, "nach": 0.48199673375756552 }, "geometry": { "type": "LineString", "coordinates": [ [ 0.090753351663748, 51.689618543167413 ], [ 0.0914357, 51.6899258 ] ] } },
{ "type": "Feature", "properties": { "id": 50704, "nach": 0.35078572761109994 }, "geometry": { "type": "LineString", "coordinates": [ [ 0.0884491, 51.688576 ], [ 0.0882113, 51.688465 ], [ 0.0871773, 51.6880028 ], [ 0.0869701, 51.687915800000013 ] ] } },
{ "type": "Feature", "properties": { "id": 50705, "nach": 0.35355772676436281 }, "geometry": { "type": "LineString", "coordinates": [ [ 0.0884491, 51.688576 ], [ 0.0880956, 51.688827 ], [ 0.0880678, 51.6888569 ], [ 0.088066, 51.6888847 ], [ 0.0881941, 51.6889738 ] ] } },
{ "type": "Feature", "properties": { "id": 73313, "nach": 0.0 }, "geometry": { "type": "LineString", "coordinates": [ [ 0.0766486, 51.6945969 ], [ 0.076588, 51.6944541 ], [ 0.0772361, 51.6943397 ], [ 0.0778256, 51.694211 ], [ 0.0780454, 51.694208200000013 ], [ 0.0782744, 51.694177 ], [ 0.0786362, 51.69413010000001 ], [ 0.0824684, 51.6934346 ], [ 0.082824, 51.693104 ], [ 0.0830483, 51.6928547 ], [ 0.0834123, 51.6926081 ], [ 0.0841441, 51.692164 ], [ 0.084216, 51.6922114 ], [ 0.0842842, 51.6922565 ], [ 0.0847498, 51.692009900000016 ], [ 0.0849953, 51.6918656 ], [ 0.0854312, 51.6915612 ], [ 0.0857064, 51.691490400000013 ], [ 0.0859222, 51.6913251 ], [ 0.0861763, 51.6911793 ], [ 0.0867349, 51.6909761 ], [ 0.0874756, 51.6906429 ], [ 0.0875828, 51.690558700000011 ], [ 0.087747, 51.6904724 ], [ 0.0879943, 51.6902425 ], [ 0.0882805, 51.6901417 ], [ 0.0885347, 51.69018 ], [ 0.0895443, 51.6904559 ], [ 0.0896485, 51.690394 ], [ 0.0896668, 51.6903758 ], [ 0.0897733, 51.6902164 ], [ 0.0900294, 51.6900324 ], [ 0.0902892, 51.6898976 ] ] } },
{ "type": "Feature", "properties": { "id": 21087, "nach": 0.45089160501587439 }, "geometry": { "type": "LineString", "coordinates": [ [ 0.09033115206406, 51.689612187503407 ], [ 0.0902892, 51.6898976 ] ] } },
{ "type": "Feature", "properties": { "id": 39148, "nach": 0.59458651765134662 }, "geometry": { "type": "LineString", "coordinates": [ [ 0.0968339, 51.6900819 ], [ 0.0967679, 51.6899386 ], [ 0.0966244, 51.6896108 ] ] } },
{ "type": "Feature", "properties": { "id": 41237, "nach": 0.58371156009482084 }, "geometry": { "type": "LineString", "coordinates": [ [ 0.09658, 51.68951 ], [ 0.095792518865293, 51.689356281535247 ] ] } },
{ "type": "Feature", "properties": { "id": 39149, "nach": 0.50740961033377874 }, "geometry": { "type": "LineString", "coordinates": [ [ 0.0968339, 51.6900819 ], [ 0.0973379, 51.689946600000013 ], [ 0.098441, 51.6895163 ], [ 0.0998665, 51.6888076 ], [ 0.1000988, 51.6886047 ] ] } },
{ "type": "Feature", "properties": { "id": 39237, "nach": 0.26756720840296461 }, "geometry": { "type": "LineString", "coordinates": [ [ 0.0712976, 51.6961469 ], [ 0.0712318, 51.6961351 ], [ 0.071174, 51.6961489 ], [ 0.0699146, 51.6965088 ], [ 0.0686645, 51.696798200000011 ], [ 0.0679105, 51.696981600000015 ], [ 0.0678242, 51.6970093 ], [ 0.0677528, 51.6970321 ], [ 0.0676853, 51.697053 ], [ 0.0676524, 51.6970643 ], [ 0.0667994, 51.6969644 ], [ 0.0667199, 51.6969554 ] ] } },
{ "type": "Feature", "properties": { "id": 39235, "nach": 0.30888876639579915 }, "geometry": { "type": "LineString", "coordinates": [ [ 0.0712976, 51.6961469 ], [ 0.07141, 51.696004 ] ] } },
{ "type": "Feature", "properties": { "id": 39236, "nach": 0.0 }, "geometry": { "type": "LineString", "coordinates": [ [ 0.0712976, 51.6961469 ], [ 0.0710956, 51.69642 ], [ 0.0710088, 51.696591 ], [ 0.0709632, 51.6967649 ], [ 0.0709346, 51.6974968 ], [ 0.071062, 51.6977535 ], [ 0.0712384, 51.6979199 ], [ 0.0724836, 51.6988826 ], [ 0.073063, 51.6993215 ], [ 0.0731917, 51.7000257 ], [ 0.0733203, 51.7009109 ], [ 0.073331, 51.701389 ], [ 0.0729365, 51.7021847 ], [ 0.0726433, 51.7027255 ], [ 0.0726846, 51.702838900000017 ] ] } },
{ "type": "Feature", "properties": { "id": 47941, "nach": 0.37840092048222235 }, "geometry": { "type": "LineString", "coordinates": [ [ 0.0704174, 51.6957754 ], [ 0.07141, 51.696004 ] ] } },
{ "type": "Feature", "properties": { "id": 45838, "nach": 0.55722548165531882 }, "geometry": { "type": "LineString", "coordinates": [ [ 0.1004648, 51.6965738 ], [ 0.1005266, 51.6965533 ], [ 0.1008252, 51.6964568 ], [ 0.1011322, 51.6963094 ], [ 0.1016129, 51.6960434 ] ] } },
{ "type": "Feature", "properties": { "id": 52207, "nach": 0.5487119183587732 }, "geometry": { "type": "LineString", "coordinates": [ [ 0.1004096, 51.6965855 ], [ 0.1004648, 51.6965738 ] ] } },
{ "type": "Feature", "properties": { "id": 45839, "nach": 0.56040015203585269 }, "geometry": { "type": "LineString", "coordinates": [ [ 0.1004999, 51.696736 ], [ 0.1004648, 51.6965738 ] ] } },
{ "type": "Feature", "properties": { "id": 28340, "nach": 0.56196923445181624 }, "geometry": { "type": "LineString", "coordinates": [ [ 0.0971714, 51.6905201 ], [ 0.097213, 51.690556 ], [ 0.0974189, 51.6907311 ], [ 0.09772, 51.6909145 ], [ 0.097986, 51.6911273 ], [ 0.0985354, 51.6915849 ] ] } },
{ "type": "Feature", "properties": { "id": 28341, "nach": 0.43680303216366212 }, "geometry": { "type": "LineString", "coordinates": [ [ 0.0971714, 51.6905201 ], [ 0.0972185, 51.6904862 ], [ 0.0972641, 51.69045460000001 ], [ 0.0973177, 51.6904197 ], [ 0.0973848, 51.6903798 ], [ 0.0974009, 51.690334900000011 ] ] } },
{ "type": "Feature", "properties": { "id": 20812, "nach": 0.54351498416326027 }, "geometry": { "type": "LineString", "coordinates": [ [ 0.0999964, 51.6938963 ], [ 0.0995766, 51.694385300000015 ] ] } },
{ "type": "Feature", "properties": { "id": 52319, "nach": 0.519828912548297 }, "geometry": { "type": "LineString", "coordinates": [ [ 0.099677, 51.6944295 ], [ 0.0996132, 51.694408 ], [ 0.0995766, 51.694385300000015 ] ] } },
{ "type": "Feature", "properties": { "id": 44036, "nach": 0.39752109172864181 }, "geometry": { "type": "LineString", "coordinates": [ [ 0.100143, 51.694616 ], [ 0.1006237, 51.694101300000014 ], [ 0.1002554, 51.6939831 ], [ 0.0999964, 51.6938963 ] ] } },
{ "type": "Feature", "properties": { "id": 52321, "nach": 0.38806056025873836 }, "geometry": { "type": "LineString", "coordinates": [ [ 0.0995138, 51.6946212 ], [ 0.099677, 51.6944295 ] ] } },
{ "type": "Feature", "properties": { "id": 52327, "nach": 0.48893510237703697 }, "geometry": { "type": "LineString", "coordinates": [ [ 0.0999342, 51.6945573 ], [ 0.099677, 51.6944295 ] ] } },
{ "type": "Feature", "properties": { "id": 41220, "nach": 0.43451159092743097 }, "geometry": { "type": "LineString", "coordinates": [ [ 0.0948024, 51.6888748 ], [ 0.094851, 51.688877 ], [ 0.095287, 51.688849 ], [ 0.0956051, 51.6888287 ] ] } },
{ "type": "Feature", "properties": { "id": 41169, "nach": 0.29556032288002754 }, "geometry": { "type": "LineString", "coordinates": [ [ 0.093968, 51.688785 ], [ 0.0939492, 51.6887162 ], [ 0.093941, 51.688686 ], [ 0.093566, 51.688223 ], [ 0.093036, 51.687759 ], [ 0.092353, 51.686984 ], [ 0.091727, 51.686449 ], [ 0.0915867, 51.6862943 ], [ 0.091522, 51.686223 ], [ 0.09094, 51.685739 ], [ 0.09047, 51.685292 ], [ 0.089635, 51.684602 ], [ 0.0893155, 51.6843582 ], [ 0.089099, 51.684193 ], [ 0.0883509, 51.6836872 ] ] } },
{ "type": "Feature", "properties": { "id": 41217, "nach": 0.38771499128485282 }, "geometry": { "type": "LineString", "coordinates": [ [ 0.094039, 51.688823 ], [ 0.093968, 51.688785 ] ] } },
{ "type": "Feature", "properties": { "id": 41214, "nach": 0.3274011763935154 }, "geometry": { "type": "LineString", "coordinates": [ [ 0.093814, 51.688924 ], [ 0.093925, 51.688847 ], [ 0.093968, 51.688785 ] ] } },
{ "type": "Feature", "properties": { "id": 41216, "nach": 0.49045430113591709 }, "geometry": { "type": "LineString", "coordinates": [ [ 0.094039, 51.688823 ], [ 0.094124, 51.688836 ] ] } },
{ "type": "Feature", "properties": { "id": 41225, "nach": 0.50145357317526751 }, "geometry": { "type": "LineString", "coordinates": [ [ 0.0943953, 51.6891828 ], [ 0.094306, 51.689033 ], [ 0.094124, 51.688836 ] ] } },
{ "type": "Feature", "properties": { "id": 41219, "nach": 0.48783262150294748 }, "geometry": { "type": "LineString", "coordinates": [ [ 0.0948024, 51.6888748 ], [ 0.094559, 51.688875 ], [ 0.094356, 51.688875 ], [ 0.0941782, 51.6888451 ], [ 0.094124, 51.688836 ] ] } },
{ "type": "Feature", "properties": { "id": 41218, "nach": 0.45151704746765214 }, "geometry": { "type": "LineString", "coordinates": [ [ 0.094039, 51.688823 ], [ 0.093946, 51.688838 ], [ 0.093814, 51.688924 ] ] } },
{ "type": "Feature", "properties": { "id": 41227, "nach": 0.54595551900214501 }, "geometry": { "type": "LineString", "coordinates": [ [ 0.0943953, 51.6891828 ], [ 0.094135072370799, 51.689452624650293 ] ] } },
{ "type": "Feature", "properties": { "id": 41236, "nach": 0.56218461144138776 }, "geometry": { "type": "LineString", "coordinates": [ [ 0.0943953, 51.6891828 ], [ 0.094605628075218, 51.689390615732158 ] ] } },
{ "type": "Feature", "properties": { "id": 41221, "nach": 0.4391433365578683 }, "geometry": { "type": "LineString", "coordinates": [ [ 0.0948024, 51.6888748 ], [ 0.094885, 51.688815 ], [ 0.094932, 51.688496 ], [ 0.095006, 51.688432 ], [ 0.0952663, 51.688319399999983 ] ] } },
{ "type": "Feature", "properties": { "id": 38824, "nach": 0.31228113724363271 }, "geometry": { "type": "LineString", "coordinates": [ [ 0.0724849, 51.6953573 ], [ 0.0722381, 51.695477 ], [ 0.0717875, 51.6955701 ], [ 0.07153, 51.6957896 ], [ 0.0714516, 51.6958717 ], [ 0.0714275, 51.695967 ], [ 0.07141, 51.696004 ] ] } },
{ "type": "Feature", "properties": { "id": 38829, "nach": 0.3312244496717352 }, "geometry": { "type": "LineString", "coordinates": [ [ 0.0739302, 51.6957367 ], [ 0.073271, 51.6960162 ], [ 0.072725, 51.6961893 ], [ 0.0721741, 51.6961624 ], [ 0.0717129, 51.6960856 ], [ 0.07141, 51.696004 ] ] } },
{ "type": "Feature", "properties": { "id": 38827, "nach": 0.19919893105821945 }, "geometry": { "type": "LineString", "coordinates": [ [ 0.0739302, 51.6957367 ], [ 0.0727424, 51.6954105 ], [ 0.0724849, 51.6953573 ] ] } },
{ "type": "Feature", "properties": { "id": 54869, "nach": 0.27877999048602908 }, "geometry": { "type": "LineString", "coordinates": [ [ 0.0720057, 51.695054 ], [ 0.0724269, 51.6952263 ], [ 0.072457, 51.6952394 ], [ 0.0724853, 51.6952581 ], [ 0.0724871, 51.6953008 ], [ 0.0724849, 51.6953573 ] ] } },
{ "type": "Feature", "properties": { "id": 73932, "nach": 0.31428334854542389 }, "geometry": { "type": "LineString", "coordinates": [ [ 0.0765756, 51.6946253 ], [ 0.0765005, 51.6946545 ], [ 0.0743292, 51.695567499999989 ], [ 0.0739302, 51.6957367 ] ] } },
{ "type": "Feature", "properties": { "id": 73314, "nach": 0.0 }, "geometry": { "type": "LineString", "coordinates": [ [ 0.0766486, 51.6945969 ], [ 0.0799019, 51.6939724 ], [ 0.0829368, 51.6934039 ], [ 0.0834518, 51.693517 ], [ 0.0843208, 51.6937431 ], [ 0.0849324, 51.694069 ], [ 0.0859409, 51.69442810000001 ], [ 0.0871211, 51.6945212 ], [ 0.0881478, 51.6945139 ] ] } },
{ "type": "Feature", "properties": { "id": 73931, "nach": 0.25040015995277637 }, "geometry": { "type": "LineString", "coordinates": [ [ 0.0765756, 51.6946253 ], [ 0.0766486, 51.6945969 ] ] } },
{ "type": "Feature", "properties": { "id": 53324, "nach": 0.38195985436138929 }, "geometry": { "type": "LineString", "coordinates": [ [ 0.0915051, 51.6899593 ], [ 0.0914362, 51.6900176 ], [ 0.0911953, 51.6901922 ] ] } },
{ "type": "Feature", "properties": { "id": 41235, "nach": 0.47301116715781971 }, "geometry": { "type": "LineString", "coordinates": [ [ 0.096066919744916, 51.689301346815974 ], [ 0.0956893, 51.6893029 ] ] } },
{ "type": "Feature", "properties": { "id": 41237, "nach": 0.58371156009482084 }, "geometry": { "type": "LineString", "coordinates": [ [ 0.095792518865293, 51.689356281535247 ], [ 0.0956893, 51.6893029 ] ] } },
{ "type": "Feature", "properties": { "id": 41236, "nach": 0.56218461144138776 }, "geometry": { "type": "LineString", "coordinates": [ [ 0.094605628075218, 51.689390615732158 ], [ 0.0956893, 51.6893029 ] ] } },
{ "type": "Feature", "properties": { "id": 41229, "nach": 0.53319140413348576 }, "geometry": { "type": "LineString", "coordinates": [ [ 0.099005, 51.6924858 ], [ 0.0991224, 51.6924033 ], [ 0.0994498, 51.6922091 ] ] } },
{ "type": "Feature", "properties": { "id": 41231, "nach": 0.44464858768004228 }, "geometry": { "type": "LineString", "coordinates": [ [ 0.099005, 51.6924858 ], [ 0.099819, 51.6928814 ], [ 0.1006773, 51.693167699999989 ] ] } },
{ "type": "Feature", "properties": { "id": 41233, "nach": 0.43053151681599566 }, "geometry": { "type": "LineString", "coordinates": [ [ 0.0967269, 51.6916659 ], [ 0.0973387, 51.6920366 ], [ 0.0975349, 51.69208 ], [ 0.099005, 51.6924858 ] ] } },
{ "type": "Feature", "properties": { "id": 43798, "nach": 0.41959947989673313 }, "geometry": { "type": "LineString", "coordinates": [ [ 0.0983921, 51.692576399999986 ], [ 0.0979789, 51.692766700000014 ], [ 0.097909, 51.6928318 ] ] } },
{ "type": "Feature", "properties": { "id": 43805, "nach": 0.56227238095638687 }, "geometry": { "type": "LineString", "coordinates": [ [ 0.0964354, 51.6918999 ], [ 0.0973344, 51.6922081 ], [ 0.0976719, 51.692326 ], [ 0.0980369, 51.692453 ], [ 0.0983921, 51.692576399999986 ] ] } },
{ "type": "Feature", "properties": { "id": 41206, "nach": 0.49102154248767882 }, "geometry": { "type": "LineString", "coordinates": [ [ 0.0929717, 51.6901732 ], [ 0.0928793, 51.6901703 ], [ 0.0921731, 51.69002 ] ] } },
{ "type": "Feature", "properties": { "id": 41183, "nach": 0.48238545439905772 }, "geometry": { "type": "LineString", "coordinates": [ [ 0.0921731, 51.69002 ], [ 0.091810212696616, 51.689604793324584 ] ] } },
{ "type": "Feature", "properties": { "id": 41222, "nach": 0.5082555155481443 }, "geometry": { "type": "LineString", "coordinates": [ [ 0.093662, 51.689844 ], [ 0.093544, 51.689967 ], [ 0.0932495, 51.690147 ], [ 0.0930886, 51.6901769 ], [ 0.0929717, 51.6901732 ] ] } },
{ "type": "Feature", "properties": { "id": 41184, "nach": 0.40555944171664127 }, "geometry": { "type": "LineString", "coordinates": [ [ 0.091895, 51.689066 ], [ 0.092354, 51.689051 ], [ 0.0925298, 51.6890539 ], [ 0.0927015, 51.68905680000001 ], [ 0.0928935, 51.68906 ], [ 0.093004, 51.689067 ], [ 0.093076, 51.689063 ], [ 0.093378, 51.689051 ], [ 0.093589, 51.689025 ] ] } },
{ "type": "Feature", "properties": { "id": 41182, "nach": 0.13690507565619278 }, "geometry": { "type": "LineString", "coordinates": [ [ 0.091895, 51.689066 ], [ 0.091626, 51.689097 ], [ 0.090795, 51.68914 ], [ 0.090551, 51.689133 ], [ 0.090383, 51.689107 ], [ 0.090269, 51.68907 ], [ 0.089815, 51.688837 ], [ 0.089375, 51.68853 ], [ 0.089057, 51.688336 ], [ 0.088891, 51.688249 ], [ 0.088291, 51.688003 ], [ 0.087761, 51.687687 ], [ 0.087109, 51.687362 ], [ 0.086356, 51.686845 ], [ 0.086104, 51.686617 ], [ 0.085796, 51.686509 ], [ 0.085543, 51.686391 ], [ 0.085384, 51.686331 ], [ 0.084803, 51.686198 ], [ 0.084609, 51.686172 ], [ 0.084078, 51.686147 ], [ 0.0839601, 51.6861262 ], [ 0.083857, 51.686108 ], [ 0.083716, 51.686063 ], [ 0.083343, 51.685867 ] ] } },
{ "type": "Feature", "properties": { "id": 41183, "nach": 0.48238545439905772 }, "geometry": { "type": "LineString", "coordinates": [ [ 0.091851463919085, 51.689789621917825 ], [ 0.091895, 51.689066 ] ] } },
{ "type": "Feature", "properties": { "id": 49831, "nach": 0.0 }, "geometry": { "type": "LineString", "coordinates": [ [ 0.0930725, 51.70925 ], [ 0.0927013, 51.7088614 ], [ 0.0926127, 51.70870510000001 ], [ 0.0926006, 51.7086113 ], [ 0.0926101, 51.708509 ], [ 0.0926368, 51.7083994 ], [ 0.0926878, 51.7082696 ], [ 0.0927972, 51.708110499999989 ], [ 0.0931037, 51.70773950000001 ], [ 0.0934577, 51.707297300000015 ], [ 0.0937795, 51.7068585 ], [ 0.0940692, 51.7063399 ], [ 0.0942731, 51.7058546 ], [ 0.0944018, 51.7055554 ], [ 0.0945627, 51.705336 ], [ 0.0947559, 51.7051365 ], [ 0.0949812, 51.7048174 ], [ 0.095472, 51.704096 ], [ 0.0958341, 51.7036322 ], [ 0.0962472, 51.7031086 ], [ 0.0969553, 51.702370600000016 ], [ 0.0974595, 51.70193170000001 ], [ 0.0977599, 51.7016458 ], [ 0.0978704, 51.7015284 ] ] } },
{ "type": "Feature", "properties": { "id": 31825, "nach": 0.30126026262965228 }, "geometry": { "type": "LineString", "coordinates": [ [ 0.0978632, 51.6975569 ], [ 0.0978136, 51.6977649 ], [ 0.0978148, 51.6979637 ], [ 0.0978404, 51.6980991 ], [ 0.0979746, 51.6985906 ], [ 0.0981166, 51.6989171 ], [ 0.0982079, 51.699080800000011 ], [ 0.0983178, 51.6992853 ], [ 0.0984694, 51.6994615 ], [ 0.0985068, 51.699558 ], [ 0.098515, 51.6996576 ], [ 0.098484, 51.6997816 ], [ 0.0984023, 51.6999111 ], [ 0.098232, 51.7001115 ], [ 0.0981635, 51.7002287 ], [ 0.098118, 51.7003334 ], [ 0.0980818, 51.7005454 ], [ 0.0980508, 51.7010283 ], [ 0.0979879, 51.701306600000017 ], [ 0.0979516, 51.7014061 ], [ 0.0979101, 51.701486200000012 ], [ 0.0978704, 51.7015284 ] ] } },
{ "type": "Feature", "properties": { "id": 31824, "nach": 0.45629005890973862 }, "geometry": { "type": "LineString", "coordinates": [ [ 0.0978632, 51.6975569 ], [ 0.0974118, 51.6978602 ], [ 0.0968432, 51.6982692 ] ] } },
{ "type": "Feature", "properties": { "id": 45825, "nach": 0.47834706837311353 }, "geometry": { "type": "LineString", "coordinates": [ [ 0.0986191, 51.6967494 ], [ 0.0984144, 51.6969113 ], [ 0.0979638, 51.6973635 ], [ 0.0978632, 51.6975569 ] ] } },
{ "type": "Feature", "properties": { "id": 31828, "nach": 0.39111960327412282 }, "geometry": { "type": "LineString", "coordinates": [ [ 0.09676, 51.6989009 ], [ 0.096642, 51.6988942 ], [ 0.0966366, 51.6989674 ], [ 0.0961967, 51.6989408 ], [ 0.0962477, 51.698546800000017 ], [ 0.0965267, 51.6982575 ], [ 0.0968432, 51.6982692 ] ] } },
{ "type": "Feature", "properties": { "id": 31833, "nach": 0.38134937045410278 }, "geometry": { "type": "LineString", "coordinates": [ [ 0.0973823, 51.6983053 ], [ 0.0968432, 51.6982692 ] ] } },
{ "type": "Feature", "properties": { "id": 31837, "nach": 0.36880805010213596 }, "geometry": { "type": "LineString", "coordinates": [ [ 0.0968917, 51.6989755 ], [ 0.0968592, 51.698974 ], [ 0.0968727, 51.6989059 ], [ 0.09676, 51.6989009 ] ] } },
{ "type": "Feature", "properties": { "id": 31835, "nach": 0.31521079997109708 }, "geometry": { "type": "LineString", "coordinates": [ [ 0.0973823, 51.6983053 ], [ 0.097562, 51.6983174 ], [ 0.0978463, 51.6990173 ], [ 0.0972885, 51.6989928 ] ] } },
{ "type": "Feature", "properties": { "id": 46596, "nach": 0.52589777617009914 }, "geometry": { "type": "LineString", "coordinates": [ [ 0.0987594, 51.6967888 ], [ 0.0986191, 51.6967494 ] ] } },
{ "type": "Feature", "properties": { "id": 31836, "nach": 0.21158879204068132 }, "geometry": { "type": "LineString", "coordinates": [ [ 0.0968917, 51.6989755 ], [ 0.0972885, 51.6989928 ] ] } },
{ "type": "Feature", "properties": { "id": 31841, "nach": 0.33860091636686579 }, "geometry": { "type": "LineString", "coordinates": [ [ 0.0967009, 51.6992102 ], [ 0.096707, 51.6991566 ], [ 0.0968814, 51.6991632 ], [ 0.0968917, 51.6989755 ] ] } },
{ "type": "Feature", "properties": { "id": 31843, "nach": 0.28045170044096135 }, "geometry": { "type": "LineString", "coordinates": [ [ 0.0966773, 51.6994161 ], [ 0.0966634, 51.6995376 ], [ 0.0958883, 51.6996822 ], [ 0.0957683, 51.6991715 ], [ 0.0967009, 51.6992102 ] ] } },
{ "type": "Feature", "properties": { "id": 31845, "nach": 0.2332885321511656 }, "geometry": { "type": "LineString", "coordinates": [ [ 0.0973669, 51.6993644 ], [ 0.0966773, 51.6994161 ] ] } },
{ "type": "Feature", "properties": { "id": 32156, "nach": 0.32715894869251405 }, "geometry": { "type": "LineString", "coordinates": [ [ 0.0880249, 51.6946822 ], [ 0.0881478, 51.6945139 ] ] } },
{ "type": "Feature", "properties": { "id": 53247, "nach": 0.28378442376331559 }, "geometry": { "type": "LineString", "coordinates": [ [ 0.0874533, 51.6959182 ], [ 0.0874719, 51.6953644 ], [ 0.0875888, 51.6951709 ], [ 0.0879579, 51.6947739 ], [ 0.0880249, 51.6946822 ] ] } },
{ "type": "Feature", "properties": { "id": 56302, "nach": 0.2731694226774507 }, "geometry": { "type": "LineString", "coordinates": [ [ 0.0891351, 51.6956399 ], [ 0.0896041, 51.6952928 ], [ 0.0880249, 51.6946822 ] ] } },
{ "type": "Feature", "properties": { "id": 53246, "nach": 0.20636675444498928 }, "geometry": { "type": "LineString", "coordinates": [ [ 0.0874533, 51.6959182 ], [ 0.0874504, 51.6961159 ], [ 0.0874075, 51.6967543 ] ] } },
{ "type": "Feature", "properties": { "id": 53249, "nach": 0.21975723372114706 }, "geometry": { "type": "LineString", "coordinates": [ [ 0.0869891, 51.6963081 ], [ 0.0871472, 51.6962739 ], [ 0.0872555, 51.6962243 ], [ 0.0873601, 51.6960958 ], [ 0.0874533, 51.6959182 ] ] } },
{ "type": "Feature", "properties": { "id": 56303, "nach": 0.20636675444498928 }, "geometry": { "type": "LineString", "coordinates": [ [ 0.0891351, 51.6956399 ], [ 0.0889345, 51.69579550000001 ], [ 0.0888312, 51.6958975 ], [ 0.0887124, 51.696015 ], [ 0.0885193, 51.6962025 ], [ 0.0881448, 51.6965756 ], [ 0.0881159, 51.696636100000013 ], [ 0.0880847, 51.6967006 ], [ 0.0880601, 51.6967717 ], [ 0.0880064, 51.696870199999985 ], [ 0.0879914, 51.696928 ], [ 0.0879925, 51.6970045 ] ] } },
{ "type": "Feature", "properties": { "id": 56304, "nach": 0.20636675444498928 }, "geometry": { "type": "LineString", "coordinates": [ [ 0.0885267, 51.695581599999983 ], [ 0.0887023, 51.6956832 ], [ 0.0888094, 51.695704 ], [ 0.0891351, 51.6956399 ] ] } },
{ "type": "Feature", "properties": { "id": 41196, "nach": 0.2885913932081256 }, "geometry": { "type": "LineString", "coordinates": [ [ 0.0810096, 51.68566 ], [ 0.0814521, 51.6858577 ], [ 0.0823344, 51.6862085 ], [ 0.0832961, 51.6865228 ], [ 0.0843017, 51.6868604 ], [ 0.085409, 51.6872816 ], [ 0.0862647, 51.6876136 ], [ 0.0869701, 51.687915800000013 ] ] } },
{ "type": "Feature", "properties": { "id": 41190, "nach": 0.19008716090793204 }, "geometry": { "type": "LineString", "coordinates": [ [ 0.0869701, 51.687915800000013 ], [ 0.0859922, 51.6881516 ], [ 0.0840502, 51.6871672 ], [ 0.0823336, 51.6866218 ], [ 0.0812393, 51.6861695 ], [ 0.080476, 51.6860161 ] ] } },
{ "type": "Feature", "properties": { "id": 38586, "nach": 0.39416246481974665 }, "geometry": { "type": "LineString", "coordinates": [ [ 0.094601, 51.6904828 ], [ 0.0948111, 51.690209799999984 ], [ 0.0946481, 51.690104 ] ] } },
{ "type": "Feature", "properties": { "id": 47759, "nach": 0.39764709497146339 }, "geometry": { "type": "LineString", "coordinates": [ [ 0.0941809, 51.6903949 ], [ 0.094601, 51.6904828 ] ] } },
{ "type": "Feature", "properties": { "id": 73933, "nach": 0.24156559384517573 }, "geometry": { "type": "LineString", "coordinates": [ [ 0.0765756, 51.6946253 ], [ 0.0765342, 51.6945687 ], [ 0.0764884, 51.694431 ], [ 0.0763968, 51.694309 ] ] } },
{ "type": "Feature", "properties": { "id": 41213, "nach": 0.45163005689374497 }, "geometry": { "type": "LineString", "coordinates": [ [ 0.093814, 51.688924 ], [ 0.09377, 51.688956 ], [ 0.093589, 51.689025 ] ] } },
{ "type": "Feature", "properties": { "id": 41223, "nach": 0.41592791324742351 }, "geometry": { "type": "LineString", "coordinates": [ [ 0.093589, 51.689025 ], [ 0.093730326191468, 51.689698505519658 ] ] } },
{ "type": "Feature", "properties": { "id": 41223, "nach": 0.41592791324742351 }, "geometry": { "type": "LineString", "coordinates": [ [ 0.093759823664169, 51.689499455629566 ], [ 0.093662, 51.689844 ] ] } },
{ "type": "Feature", "properties": { "id": 41227, "nach": 0.54595551900214501 }, "geometry": { "type": "LineString", "coordinates": [ [ 0.093784401915211, 51.689693750330854 ], [ 0.093662, 51.689844 ] ] } },
{ "type": "Feature", "properties": { "id": 43813, "nach": 0.50299306638029229 }, "geometry": { "type": "LineString", "coordinates": [ [ 0.0963229, 51.6920482 ], [ 0.0964354, 51.6918999 ] ] } },
{ "type": "Feature", "properties": { "id": 43812, "nach": 0.51218968772573414 }, "geometry": { "type": "LineString", "coordinates": [ [ 0.0963229, 51.6920482 ], [ 0.0965252, 51.6921211 ] ] } },
{ "type": "Feature", "properties": { "id": 43847, "nach": 0.44812915233321687 }, "geometry": { "type": "LineString", "coordinates": [ [ 0.0964119, 51.6922459 ], [ 0.0965252, 51.6921211 ] ] } },
{ "type": "Feature", "properties": { "id": 43846, "nach": 0.44388704927100958 }, "geometry": { "type": "LineString", "coordinates": [ [ 0.097136, 51.6924098 ], [ 0.0971695, 51.6923532 ], [ 0.0965252, 51.6921211 ] ] } },
{ "type": "Feature", "properties": { "id": 43823, "nach": 0.51665976245532252 }, "geometry": { "type": "LineString", "coordinates": [ [ 0.0959957, 51.691983299999983 ], [ 0.0963229, 51.6920482 ] ] } },
{ "type": "Feature", "properties": { "id": 43849, "nach": 0.39528649344642541 }, "geometry": { "type": "LineString", "coordinates": [ [ 0.0964119, 51.6922459 ], [ 0.0962973, 51.692372 ], [ 0.0960571, 51.692826 ] ] } },
{ "type": "Feature", "properties": { "id": 43848, "nach": 0.15338194109549877 }, "geometry": { "type": "LineString", "coordinates": [ [ 0.0964119, 51.6922459 ], [ 0.097136, 51.6924098 ] ] } },
{ "type": "Feature", "properties": { "id": 43845, "nach": 0.39131335461500844 }, "geometry": { "type": "LineString", "coordinates": [ [ 0.097136, 51.6924098 ], [ 0.09699, 51.6926439 ], [ 0.0966028, 51.6925644 ] ] } },
{ "type": "Feature", "properties": { "id": 43816, "nach": 0.40692246328435117 }, "geometry": { "type": "LineString", "coordinates": [ [ 0.0958497, 51.6920056 ], [ 0.0957352, 51.6922007 ] ] } },
{ "type": "Feature", "properties": { "id": 43824, "nach": 0.48231438331717141 }, "geometry": { "type": "LineString", "coordinates": [ [ 0.0959957, 51.691983299999983 ], [ 0.0959745, 51.6920078 ], [ 0.0959046, 51.6920164 ], [ 0.0958497, 51.6920056 ] ] } },
{ "type": "Feature", "properties": { "id": 43819, "nach": 0.39902375876049884 }, "geometry": { "type": "LineString", "coordinates": [ [ 0.0949949, 51.6920352 ], [ 0.0952468, 51.6921321 ], [ 0.0953635, 51.692069900000014 ], [ 0.0954988, 51.692039499999986 ], [ 0.0955897, 51.6919542 ], [ 0.0956434, 51.6919282 ], [ 0.095704, 51.691947 ], [ 0.0957949, 51.6919947 ], [ 0.0958497, 51.6920056 ] ] } },
{ "type": "Feature", "properties": { "id": 68376, "nach": 0.39953457136181658 }, "geometry": { "type": "LineString", "coordinates": [ [ 0.0949916, 51.6916479 ], [ 0.0949852, 51.6917259 ], [ 0.0949496, 51.6917887 ], [ 0.0949544, 51.6918617 ] ] } },
{ "type": "Feature", "properties": { "id": 68375, "nach": 0.45035496886918197 }, "geometry": { "type": "LineString", "coordinates": [ [ 0.0949916, 51.6916479 ], [ 0.0950159, 51.6916351 ], [ 0.0950327, 51.6916183 ], [ 0.0950405, 51.6915991 ], [ 0.0950383, 51.6915794 ], [ 0.0950265, 51.691561 ], [ 0.0950061, 51.6915458 ], [ 0.0949793, 51.6915352 ] ] } },
{ "type": "Feature", "properties": { "id": 44027, "nach": 0.40211529243504079 }, "geometry": { "type": "LineString", "coordinates": [ [ 0.099432, 51.6938374 ], [ 0.0990654, 51.6937471 ] ] } },
{ "type": "Feature", "properties": { "id": 44031, "nach": 0.0 }, "geometry": { "type": "LineString", "coordinates": [ [ 0.0997356, 51.6936035 ], [ 0.0993396, 51.6934649 ], [ 0.0990654, 51.6937471 ] ] } },
{ "type": "Feature", "properties": { "id": 44029, "nach": 0.53474285611110783 }, "geometry": { "type": "LineString", "coordinates": [ [ 0.0997356, 51.6936035 ], [ 0.0995101, 51.6937633 ], [ 0.099432, 51.6938374 ] ] } },
{ "type": "Feature", "properties": { "id": 45840, "nach": 0.39430429470235784 }, "geometry": { "type": "LineString", "coordinates": [ [ 0.1004999, 51.696736 ], [ 0.1004681, 51.6967352 ], [ 0.1002839, 51.6967308 ], [ 0.0999947, 51.696859 ], [ 0.099718, 51.697114 ], [ 0.0995322, 51.6972994 ], [ 0.0993507, 51.697402 ], [ 0.0991667, 51.6974149 ], [ 0.0990821, 51.697398 ], [ 0.0989597, 51.6974024 ] ] } },
{ "type": "Feature", "properties": { "id": 45841, "nach": 0.55197097431666575 }, "geometry": { "type": "LineString", "coordinates": [ [ 0.1004999, 51.696736 ], [ 0.1007824, 51.6967974 ], [ 0.1010228, 51.6969369 ], [ 0.1009888, 51.697163 ], [ 0.1010842, 51.69723590000001 ], [ 0.1010849, 51.6973379 ], [ 0.1011691, 51.6975523 ] ] } },
{ "type": "Feature", "properties": { "id": 45845, "nach": 0.40139592225130427 }, "geometry": { "type": "LineString", "coordinates": [ [ 0.0989132, 51.696947 ], [ 0.0990199, 51.6968618 ] ] } },
{ "type": "Feature", "properties": { "id": 46595, "nach": 0.45137686341153699 }, "geometry": { "type": "LineString", "coordinates": [ [ 0.0987594, 51.6967888 ], [ 0.0990199, 51.6968618 ] ] } },
{ "type": "Feature", "properties": { "id": 45823, "nach": 0.0 }, "geometry": { "type": "LineString", "coordinates": [ [ 0.0990199, 51.6968618 ], [ 0.0994132, 51.6968335 ], [ 0.0995204, 51.6968697 ], [ 0.0995304, 51.6969551 ], [ 0.0994944, 51.6970208 ], [ 0.0993743, 51.6970338 ], [ 0.0990199, 51.6968618 ] ] } },
{ "type": "Feature", "properties": { "id": 45846, "nach": 0.0 }, "geometry": { "type": "LineString", "coordinates": [ [ 0.0989132, 51.696947 ], [ 0.0986152, 51.6971679 ], [ 0.0985079, 51.6972675 ], [ 0.0985227, 51.6973098 ], [ 0.0986007, 51.69734 ], [ 0.0987177, 51.697334 ], [ 0.0990138, 51.6970459 ], [ 0.0989985, 51.6969806 ], [ 0.0989132, 51.696947 ] ] } },
{ "type": "Feature", "properties": { "id": 52208, "nach": 0.53452840200370744 }, "geometry": { "type": "LineString", "coordinates": [ [ 0.1004096, 51.6965855 ], [ 0.1001396, 51.6966418 ], [ 0.0998864, 51.696682899999985 ], [ 0.0994572, 51.6967273 ], [ 0.0990689, 51.696768 ], [ 0.0987594, 51.6967888 ] ] } },
{ "type": "Feature", "properties": { "id": 46225, "nach": 0.42386664266465557 }, "geometry": { "type": "LineString", "coordinates": [ [ 0.0995696, 51.698932 ], [ 0.099709, 51.6988991 ], [ 0.1001085, 51.6992918 ], [ 0.1003445, 51.6993147 ], [ 0.1005655, 51.699511 ], [ 0.1009142, 51.6993363 ], [ 0.1011597, 51.6994675 ] ] } },
{ "type": "Feature", "properties": { "id": 46226, "nach": 0.33381973658222119 }, "geometry": { "type": "LineString", "coordinates": [ [ 0.0995696, 51.698932 ], [ 0.0994674, 51.6988443 ], [ 0.0990538, 51.6984052 ], [ 0.0990403, 51.6982979 ], [ 0.0991179, 51.6982605 ], [ 0.0990779, 51.6978144 ] ] } },
{ "type": "Feature", "properties": { "id": 46224, "nach": 0.35585948318818456 }, "geometry": { "type": "LineString", "coordinates": [ [ 0.0995696, 51.698932 ], [ 0.0995114, 51.698958600000012 ] ] } },
{ "type": "Feature", "properties": { "id": 52210, "nach": 0.41243433254359368 }, "geometry": { "type": "LineString", "coordinates": [ [ 0.0996662, 51.6965851 ], [ 0.0999301, 51.6965778 ], [ 0.1000842, 51.6965532 ], [ 0.1001659, 51.6965084 ], [ 0.1002547, 51.696478 ], [ 0.1003294, 51.6965055 ], [ 0.1004096, 51.6965855 ] ] } },
{ "type": "Feature", "properties": { "id": 52320, "nach": 0.34623585798709405 }, "geometry": { "type": "LineString", "coordinates": [ [ 0.0995138, 51.6946212 ], [ 0.0997864, 51.6947131 ] ] } },
{ "type": "Feature", "properties": { "id": 52326, "nach": 0.42923590590183164 }, "geometry": { "type": "LineString", "coordinates": [ [ 0.0999342, 51.6945573 ], [ 0.0997864, 51.6947131 ] ] } },
{ "type": "Feature", "properties": { "id": 52323, "nach": 0.39430506464374038 }, "geometry": { "type": "LineString", "coordinates": [ [ 0.0995969, 51.6949308 ], [ 0.0997864, 51.6947131 ] ] } },
{ "type": "Feature", "properties": { "id": 52325, "nach": 0.40320942584061747 }, "geometry": { "type": "LineString", "coordinates": [ [ 0.0999342, 51.6945573 ], [ 0.0999867, 51.694502 ] ] } },
{ "type": "Feature", "properties": { "id": 6587, "nach": 0.62274285249404293 }, "geometry": { "type": "LineString", "coordinates": [ [ 0.067166389083616, 51.688350233313109 ], [ 0.090307001496987, 51.689773897181041 ] ] } },
{ "type": "Feature", "properties": { "id": 6587, "nach": 0.62274285249404293 }, "geometry": { "type": "LineString", "coordinates": [ [ 0.090307001496987, 51.689773897181041 ], [ 0.091129033114424, 51.689787711000669 ] ] } },
{ "type": "Feature", "properties": { "id": 21087, "nach": 0.45089160501587439 }, "geometry": { "type": "LineString", "coordinates": [ [ 0.090307001496987, 51.689773897181041 ], [ 0.09033115206406, 51.689612187503407 ] ] } },
{ "type": "Feature", "properties": { "id": 6587, "nach": 0.62274285249404293 }, "geometry": { "type": "LineString", "coordinates": [ [ 0.091129033114424, 51.689787711000669 ], [ 0.091851463919085, 51.689789621917825 ] ] } },
{ "type": "Feature", "properties": { "id": 21101, "nach": 0.48199673375756552 }, "geometry": { "type": "LineString", "coordinates": [ [ 0.091129033114424, 51.689787711000669 ], [ 0.090753351663748, 51.689618543167413 ] ] } },
{ "type": "Feature", "properties": { "id": 6587, "nach": 0.62274285249404293 }, "geometry": { "type": "LineString", "coordinates": [ [ 0.091851463919085, 51.689789621917825 ], [ 0.093730326191468, 51.689698505519658 ] ] } },
{ "type": "Feature", "properties": { "id": 41183, "nach": 0.48238545439905772 }, "geometry": { "type": "LineString", "coordinates": [ [ 0.091810212696616, 51.689604793324584 ], [ 0.091851463919085, 51.689789621917825 ] ] } },
{ "type": "Feature", "properties": { "id": 6587, "nach": 0.62274285249404293 }, "geometry": { "type": "LineString", "coordinates": [ [ 0.093730326191468, 51.689698505519658 ], [ 0.093784401915211, 51.689693750330854 ] ] } },
{ "type": "Feature", "properties": { "id": 41223, "nach": 0.41592791324742351 }, "geometry": { "type": "LineString", "coordinates": [ [ 0.093730326191468, 51.689698505519658 ], [ 0.093759823664169, 51.689499455629566 ] ] } },
{ "type": "Feature", "properties": { "id": 6587, "nach": 0.62274285249404293 }, "geometry": { "type": "LineString", "coordinates": [ [ 0.093784401915211, 51.689693750330854 ], [ 0.095792518865293, 51.689356281535247 ] ] } },
{ "type": "Feature", "properties": { "id": 41227, "nach": 0.54595551900214501 }, "geometry": { "type": "LineString", "coordinates": [ [ 0.094135072370799, 51.689452624650293 ], [ 0.093784401915211, 51.689693750330854 ] ] } },
{ "type": "Feature", "properties": { "id": 6587, "nach": 0.62274285249404293 }, "geometry": { "type": "LineString", "coordinates": [ [ 0.095792518865293, 51.689356281535247 ], [ 0.096066919744916, 51.689301346815974 ] ] } },
{ "type": "Feature", "properties": { "id": 23804, "nach": 0.59025481410239145 }, "geometry": { "type": "LineString", "coordinates": [ [ 0.096582115808336, 51.689009262777489 ], [ 0.094605628075218, 51.689390615732158 ] ] } },
{ "type": "Feature", "properties": { "id": 23804, "nach": 0.59025481410239145 }, "geometry": { "type": "LineString", "coordinates": [ [ 0.094135072370799, 51.689452624650293 ], [ 0.093759823664169, 51.689499455629566 ] ] } },
{ "type": "Feature", "properties": { "id": 23804, "nach": 0.59025481410239145 }, "geometry": { "type": "LineString", "coordinates": [ [ 0.093759823664169, 51.689499455629566 ], [ 0.091810212696616, 51.689604793324584 ] ] } },
{ "type": "Feature", "properties": { "id": 23804, "nach": 0.59025481410239145 }, "geometry": { "type": "LineString", "coordinates": [ [ 0.091810212696616, 51.689604793324584 ], [ 0.090753351663748, 51.689618543167413 ] ] } },
{ "type": "Feature", "properties": { "id": 23804, "nach": 0.59025481410239145 }, "geometry": { "type": "LineString", "coordinates": [ [ 0.094605628075218, 51.689390615732158 ], [ 0.094135072370799, 51.689452624650293 ] ] } },
{ "type": "Feature", "properties": { "id": 23804, "nach": 0.59025481410239145 }, "geometry": { "type": "LineString", "coordinates": [ [ 0.090753351663748, 51.689618543167413 ], [ 0.09033115206406, 51.689612187503407 ] ] } },
{ "type": "Feature", "properties": { "id": 23804, "nach": 0.59025481410239145 }, "geometry": { "type": "LineString", "coordinates": [ [ 0.09033115206406, 51.689612187503407 ], [ 0.067208304114801, 51.688199238643861 ] ] } }
]
}
