{
"type": "FeatureCollection",
"name": "EPPFO_70_NACH",
"crs": { "type": "name", "properties": { "name": "urn:ogc:def:crs:OGC:1.3:CRS84" } },
"features": [
{"type":"Feature","properties":{"id":43155,"nach":0.49850276608295274},"geometry":{"type":"LineString","coordinates":[[0.0330469,51.6625582],[0.0320998,51.6621793],[0.0319221,51.662100500000015],[0.0318694,51.6620843]]}},
{"type":"Feature","properties":{"id":807,"nach":0.41668597496715376},"geometry":{"type":"LineString","coordinates":[[0.0335485,51.661347],[0.0330334,51.6615903],[0.0318694,51.6620843]]}},
{"type":"Feature","properties":{"id":20958,"nach":0.50528159436577003},"geometry":{"type":"LineString","coordinates":[[0.030323,51.661496],[0.030625,51.661627],[0.0316129,51.6620057],[0.0318694,51.6620843]]}},
{"type":"Feature","properties":{"id":43157,"nach":0.3967436975840844},"geometry":{"type":"LineString","coordinates":[[0.0298753,51.6629035],[0.0300373,51.6628297],[0.0307324,51.6625403],[0.0316459,51.6621785],[0.0318694,51.6620843]]}},
{"type":"Feature","properties":{"id":43154,"nach":0.48458543643477986},"geometry":{"type":"LineString","coordinates":[[0.0330469,51.6625582],[0.0337318,51.662804],[0.0341167,51.6629202]]}},
{"type":"Feature","properties":{"id":43153,"nach":0.39808822261779375},"geometry":{"type":"LineString","coordinates":[[0.0330469,51.6625582],[0.0333866,51.662903900000011]]}},
{"type":"Feature","properties":{"id":20939,"nach":0.43472358772768332},"geometry":{"type":"LineString","coordinates":[[0.0343927,51.66056720000001],[0.0342769,51.6606575],[0.0341481,51.6608538],[0.0339494,51.661096],[0.033735,51.661266500000011],[0.0335485,51.661347]]}},
{"type":"Feature","properties":{"id":82185,"nach":0.42386550524252353},"geometry":{"type":"LineString","coordinates":[[0.0338346,51.661745500000023],[0.0338047,51.6617027],[0.0335681,51.6613742],[0.0335485,51.661347]]}},
{"type":"Feature","properties":{"id":20956,"nach":0.44009137626402051},"geometry":{"type":"LineString","coordinates":[[0.030323,51.661496],[0.0302289,51.6614559]]}},
{"type":"Feature","properties":{"id":20955,"nach":0.50763852373773},"geometry":{"type":"LineString","coordinates":[[0.030323,51.661496],[0.03038,51.6610963]]}},
{"type":"Feature","properties":{"id":52189,"nach":0.34384135739160659},"geometry":{"type":"LineString","coordinates":[[0.0293664,51.662597200000015],[0.0292779,51.6624491],[0.0291975,51.6622977],[0.029168,51.6621663],[0.0292243,51.6620315],[0.0292645,51.6619599],[0.0293208,51.66190670000001],[0.0293906,51.6618535],[0.0296937,51.6617287],[0.0299753,51.66163550000001],[0.0302489,51.661539],[0.030323,51.661496]]}},
{"type":"Feature","properties":{"id":43156,"nach":0.35398734738803672},"geometry":{"type":"LineString","coordinates":[[0.0298753,51.6629035],[0.0294151,51.6631218]]}},
{"type":"Feature","properties":{"id":43158,"nach":0.35016438957326995},"geometry":{"type":"LineString","coordinates":[[0.0298753,51.6629035],[0.0299872,51.6631017],[0.0301024,51.663205399999988]]}},
{"type":"Feature","properties":{"id":821,"nach":0.5363013320122193},"geometry":{"type":"LineString","coordinates":[[0.0346755,51.663083],[0.03453,51.66304],[0.0341167,51.6629202]]}},
{"type":"Feature","properties":{"id":40345,"nach":0.48172564809040891},"geometry":{"type":"LineString","coordinates":[[0.0333866,51.662903900000011],[0.034001,51.6629346],[0.0341167,51.6629202]]}},
{"type":"Feature","properties":{"id":40348,"nach":0.55300047323030266},"geometry":{"type":"LineString","coordinates":[[0.0347678,51.6631278],[0.0346755,51.663083]]}},
{"type":"Feature","properties":{"id":82184,"nach":0.43404533697883796},"geometry":{"type":"LineString","coordinates":[[0.0338346,51.661745500000023],[0.0339254,51.6618755],[0.0340006,51.662039699999987],[0.0342436,51.6624411],[0.03452,51.6629124],[0.0346755,51.663083]]}},
{"type":"Feature","properties":{"id":43129,"nach":0.38504800617949564},"geometry":{"type":"LineString","coordinates":[[0.0337021,51.66324250000001],[0.0338771,51.6632957],[0.0341791,51.6633455],[0.0343955,51.6632983],[0.0345535,51.6632098],[0.0346447,51.6631299],[0.0346755,51.663083]]}},
{"type":"Feature","properties":{"id":40346,"nach":0.48657016272628711},"geometry":{"type":"LineString","coordinates":[[0.0333866,51.662903900000011],[0.0331449,51.662903900000011],[0.0326922,51.662927299999986]]}},
{"type":"Feature","properties":{"id":17965,"nach":0.30190569610315571},"geometry":{"type":"LineString","coordinates":[[0.040228,51.672642],[0.0403647,51.6721562],[0.0408282,51.6713258],[0.0416741,51.6708275],[0.042931,51.6704582],[0.0442636,51.6699515]]}},
{"type":"Feature","properties":{"id":20909,"nach":0.29012200740044747},"geometry":{"type":"LineString","coordinates":[[0.0426757,51.6737042],[0.0433624,51.67277270000001],[0.0433624,51.671921],[0.0446259,51.6710206]]}},
{"type":"Feature","properties":{"id":40387,"nach":0.20595437037933725},"geometry":{"type":"LineString","coordinates":[[0.040143,51.673297],[0.040411,51.673211],[0.040752,51.673145],[0.040933,51.673081],[0.041215,51.672918],[0.041327,51.672812],[0.041354,51.672642],[0.04142,51.672588],[0.04157,51.672552],[0.041658,51.672504],[0.04176,51.672379],[0.04183,51.671996],[0.041921,51.671888],[0.042182,51.671738],[0.042363,51.671591],[0.042643,51.671422],[0.043495,51.67107],[0.043824,51.670969],[0.043893,51.670929],[0.043994,51.670772],[0.04413,51.67065],[0.0444561,51.6704618]]}},
{"type":"Feature","properties":{"id":20911,"nach":0.3498397074224317},"geometry":{"type":"LineString","coordinates":[[0.0426757,51.6737042],[0.042345,51.673596],[0.042193,51.673575],[0.042027,51.673583],[0.04101,51.673735],[0.040643,51.673833],[0.04021,51.673902]]}},
{"type":"Feature","properties":{"id":40388,"nach":0.37494745886659281},"geometry":{"type":"LineString","coordinates":[[0.0420634,51.67523580000001],[0.0422466,51.6745558],[0.0426757,51.6737042]]}},
{"type":"Feature","properties":{"id":40601,"nach":0.48015306611904823},"geometry":{"type":"LineString","coordinates":[[0.0304024,51.6608327],[0.030397,51.66079],[0.030293,51.66058],[0.029983,51.660111],[0.0299514,51.6600136]]}},
{"type":"Feature","properties":{"id":40602,"nach":0.41546181722395692},"geometry":{"type":"LineString","coordinates":[[0.0304024,51.6608327],[0.030455,51.660818],[0.030629,51.660757],[0.03085,51.660561],[0.030889,51.660467],[0.030896,51.66038]]}},
{"type":"Feature","properties":{"id":42463,"nach":0.50146921631719721},"geometry":{"type":"LineString","coordinates":[[0.0303899,51.661038399999988],[0.030412,51.660887],[0.0304024,51.6608327]]}},
{"type":"Feature","properties":{"id":650,"nach":0.35984846565762812},"geometry":{"type":"LineString","coordinates":[[0.0301024,51.663205399999988],[0.0294151,51.6631218]]}},
{"type":"Feature","properties":{"id":20969,"nach":0.36936248671731758},"geometry":{"type":"LineString","coordinates":[[0.0259553,51.6657628],[0.0261413,51.6656359],[0.0270207,51.665114200000012],[0.0277588,51.6645712],[0.0288966,51.6634867],[0.0291563,51.6632759],[0.0294151,51.6631218]]}},
{"type":"Feature","properties":{"id":54137,"nach":0.40463059555821118},"geometry":{"type":"LineString","coordinates":[[0.0319241,51.6629997],[0.0317537,51.6630621],[0.0312706,51.6630897],[0.0308332,51.6630992],[0.0302266,51.6632024],[0.0301024,51.663205399999988]]}},
{"type":"Feature","properties":{"id":20970,"nach":0.20609381938390792},"geometry":{"type":"LineString","coordinates":[[0.0259553,51.6657628],[0.0258678,51.6656508],[0.0257898,51.6653603],[0.0257898,51.665033200000011],[0.025661,51.6646738],[0.025661,51.6643411],[0.0255323,51.6639285],[0.0253065,51.6638025],[0.0252492,51.6637911],[0.0246311,51.6638087],[0.0242801,51.663842099999989],[0.0241594,51.6638438],[0.0238985,51.6638459],[0.0237488,51.663845],[0.0234906,51.6638164],[0.0232806,51.663779],[0.0231253,51.6637329],[0.0227133,51.6635465],[0.022048,51.6633304],[0.021797,51.663225],[0.0216341,51.6631381],[0.0215529,51.663073]]}},
{"type":"Feature","properties":{"id":37463,"nach":0.37566048083423415},"geometry":{"type":"LineString","coordinates":[[0.0258172,51.6658641],[0.0259553,51.6657628]]}},
{"type":"Feature","properties":{"id":54136,"nach":0.4561949245031135},"geometry":{"type":"LineString","coordinates":[[0.0319241,51.6629997],[0.0320822,51.6629766],[0.0326922,51.662927299999986]]}},
{"type":"Feature","properties":{"id":54138,"nach":0.37273217289076693},"geometry":{"type":"LineString","coordinates":[[0.0319241,51.6629997],[0.031951,51.663076],[0.0319546,51.6631011],[0.0320359,51.6630961],[0.0320765,51.6631345],[0.0320978,51.66323340000001],[0.0320612,51.663251700000011],[0.0319719,51.6632561]]}},
{"type":"Feature","properties":{"id":82187,"nach":0.39048411778108244},"geometry":{"type":"LineString","coordinates":[[0.0342271,51.6616606],[0.0342164,51.6616511],[0.0341698,51.661646700000013],[0.0338701,51.6617346],[0.0338346,51.661745500000023]]}},
{"type":"Feature","properties":{"id":40347,"nach":0.55451171446481295},"geometry":{"type":"LineString","coordinates":[[0.0347678,51.6631278],[0.0348223,51.6631479]]}},
{"type":"Feature","properties":{"id":40349,"nach":0.4438694699591777},"geometry":{"type":"LineString","coordinates":[[0.0347678,51.6631278],[0.0347441,51.6632175],[0.0347444,51.6632803],[0.0346575,51.663384800000017],[0.0345412,51.663492],[0.0344224,51.6636079],[0.0343045,51.6637149],[0.0342596,51.6638243],[0.0342314,51.6639585],[0.0340979,51.6644922],[0.0340845,51.6646646],[0.034131,51.665098],[0.0341131,51.6653818],[0.0339495,51.66575970000001],[0.0339794,51.6658622],[0.0339924,51.6659788],[0.0339995,51.6660132],[0.0340051,51.6661335],[0.0340085,51.6662059],[0.0338953,51.6663285],[0.0338018,51.66642610000001],[0.033771,51.6664867],[0.0337589,51.6665136]]}},
{"type":"Feature","properties":{"id":835,"nach":0.378601493783562},"geometry":{"type":"LineString","coordinates":[[0.0256626,51.6666392],[0.0249319,51.6662637]]}},
{"type":"Feature","properties":{"id":37464,"nach":0.32013689867160539},"geometry":{"type":"LineString","coordinates":[[0.0258172,51.6658641],[0.0253685,51.6661292],[0.0249319,51.6662637]]}},
{"type":"Feature","properties":{"id":28453,"nach":0.39699672498516519},"geometry":{"type":"LineString","coordinates":[[0.0238391,51.6664566],[0.0239909,51.666418499999985],[0.0245583,51.6663562],[0.0249319,51.6662637]]}},
{"type":"Feature","properties":{"id":55690,"nach":0.4101937345496206},"geometry":{"type":"LineString","coordinates":[[0.0261541,51.666932300000013],[0.0256626,51.6666392]]}},
{"type":"Feature","properties":{"id":37465,"nach":0.34429832097249841},"geometry":{"type":"LineString","coordinates":[[0.0258172,51.6658641],[0.0257218,51.6660097],[0.0256552,51.6661363],[0.0256117,51.6662957],[0.0256626,51.6666392]]}},
{"type":"Feature","properties":{"id":28454,"nach":0.35288869945250467},"geometry":{"type":"LineString","coordinates":[[0.0238391,51.6664566],[0.0236112,51.666527200000012],[0.0233926,51.6666158],[0.0232184,51.666695300000015],[0.0229149,51.6668696]]}},
{"type":"Feature","properties":{"id":28452,"nach":0.33738215439052727},"geometry":{"type":"LineString","coordinates":[[0.0238391,51.6664566],[0.0225289,51.6645442],[0.0224826,51.664495],[0.0221557,51.6643281],[0.0219562,51.6642355],[0.0218412,51.6642021],[0.0210071,51.6640887]]}},
{"type":"Feature","properties":{"id":40386,"nach":0.34914317223313351},"geometry":{"type":"LineString","coordinates":[[0.040143,51.673297],[0.0401158,51.67304510000001],[0.040228,51.672642]]}},
{"type":"Feature","properties":{"id":17968,"nach":0.31719929625792326},"geometry":{"type":"LineString","coordinates":[[0.0395371,51.6724314],[0.039589,51.672488],[0.03966,51.672527],[0.039947,51.672572],[0.040228,51.672642]]}},
{"type":"Feature","properties":{"id":40381,"nach":0.16761512505824872},"geometry":{"type":"LineString","coordinates":[[0.044328,51.66958],[0.043979,51.669638],[0.043857,51.669696],[0.043701,51.6698],[0.043025,51.670128],[0.042917,51.670165],[0.042675,51.670221],[0.042108,51.670256],[0.041784,51.670338],[0.041466,51.670483],[0.041225,51.670572],[0.041021,51.670597],[0.040797,51.670595],[0.040623,51.670626],[0.040328,51.670708],[0.04002,51.670737]]}},
{"type":"Feature","properties":{"id":55691,"nach":0.4098613995456204},"geometry":{"type":"LineString","coordinates":[[0.0261541,51.666932300000013],[0.026287,51.6670115],[0.0269044,51.6673968],[0.0273949,51.6677058]]}},
{"type":"Feature","properties":{"id":55692,"nach":0.31898404396318736},"geometry":{"type":"LineString","coordinates":[[0.0261541,51.666932300000013],[0.0256821,51.6671717],[0.0254185,51.6672668]]}},
{"type":"Feature","properties":{"id":52999,"nach":0.42468255656825254},"geometry":{"type":"LineString","coordinates":[[0.0273949,51.6677058],[0.0277515,51.6679249]]}},
{"type":"Feature","properties":{"id":46435,"nach":0.43221219738547112},"geometry":{"type":"LineString","coordinates":[[0.028099,51.668164199999985],[0.0277515,51.6679249]]}},
{"type":"Feature","properties":{"id":35473,"nach":0.20705553753648501},"geometry":{"type":"LineString","coordinates":[[0.0214244,51.6708734],[0.0214434,51.6708696],[0.0217891,51.6708205],[0.0224691,51.670599],[0.0233301,51.67020990000001],[0.0233824,51.6701853],[0.0235347,51.670056600000017],[0.0261314,51.6687808],[0.0269982,51.668368],[0.0271173,51.6683382],[0.0272226,51.6683126],[0.0272684,51.6681777],[0.0277515,51.6679249]]}},
{"type":"Feature","properties":{"id":53002,"nach":0.31935858171593529},"geometry":{"type":"LineString","coordinates":[[0.0282772,51.6674447],[0.0281788,51.6674325],[0.0280433,51.6674393],[0.0278946,51.6674596],[0.0277393,51.6675003],[0.0276191,51.667541],[0.0275382,51.6675925],[0.0274507,51.6676549],[0.0273949,51.6677058]]}},
{"type":"Feature","properties":{"id":46436,"nach":0.43979122965657219},"geometry":{"type":"LineString","coordinates":[[0.028099,51.668164199999985],[0.0281836,51.6682217],[0.0283522,51.6683448],[0.0288963,51.6686558]]}},
{"type":"Feature","properties":{"id":46438,"nach":0.28100629568987279},"geometry":{"type":"LineString","coordinates":[[0.0312802,51.666457],[0.0308261,51.66684080000001],[0.0303398,51.6670292],[0.0299069,51.6670957],[0.0296816,51.66717340000001],[0.0293275,51.667348700000012],[0.0290309,51.6675484],[0.0287589,51.6677523],[0.028099,51.668164199999985]]}},
{"type":"Feature","properties":{"id":35474,"nach":0.22637200875772862},"geometry":{"type":"LineString","coordinates":[[0.0214244,51.6708734],[0.0213879,51.670772],[0.0213262,51.6704642],[0.0211813,51.6701282],[0.0210579,51.66985540000001],[0.0209265,51.6696857],[0.0210514,51.6696072],[0.0209426,51.6693248],[0.0206073,51.6689921],[0.0203359,51.6687708]]}},
{"type":"Feature","properties":{"id":75034,"nach":0.37688818706028931},"geometry":{"type":"LineString","coordinates":[[0.0214244,51.6708734],[0.007797732744215,51.676835094580625]]}},
{"type":"Feature","properties":{"id":25833,"nach":0.39541757879577022},"geometry":{"type":"LineString","coordinates":[[0.0288963,51.6686558],[0.029106,51.668878]]}},
{"type":"Feature","properties":{"id":25827,"nach":0.35741160590319881},"geometry":{"type":"LineString","coordinates":[[0.029401,51.668572300000015],[0.029106,51.668878]]}},
{"type":"Feature","properties":{"id":849,"nach":0.41996695625255531},"geometry":{"type":"LineString","coordinates":[[0.031327,51.670984],[0.031179,51.670914],[0.030089,51.670245],[0.029918,51.670124],[0.02979,51.670005],[0.029516,51.669669],[0.029157,51.669111],[0.029106,51.668878]]}},
{"type":"Feature","properties":{"id":60337,"nach":0.32552914286642692},"geometry":{"type":"LineString","coordinates":[[0.0282119,51.66982260000001],[0.0281712,51.6697671],[0.0280692,51.6695919],[0.0280629,51.6695491],[0.028077,51.6695102],[0.0281209,51.6694781],[0.0282371,51.669421599999986],[0.0283155,51.669373],[0.0283861,51.6693],[0.028452,51.6692445],[0.0286648,51.6690959],[0.0289407,51.6689143],[0.029106,51.668878]]}},
{"type":"Feature","properties":{"id":25832,"nach":0.40248941587457304},"geometry":{"type":"LineString","coordinates":[[0.0288963,51.6686558],[0.029401,51.668572300000015]]}},
{"type":"Feature","properties":{"id":54274,"nach":0.42536311224037276},"geometry":{"type":"LineString","coordinates":[[0.032893099999989,51.6672302],[0.0322867,51.6674387],[0.0317824,51.6676317],[0.03135,51.667844],[0.0309209,51.6680569],[0.0306451,51.668184],[0.0303415,51.668283099999989],[0.0299338,51.668363],[0.029618,51.6684882],[0.029401,51.668572300000015]]}},
{"type":"Feature","properties":{"id":19678,"nach":0.43833341213448174},"geometry":{"type":"LineString","coordinates":[[0.03195,51.6710499],[0.031532,51.671021],[0.031327,51.670984]]}},
{"type":"Feature","properties":{"id":36478,"nach":0.41585497708957131},"geometry":{"type":"LineString","coordinates":[[0.0291985,51.6726251],[0.029655,51.672396700000014],[0.0300782,51.6719897],[0.0305503,51.6713942],[0.031327,51.670984]]}},
{"type":"Feature","properties":{"id":20934,"nach":0.48623826012003774},"geometry":{"type":"LineString","coordinates":[[0.0374802,51.6647715],[0.0375772,51.664734800000012]]}},
{"type":"Feature","properties":{"id":40327,"nach":0.48217970615950312},"geometry":{"type":"LineString","coordinates":[[0.0385719,51.6645136],[0.0385168,51.6645197],[0.038383,51.6645447],[0.0381982,51.6645989],[0.0379488,51.6646671],[0.0377342,51.6647104],[0.0375772,51.664734800000012]]}},
{"type":"Feature","properties":{"id":25821,"nach":0.31189267054852954},"geometry":{"type":"LineString","coordinates":[[0.0378337,51.664147],[0.0378331,51.6641705],[0.0378308,51.6642778],[0.0378496,51.6643643],[0.0378308,51.6644508],[0.0377959,51.664524],[0.0377342,51.6646139],[0.0375772,51.664734800000012]]}},
{"type":"Feature","properties":{"id":25823,"nach":0.47459180974060033},"geometry":{"type":"LineString","coordinates":[[0.0356395,51.6663338],[0.0358486,51.666201],[0.0360686,51.666023],[0.0361785,51.6658982],[0.03631,51.6656869],[0.0364012,51.6655139],[0.0365621,51.6653658],[0.0368705,51.6651629],[0.0369485,51.6651156],[0.0371066,51.66501980000001],[0.0372782,51.6649087],[0.0374802,51.6647715]]}},
{"type":"Feature","properties":{"id":73892,"nach":0.45407201003348852},"geometry":{"type":"LineString","coordinates":[[0.0379866,51.6646897],[0.037525,51.664768],[0.0374802,51.6647715]]}},
{"type":"Feature","properties":{"id":40325,"nach":0.46393879469188082},"geometry":{"type":"LineString","coordinates":[[0.0372084,51.6647342],[0.037319,51.664766],[0.0374802,51.6647715]]}},
{"type":"Feature","properties":{"id":40326,"nach":0.50906314947939313},"geometry":{"type":"LineString","coordinates":[[0.0385719,51.6645136],[0.0386272,51.6645101],[0.038662,51.664508]]}},
{"type":"Feature","properties":{"id":73891,"nach":0.38984539825665987},"geometry":{"type":"LineString","coordinates":[[0.0379866,51.6646897],[0.0382576,51.6646128],[0.0384032,51.6645717],[0.0385719,51.6645136]]}},
{"type":"Feature","properties":{"id":63266,"nach":0.54989162319061236},"geometry":{"type":"LineString","coordinates":[[0.0380856,51.6642534],[0.0378337,51.664147]]}},
{"type":"Feature","properties":{"id":40354,"nach":0.54718318010933309},"geometry":{"type":"LineString","coordinates":[[0.0365598,51.6634919],[0.0367204,51.663521900000013],[0.0368134,51.66354290000001],[0.036926,51.663606],[0.037603,51.664043],[0.0378337,51.664147]]}},
{"type":"Feature","properties":{"id":19677,"nach":0.43353437453942845},"geometry":{"type":"LineString","coordinates":[[0.03195,51.6710499],[0.032659,51.671099],[0.0329587,51.6711334],[0.0334897,51.6711944]]}},
{"type":"Feature","properties":{"id":19679,"nach":0.29737974313330545},"geometry":{"type":"LineString","coordinates":[[0.03195,51.6710499],[0.0318666,51.6714581],[0.0325425,51.6716045],[0.0324031,51.6719837]]}},
{"type":"Feature","properties":{"id":36479,"nach":0.35701884644584453},"geometry":{"type":"LineString","coordinates":[[0.0291985,51.6726251],[0.0289812,51.6726638],[0.0288873,51.672685],[0.0285499,51.672731],[0.0283212,51.6727771]]}},
{"type":"Feature","properties":{"id":36477,"nach":0.38488417610977876},"geometry":{"type":"LineString","coordinates":[[0.0291985,51.6726251],[0.0291365,51.6727033]]}},
{"type":"Feature","properties":{"id":40368,"nach":0.42815188645382879},"geometry":{"type":"LineString","coordinates":[[0.0401572,51.6734685],[0.04021,51.673902]]}},
{"type":"Feature","properties":{"id":38921,"nach":0.43800856059425736},"geometry":{"type":"LineString","coordinates":[[0.0410564,51.6773143],[0.0408453,51.6766006],[0.0406136,51.675584],[0.0403561,51.6746951],[0.04021,51.673902]]}},
{"type":"Feature","properties":{"id":60424,"nach":0.43715352120405176},"geometry":{"type":"LineString","coordinates":[[0.0399789,51.6738209],[0.040019,51.673838],[0.04021,51.673902]]}},
{"type":"Feature","properties":{"id":40369,"nach":0.35234018991245558},"geometry":{"type":"LineString","coordinates":[[0.0401572,51.6734685],[0.039889,51.673461],[0.039768,51.673415],[0.03943,51.672814],[0.039442,51.672722],[0.0395371,51.6724314]]}},
{"type":"Feature","properties":{"id":40385,"nach":0.38048078335807112},"geometry":{"type":"LineString","coordinates":[[0.040143,51.673297],[0.0401572,51.6734685]]}},
{"type":"Feature","properties":{"id":60425,"nach":0.3779559409443255},"geometry":{"type":"LineString","coordinates":[[0.0399789,51.6738209],[0.039899,51.6737867],[0.039603,51.67366],[0.039033,51.6734],[0.03876,51.673255],[0.038551,51.673118],[0.037699,51.672461],[0.036306,51.671538],[0.0361222,51.6713815],[0.035962,51.6712452]]}},
{"type":"Feature","properties":{"id":60428,"nach":0.41335281316876615},"geometry":{"type":"LineString","coordinates":[[0.0393887,51.6739895],[0.0394469,51.6739758],[0.0395762,51.6739442],[0.0398378,51.6738713],[0.0399789,51.6738209]]}},
{"type":"Feature","properties":{"id":40359,"nach":0.43488159508520641},"geometry":{"type":"LineString","coordinates":[[0.035852,51.670063],[0.035845,51.670141],[0.035799,51.670202],[0.035608,51.670381],[0.035326,51.670527],[0.0349152,51.6709183]]}},
{"type":"Feature","properties":{"id":74430,"nach":0.44970420633652003},"geometry":{"type":"LineString","coordinates":[[0.03543,51.671022199999989],[0.035148,51.670949],[0.0349152,51.6709183]]}},
{"type":"Feature","properties":{"id":41248,"nach":0.44592810658272647},"geometry":{"type":"LineString","coordinates":[[0.0342575,51.6711774],[0.034613,51.670993],[0.034761,51.670941],[0.0349152,51.6709183]]}},
{"type":"Feature","properties":{"id":40366,"nach":0.42729593619473083},"geometry":{"type":"LineString","coordinates":[[0.03508,51.668262],[0.0350415,51.668305],[0.035002,51.668349],[0.034949,51.668513],[0.035046,51.668921],[0.035162,51.669101],[0.035354,51.669304],[0.035516,51.669443],[0.035603,51.669553],[0.035763,51.669848],[0.035852,51.670063]]}},
{"type":"Feature","properties":{"id":40375,"nach":0.37222654879991007},"geometry":{"type":"LineString","coordinates":[[0.038385,51.670533],[0.038116,51.670505],[0.038054,51.670488],[0.037839,51.670372],[0.037722,51.67035],[0.0371,51.67034],[0.036711,51.670298],[0.036542,51.670253],[0.036184,51.670099],[0.036016,51.670071],[0.035852,51.670063]]}},
{"type":"Feature","properties":{"id":74429,"nach":0.43399290795865103},"geometry":{"type":"LineString","coordinates":[[0.03543,51.671022199999989],[0.035727,51.671112],[0.0357909,51.6711401]]}},
{"type":"Feature","properties":{"id":74431,"nach":0.33253625555719551},"geometry":{"type":"LineString","coordinates":[[0.0349866,51.6711948],[0.0353831,51.671048],[0.03543,51.671022199999989]]}},
{"type":"Feature","properties":{"id":41249,"nach":0.4390468771699913},"geometry":{"type":"LineString","coordinates":[[0.0342575,51.6711774],[0.034048,51.671235],[0.033878,51.671239],[0.0334897,51.6711944]]}},
{"type":"Feature","properties":{"id":74432,"nach":0.33321730442189385},"geometry":{"type":"LineString","coordinates":[[0.0344173,51.6712086],[0.0342575,51.6711774]]}},
{"type":"Feature","properties":{"id":58409,"nach":0.51167750496043896},"geometry":{"type":"LineString","coordinates":[[0.0396804,51.6643427],[0.038662,51.664508]]}},
{"type":"Feature","properties":{"id":36215,"nach":0.51668812841227396},"geometry":{"type":"LineString","coordinates":[[0.0389257,51.6647551],[0.0387903,51.6646084],[0.038662,51.664508]]}},
{"type":"Feature","properties":{"id":63268,"nach":0.49830309873815948},"geometry":{"type":"LineString","coordinates":[[0.0380856,51.6642534],[0.038229,51.664314],[0.0384656,51.6644099],[0.038662,51.664508]]}},
{"type":"Feature","properties":{"id":58411,"nach":0.56358571445674999},"geometry":{"type":"LineString","coordinates":[[0.0396804,51.6643427],[0.0396455,51.6643035],[0.0395436,51.664197]]}},
{"type":"Feature","properties":{"id":58410,"nach":0.56603455488050469},"geometry":{"type":"LineString","coordinates":[[0.0396804,51.6643427],[0.039793,51.6644694],[0.0398577,51.6646019]]}},
{"type":"Feature","properties":{"id":58408,"nach":0.3965280376736191},"geometry":{"type":"LineString","coordinates":[[0.0388575,51.6647871],[0.0389257,51.6647551]]}},
{"type":"Feature","properties":{"id":58416,"nach":0.50414886613880328},"geometry":{"type":"LineString","coordinates":[[0.039163,51.6650169],[0.03915,51.6649717],[0.0391143,51.6649266],[0.0389257,51.6647551]]}},
{"type":"Feature","properties":{"id":63267,"nach":0.50714559755676003},"geometry":{"type":"LineString","coordinates":[[0.0380856,51.6642534],[0.0395436,51.664197]]}},
{"type":"Feature","properties":{"id":22966,"nach":0.35258963030935259},"geometry":{"type":"LineString","coordinates":[[0.0210925,51.6627053],[0.0215304,51.6625464]]}},
{"type":"Feature","properties":{"id":15847,"nach":0.30725632867869901},"geometry":{"type":"LineString","coordinates":[[0.026314,51.661498],[0.026109,51.6614985],[0.0256691,51.6614923],[0.0251601,51.661533],[0.0247746,51.6615608],[0.0243938,51.6616145],[0.0238834,51.6617274],[0.0234495,51.661874],[0.0230534,51.6620469],[0.0227187,51.6622013],[0.0223624,51.6623053],[0.0219493,51.6623897],[0.0215304,51.6625464]]}},
{"type":"Feature","properties":{"id":20967,"nach":0.32575750794445935},"geometry":{"type":"LineString","coordinates":[[0.0215529,51.663073],[0.0215886,51.6627881],[0.0215304,51.6625464]]}},
{"type":"Feature","properties":{"id":22967,"nach":0.23513939561940095},"geometry":{"type":"LineString","coordinates":[[0.0210925,51.6627053],[0.020935,51.662455],[0.020881,51.662144],[0.020894,51.661965],[0.02105,51.661418],[0.020972,51.660756],[0.02099,51.660469],[0.021102,51.660064],[0.021229,51.659903],[0.0216134,51.65949830000001]]}},
{"type":"Feature","properties":{"id":28456,"nach":0.35837450180299318},"geometry":{"type":"LineString","coordinates":[[0.0200668,51.6627561],[0.0202102,51.6627733],[0.0207746,51.6627725],[0.0210925,51.6627053]]}},
{"type":"Feature","properties":{"id":15846,"nach":0.36460691569090159},"geometry":{"type":"LineString","coordinates":[[0.026314,51.661498],[0.0275166,51.661466600000011],[0.0286238,51.6613281],[0.029259,51.6613068],[0.0297482,51.6613494],[0.0302289,51.6614559]]}},
{"type":"Feature","properties":{"id":28448,"nach":0.2808163367930484},"geometry":{"type":"LineString","coordinates":[[0.0210071,51.6640887],[0.0210647,51.66398],[0.0212633,51.663618100000015],[0.0214154,51.6633174],[0.0215529,51.663073]]}},
{"type":"Feature","properties":{"id":42461,"nach":0.36490377072556507},"geometry":{"type":"LineString","coordinates":[[0.0293871,51.6612363],[0.0298714,51.661247200000012],[0.030144,51.6613603],[0.0301954,51.6614183],[0.0302289,51.6614559]]}},
{"type":"Feature","properties":{"id":20951,"nach":0.42231140069371981},"geometry":{"type":"LineString","coordinates":[[0.03038,51.6610963],[0.0311446,51.6610089],[0.0316167,51.660969],[0.0318,51.660908700000022]]}},
{"type":"Feature","properties":{"id":42462,"nach":0.5086402770597388},"geometry":{"type":"LineString","coordinates":[[0.0303899,51.661038399999988],[0.03038,51.6610963]]}},
{"type":"Feature","properties":{"id":40373,"nach":0.33207774818821939},"geometry":{"type":"LineString","coordinates":[[0.038385,51.670533],[0.038422,51.670634],[0.038443,51.670806],[0.038511,51.670934],[0.038511,51.671045],[0.038434,51.671377],[0.038457,51.671463],[0.038512,51.671535],[0.038843,51.671769],[0.039112,51.67199],[0.039301,51.672228],[0.0395371,51.6724314]]}},
{"type":"Feature","properties":{"id":40372,"nach":0.34918376014581382},"geometry":{"type":"LineString","coordinates":[[0.04002,51.670737],[0.039971,51.670805],[0.039807,51.670886],[0.039716,51.670954],[0.039612,51.671058],[0.039557,51.671147],[0.039543,51.671214],[0.039587,51.671356],[0.039755,51.671626],[0.039791,51.671799],[0.039744,51.671999],[0.039598,51.672245],[0.0395371,51.6724314]]}},
{"type":"Feature","properties":{"id":40376,"nach":0.37145090572656631},"geometry":{"type":"LineString","coordinates":[[0.038289,51.669293],[0.038258,51.669419],[0.038326,51.669568],[0.0383,51.669754],[0.038336,51.670192],[0.038325,51.670366],[0.038385,51.670533]]}},
{"type":"Feature","properties":{"id":40371,"nach":0.37134032033189807},"geometry":{"type":"LineString","coordinates":[[0.04002,51.670737],[0.040033,51.670614],[0.040199,51.670246],[0.040417,51.669998],[0.040653,51.669653],[0.040782,51.669391],[0.040841,51.669217],[0.040848,51.669102],[0.040804,51.668918]]}},
{"type":"Feature","properties":{"id":40378,"nach":0.33503516931402538},"geometry":{"type":"LineString","coordinates":[[0.038289,51.669293],[0.038648,51.669288],[0.039201,51.66916],[0.040066,51.66904],[0.040535,51.668932],[0.040804,51.668918]]}},
{"type":"Feature","properties":{"id":17977,"nach":0.42247838022952061},"geometry":{"type":"LineString","coordinates":[[0.041725,51.667596],[0.041632,51.667802],[0.0415589,51.667866099999983],[0.041501,51.667917],[0.041268,51.668076],[0.041108,51.668224],[0.041023,51.668356],[0.040952,51.668573],[0.040814,51.668814],[0.040804,51.668918]]}},
{"type":"Feature","properties":{"id":40377,"nach":0.35827131286333802},"geometry":{"type":"LineString","coordinates":[[0.038289,51.669293],[0.038339,51.66909],[0.038444,51.668911],[0.038592,51.668485],[0.038658,51.668006],[0.038727,51.667786],[0.03871,51.667637],[0.038606,51.667377],[0.038636,51.667247],[0.038783,51.667072],[0.038858,51.666937],[0.039006,51.666471],[0.039047,51.666394],[0.039148,51.666287],[0.039369,51.666108],[0.039449,51.666072],[0.039602,51.6660329]]}},
{"type":"Feature","properties":{"id":19654,"nach":0.23613062192243564},"geometry":{"type":"LineString","coordinates":[[0.0198738,51.6690374],[0.0181123,51.6678184]]}},
{"type":"Feature","properties":{"id":35469,"nach":0.34344537454720159},"geometry":{"type":"LineString","coordinates":[[0.0203359,51.6687708],[0.0198738,51.6690374]]}},
{"type":"Feature","properties":{"id":45413,"nach":0.32768435295107068},"geometry":{"type":"LineString","coordinates":[[0.0193763,51.669372700000011],[0.0198738,51.6690374]]}},
{"type":"Feature","properties":{"id":57203,"nach":0.0},"geometry":{"type":"LineString","coordinates":[[0.0195437,51.669495],[0.0200866,51.6691841],[0.0198738,51.6690374]]}},
{"type":"Feature","properties":{"id":35471,"nach":0.35241242552226953},"geometry":{"type":"LineString","coordinates":[[0.0203359,51.6687708],[0.0204546,51.6687023],[0.0217421,51.66775470000001],[0.022725,51.6669936],[0.0229149,51.6668696]]}},
{"type":"Feature","properties":{"id":45414,"nach":0.29012762865686892},"geometry":{"type":"LineString","coordinates":[[0.0193763,51.669372700000011],[0.0191737,51.669487],[0.0189306,51.6696203],[0.0186393,51.6697604],[0.0178963,51.6700912],[0.0170729,51.6704163],[0.016877,51.6704708],[0.016577,51.67049380000001],[0.0163004,51.6704887],[0.0157308,51.6705785],[0.0148499,51.6707889],[0.0139551,51.67109940000001],[0.0138689,51.6711412],[0.0136491,51.6712027],[0.0130127,51.6713352],[0.0123721,51.6714644],[0.0121175,51.6715091]]}},
{"type":"Feature","properties":{"id":57202,"nach":0.31131525486745709},"geometry":{"type":"LineString","coordinates":[[0.0195437,51.669495],[0.019437,51.6694214],[0.0193763,51.669372700000011]]}},
{"type":"Feature","properties":{"id":57205,"nach":0.26336968835260011},"geometry":{"type":"LineString","coordinates":[[0.0195473,51.6697123],[0.0194596,51.6696003],[0.0194648,51.6695633],[0.0195437,51.669495]]}},
{"type":"Feature","properties":{"id":19667,"nach":0.32899312146070875},"geometry":{"type":"LineString","coordinates":[[0.0357394,51.6712364],[0.035339,51.6714772]]}},
{"type":"Feature","properties":{"id":19669,"nach":0.26307764738987682},"geometry":{"type":"LineString","coordinates":[[0.035962,51.6712452],[0.0357394,51.6712364]]}},
{"type":"Feature","properties":{"id":74425,"nach":0.36345987885908426},"geometry":{"type":"LineString","coordinates":[[0.0357909,51.6711401],[0.0357394,51.6712364]]}},
{"type":"Feature","properties":{"id":74426,"nach":0.38653771076216642},"geometry":{"type":"LineString","coordinates":[[0.0357909,51.6711401],[0.035877,51.671178],[0.035962,51.6712452]]}},
{"type":"Feature","properties":{"id":19673,"nach":0.31595712433150758},"geometry":{"type":"LineString","coordinates":[[0.0334897,51.6711944],[0.0330575,51.6717841],[0.0332399,51.671897199999982],[0.0334545,51.6719571]]}},
{"type":"Feature","properties":{"id":46076,"nach":0.56167234593816828},"geometry":{"type":"LineString","coordinates":[[0.0360172,51.66341970000002],[0.0359559,51.6634131]]}},
{"type":"Feature","properties":{"id":69239,"nach":0.55323350606050758},"geometry":{"type":"LineString","coordinates":[[0.0350634,51.663237],[0.035161,51.663273],[0.035487,51.663347],[0.0355283,51.6633528],[0.0359559,51.6634131]]}},
{"type":"Feature","properties":{"id":43132,"nach":0.46288444358947889},"geometry":{"type":"LineString","coordinates":[[0.0357793,51.6637018],[0.0358486,51.6636064],[0.0359559,51.6634131]]}},
{"type":"Feature","properties":{"id":46078,"nach":0.44826377701223652},"geometry":{"type":"LineString","coordinates":[[0.0360172,51.66341970000002],[0.0361633,51.6637246],[0.0365239,51.6638699]]}},
{"type":"Feature","properties":{"id":46077,"nach":0.55290542154099664},"geometry":{"type":"LineString","coordinates":[[0.0360172,51.66341970000002],[0.036348,51.6634653],[0.0365598,51.6634919]]}},
{"type":"Feature","properties":{"id":46079,"nach":0.41385279692730015},"geometry":{"type":"LineString","coordinates":[[0.0360172,51.66341970000002],[0.0355712,51.6630846],[0.0350154,51.6629115]]}},
{"type":"Feature","properties":{"id":69238,"nach":0.5523304095219308},"geometry":{"type":"LineString","coordinates":[[0.0350634,51.663237],[0.0348223,51.6631479]]}},
{"type":"Feature","properties":{"id":69241,"nach":0.39231820152701508},"geometry":{"type":"LineString","coordinates":[[0.0348195,51.66356720000001],[0.0349581,51.6634026],[0.0350634,51.663237]]}},
{"type":"Feature","properties":{"id":43134,"nach":0.38991159606944598},"geometry":{"type":"LineString","coordinates":[[0.0355413,51.6637391],[0.0357793,51.6637018]]}},
{"type":"Feature","properties":{"id":43133,"nach":0.38196438708408387},"geometry":{"type":"LineString","coordinates":[[0.0351435,51.6643709],[0.035695,51.663784],[0.0357793,51.6637018]]}},
{"type":"Feature","properties":{"id":50917,"nach":0.36883186998401407},"geometry":{"type":"LineString","coordinates":[[0.0357736,51.666458599999984],[0.0356395,51.6663338]]}},
{"type":"Feature","properties":{"id":73268,"nach":0.47737714150562582},"geometry":{"type":"LineString","coordinates":[[0.0340457,51.6669292],[0.0343394,51.6668383],[0.0346336,51.6667367],[0.0349957,51.6665953],[0.0353256,51.6664805],[0.0356395,51.6663338]]}},
{"type":"Feature","properties":{"id":67061,"nach":0.40956266899337801},"geometry":{"type":"LineString","coordinates":[[0.0355869,51.6660839],[0.0355619,51.6661346],[0.0356395,51.6663338]]}},
{"type":"Feature","properties":{"id":73890,"nach":0.38546735369112772},"geometry":{"type":"LineString","coordinates":[[0.0379866,51.6646897],[0.0375729,51.6649123],[0.0370593,51.665172600000012],[0.0367262,51.6655028],[0.0363495,51.6659821],[0.0357736,51.666458599999984]]}},
{"type":"Feature","properties":{"id":73889,"nach":0.45695521368043968},"geometry":{"type":"LineString","coordinates":[[0.0379866,51.6646897],[0.0386162,51.6648234],[0.0388953,51.6650242],[0.0390154,51.6651326]]}},
{"type":"Feature","properties":{"id":40324,"nach":0.46417324993769726},"geometry":{"type":"LineString","coordinates":[[0.0372084,51.6647342],[0.037086,51.664699],[0.037002,51.664654],[0.0367283,51.6645578],[0.0366809,51.6644178],[0.036658,51.664231],[0.036605,51.6640627],[0.0365799,51.6640259],[0.0365698,51.663980699999989],[0.0365239,51.6638699]]}},
{"type":"Feature","properties":{"id":67066,"nach":0.45218660849737591},"geometry":{"type":"LineString","coordinates":[[0.0362604,51.665411400000011],[0.0362749,51.6653835],[0.0365152,51.6651184],[0.036661,51.664979],[0.037001,51.664857],[0.0372084,51.6647342]]}},
{"type":"Feature","properties":{"id":46074,"nach":0.42765053485712345},"geometry":{"type":"LineString","coordinates":[[0.0350154,51.6629115],[0.0350902,51.6627687],[0.0350894,51.662666100000017],[0.0350256,51.6625081],[0.0350216,51.6623994],[0.0350075,51.6622988],[0.0349956,51.6621879],[0.034994,51.662059],[0.0349776,51.6620087],[0.0349836,51.6619253],[0.0349865,51.661848299999988],[0.0350657,51.66170540000001],[0.0352244,51.6612551]]}},
{"type":"Feature","properties":{"id":46073,"nach":0.39140394317355626},"geometry":{"type":"LineString","coordinates":[[0.0350154,51.6629115],[0.034949,51.662961],[0.034853,51.663088],[0.0348223,51.6631479]]}},
{"type":"Feature","properties":{"id":40357,"nach":0.35020437266966142},"geometry":{"type":"LineString","coordinates":[[0.0365598,51.6634919],[0.0365586,51.6636094],[0.0365137,51.6637038],[0.0364953,51.6638169],[0.0365239,51.6638699]]}},
{"type":"Feature","properties":{"id":72933,"nach":0.43752476570996562},"geometry":{"type":"LineString","coordinates":[[0.0359129,51.6628215],[0.0361573,51.6629071],[0.0365544,51.6634025],[0.0365598,51.6634919]]}},
{"type":"Feature","properties":{"id":42465,"nach":0.37773923965779205},"geometry":{"type":"LineString","coordinates":[[0.030142,51.6610319],[0.0303186,51.6610365],[0.0303899,51.661038399999988]]}},
{"type":"Feature","properties":{"id":28449,"nach":0.26387215190047308},"geometry":{"type":"LineString","coordinates":[[0.0210071,51.6640887],[0.0210325,51.66413510000001],[0.0214885,51.6645544],[0.0214778,51.6646043],[0.0217634,51.6648612],[0.0220303,51.6651034],[0.0221068,51.6651873],[0.0220746,51.6653303],[0.022143,51.66548610000001],[0.0220585,51.665543300000017],[0.0220156,51.6655999],[0.0220531,51.6658028],[0.0221751,51.6659918],[0.0224286,51.6662986],[0.0226861,51.6665947],[0.0228739,51.6668215],[0.0229149,51.6668696]]}},
{"type":"Feature","properties":{"id":28451,"nach":0.34472540148994807},"geometry":{"type":"LineString","coordinates":[[0.0210071,51.6640887],[0.0207639,51.6640163],[0.0202212,51.663598]]}},
{"type":"Feature","properties":{"id":73267,"nach":0.50126502512902726},"geometry":{"type":"LineString","coordinates":[[0.0340457,51.6669292],[0.0338941,51.6669622]]}},
{"type":"Feature","properties":{"id":36869,"nach":0.48498595710770992},"geometry":{"type":"LineString","coordinates":[[0.0330724,51.6671826],[0.0334526,51.66708770000001],[0.0338941,51.6669622]]}},
{"type":"Feature","properties":{"id":25830,"nach":0.46363519374814582},"geometry":{"type":"LineString","coordinates":[[0.0337589,51.6665136],[0.0337726,51.6665596],[0.0337986,51.6666472],[0.0338773,51.666889],[0.0338941,51.6669622]]}},
{"type":"Feature","properties":{"id":73269,"nach":0.42415451835199353},"geometry":{"type":"LineString","coordinates":[[0.0340457,51.6669292],[0.0341696,51.666989],[0.0343734,51.666989]]}},
{"type":"Feature","properties":{"id":36868,"nach":0.44679418155711592},"geometry":{"type":"LineString","coordinates":[[0.0330724,51.6671826],[0.0331563,51.667341500000013]]}},
{"type":"Feature","properties":{"id":54273,"nach":0.43874529269434559},"geometry":{"type":"LineString","coordinates":[[0.032893099999989,51.6672302],[0.0329234,51.6672198],[0.0330724,51.6671826]]}},
{"type":"Feature","properties":{"id":54277,"nach":0.40069769680193557},"geometry":{"type":"LineString","coordinates":[[0.0325267,51.6665383],[0.0326791,51.6665473],[0.0330488,51.6665973],[0.0333507,51.6665858],[0.0337589,51.6665136]]}},
{"type":"Feature","properties":{"id":57876,"nach":0.37536443839678879},"geometry":{"type":"LineString","coordinates":[[0.0200746,51.6628414],[0.0200668,51.6627561]]}},
{"type":"Feature","properties":{"id":66375,"nach":0.40244980627665261},"geometry":{"type":"LineString","coordinates":[[0.0189935,51.6625606],[0.0190537,51.6625793],[0.0195687,51.6626964],[0.0200668,51.6627561]]}},
{"type":"Feature","properties":{"id":58415,"nach":0.49450647013278298},"geometry":{"type":"LineString","coordinates":[[0.039163,51.6650169],[0.0391755,51.6650401],[0.0396475,51.6654573],[0.0399408,51.6657537]]}},
{"type":"Feature","properties":{"id":58417,"nach":0.42239161132265368},"geometry":{"type":"LineString","coordinates":[[0.039163,51.6650169],[0.0391209,51.665028],[0.0390955,51.6650415],[0.0390808,51.6650589],[0.0390609,51.6650912],[0.0390154,51.6651326]]}},
{"type":"Feature","properties":{"id":58412,"nach":0.4663557063624858},"geometry":{"type":"LineString","coordinates":[[0.0390154,51.6651326],[0.0398932,51.6659245]]}},
{"type":"Feature","properties":{"id":50919,"nach":0.40207630386691168},"geometry":{"type":"LineString","coordinates":[[0.0357736,51.666458599999984],[0.0356895,51.6665279],[0.0356695,51.6665341],[0.0349046,51.6668712],[0.0343734,51.666989]]}},
{"type":"Feature","properties":{"id":67065,"nach":0.43030100076151029},"geometry":{"type":"LineString","coordinates":[[0.0362604,51.665411400000011],[0.0361213,51.6654426],[0.0358906,51.6655391],[0.0357136,51.6656522],[0.0356171,51.665772],[0.0354668,51.6658618],[0.0354829,51.6659783],[0.0355869,51.6660839]]}},
{"type":"Feature","properties":{"id":54278,"nach":0.30710250601905292},"geometry":{"type":"LineString","coordinates":[[0.0325267,51.6665383],[0.0324996,51.6666516],[0.0324966,51.6666981],[0.0325071,51.6667455],[0.0325298,51.6668059],[0.032893099999989,51.6672302]]}},
{"type":"Feature","properties":{"id":54276,"nach":0.36875806109387682},"geometry":{"type":"LineString","coordinates":[[0.0325267,51.6665383],[0.0324422,51.6665334]]}},
{"type":"Feature","properties":{"id":28458,"nach":0.29824966053163554},"geometry":{"type":"LineString","coordinates":[[0.019564,51.6639346],[0.0202212,51.663598]]}},
{"type":"Feature","properties":{"id":57877,"nach":0.36298143855765436},"geometry":{"type":"LineString","coordinates":[[0.0200746,51.6628414],[0.0200773,51.6628716],[0.0200987,51.6630264],[0.0202078,51.663214200000013],[0.0203589,51.663429],[0.0202999,51.6635504],[0.0202212,51.663598]]}},
{"type":"Feature","properties":{"id":75036,"nach":0.0},"geometry":{"type":"LineString","coordinates":[[0.016476,51.661744],[0.0164259,51.6625902],[0.0164259,51.6626508],[0.016754,51.66266430000001],[0.0169693,51.6626569],[0.0170499,51.6626614],[0.0170966,51.6626665],[0.0171754,51.6626876],[0.0172679,51.6627126],[0.0175182,51.6627741],[0.0185806,51.6630337],[0.018699,51.6628602],[0.0188141,51.662692300000018],[0.0188344,51.6626755],[0.0188761,51.6626636],[0.0189381,51.6626643],[0.0189945,51.6626727],[0.019096,51.6626986],[0.0194874,51.6627706],[0.0198807,51.6628302],[0.0200746,51.6628414]]}},
{"type":"Feature","properties":{"id":36482,"nach":0.33054965226984051},"geometry":{"type":"LineString","coordinates":[[0.0281357,51.6728032],[0.0281411,51.6728132],[0.0281594,51.6728302],[0.028195,51.6728447],[0.0282275,51.6728484],[0.0282725,51.6728417],[0.0282987,51.6728291],[0.0283123,51.672817],[0.0283225,51.6727975],[0.0283212,51.6727771]]}},
{"type":"Feature","properties":{"id":36481,"nach":0.2836819995194737},"geometry":{"type":"LineString","coordinates":[[0.0281357,51.6728032],[0.0279647,51.672838],[0.0277876,51.6729112]]}},
{"type":"Feature","properties":{"id":36471,"nach":0.27658536221356206},"geometry":{"type":"LineString","coordinates":[[0.0294565,51.6741199],[0.0294189,51.67403680000001],[0.029435,51.6739536],[0.029478,51.6738139],[0.0294458,51.67369080000001],[0.0294189,51.6735843],[0.0294029,51.6734213],[0.029478,51.6733282],[0.0295531,51.6732217],[0.0295531,51.6731419],[0.029537,51.6730188],[0.0294994,51.6729556],[0.029413,51.6729112],[0.0292843,51.6728579],[0.0292146,51.6727981],[0.0291877,51.6727581],[0.0291365,51.6727033]]}},
{"type":"Feature","properties":{"id":36476,"nach":0.35484969102442909},"geometry":{"type":"LineString","coordinates":[[0.0290161,51.6728413],[0.0291185,51.672726],[0.0291365,51.6727033]]}},
{"type":"Feature","properties":{"id":36474,"nach":0.28128279815759372},"geometry":{"type":"LineString","coordinates":[[0.0290161,51.6728413],[0.029,51.672997700000018],[0.0288825,51.6732018],[0.0286406,51.673313700000016],[0.028544,51.6733636],[0.0281792,51.673376900000015],[0.0280403,51.6734247]]}},
{"type":"Feature","properties":{"id":36480,"nach":0.2836820672888628},"geometry":{"type":"LineString","coordinates":[[0.0278842,51.6730709],[0.0280827,51.673021],[0.0282441,51.6730254],[0.0286728,51.672981],[0.028882,51.6729112],[0.0290161,51.6728413]]}},
{"type":"Feature","properties":{"id":36871,"nach":0.36892274315350215},"geometry":{"type":"LineString","coordinates":[[0.0327001,51.66757770000001],[0.0328583,51.66747620000001],[0.0331563,51.667341500000013]]}},
{"type":"Feature","properties":{"id":36872,"nach":0.36961971003859934},"geometry":{"type":"LineString","coordinates":[[0.0334323,51.6676127],[0.0331695,51.6673665],[0.0331563,51.667341500000013]]}},
{"type":"Feature","properties":{"id":38954,"nach":0.36893237876949236},"geometry":{"type":"LineString","coordinates":[[0.033023,51.6636058],[0.032917,51.6636924],[0.0328665,51.6636714],[0.0327594,51.6633961],[0.0327041,51.663135199999985],[0.0326922,51.662927299999986]]}},
{"type":"Feature","properties":{"id":40365,"nach":0.32495610413345366},"geometry":{"type":"LineString","coordinates":[[0.03508,51.668262],[0.03527,51.668185],[0.035697,51.668055],[0.036068,51.667989],[0.036317,51.667905],[0.036479,51.667818],[0.036679,51.667662],[0.036758,51.667578],[0.036895,51.667207],[0.037215,51.666894],[0.0378,51.666517],[0.03811,51.666372],[0.038242,51.666255],[0.038395,51.666161],[0.038722,51.665993],[0.038806,51.665964],[0.039003,51.665956],[0.039356,51.665995],[0.039602,51.6660329]]}},
{"type":"Feature","properties":{"id":40588,"nach":0.43453008466993931},"geometry":{"type":"LineString","coordinates":[[0.0343734,51.666989],[0.03508,51.668262]]}},
{"type":"Feature","properties":{"id":60429,"nach":0.32791120245642402},"geometry":{"type":"LineString","coordinates":[[0.0389234,51.6737811],[0.0391469,51.6737213],[0.0392041,51.6737108],[0.0392412,51.673723299999985],[0.0392859,51.6737642],[0.0393717,51.6739449],[0.0393887,51.6739895]]}}
]
}
