{
"type": "FeatureCollection",
"name": "1440b8a3dd89_visibility",
"crs": { "type": "name", "properties": { "name": "urn:ogc:def:crs:OGC:1.3:CRS84" } },
"features": [
{ "type": "Feature", "properties": { "visible_points": 0, "total_points": 48, "visibility_pct": 0.0 }, "geometry": { "type": "Point", "coordinates": [ 0.458579780907122, 51.717828741193046 ] } },
{ "type": "Feature", "properties": { "visible_points": 0, "total_points": 55, "visibility_pct": 0.0 }, "geometry": { "type": "Point", "coordinates": [ 0.458780170950062, 51.717824548310688 ] } },
{ "type": "Feature", "properties": { "visible_points": 0, "total_points": 61, "visibility_pct": 0.0 }, "geometry": { "type": "Point", "coordinates": [ 0.458980560945191, 51.717820355086488 ] } },
{ "type": "Feature", "properties": { "visible_points": 0, "total_points": 63, "visibility_pct": 0.0 }, "geometry": { "type": "Point", "coordinates": [ 0.459180950892513, 51.717816161520453 ] } },
{ "type": "Feature", "properties": { "visible_points": 0, "total_points": 60, "visibility_pct": 0.0 }, "geometry": { "type": "Point", "coordinates": [ 0.459381340792011, 51.717811967612569 ] } },
{ "type": "Feature", "properties": { "visible_points": 0, "total_points": 55, "visibility_pct": 0.0 }, "geometry": { "type": "Point", "coordinates": [ 0.459581730643687, 51.717807773362843 ] } },
{ "type": "Feature", "properties": { "visible_points": 4, "total_points": 53, "visibility_pct": 7.5471698113207548 }, "geometry": { "type": "Point", "coordinates": [ 0.458685826972181, 51.717934442071517 ] } },
{ "type": "Feature", "properties": { "visible_points": 4, "total_points": 60, "visibility_pct": 6.666666666666667 }, "geometry": { "type": "Point", "coordinates": [ 0.458886217455435, 51.717930249006123 ] } },
{ "type": "Feature", "properties": { "visible_points": 2, "total_points": 64, "visibility_pct": 3.125 }, "geometry": { "type": "Point", "coordinates": [ 0.459086607890879, 51.71792605559888 ] } },
{ "type": "Feature", "properties": { "visible_points": 4, "total_points": 63, "visibility_pct": 6.3492063492063489 }, "geometry": { "type": "Point", "coordinates": [ 0.459286998278506, 51.717921861849817 ] } },
{ "type": "Feature", "properties": { "visible_points": 4, "total_points": 59, "visibility_pct": 6.7796610169491522 }, "geometry": { "type": "Point", "coordinates": [ 0.45948738861831, 51.717917667758911 ] } },
{ "type": "Feature", "properties": { "visible_points": 3, "total_points": 53, "visibility_pct": 5.6603773584905666 }, "geometry": { "type": "Point", "coordinates": [ 0.459687778910292, 51.717913473326135 ] } },
{ "type": "Feature", "properties": { "visible_points": 1, "total_points": 49, "visibility_pct": 2.0408163265306123 }, "geometry": { "type": "Point", "coordinates": [ 0.458591482553991, 51.718044335756758 ] } },
{ "type": "Feature", "properties": { "visible_points": 4, "total_points": 57, "visibility_pct": 7.0175438596491224 }, "geometry": { "type": "Point", "coordinates": [ 0.45879187352537, 51.718040142850207 ] } },
{ "type": "Feature", "properties": { "visible_points": 4, "total_points": 64, "visibility_pct": 6.25 }, "geometry": { "type": "Point", "coordinates": [ 0.458992264448944, 51.718035949601756 ] } },
{ "type": "Feature", "properties": { "visible_points": 6, "total_points": 64, "visibility_pct": 9.375 }, "geometry": { "type": "Point", "coordinates": [ 0.459192655324697, 51.718031756011506 ] } },
{ "type": "Feature", "properties": { "visible_points": 8, "total_points": 62, "visibility_pct": 12.903225806451612 }, "geometry": { "type": "Point", "coordinates": [ 0.459393046152629, 51.718027562079385 ] } },
{ "type": "Feature", "properties": { "visible_points": 3, "total_points": 56, "visibility_pct": 5.3571428571428568 }, "geometry": { "type": "Point", "coordinates": [ 0.459593436932749, 51.718023367805436 ] } },
{ "type": "Feature", "properties": { "visible_points": 4, "total_points": 50, "visibility_pct": 8.0 }, "geometry": { "type": "Point", "coordinates": [ 0.459793827665034, 51.718019173189631 ] } },
{ "type": "Feature", "properties": { "visible_points": 2, "total_points": 44, "visibility_pct": 4.5454545454545459 }, "geometry": { "type": "Point", "coordinates": [ 0.458497137695482, 51.718154229366441 ] } },
{ "type": "Feature", "properties": { "visible_points": 0, "total_points": 60, "visibility_pct": 0.0 }, "geometry": { "type": "Point", "coordinates": [ 0.458897920566697, 51.718145843529079 ] } },
{ "type": "Feature", "properties": { "visible_points": 0, "total_points": 64, "visibility_pct": 0.0 }, "geometry": { "type": "Point", "coordinates": [ 0.459098311930583, 51.718141650097621 ] } },
{ "type": "Feature", "properties": { "visible_points": 3, "total_points": 64, "visibility_pct": 4.6875 }, "geometry": { "type": "Point", "coordinates": [ 0.459298703246653, 51.718137456324307 ] } },
{ "type": "Feature", "properties": { "visible_points": 4, "total_points": 58, "visibility_pct": 6.8965517241379306 }, "geometry": { "type": "Point", "coordinates": [ 0.459499094514899, 51.718133262209157 ] } },
{ "type": "Feature", "properties": { "visible_points": 2, "total_points": 52, "visibility_pct": 3.8461538461538463 }, "geometry": { "type": "Point", "coordinates": [ 0.459699485735321, 51.718129067752166 ] } },
{ "type": "Feature", "properties": { "visible_points": 2, "total_points": 46, "visibility_pct": 4.3478260869565215 }, "geometry": { "type": "Point", "coordinates": [ 0.459899876907921, 51.718124872953325 ] } },
{ "type": "Feature", "properties": { "visible_points": 1, "total_points": 59, "visibility_pct": 1.6949152542372881 }, "geometry": { "type": "Point", "coordinates": [ 0.459404751656748, 51.718243156537326 ] } },
{ "type": "Feature", "properties": { "visible_points": 0, "total_points": 53, "visibility_pct": 0.0 }, "geometry": { "type": "Point", "coordinates": [ 0.459605143365307, 51.718238962239134 ] } }
]
}
