{
"type": "FeatureCollection",
"name": "336618ab65a4_foliage",
"crs": { "type": "name", "properties": { "name": "urn:ogc:def:crs:OGC:1.3:CRS84" } },
"features": [
{ "type": "Feature", "properties": { "max_height": 6.3774986267089844, "mean_height": 1.5498803853988647, "std_height": 2.3742866516113281, "count_pixels": 42, "percent_cover": 0.27542789691127284, "percent_above_0.1m": 47.619047619047613, "low_level_<0.5": 11.904761904761903, "mid_level_0.5-2": 11.904761904761903, "tall_2+": 23.809523809523807 }, "geometry": { "type": "Point", "coordinates": [ 0.491181584867772, 51.725065139357774 ] } },
{ "type": "Feature", "properties": { "max_height": 5.5499992370605469, "mean_height": 1.0967758893966675, "std_height": 1.4107824563980103, "count_pixels": 38, "percent_cover": 0.2491966686340088, "percent_above_0.1m": 68.421052631578945, "low_level_<0.5": 15.789473684210526, "mid_level_0.5-2": 34.210526315789473, "tall_2+": 18.421052631578945 }, "geometry": { "type": "Point", "coordinates": [ 0.49138200254507, 51.725060889622341 ] } },
{ "type": "Feature", "properties": { "max_height": 6.5649986267089844, "mean_height": 2.1167852878570557, "std_height": 2.321577787399292, "count_pixels": 42, "percent_cover": 0.27542789691127284, "percent_above_0.1m": 80.952380952380949, "low_level_<0.5": 14.285714285714285, "mid_level_0.5-2": 35.714285714285715, "tall_2+": 28.571428571428569 }, "geometry": { "type": "Point", "coordinates": [ 0.491582420173774, 51.72505663954589 ] } },
{ "type": "Feature", "properties": { "max_height": 6.3799991607666016, "mean_height": 1.8031091690063477, "std_height": 2.1727509498596191, "count_pixels": 41, "percent_cover": 0.26887008984195682, "percent_above_0.1m": 68.292682926829272, "low_level_<0.5": 7.3170731707317067, "mid_level_0.5-2": 21.951219512195124, "tall_2+": 34.146341463414636 }, "geometry": { "type": "Point", "coordinates": [ 0.491782837753878, 51.7250523891284 ] } },
{ "type": "Feature", "properties": { "max_height": 5.5575008392333984, "mean_height": 1.0371429920196533, "std_height": 1.4256724119186401, "count_pixels": 42, "percent_cover": 0.27542789691127284, "percent_above_0.1m": 54.761904761904766, "low_level_<0.5": 4.7619047619047619, "mid_level_0.5-2": 26.190476190476193, "tall_2+": 21.428571428571427 }, "geometry": { "type": "Point", "coordinates": [ 0.491983255285377, 51.725048138369893 ] } },
{ "type": "Feature", "properties": { "max_height": 2.2424983978271484, "mean_height": 0.64738047122955322, "std_height": 0.84348362684249878, "count_pixels": 42, "percent_cover": 0.27542789691127284, "percent_above_0.1m": 52.380952380952387, "low_level_<0.5": 11.904761904761903, "mid_level_0.5-2": 21.428571428571427, "tall_2+": 14.285714285714285 }, "geometry": { "type": "Point", "coordinates": [ 0.492183672768275, 51.725043887270346 ] } },
{ "type": "Feature", "properties": { "max_height": 2.3299999237060547, "mean_height": 0.64261829853057861, "std_height": 0.84718227386474609, "count_pixels": 42, "percent_cover": 0.27542789691127284, "percent_above_0.1m": 45.238095238095241, "low_level_<0.5": 4.7619047619047619, "mid_level_0.5-2": 23.809523809523807, "tall_2+": 16.666666666666664 }, "geometry": { "type": "Point", "coordinates": [ 0.492384090202564, 51.725039635829795 ] } },
{ "type": "Feature", "properties": { "max_height": 4.6524982452392578, "mean_height": 0.39505887031555176, "std_height": 0.88177001476287842, "count_pixels": 42, "percent_cover": 0.27542789691127284, "percent_above_0.1m": 33.333333333333329, "low_level_<0.5": 14.285714285714285, "mid_level_0.5-2": 11.904761904761903, "tall_2+": 7.1428571428571423 }, "geometry": { "type": "Point", "coordinates": [ 0.492584507588238, 51.725035384048205 ] } },
{ "type": "Feature", "properties": { "max_height": 15.062496185302734, "mean_height": 8.5609521865844727, "std_height": 4.0258440971374512, "count_pixels": 42, "percent_cover": 0.27542789691127284, "percent_above_0.1m": 97.61904761904762, "low_level_<0.5": 0.0, "mid_level_0.5-2": 0.0, "tall_2+": 97.61904761904762 }, "geometry": { "type": "Point", "coordinates": [ 0.492784924925297, 51.725031131925597 ] } },
{ "type": "Feature", "properties": { "max_height": 11.310001373291016, "mean_height": 4.9517068862915039, "std_height": 3.8011114597320557, "count_pixels": 41, "percent_cover": 0.26887008984195682, "percent_above_0.1m": 87.804878048780495, "low_level_<0.5": 7.3170731707317067, "mid_level_0.5-2": 12.195121951219512, "tall_2+": 68.292682926829272 }, "geometry": { "type": "Point", "coordinates": [ 0.489684375543881, 51.72520479638564 ] } },
{ "type": "Feature", "properties": { "max_height": 5.3274993896484375, "mean_height": 0.73993980884552002, "std_height": 1.0364265441894531, "count_pixels": 42, "percent_cover": 0.27542789691127284, "percent_above_0.1m": 64.285714285714292, "low_level_<0.5": 11.904761904761903, "mid_level_0.5-2": 42.857142857142854, "tall_2+": 7.1428571428571423 }, "geometry": { "type": "Point", "coordinates": [ 0.489884794051614, 51.725200549184422 ] } },
{ "type": "Feature", "properties": { "max_height": 6.4650001525878906, "mean_height": 1.2479599714279175, "std_height": 1.6828503608703613, "count_pixels": 38, "percent_cover": 0.2491966686340088, "percent_above_0.1m": 71.05263157894737, "low_level_<0.5": 15.789473684210526, "mid_level_0.5-2": 26.315789473684209, "tall_2+": 21.052631578947366 }, "geometry": { "type": "Point", "coordinates": [ 0.490085212510786, 51.725196301642164 ] } },
{ "type": "Feature", "properties": { "max_height": 3.6975002288818359, "mean_height": 0.70815426111221313, "std_height": 0.93657523393630981, "count_pixels": 42, "percent_cover": 0.27542789691127284, "percent_above_0.1m": 52.380952380952387, "low_level_<0.5": 2.3809523809523809, "mid_level_0.5-2": 35.714285714285715, "tall_2+": 9.5238095238095237 }, "geometry": { "type": "Point", "coordinates": [ 0.490285630921386, 51.725192053758867 ] } },
{ "type": "Feature", "properties": { "max_height": 8.5399990081787109, "mean_height": 1.1289018392562866, "std_height": 2.0744011402130127, "count_pixels": 41, "percent_cover": 0.26887008984195682, "percent_above_0.1m": 56.09756097560976, "low_level_<0.5": 12.195121951219512, "mid_level_0.5-2": 21.951219512195124, "tall_2+": 14.634146341463413 }, "geometry": { "type": "Point", "coordinates": [ 0.490486049283418, 51.72518780553456 ] } },
{ "type": "Feature", "properties": { "max_height": 10.362499237060547, "mean_height": 2.9348804950714111, "std_height": 3.6153542995452881, "count_pixels": 42, "percent_cover": 0.27542789691127284, "percent_above_0.1m": 69.047619047619051, "low_level_<0.5": 16.666666666666664, "mid_level_0.5-2": 11.904761904761903, "tall_2+": 38.095238095238095 }, "geometry": { "type": "Point", "coordinates": [ 0.490686467596863, 51.725183556969206 ] } },
{ "type": "Feature", "properties": { "max_height": 1.7574996948242188, "mean_height": 0.33821401000022888, "std_height": 0.55045479536056519, "count_pixels": 42, "percent_cover": 0.27542789691127284, "percent_above_0.1m": 30.952380952380953, "low_level_<0.5": 2.3809523809523809, "mid_level_0.5-2": 28.571428571428569, "tall_2+": 0.0 }, "geometry": { "type": "Point", "coordinates": [ 0.490886885861734, 51.725179308062856 ] } },
{ "type": "Feature", "properties": { "max_height": 2.1724987030029297, "mean_height": 0.36833286285400391, "std_height": 0.68628817796707153, "count_pixels": 42, "percent_cover": 0.27542789691127284, "percent_above_0.1m": 28.571428571428569, "low_level_<0.5": 0.0, "mid_level_0.5-2": 21.428571428571427, "tall_2+": 4.7619047619047619 }, "geometry": { "type": "Point", "coordinates": [ 0.491087304078019, 51.725175058815438 ] } },
{ "type": "Feature", "properties": { "max_height": 2.0650005340576172, "mean_height": 0.2397613525390625, "std_height": 0.53516525030136108, "count_pixels": 42, "percent_cover": 0.27542789691127284, "percent_above_0.1m": 21.428571428571427, "low_level_<0.5": 4.7619047619047619, "mid_level_0.5-2": 14.285714285714285, "tall_2+": 2.3809523809523809 }, "geometry": { "type": "Point", "coordinates": [ 0.491287722245718, 51.725170809227002 ] } },
{ "type": "Feature", "properties": { "max_height": 1.5524997711181641, "mean_height": 0.076726004481315613, "std_height": 0.28811612725257874, "count_pixels": 42, "percent_cover": 0.27542789691127284, "percent_above_0.1m": 7.1428571428571423, "low_level_<0.5": 0.0, "mid_level_0.5-2": 7.1428571428571423, "tall_2+": 0.0 }, "geometry": { "type": "Point", "coordinates": [ 0.491488140364818, 51.725166559297548 ] } },
{ "type": "Feature", "properties": { "max_height": 1.7099990844726562, "mean_height": 0.087797388434410095, "std_height": 0.33233979344367981, "count_pixels": 42, "percent_cover": 0.27542789691127284, "percent_above_0.1m": 7.1428571428571423, "low_level_<0.5": 0.0, "mid_level_0.5-2": 7.1428571428571423, "tall_2+": 0.0 }, "geometry": { "type": "Point", "coordinates": [ 0.491688558435326, 51.725162309027048 ] } },
{ "type": "Feature", "properties": { "max_height": 0.002498626708984375, "mean_height": 5.8991568948840722e-05, "std_height": 0.00101868761703372, "count_pixels": 42, "percent_cover": 0.27542789691127284, "percent_above_0.1m": 0.0, "low_level_<0.5": 0.0, "mid_level_0.5-2": 0.0, "tall_2+": 0.0 }, "geometry": { "type": "Point", "coordinates": [ 0.491888976457233, 51.725158058415545 ] } },
{ "type": "Feature", "properties": { "max_height": 0.0025005340576171875, "mean_height": -6.0036069044144824e-05, "std_height": 0.00086041161557659507, "count_pixels": 42, "percent_cover": 0.27542789691127284, "percent_above_0.1m": 0.0, "low_level_<0.5": 0.0, "mid_level_0.5-2": 0.0, "tall_2+": 0.0 }, "geometry": { "type": "Point", "coordinates": [ 0.492089394430537, 51.725153807462995 ] } },
{ "type": "Feature", "properties": { "max_height": 0.002498626708984375, "mean_height": -6.0444785049185157e-05, "std_height": 0.00066538748797029257, "count_pixels": 42, "percent_cover": 0.27542789691127284, "percent_above_0.1m": 0.0, "low_level_<0.5": 0.0, "mid_level_0.5-2": 0.0, "tall_2+": 0.0 }, "geometry": { "type": "Point", "coordinates": [ 0.492289812355233, 51.725149556169406 ] } },
{ "type": "Feature", "properties": { "max_height": 6.4449996948242188, "mean_height": 1.3439629077911377, "std_height": 2.1777989864349365, "count_pixels": 41, "percent_cover": 0.26887008984195682, "percent_above_0.1m": 34.146341463414636, "low_level_<0.5": 4.8780487804878048, "mid_level_0.5-2": 2.4390243902439024, "tall_2+": 26.829268292682929 }, "geometry": { "type": "Point", "coordinates": [ 0.492490230231315, 51.725145304534799 ] } },
{ "type": "Feature", "properties": { "max_height": 6.8699989318847656, "mean_height": 1.0155948400497437, "std_height": 1.9301657676696777, "count_pixels": 42, "percent_cover": 0.27542789691127284, "percent_above_0.1m": 30.952380952380953, "low_level_<0.5": 4.7619047619047619, "mid_level_0.5-2": 2.3809523809523809, "tall_2+": 23.809523809523807 }, "geometry": { "type": "Point", "coordinates": [ 0.492690648058784, 51.725141052559174 ] } },
{ "type": "Feature", "properties": { "max_height": 6.7224998474121094, "mean_height": 2.1653566360473633, "std_height": 2.3417613506317139, "count_pixels": 42, "percent_cover": 0.27542789691127284, "percent_above_0.1m": 76.19047619047619, "low_level_<0.5": 9.5238095238095237, "mid_level_0.5-2": 23.809523809523807, "tall_2+": 40.476190476190474 }, "geometry": { "type": "Point", "coordinates": [ 0.489389671832862, 51.725318961462847 ] } },
{ "type": "Feature", "properties": { "max_height": 4.5900001525878906, "mean_height": 0.53999948501586914, "std_height": 0.97937160730361938, "count_pixels": 42, "percent_cover": 0.27542789691127284, "percent_above_0.1m": 42.857142857142854, "low_level_<0.5": 16.666666666666664, "mid_level_0.5-2": 16.666666666666664, "tall_2+": 9.5238095238095237 }, "geometry": { "type": "Point", "coordinates": [ 0.489590090879552, 51.725314714749658 ] } },
{ "type": "Feature", "properties": { "max_height": 6.5799999237060547, "mean_height": 1.915892481803894, "std_height": 2.1314964294433594, "count_pixels": 42, "percent_cover": 0.27542789691127284, "percent_above_0.1m": 66.666666666666657, "low_level_<0.5": 2.3809523809523809, "mid_level_0.5-2": 7.1428571428571423, "tall_2+": 45.238095238095241 }, "geometry": { "type": "Point", "coordinates": [ 0.489790509877677, 51.725310467695444 ] } },
{ "type": "Feature", "properties": { "max_height": 1.0399990081787109, "mean_height": 0.046844892203807831, "std_height": 0.18792249262332916, "count_pixels": 42, "percent_cover": 0.27542789691127284, "percent_above_0.1m": 7.1428571428571423, "low_level_<0.5": 0.0, "mid_level_0.5-2": 4.7619047619047619, "tall_2+": 0.0 }, "geometry": { "type": "Point", "coordinates": [ 0.489990928827238, 51.72530622030019 ] } },
{ "type": "Feature", "properties": { "max_height": 0.089998245239257812, "mean_height": 0.0045829499140381813, "std_height": 0.018523642793297768, "count_pixels": 42, "percent_cover": 0.27542789691127284, "percent_above_0.1m": 0.0, "low_level_<0.5": 0.0, "mid_level_0.5-2": 0.0, "tall_2+": 0.0 }, "geometry": { "type": "Point", "coordinates": [ 0.490191347728238, 51.725301972563912 ] } },
{ "type": "Feature", "properties": { "max_height": 0.61500167846679688, "mean_height": 0.016844840720295906, "std_height": 0.094171285629272461, "count_pixels": 42, "percent_cover": 0.27542789691127284, "percent_above_0.1m": 2.3809523809523809, "low_level_<0.5": 0.0, "mid_level_0.5-2": 2.3809523809523809, "tall_2+": 0.0 }, "geometry": { "type": "Point", "coordinates": [ 0.490391766580659, 51.725297724486595 ] } },
{ "type": "Feature", "properties": { "max_height": 0.470001220703125, "mean_height": 0.038035392761230469, "std_height": 0.11172972619533539, "count_pixels": 42, "percent_cover": 0.27542789691127284, "percent_above_0.1m": 11.904761904761903, "low_level_<0.5": 11.904761904761903, "mid_level_0.5-2": 0.0, "tall_2+": 0.0 }, "geometry": { "type": "Point", "coordinates": [ 0.490592185384511, 51.725293476068266 ] } },
{ "type": "Feature", "properties": { "max_height": 0.12250137329101562, "mean_height": 0.0029759635217487812, "std_height": 0.018670624122023582, "count_pixels": 42, "percent_cover": 0.27542789691127284, "percent_above_0.1m": 2.3809523809523809, "low_level_<0.5": 0.0, "mid_level_0.5-2": 0.0, "tall_2+": 0.0 }, "geometry": { "type": "Point", "coordinates": [ 0.490792604139775, 51.72528922730887 ] } },
{ "type": "Feature", "properties": { "max_height": 0.0025005340576171875, "mean_height": -9.304139325649885e-08, "std_height": 0.001104446011595428, "count_pixels": 41, "percent_cover": 0.26887008984195682, "percent_above_0.1m": 0.0, "low_level_<0.5": 0.0, "mid_level_0.5-2": 0.0, "tall_2+": 0.0 }, "geometry": { "type": "Point", "coordinates": [ 0.490993022846463, 51.725284978208478 ] } },
{ "type": "Feature", "properties": { "max_height": 0.002498626708984375, "mean_height": -0.00035830907290801406, "std_height": 0.0013984323013573885, "count_pixels": 42, "percent_cover": 0.27542789691127284, "percent_above_0.1m": 0.0, "low_level_<0.5": 0.0, "mid_level_0.5-2": 0.0, "tall_2+": 0.0 }, "geometry": { "type": "Point", "coordinates": [ 0.491193441504561, 51.725280728767046 ] } },
{ "type": "Feature", "properties": { "max_height": 0.002498626708984375, "mean_height": -0.00013230976765044034, "std_height": 0.00080041942419484258, "count_pixels": 38, "percent_cover": 0.2491966686340088, "percent_above_0.1m": 0.0, "low_level_<0.5": 0.0, "mid_level_0.5-2": 0.0, "tall_2+": 0.0 }, "geometry": { "type": "Point", "coordinates": [ 0.491393860114068, 51.725276478984568 ] } },
{ "type": "Feature", "properties": { "max_height": 0.87749862670898438, "mean_height": 0.046606652438640594, "std_height": 0.17514845728874207, "count_pixels": 42, "percent_cover": 0.27542789691127284, "percent_above_0.1m": 7.1428571428571423, "low_level_<0.5": 2.3809523809523809, "mid_level_0.5-2": 4.7619047619047619, "tall_2+": 0.0 }, "geometry": { "type": "Point", "coordinates": [ 0.491594278674982, 51.725272228861066 ] } },
{ "type": "Feature", "properties": { "max_height": 0.0025005340576171875, "mean_height": -6.0476907037809724e-07, "std_height": 0.0012347375741228461, "count_pixels": 41, "percent_cover": 0.26887008984195682, "percent_above_0.1m": 0.0, "low_level_<0.5": 0.0, "mid_level_0.5-2": 0.0, "tall_2+": 0.0 }, "geometry": { "type": "Point", "coordinates": [ 0.491794697187293, 51.725267978396552 ] } },
{ "type": "Feature", "properties": { "max_height": 0.0025005340576171875, "mean_height": -5.9854417486349121e-05, "std_height": 0.00066561059793457389, "count_pixels": 42, "percent_cover": 0.27542789691127284, "percent_above_0.1m": 0.0, "low_level_<0.5": 0.0, "mid_level_0.5-2": 0.0, "tall_2+": 0.0 }, "geometry": { "type": "Point", "coordinates": [ 0.491995115651009, 51.725263727590992 ] } },
{ "type": "Feature", "properties": { "max_height": 0.002498626708984375, "mean_height": -3.6330450825516891e-07, "std_height": 0.00054566178005188704, "count_pixels": 42, "percent_cover": 0.27542789691127284, "percent_above_0.1m": 0.0, "low_level_<0.5": 0.0, "mid_level_0.5-2": 0.0, "tall_2+": 0.0 }, "geometry": { "type": "Point", "coordinates": [ 0.492195534066108, 51.725259476444407 ] } },
{ "type": "Feature", "properties": { "max_height": 0.0025005340576171875, "mean_height": 0.00011857350909849629, "std_height": 0.0009374037035740912, "count_pixels": 42, "percent_cover": 0.27542789691127284, "percent_above_0.1m": 0.0, "low_level_<0.5": 0.0, "mid_level_0.5-2": 0.0, "tall_2+": 0.0 }, "geometry": { "type": "Point", "coordinates": [ 0.492395952432608, 51.725255224956783 ] } },
{ "type": "Feature", "properties": { "max_height": 8.0050010681152344, "mean_height": 2.2241065502166748, "std_height": 2.8194029331207275, "count_pixels": 42, "percent_cover": 0.27542789691127284, "percent_above_0.1m": 57.142857142857139, "low_level_<0.5": 7.1428571428571423, "mid_level_0.5-2": 11.904761904761903, "tall_2+": 38.095238095238095 }, "geometry": { "type": "Point", "coordinates": [ 0.492596370750488, 51.725250973128141 ] } },
{ "type": "Feature", "properties": { "max_height": 12.469997406005859, "mean_height": 6.2416062355041504, "std_height": 4.1862645149230957, "count_pixels": 42, "percent_cover": 0.27542789691127284, "percent_above_0.1m": 80.952380952380949, "low_level_<0.5": 0.0, "mid_level_0.5-2": 7.1428571428571423, "tall_2+": 73.80952380952381 }, "geometry": { "type": "Point", "coordinates": [ 0.492796789019752, 51.725246720958474 ] } },
{ "type": "Feature", "properties": { "max_height": 17.757497787475586, "mean_height": 4.5701775550842285, "std_height": 4.8812637329101562, "count_pixels": 42, "percent_cover": 0.27542789691127284, "percent_above_0.1m": 78.571428571428569, "low_level_<0.5": 4.7619047619047619, "mid_level_0.5-2": 16.666666666666664, "tall_2+": 57.142857142857139 }, "geometry": { "type": "Point", "coordinates": [ 0.488894547019262, 51.725437371721306 ] } },
{ "type": "Feature", "properties": { "max_height": 2.4375, "mean_height": 0.51970183849334717, "std_height": 0.78574520349502563, "count_pixels": 42, "percent_cover": 0.27542789691127284, "percent_above_0.1m": 40.476190476190474, "low_level_<0.5": 7.1428571428571423, "mid_level_0.5-2": 21.428571428571427, "tall_2+": 9.5238095238095237 }, "geometry": { "type": "Point", "coordinates": [ 0.489094966651911, 51.725433125838983 ] } },
{ "type": "Feature", "properties": { "max_height": 2.1574993133544922, "mean_height": 0.17916634678840637, "std_height": 0.49646610021591187, "count_pixels": 42, "percent_cover": 0.27542789691127284, "percent_above_0.1m": 14.285714285714285, "low_level_<0.5": 0.0, "mid_level_0.5-2": 11.904761904761903, "tall_2+": 2.3809523809523809 }, "geometry": { "type": "Point", "coordinates": [ 0.489295386236318, 51.725428879615237 ] } },
{ "type": "Feature", "properties": { "max_height": 0.0025005340576171875, "mean_height": -0.00023855481413193047, "std_height": 0.0015245175454765558, "count_pixels": 42, "percent_cover": 0.27542789691127284, "percent_above_0.1m": 0.0, "low_level_<0.5": 0.0, "mid_level_0.5-2": 0.0, "tall_2+": 0.0 }, "geometry": { "type": "Point", "coordinates": [ 0.489495805773394, 51.725424633049045 ] } },
{ "type": "Feature", "properties": { "max_height": 2.1199989318847656, "mean_height": 0.088718786835670471, "std_height": 0.36710929870605469, "count_pixels": 41, "percent_cover": 0.26887008984195682, "percent_above_0.1m": 7.3170731707317067, "low_level_<0.5": 0.0, "mid_level_0.5-2": 2.4390243902439024, "tall_2+": 2.4390243902439024 }, "geometry": { "type": "Point", "coordinates": [ 0.489696225261921, 51.725420386141849 ] } },
{ "type": "Feature", "properties": { "max_height": 5.1949996948242188, "mean_height": 1.3190470933914185, "std_height": 1.6445640325546265, "count_pixels": 42, "percent_cover": 0.27542789691127284, "percent_above_0.1m": 57.142857142857139, "low_level_<0.5": 9.5238095238095237, "mid_level_0.5-2": 9.5238095238095237, "tall_2+": 33.333333333333329 }, "geometry": { "type": "Point", "coordinates": [ 0.489896644701876, 51.725416138893593 ] } },
{ "type": "Feature", "properties": { "max_height": 2.0550003051757812, "mean_height": 0.28539401292800903, "std_height": 0.50570958852767944, "count_pixels": 38, "percent_cover": 0.2491966686340088, "percent_above_0.1m": 36.84210526315789, "low_level_<0.5": 18.421052631578945, "mid_level_0.5-2": 15.789473684210526, "tall_2+": 2.6315789473684208 }, "geometry": { "type": "Point", "coordinates": [ 0.490097064093265, 51.725411891304319 ] } },
{ "type": "Feature", "properties": { "max_height": 1.7000007629394531, "mean_height": 0.15952327847480774, "std_height": 0.34262630343437195, "count_pixels": 42, "percent_cover": 0.27542789691127284, "percent_above_0.1m": 26.190476190476193, "low_level_<0.5": 9.5238095238095237, "mid_level_0.5-2": 16.666666666666664, "tall_2+": 0.0 }, "geometry": { "type": "Point", "coordinates": [ 0.490297483436093, 51.725407643374005 ] } },
{ "type": "Feature", "properties": { "max_height": 1.3849983215332031, "mean_height": 0.13762147724628448, "std_height": 0.29207035899162292, "count_pixels": 41, "percent_cover": 0.26887008984195682, "percent_above_0.1m": 29.268292682926827, "low_level_<0.5": 12.195121951219512, "mid_level_0.5-2": 9.7560975609756095, "tall_2+": 0.0 }, "geometry": { "type": "Point", "coordinates": [ 0.490497902730338, 51.72540339510266 ] } },
{ "type": "Feature", "properties": { "max_height": 9.1900005340576172, "mean_height": 1.3387495279312134, "std_height": 2.526883602142334, "count_pixels": 42, "percent_cover": 0.27542789691127284, "percent_above_0.1m": 28.571428571428569, "low_level_<0.5": 0.0, "mid_level_0.5-2": 7.1428571428571423, "tall_2+": 21.428571428571427 }, "geometry": { "type": "Point", "coordinates": [ 0.490698321976012, 51.72539914649029 ] } },
{ "type": "Feature", "properties": { "max_height": 6.4899978637695312, "mean_height": 1.2932138442993164, "std_height": 2.1413648128509521, "count_pixels": 42, "percent_cover": 0.27542789691127284, "percent_above_0.1m": 38.095238095238095, "low_level_<0.5": 4.7619047619047619, "mid_level_0.5-2": 4.7619047619047619, "tall_2+": 28.571428571428569 }, "geometry": { "type": "Point", "coordinates": [ 0.490898741173096, 51.72539489753688 ] } },
{ "type": "Feature", "properties": { "max_height": 8.2150001525878906, "mean_height": 1.8652970790863037, "std_height": 2.6611568927764893, "count_pixels": 42, "percent_cover": 0.27542789691127284, "percent_above_0.1m": 45.238095238095241, "low_level_<0.5": 4.7619047619047619, "mid_level_0.5-2": 7.1428571428571423, "tall_2+": 33.333333333333329 }, "geometry": { "type": "Point", "coordinates": [ 0.491099160321603, 51.72539064824246 ] } },
{ "type": "Feature", "properties": { "max_height": 8.1875, "mean_height": 1.7645232677459717, "std_height": 2.3584535121917725, "count_pixels": 42, "percent_cover": 0.27542789691127284, "percent_above_0.1m": 50.0, "low_level_<0.5": 4.7619047619047619, "mid_level_0.5-2": 9.5238095238095237, "tall_2+": 35.714285714285715 }, "geometry": { "type": "Point", "coordinates": [ 0.491299579421518, 51.725386398606972 ] } },
{ "type": "Feature", "properties": { "max_height": 10.757499694824219, "mean_height": 3.2435710430145264, "std_height": 2.8076963424682617, "count_pixels": 42, "percent_cover": 0.27542789691127284, "percent_above_0.1m": 76.19047619047619, "low_level_<0.5": 0.0, "mid_level_0.5-2": 14.285714285714285, "tall_2+": 61.904761904761905 }, "geometry": { "type": "Point", "coordinates": [ 0.491499998472834, 51.725382148630473 ] } },
{ "type": "Feature", "properties": { "max_height": 9.6124992370605469, "mean_height": 3.6552970409393311, "std_height": 2.5578701496124268, "count_pixels": 42, "percent_cover": 0.27542789691127284, "percent_above_0.1m": 83.333333333333343, "low_level_<0.5": 2.3809523809523809, "mid_level_0.5-2": 9.5238095238095237, "tall_2+": 71.428571428571431 }, "geometry": { "type": "Point", "coordinates": [ 0.491700417475561, 51.725377898312921 ] } },
{ "type": "Feature", "properties": { "max_height": 10.207502365112305, "mean_height": 2.8054759502410889, "std_height": 2.9162135124206543, "count_pixels": 42, "percent_cover": 0.27542789691127284, "percent_above_0.1m": 71.428571428571431, "low_level_<0.5": 2.3809523809523809, "mid_level_0.5-2": 16.666666666666664, "tall_2+": 50.0 }, "geometry": { "type": "Point", "coordinates": [ 0.491900836429681, 51.725373647654372 ] } },
{ "type": "Feature", "properties": { "max_height": 5.7150001525878906, "mean_height": 1.1392850875854492, "std_height": 1.6329845190048218, "count_pixels": 42, "percent_cover": 0.27542789691127284, "percent_above_0.1m": 45.238095238095241, "low_level_<0.5": 4.7619047619047619, "mid_level_0.5-2": 9.5238095238095237, "tall_2+": 28.571428571428569 }, "geometry": { "type": "Point", "coordinates": [ 0.492101255335198, 51.72536939665477 ] } },
{ "type": "Feature", "properties": { "max_height": 7.6275005340576172, "mean_height": 2.3672616481781006, "std_height": 2.7014038562774658, "count_pixels": 42, "percent_cover": 0.27542789691127284, "percent_above_0.1m": 52.380952380952387, "low_level_<0.5": 2.3809523809523809, "mid_level_0.5-2": 4.7619047619047619, "tall_2+": 45.238095238095241 }, "geometry": { "type": "Point", "coordinates": [ 0.492301674192109, 51.725365145314136 ] } },
{ "type": "Feature", "properties": { "max_height": 7.4174995422363281, "mean_height": 1.7265241146087646, "std_height": 2.1365487575531006, "count_pixels": 41, "percent_cover": 0.26887008984195682, "percent_above_0.1m": 56.09756097560976, "low_level_<0.5": 2.4390243902439024, "mid_level_0.5-2": 12.195121951219512, "tall_2+": 39.024390243902438 }, "geometry": { "type": "Point", "coordinates": [ 0.492502093000405, 51.725360893632484 ] } },
{ "type": "Feature", "properties": { "max_height": 8.8274993896484375, "mean_height": 1.5788686275482178, "std_height": 2.6385788917541504, "count_pixels": 42, "percent_cover": 0.27542789691127284, "percent_above_0.1m": 50.0, "low_level_<0.5": 9.5238095238095237, "mid_level_0.5-2": 9.5238095238095237, "tall_2+": 26.190476190476193 }, "geometry": { "type": "Point", "coordinates": [ 0.492702511760081, 51.725356641609807 ] } },
{ "type": "Feature", "properties": { "max_height": 12.032499313354492, "mean_height": 6.2978277206420898, "std_height": 3.8235809803009033, "count_pixels": 38, "percent_cover": 0.2491966686340088, "percent_above_0.1m": 84.210526315789465, "low_level_<0.5": 2.6315789473684208, "mid_level_0.5-2": 2.6315789473684208, "tall_2+": 78.94736842105263 }, "geometry": { "type": "Point", "coordinates": [ 0.492902930471146, 51.725352389246083 ] } },
{ "type": "Feature", "properties": { "max_height": 6.5424995422363281, "mean_height": 2.906963586807251, "std_height": 2.2410502433776855, "count_pixels": 42, "percent_cover": 0.27542789691127284, "percent_above_0.1m": 100.0, "low_level_<0.5": 9.5238095238095237, "mid_level_0.5-2": 45.238095238095241, "tall_2+": 45.238095238095241 }, "geometry": { "type": "Point", "coordinates": [ 0.488399419987035, 51.725555779867726 ] } },
{ "type": "Feature", "properties": { "max_height": 12.234996795654297, "mean_height": 3.6392099857330322, "std_height": 4.1983432769775391, "count_pixels": 38, "percent_cover": 0.2491966686340088, "percent_above_0.1m": 71.05263157894737, "low_level_<0.5": 13.157894736842104, "mid_level_0.5-2": 13.157894736842104, "tall_2+": 44.736842105263158 }, "geometry": { "type": "Point", "coordinates": [ 0.488599840176582, 51.725551534821122 ] } },
{ "type": "Feature", "properties": { "max_height": 17.947498321533203, "mean_height": 4.9837489128112793, "std_height": 6.0838232040405273, "count_pixels": 42, "percent_cover": 0.27542789691127284, "percent_above_0.1m": 54.761904761904766, "low_level_<0.5": 2.3809523809523809, "mid_level_0.5-2": 4.7619047619047619, "tall_2+": 47.619047619047613 }, "geometry": { "type": "Point", "coordinates": [ 0.488800260318241, 51.725547289433131 ] } },
{ "type": "Feature", "properties": { "max_height": 4.3074989318847656, "mean_height": 0.13664580881595612, "std_height": 0.68870198726654053, "count_pixels": 41, "percent_cover": 0.26887008984195682, "percent_above_0.1m": 4.8780487804878048, "low_level_<0.5": 0.0, "mid_level_0.5-2": 2.4390243902439024, "tall_2+": 2.4390243902439024 }, "geometry": { "type": "Point", "coordinates": [ 0.489000680412005, 51.72554304370378 ] } },
{ "type": "Feature", "properties": { "max_height": 16.095001220703125, "mean_height": 3.5251781940460205, "std_height": 5.5275635719299316, "count_pixels": 42, "percent_cover": 0.27542789691127284, "percent_above_0.1m": 38.095238095238095, "low_level_<0.5": 0.0, "mid_level_0.5-2": 4.7619047619047619, "tall_2+": 33.333333333333329 }, "geometry": { "type": "Point", "coordinates": [ 0.489201100459145, 51.725538797632623 ] } },
{ "type": "Feature", "properties": { "max_height": 0.20999908447265625, "mean_height": 0.0051184156909584999, "std_height": 0.03201071172952652, "count_pixels": 42, "percent_cover": 0.27542789691127284, "percent_above_0.1m": 2.3809523809523809, "low_level_<0.5": 2.3809523809523809, "mid_level_0.5-2": 0.0, "tall_2+": 0.0 }, "geometry": { "type": "Point", "coordinates": [ 0.48940152046502, 51.725534551218296 ] } },
{ "type": "Feature", "properties": { "max_height": 10.295001983642578, "mean_height": 0.66529703140258789, "std_height": 1.8451887369155884, "count_pixels": 42, "percent_cover": 0.27542789691127284, "percent_above_0.1m": 21.428571428571427, "low_level_<0.5": 2.3809523809523809, "mid_level_0.5-2": 7.1428571428571423, "tall_2+": 11.904761904761903 }, "geometry": { "type": "Point", "coordinates": [ 0.489601940427199, 51.725530304463483 ] } },
{ "type": "Feature", "properties": { "max_height": 12.969997406005859, "mean_height": 6.6711301803588867, "std_height": 4.2564125061035156, "count_pixels": 42, "percent_cover": 0.27542789691127284, "percent_above_0.1m": 95.238095238095227, "low_level_<0.5": 0.0, "mid_level_0.5-2": 9.5238095238095237, "tall_2+": 85.714285714285708 }, "geometry": { "type": "Point", "coordinates": [ 0.489802360341157, 51.725526057367382 ] } },
{ "type": "Feature", "properties": { "max_height": 4.1449985504150391, "mean_height": 0.90089237689971924, "std_height": 1.266230583190918, "count_pixels": 42, "percent_cover": 0.27542789691127284, "percent_above_0.1m": 52.380952380952387, "low_level_<0.5": 9.5238095238095237, "mid_level_0.5-2": 16.666666666666664, "tall_2+": 21.428571428571427 }, "geometry": { "type": "Point", "coordinates": [ 0.490002780206895, 51.725521809930036 ] } },
{ "type": "Feature", "properties": { "max_height": 8.5025005340576172, "mean_height": 2.0098209381103516, "std_height": 2.2276227474212646, "count_pixels": 42, "percent_cover": 0.27542789691127284, "percent_above_0.1m": 73.80952380952381, "low_level_<0.5": 9.5238095238095237, "mid_level_0.5-2": 19.047619047619047, "tall_2+": 42.857142857142854 }, "geometry": { "type": "Point", "coordinates": [ 0.490203200024411, 51.725517562151431 ] } },
{ "type": "Feature", "properties": { "max_height": 9.9400005340576172, "mean_height": 4.0260109901428223, "std_height": 2.9327831268310547, "count_pixels": 42, "percent_cover": 0.27542789691127284, "percent_above_0.1m": 85.714285714285708, "low_level_<0.5": 0.0, "mid_level_0.5-2": 16.666666666666664, "tall_2+": 69.047619047619051 }, "geometry": { "type": "Point", "coordinates": [ 0.49040361979369, 51.725513314031559 ] } },
{ "type": "Feature", "properties": { "max_height": 7.2550010681152344, "mean_height": 3.0448803901672363, "std_height": 2.1854925155639648, "count_pixels": 42, "percent_cover": 0.27542789691127284, "percent_above_0.1m": 85.714285714285708, "low_level_<0.5": 4.7619047619047619, "mid_level_0.5-2": 16.666666666666664, "tall_2+": 61.904761904761905 }, "geometry": { "type": "Point", "coordinates": [ 0.490604039514742, 51.725509065570435 ] } },
{ "type": "Feature", "properties": { "max_height": 9.7175006866455078, "mean_height": 3.1375594139099121, "std_height": 3.0017271041870117, "count_pixels": 42, "percent_cover": 0.27542789691127284, "percent_above_0.1m": 66.666666666666657, "low_level_<0.5": 2.3809523809523809, "mid_level_0.5-2": 9.5238095238095237, "tall_2+": 54.761904761904766 }, "geometry": { "type": "Point", "coordinates": [ 0.490804459187555, 51.725504816768051 ] } },
{ "type": "Feature", "properties": { "max_height": 5.7199974060058594, "mean_height": 1.8502432107925415, "std_height": 2.0076391696929932, "count_pixels": 41, "percent_cover": 0.26887008984195682, "percent_above_0.1m": 56.09756097560976, "low_level_<0.5": 0.0, "mid_level_0.5-2": 12.195121951219512, "tall_2+": 41.463414634146339 }, "geometry": { "type": "Point", "coordinates": [ 0.491004878812124, 51.725500567624387 ] } },
{ "type": "Feature", "properties": { "max_height": 7.1124992370605469, "mean_height": 1.1785707473754883, "std_height": 1.7424027919769287, "count_pixels": 42, "percent_cover": 0.27542789691127284, "percent_above_0.1m": 45.238095238095241, "low_level_<0.5": 7.1428571428571423, "mid_level_0.5-2": 14.285714285714285, "tall_2+": 23.809523809523807 }, "geometry": { "type": "Point", "coordinates": [ 0.491205298388457, 51.725496318139484 ] } },
{ "type": "Feature", "properties": { "max_height": 3.657501220703125, "mean_height": 0.87333518266677856, "std_height": 1.2274355888366699, "count_pixels": 38, "percent_cover": 0.2491966686340088, "percent_above_0.1m": 42.105263157894733, "low_level_<0.5": 2.6315789473684208, "mid_level_0.5-2": 15.789473684210526, "tall_2+": 23.684210526315788 }, "geometry": { "type": "Point", "coordinates": [ 0.49140571791653, 51.725492068313322 ] } },
{ "type": "Feature", "properties": { "max_height": 5.279998779296875, "mean_height": 1.5925289392471313, "std_height": 1.784734845161438, "count_pixels": 42, "percent_cover": 0.27542789691127284, "percent_above_0.1m": 52.380952380952387, "low_level_<0.5": 4.7619047619047619, "mid_level_0.5-2": 7.1428571428571423, "tall_2+": 40.476190476190474 }, "geometry": { "type": "Point", "coordinates": [ 0.492608234072927, 51.7254665621901 ] } },
{ "type": "Feature", "properties": { "max_height": 1.8049983978271484, "mean_height": 0.3351801335811615, "std_height": 0.5181547999382019, "count_pixels": 42, "percent_cover": 0.27542789691127284, "percent_above_0.1m": 45.238095238095241, "low_level_<0.5": 11.904761904761903, "mid_level_0.5-2": 26.190476190476193, "tall_2+": 0.0 }, "geometry": { "type": "Point", "coordinates": [ 0.492808653269296, 51.725462309975669 ] } },
{ "type": "Feature", "properties": { "max_height": 5.3199996948242188, "mean_height": 0.85535675287246704, "std_height": 1.2684766054153442, "count_pixels": 42, "percent_cover": 0.27542789691127284, "percent_above_0.1m": 52.380952380952387, "low_level_<0.5": 14.285714285714285, "mid_level_0.5-2": 23.809523809523807, "tall_2+": 14.285714285714285 }, "geometry": { "type": "Point", "coordinates": [ 0.488104711592007, 51.725669941667938 ] } },
{ "type": "Feature", "properties": { "max_height": 1.9324989318847656, "mean_height": 0.44603621959686279, "std_height": 0.66815638542175293, "count_pixels": 41, "percent_cover": 0.26887008984195682, "percent_above_0.1m": 39.024390243902438, "low_level_<0.5": 7.3170731707317067, "mid_level_0.5-2": 26.829268292682929, "tall_2+": 0.0 }, "geometry": { "type": "Point", "coordinates": [ 0.488305132309264, 51.725665697117371 ] } },
{ "type": "Feature", "properties": { "max_height": 0.61499977111816406, "mean_height": 0.032796997576951981, "std_height": 0.121232770383358, "count_pixels": 42, "percent_cover": 0.27542789691127284, "percent_above_0.1m": 7.1428571428571423, "low_level_<0.5": 4.7619047619047619, "mid_level_0.5-2": 2.3809523809523809, "tall_2+": 0.0 }, "geometry": { "type": "Point", "coordinates": [ 0.488505552978665, 51.725661452225346 ] } },
{ "type": "Feature", "properties": { "max_height": 7.0899982452392578, "mean_height": 0.5360112190246582, "std_height": 1.5954074859619141, "count_pixels": 42, "percent_cover": 0.27542789691127284, "percent_above_0.1m": 16.666666666666664, "low_level_<0.5": 4.7619047619047619, "mid_level_0.5-2": 2.3809523809523809, "tall_2+": 9.5238095238095237 }, "geometry": { "type": "Point", "coordinates": [ 0.488705973600217, 51.725657206991819 ] } },
{ "type": "Feature", "properties": { "max_height": 18.767499923706055, "mean_height": 9.0109519958496094, "std_height": 5.6499137878417969, "count_pixels": 42, "percent_cover": 0.27542789691127284, "percent_above_0.1m": 85.714285714285708, "low_level_<0.5": 2.3809523809523809, "mid_level_0.5-2": 0.0, "tall_2+": 83.333333333333343 }, "geometry": { "type": "Point", "coordinates": [ 0.488906394173913, 51.725652961416806 ] } },
{ "type": "Feature", "properties": { "max_height": 17.112499237060547, "mean_height": 10.048927307128906, "std_height": 3.7478842735290527, "count_pixels": 42, "percent_cover": 0.27542789691127284, "percent_above_0.1m": 100.0, "low_level_<0.5": 0.0, "mid_level_0.5-2": 2.3809523809523809, "tall_2+": 97.61904761904762 }, "geometry": { "type": "Point", "coordinates": [ 0.489106814699739, 51.725648715500306 ] } },
{ "type": "Feature", "properties": { "max_height": 19.340000152587891, "mean_height": 10.986665725708008, "std_height": 4.2224311828613281, "count_pixels": 42, "percent_cover": 0.27542789691127284, "percent_above_0.1m": 100.0, "low_level_<0.5": 0.0, "mid_level_0.5-2": 7.1428571428571423, "tall_2+": 92.857142857142861 }, "geometry": { "type": "Point", "coordinates": [ 0.489307235177703, 51.725644469242297 ] } },
{ "type": "Feature", "properties": { "max_height": 6.6424999237060547, "mean_height": 2.991011381149292, "std_height": 1.9121203422546387, "count_pixels": 42, "percent_cover": 0.27542789691127284, "percent_above_0.1m": 85.714285714285708, "low_level_<0.5": 2.3809523809523809, "mid_level_0.5-2": 14.285714285714285, "tall_2+": 69.047619047619051 }, "geometry": { "type": "Point", "coordinates": [ 0.489507655607795, 51.725640222642795 ] } },
{ "type": "Feature", "properties": { "max_height": 12.547500610351562, "mean_height": 4.1395726203918457, "std_height": 3.8281340599060059, "count_pixels": 41, "percent_cover": 0.26887008984195682, "percent_above_0.1m": 78.048780487804876, "low_level_<0.5": 4.8780487804878048, "mid_level_0.5-2": 9.7560975609756095, "tall_2+": 63.414634146341463 }, "geometry": { "type": "Point", "coordinates": [ 0.48970807599002, 51.725635975701827 ] } },
{ "type": "Feature", "properties": { "max_height": 7.2574996948242188, "mean_height": 1.901540994644165, "std_height": 2.2133827209472656, "count_pixels": 42, "percent_cover": 0.27542789691127284, "percent_above_0.1m": 54.761904761904766, "low_level_<0.5": 2.3809523809523809, "mid_level_0.5-2": 16.666666666666664, "tall_2+": 35.714285714285715 }, "geometry": { "type": "Point", "coordinates": [ 0.48990849632436, 51.725631728419351 ] } },
{ "type": "Feature", "properties": { "max_height": 3.9424991607666016, "mean_height": 0.58669835329055786, "std_height": 1.0152862071990967, "count_pixels": 38, "percent_cover": 0.2491966686340088, "percent_above_0.1m": 34.210526315789473, "low_level_<0.5": 0.0, "mid_level_0.5-2": 18.421052631578945, "tall_2+": 13.157894736842104 }, "geometry": { "type": "Point", "coordinates": [ 0.490108916610821, 51.725627480795374 ] } },
{ "type": "Feature", "properties": { "max_height": 7.0074977874755859, "mean_height": 2.0888090133666992, "std_height": 2.2131493091583252, "count_pixels": 42, "percent_cover": 0.27542789691127284, "percent_above_0.1m": 64.285714285714292, "low_level_<0.5": 2.3809523809523809, "mid_level_0.5-2": 23.809523809523807, "tall_2+": 38.095238095238095 }, "geometry": { "type": "Point", "coordinates": [ 0.487409159123041, 51.725792589830242 ] } },
{ "type": "Feature", "properties": { "max_height": 6.5274982452392578, "mean_height": 2.7078564167022705, "std_height": 2.3623857498168945, "count_pixels": 42, "percent_cover": 0.27542789691127284, "percent_above_0.1m": 88.095238095238088, "low_level_<0.5": 4.7619047619047619, "mid_level_0.5-2": 30.952380952380953, "tall_2+": 50.0 }, "geometry": { "type": "Point", "coordinates": [ 0.487609580465156, 51.725788346457186 ] } },
{ "type": "Feature", "properties": { "max_height": 2.0524997711181641, "mean_height": 0.53374958038330078, "std_height": 0.65049898624420166, "count_pixels": 42, "percent_cover": 0.27542789691127284, "percent_above_0.1m": 59.523809523809526, "low_level_<0.5": 23.809523809523807, "mid_level_0.5-2": 30.952380952380953, "tall_2+": 2.3809523809523809 }, "geometry": { "type": "Point", "coordinates": [ 0.487810001759435, 51.725784102742629 ] } },
{ "type": "Feature", "properties": { "max_height": 7.5224990844726562, "mean_height": 0.87339258193969727, "std_height": 1.7807374000549316, "count_pixels": 42, "percent_cover": 0.27542789691127284, "percent_above_0.1m": 40.476190476190474, "low_level_<0.5": 9.5238095238095237, "mid_level_0.5-2": 19.047619047619047, "tall_2+": 11.904761904761903 }, "geometry": { "type": "Point", "coordinates": [ 0.488010423005872, 51.725779858686593 ] } },
{ "type": "Feature", "properties": { "max_height": 6.8949985504150391, "mean_height": 1.7285706996917725, "std_height": 2.2984509468078613, "count_pixels": 42, "percent_cover": 0.27542789691127284, "percent_above_0.1m": 52.380952380952387, "low_level_<0.5": 7.1428571428571423, "mid_level_0.5-2": 9.5238095238095237, "tall_2+": 35.714285714285715 }, "geometry": { "type": "Point", "coordinates": [ 0.488210844204463, 51.725775614289041 ] } },
{ "type": "Feature", "properties": { "max_height": 5.1025009155273438, "mean_height": 1.4039872884750366, "std_height": 1.7157840728759766, "count_pixels": 42, "percent_cover": 0.27542789691127284, "percent_above_0.1m": 50.0, "low_level_<0.5": 4.7619047619047619, "mid_level_0.5-2": 11.904761904761903, "tall_2+": 33.333333333333329 }, "geometry": { "type": "Point", "coordinates": [ 0.488411265355209, 51.725771369550024 ] } },
{ "type": "Feature", "properties": { "max_height": 9.1750030517578125, "mean_height": 3.8749995231628418, "std_height": 2.9026393890380859, "count_pixels": 38, "percent_cover": 0.2491966686340088, "percent_above_0.1m": 81.578947368421055, "low_level_<0.5": 0.0, "mid_level_0.5-2": 18.421052631578945, "tall_2+": 63.157894736842103 }, "geometry": { "type": "Point", "coordinates": [ 0.488611686458094, 51.725767124469499 ] } },
{ "type": "Feature", "properties": { "max_height": 12.30999755859375, "mean_height": 4.1332731246948242, "std_height": 3.714447021484375, "count_pixels": 42, "percent_cover": 0.27542789691127284, "percent_above_0.1m": 76.19047619047619, "low_level_<0.5": 2.3809523809523809, "mid_level_0.5-2": 14.285714285714285, "tall_2+": 57.142857142857139 }, "geometry": { "type": "Point", "coordinates": [ 0.488812107513127, 51.725762879047466 ] } },
{ "type": "Feature", "properties": { "max_height": 20.712497711181641, "mean_height": 5.8589849472045898, "std_height": 6.8526124954223633, "count_pixels": 41, "percent_cover": 0.26887008984195682, "percent_above_0.1m": 58.536585365853654, "low_level_<0.5": 2.4390243902439024, "mid_level_0.5-2": 0.0, "tall_2+": 56.09756097560976 }, "geometry": { "type": "Point", "coordinates": [ 0.489012528520296, 51.725758633283967 ] } },
{ "type": "Feature", "properties": { "max_height": 11.905000686645508, "mean_height": 2.4497623443603516, "std_height": 3.6290819644927979, "count_pixels": 42, "percent_cover": 0.27542789691127284, "percent_above_0.1m": 42.857142857142854, "low_level_<0.5": 0.0, "mid_level_0.5-2": 9.5238095238095237, "tall_2+": 33.333333333333329 }, "geometry": { "type": "Point", "coordinates": [ 0.489212949479604, 51.725754387178952 ] } },
{ "type": "Feature", "properties": { "max_height": 4.7674999237060547, "mean_height": 0.51535671949386597, "std_height": 1.2183281183242798, "count_pixels": 42, "percent_cover": 0.27542789691127284, "percent_above_0.1m": 23.809523809523807, "low_level_<0.5": 4.7619047619047619, "mid_level_0.5-2": 9.5238095238095237, "tall_2+": 9.5238095238095237 }, "geometry": { "type": "Point", "coordinates": [ 0.487114446788134, 51.725906749198252 ] } },
{ "type": "Feature", "properties": { "max_height": 14.297500610351562, "mean_height": 5.755591869354248, "std_height": 4.983436107635498, "count_pixels": 38, "percent_cover": 0.2491966686340088, "percent_above_0.1m": 81.578947368421055, "low_level_<0.5": 5.2631578947368416, "mid_level_0.5-2": 13.157894736842104, "tall_2+": 60.526315789473685 }, "geometry": { "type": "Point", "coordinates": [ 0.487314868659416, 51.725902506319692 ] } },
{ "type": "Feature", "properties": { "max_height": 13.879999160766602, "mean_height": 4.6883325576782227, "std_height": 4.4136204719543457, "count_pixels": 42, "percent_cover": 0.27542789691127284, "percent_above_0.1m": 76.19047619047619, "low_level_<0.5": 4.7619047619047619, "mid_level_0.5-2": 11.904761904761903, "tall_2+": 57.142857142857139 }, "geometry": { "type": "Point", "coordinates": [ 0.487515290482868, 51.725898263099651 ] } },
{ "type": "Feature", "properties": { "max_height": 5.5474987030029297, "mean_height": 2.5928044319152832, "std_height": 1.9349871873855591, "count_pixels": 41, "percent_cover": 0.26887008984195682, "percent_above_0.1m": 75.609756097560975, "low_level_<0.5": 4.8780487804878048, "mid_level_0.5-2": 12.195121951219512, "tall_2+": 58.536585365853654 }, "geometry": { "type": "Point", "coordinates": [ 0.487715712258484, 51.725894019538096 ] } },
{ "type": "Feature", "properties": { "max_height": 4.4699993133544922, "mean_height": 1.9155949354171753, "std_height": 1.7065569162368774, "count_pixels": 42, "percent_cover": 0.27542789691127284, "percent_above_0.1m": 71.428571428571431, "low_level_<0.5": 7.1428571428571423, "mid_level_0.5-2": 11.904761904761903, "tall_2+": 50.0 }, "geometry": { "type": "Point", "coordinates": [ 0.487916133986254, 51.725889775635075 ] } },
{ "type": "Feature", "properties": { "max_height": 10.917497634887695, "mean_height": 2.6510708332061768, "std_height": 2.6688880920410156, "count_pixels": 42, "percent_cover": 0.27542789691127284, "percent_above_0.1m": 64.285714285714292, "low_level_<0.5": 2.3809523809523809, "mid_level_0.5-2": 4.7619047619047619, "tall_2+": 54.761904761904766 }, "geometry": { "type": "Point", "coordinates": [ 0.488116555666185, 51.725885531390539 ] } },
{ "type": "Feature", "properties": { "max_height": 4.7325000762939453, "mean_height": 1.3286579847335815, "std_height": 1.7972655296325684, "count_pixels": 41, "percent_cover": 0.26887008984195682, "percent_above_0.1m": 43.902439024390247, "low_level_<0.5": 2.4390243902439024, "mid_level_0.5-2": 9.7560975609756095, "tall_2+": 31.707317073170731 }, "geometry": { "type": "Point", "coordinates": [ 0.488316977298264, 51.725881286804501 ] } },
{ "type": "Feature", "properties": { "max_height": 4.4974994659423828, "mean_height": 0.29071399569511414, "std_height": 0.79030430316925049, "count_pixels": 42, "percent_cover": 0.27542789691127284, "percent_above_0.1m": 33.333333333333329, "low_level_<0.5": 16.666666666666664, "mid_level_0.5-2": 7.1428571428571423, "tall_2+": 4.7619047619047619 }, "geometry": { "type": "Point", "coordinates": [ 0.487020155409681, 51.726016665464506 ] } },
{ "type": "Feature", "properties": { "max_height": 7.6624984741210938, "mean_height": 0.45297554135322571, "std_height": 1.4275776147842407, "count_pixels": 42, "percent_cover": 0.27542789691127284, "percent_above_0.1m": 21.428571428571427, "low_level_<0.5": 9.5238095238095237, "mid_level_0.5-2": 4.7619047619047619, "tall_2+": 7.1428571428571423 }, "geometry": { "type": "Point", "coordinates": [ 0.4872205777623, 51.726012422738975 ] } },
{ "type": "Feature", "properties": { "max_height": 14.007497787475586, "mean_height": 4.9469637870788574, "std_height": 5.4138545989990234, "count_pixels": 42, "percent_cover": 0.27542789691127284, "percent_above_0.1m": 57.142857142857139, "low_level_<0.5": 0.0, "mid_level_0.5-2": 7.1428571428571423, "tall_2+": 50.0 }, "geometry": { "type": "Point", "coordinates": [ 0.487421000067088, 51.726008179671915 ] } },
{ "type": "Feature", "properties": { "max_height": 4.4949989318847656, "mean_height": 0.51601141691207886, "std_height": 1.1939767599105835, "count_pixels": 42, "percent_cover": 0.27542789691127284, "percent_above_0.1m": 21.428571428571427, "low_level_<0.5": 2.3809523809523809, "mid_level_0.5-2": 9.5238095238095237, "tall_2+": 9.5238095238095237 }, "geometry": { "type": "Point", "coordinates": [ 0.487621422324038, 51.726003936263389 ] } }
]
}
