{
"type": "FeatureCollection",
"name": "THURR_56_walking",
"crs": { "type": "name", "properties": { "name": "urn:ogc:def:crs:OGC:1.3:CRS84" } },
"features": [
{"type":"Feature","properties":{"highway":"footway","name":null,"category":"Footpath (pedestrian only)"},"geometry":{"type":"MultiLineString","coordinates":[[[0.3051514,51.4738708],[0.3052084,51.4738862]]]}},
{"type":"Feature","properties":{"highway":"footway","name":null,"category":"Footpath (pedestrian only)"},"geometry":{"type":"MultiLineString","coordinates":[[[0.3009066,51.4810078],[0.3009215,51.4809763],[0.3009652,51.4809151],[0.300984,51.4808851],[0.3010081,51.4808567],[0.3010995,51.4808302]]]}},
{"type":"Feature","properties":{"highway":"footway","name":null,"category":"Footpath (pedestrian only)"},"geometry":{"type":"MultiLineString","coordinates":[[[0.300476,51.4796827],[0.3004013,51.4796864],[0.300357,51.4797087],[0.3003051,51.4797799],[0.300298,51.4798002],[0.3001178,51.4799482],[0.3007132,51.4809087],[0.3009332,51.4808452],[0.3009625,51.4808533],[0.300984,51.4808851]]]}},
{"type":"Feature","properties":{"highway":"path","name":null,"category":"Shared path"},"geometry":{"type":"MultiLineString","coordinates":[[[0.2998314,51.4779068],[0.299892,51.4779117],[0.3003901,51.4779628],[0.300356,51.4781272]]]}},
{"type":"Feature","properties":{"highway":"path","name":null,"category":"Shared path"},"geometry":{"type":"MultiLineString","coordinates":[[[0.2918373,51.4774975],[0.292017,51.4769762],[0.2920251,51.476955]]]}},
{"type":"Feature","properties":{"highway":"footway","name":null,"category":"Footpath (pedestrian only)"},"geometry":{"type":"MultiLineString","coordinates":[[[0.3007771,51.4782441],[0.3007718,51.4782058],[0.3007664,51.4781857],[0.3007288,51.4781824],[0.300533,51.4781523],[0.3003828,51.4781356],[0.300356,51.4781272]]]}},
{"type":"Feature","properties":{"highway":"path","name":null,"category":"Shared path"},"geometry":{"type":"MultiLineString","coordinates":[[[0.2913108,51.4768631],[0.2920251,51.476955],[0.2921941,51.4769796]]]}},
{"type":"Feature","properties":{"highway":"path","name":null,"category":"Shared path"},"geometry":{"type":"MultiLineString","coordinates":[[[0.3111564,51.4784052],[0.3110401,51.478188]]]}},
{"type":"Feature","properties":{"highway":"path","name":null,"category":"Shared path"},"geometry":{"type":"MultiLineString","coordinates":[[[0.311418,51.4786523],[0.3111564,51.4784052],[0.3109955,51.4783618],[0.3104121,51.4783058],[0.3102136,51.4782089],[0.3100048,51.4781215]]]}},
{"type":"Feature","properties":{"highway":"path","name":null,"category":"Shared path"},"geometry":{"type":"MultiLineString","coordinates":[[[0.3096597,51.4780644],[0.3093016,51.4780051],[0.3090113,51.4779508]]]}},
{"type":"Feature","properties":{"highway":"footway","name":null,"category":"Footpath (pedestrian only)"},"geometry":{"type":"MultiLineString","coordinates":[[[0.2971368,51.4760283],[0.2972933,51.4760023]]]}},
{"type":"Feature","properties":{"highway":"footway","name":null,"category":"Footpath (pedestrian only)"},"geometry":{"type":"MultiLineString","coordinates":[[[0.3052317,51.473893],[0.3052675,51.4738993]]]}},
{"type":"Feature","properties":{"highway":"path","name":null,"category":"Shared path"},"geometry":{"type":"MultiLineString","coordinates":[[[0.29741,51.4756143],[0.2974578,51.4754479],[0.2975573,51.4750668],[0.2975679,51.4750137],[0.2975724,51.4749835],[0.2975801,51.4749494]]]}},
{"type":"Feature","properties":{"highway":"footway","name":null,"category":"Footpath (pedestrian only)"},"geometry":{"type":"MultiLineString","coordinates":[[[0.298488,51.4811928],[0.2983714,51.4812028],[0.2982638,51.4812121]]]}},
{"type":"Feature","properties":{"highway":"footway","name":null,"category":"Footpath (pedestrian only)"},"geometry":{"type":"MultiLineString","coordinates":[[[0.3080581,51.4748307],[0.3080926,51.4747493],[0.3073664,51.4746469],[0.3073932,51.4745688],[0.3074482,51.4744248]]]}},
{"type":"Feature","properties":{"highway":"footway","name":null,"category":"Footpath (pedestrian only)"},"geometry":{"type":"MultiLineString","coordinates":[[[0.3069354,51.4746535],[0.3073014,51.474502],[0.3073932,51.4745688]]]}},
{"type":"Feature","properties":{"highway":"footway","name":null,"category":"Footpath (pedestrian only)"},"geometry":{"type":"MultiLineString","coordinates":[[[0.3050995,51.4740943],[0.305136,51.4739375]]]}},
{"type":"Feature","properties":{"highway":"footway","name":null,"category":"Footpath (pedestrian only)"},"geometry":{"type":"MultiLineString","coordinates":[[[0.3135818,51.4743786],[0.313502,51.4743583],[0.3131728,51.4743722],[0.3125603,51.4744],[0.3114125,51.4744423],[0.3108083,51.4744707],[0.309716,51.4745016],[0.3087987,51.4745375],[0.3086404,51.474545],[0.3067153,51.4742364],[0.306254,51.4741566],[0.3052448,51.4739323]]]}},
{"type":"Feature","properties":{"highway":"footway","name":null,"category":"Footpath (pedestrian only)"},"geometry":{"type":"MultiLineString","coordinates":[[[0.3151908,51.4770496],[0.3150826,51.4770376]]]}},
{"type":"Feature","properties":{"highway":"footway","name":null,"category":"Footpath (pedestrian only)"},"geometry":{"type":"MultiLineString","coordinates":[[[0.3152675,51.4770589],[0.3151908,51.4770496]]]}},
{"type":"Feature","properties":{"highway":"path","name":null,"category":"Shared path"},"geometry":{"type":"MultiLineString","coordinates":[[[0.2999457,51.4813109],[0.2999985,51.4813362],[0.3000247,51.4813618],[0.3000485,51.4814032],[0.3000768,51.4814392],[0.3001111,51.4814839],[0.3001471,51.4815202],[0.3001762,51.4815386]]]}},
{"type":"Feature","properties":{"highway":"path","name":"Lion Gorge Path","category":"Shared path"},"geometry":{"type":"MultiLineString","coordinates":[[[0.2994458,51.4812115],[0.2999203,51.4812956],[0.2999379,51.4813028],[0.2999457,51.4813109],[0.2999485,51.481319],[0.2999491,51.4813257],[0.2999426,51.4813349],[0.2999272,51.4813417],[0.2999037,51.4813481],[0.2997258,51.4813768],[0.2996448,51.4813761],[0.2995844,51.4813849],[0.2995547,51.4813986],[0.2995454,51.481417],[0.2995935,51.481439],[0.3001762,51.4815386],[0.3002713,51.4815548],[0.3003062,51.4815718],[0.300344,51.4816007]]]}},
{"type":"Feature","properties":{"highway":"path","name":"Lion Gorge Path","category":"Shared path"},"geometry":{"type":"MultiLineString","coordinates":[[[0.2994458,51.4812115],[0.2990918,51.4811235],[0.2991386,51.4810671]]]}},
{"type":"Feature","properties":{"highway":"path","name":null,"category":"Shared path"},"geometry":{"type":"MultiLineString","coordinates":[[[0.2990601,51.4775749],[0.2990904,51.4776229],[0.299084,51.4777992],[0.2990788,51.4779188],[0.2990811,51.4781079],[0.2991266,51.4782744],[0.2991722,51.4784089],[0.2992107,51.478542],[0.2992498,51.4787107],[0.2992953,51.4788612],[0.2993251,51.4790848],[0.299359,51.4794992],[0.2993998,51.4798886],[0.2994442,51.480274],[0.2994594,51.4804561],[0.2995364,51.4805772],[0.2996462,51.480708],[0.2996678,51.4807462]]]}},
{"type":"Feature","properties":{"highway":"path","name":null,"category":"Shared path"},"geometry":{"type":"MultiLineString","coordinates":[[[0.2996678,51.4807462],[0.2996706,51.4807537],[0.2996676,51.4807636],[0.2996456,51.480768],[0.2995615,51.4807702],[0.2995119,51.4807757],[0.2994897,51.4807833],[0.2994897,51.4807935],[0.2995061,51.4808],[0.2995586,51.4808015],[0.2997542,51.4808204],[0.2997781,51.4808309],[0.299781,51.4808444],[0.2997711,51.4808542],[0.2997536,51.4808586],[0.2994401,51.4808815],[0.2994173,51.4808862],[0.2994092,51.4808949],[0.2994115,51.4809105],[0.2994267,51.4809167],[0.2994582,51.48092],[0.2998931,51.4809436],[0.2999129,51.4809502],[0.2999176,51.4809643],[0.2999165,51.480976],[0.2998949,51.4809829],[0.2998411,51.4809923],[0.2997372,51.4809992],[0.2991856,51.4810341],[0.2991521,51.4810419],[0.2991386,51.4810671]]]}},
{"type":"Feature","properties":{"highway":"footway","name":null,"category":"Footpath (pedestrian only)"},"geometry":{"type":"MultiLineString","coordinates":[[[0.2984342,51.4810009],[0.2983724,51.4809982],[0.2983027,51.4809882],[0.2982127,51.4809861],[0.298183,51.4809914]]]}},
{"type":"Feature","properties":{"highway":"footway","name":null,"category":"Footpath (pedestrian only)"},"geometry":{"type":"MultiLineString","coordinates":[[[0.298848,51.4809644],[0.2988747,51.4809798],[0.2989158,51.4809897],[0.2990668,51.4810217],[0.2991521,51.4810419]]]}},
{"type":"Feature","properties":{"highway":"footway","name":null,"category":"Footpath (pedestrian only)"},"geometry":{"type":"MultiLineString","coordinates":[[[0.3035107,51.4780275],[0.3038115,51.4778374]]]}},
{"type":"Feature","properties":{"highway":"footway","name":null,"category":"Footpath (pedestrian only)"},"geometry":{"type":"MultiLineString","coordinates":[[[0.3043577,51.4777876],[0.3042253,51.4778126],[0.3041088,51.4778277],[0.3039035,51.4778375],[0.3038115,51.4778374]]]}},
{"type":"Feature","properties":{"highway":"footway","name":null,"category":"Footpath (pedestrian only)"},"geometry":{"type":"MultiLineString","coordinates":[[[0.3038115,51.4778374],[0.3036024,51.4778363],[0.3035613,51.4778898],[0.303508,51.4778875]]]}},
{"type":"Feature","properties":{"highway":"footway","name":null,"category":"Footpath (pedestrian only)"},"geometry":{"type":"MultiLineString","coordinates":[[[0.303508,51.4778875],[0.3034635,51.4778898],[0.3034186,51.4778472],[0.3031546,51.4778399],[0.3029493,51.4778387],[0.3029465,51.4777698],[0.3029473,51.4777303]]]}},
{"type":"Feature","properties":{"highway":"footway","name":null,"category":"Footpath (pedestrian only)"},"geometry":{"type":"MultiLineString","coordinates":[[[0.3043284,51.477719],[0.3042985,51.4776816],[0.3040697,51.4777303],[0.3038605,51.47774],[0.3035906,51.47774],[0.3033032,51.4777315],[0.3032378,51.4777291],[0.3030334,51.4777291],[0.3029473,51.4777303]]]}},
{"type":"Feature","properties":{"highway":"footway","name":null,"category":"Footpath (pedestrian only)"},"geometry":{"type":"MultiLineString","coordinates":[[[0.2990918,51.4811235],[0.2988832,51.481072],[0.2988256,51.4810653],[0.2987654,51.4810632],[0.2987155,51.4810648],[0.2986668,51.4810688],[0.2986105,51.4810848],[0.2985554,51.4811023],[0.2985459,51.4811084],[0.2985254,51.4811215],[0.2985016,51.4811422],[0.2984907,51.4811669],[0.298488,51.4811928],[0.2984866,51.4812276],[0.2984989,51.4814551],[0.2985025,51.4815699],[0.2985118,51.4816071],[0.2985177,51.4816151]]]}},
{"type":"Feature","properties":{"highway":"footway","name":null,"category":"Footpath (pedestrian only)"},"geometry":{"type":"MultiLineString","coordinates":[[[0.298145,51.480992],[0.2981476,51.4810558],[0.2981556,51.4811082]]]}},
{"type":"Feature","properties":{"highway":"footway","name":null,"category":"Footpath (pedestrian only)"},"geometry":{"type":"MultiLineString","coordinates":[[[0.2985459,51.4811084],[0.298487,51.4810434],[0.2984342,51.4810009]]]}},
{"type":"Feature","properties":{"highway":"footway","name":null,"category":"Footpath (pedestrian only)"},"geometry":{"type":"MultiLineString","coordinates":[[[0.2984342,51.4810009],[0.2985126,51.4809916],[0.2985629,51.4809775],[0.2986164,51.4809718],[0.2986682,51.4809679],[0.2987078,51.4809635],[0.2987304,51.4809535]]]}},
{"type":"Feature","properties":{"highway":"footway","name":null,"category":"Footpath (pedestrian only)"},"geometry":{"type":"MultiLineString","coordinates":[[[0.2987304,51.4809535],[0.298804,51.4809593],[0.298848,51.4809644]]]}},
{"type":"Feature","properties":{"highway":"track","name":null,"category":"Track"},"geometry":{"type":"MultiLineString","coordinates":[[[0.3033707,51.4836464],[0.3031926,51.4835876],[0.3030746,51.4834566],[0.3030038,51.4832682],[0.30286,51.4830678],[0.3026894,51.4828981],[0.3024459,51.4827658],[0.3021884,51.4826656],[0.3018772,51.482572],[0.3018021,51.4825827],[0.3018129,51.4826161],[0.3019266,51.4826816],[0.3024158,51.4828379],[0.302624,51.4830103],[0.3027248,51.4832188],[0.3028064,51.4834698],[0.3028643,51.4837346],[0.3028578,51.4840045],[0.30286,51.4844441],[0.3028536,51.4846739],[0.3028342,51.4850093],[0.3028385,51.4852939],[0.3028257,51.4853461],[0.3027012,51.4855759]]]}},
{"type":"Feature","properties":{"highway":"path","name":"Lion Gorge Path","category":"Shared path"},"geometry":{"type":"MultiLineString","coordinates":[[[0.3018772,51.482572],[0.3008088,51.4821987],[0.3006142,51.4820759],[0.300344,51.4816007]]]}},
{"type":"Feature","properties":{"highway":"track","name":null,"category":"Track"},"geometry":{"type":"MultiLineString","coordinates":[[[0.3039497,51.4836954],[0.3037898,51.4836971],[0.303611,51.4836718],[0.3033707,51.4836464]]]}},
{"type":"Feature","properties":{"highway":"footway","name":null,"category":"Footpath (pedestrian only)"},"geometry":{"type":"MultiLineString","coordinates":[[[0.3074611,51.4771858],[0.3076817,51.4770974],[0.307738,51.477084],[0.3078319,51.4770656]]]}},
{"type":"Feature","properties":{"highway":"footway","name":null,"category":"Footpath (pedestrian only)"},"geometry":{"type":"MultiLineString","coordinates":[[[0.3078319,51.4770656],[0.3079319,51.4770094],[0.3079666,51.4769932],[0.3079822,51.4769858],[0.308002,51.4769765],[0.3080519,51.476947]]]}},
{"type":"Feature","properties":{"highway":"footway","name":null,"category":"Footpath (pedestrian only)"},"geometry":{"type":"MultiLineString","coordinates":[[[0.3080519,51.476947],[0.3083268,51.4767697],[0.3085601,51.4766594],[0.3088203,51.4765525],[0.3090724,51.4764723],[0.3091845,51.4764412],[0.3093192,51.4764038],[0.3096217,51.4763412],[0.3096507,51.4763425],[0.3096694,51.4763579],[0.3096707,51.4763895],[0.309554,51.4766345]]]}},
{"type":"Feature","properties":{"highway":"footway","name":null,"category":"Footpath (pedestrian only)"},"geometry":{"type":"MultiLineString","coordinates":[[[0.3073424,51.4769499],[0.3074309,51.4768716],[0.3074997,51.4768142],[0.3075845,51.4767668],[0.3076996,51.4767198],[0.3078547,51.4766703],[0.3082208,51.4765734],[0.3085387,51.4764907],[0.3086653,51.4764533],[0.3086835,51.4764372],[0.3087009,51.4764136],[0.3087052,51.4763863],[0.3086969,51.4763591],[0.3086752,51.4763271],[0.3086401,51.4762877],[0.3086124,51.4762696],[0.3085717,51.4762548],[0.3085345,51.4762476],[0.3084857,51.4762421],[0.3084396,51.4762375],[0.3083951,51.4762358],[0.3083475,51.4762341],[0.3082859,51.4762353],[0.3082351,51.4762401],[0.3081871,51.4762452],[0.3081352,51.4762551],[0.3080934,51.4762645],[0.3080051,51.4762833],[0.3079493,51.4762954],[0.3079095,51.4763048],[0.3078792,51.476313],[0.3078366,51.4763301],[0.3077216,51.4763851],[0.307595,51.476443],[0.3075458,51.4764669],[0.3075311,51.4764777],[0.3075245,51.4764936],[0.3075261,51.4765084],[0.3075497,51.4765419]]]}},
{"type":"Feature","properties":{"highway":"footway","name":null,"category":"Footpath (pedestrian only)"},"geometry":{"type":"MultiLineString","coordinates":[[[0.3054594,51.4774486],[0.3054301,51.477434],[0.3054058,51.4774226],[0.3053832,51.477409],[0.3053715,51.477396],[0.3053614,51.4773741],[0.3052616,51.4771028],[0.3052392,51.477042]]]}},
{"type":"Feature","properties":{"highway":"footway","name":null,"category":"Footpath (pedestrian only)"},"geometry":{"type":"MultiLineString","coordinates":[[[0.3052616,51.4771028],[0.3051961,51.4771131],[0.3051267,51.4771239]]]}},
{"type":"Feature","properties":{"highway":"footway","name":null,"category":"Footpath (pedestrian only)"},"geometry":{"type":"MultiLineString","coordinates":[[[0.3042985,51.4776816],[0.3044287,51.4776549],[0.3045676,51.4776203],[0.3047514,51.477575],[0.3049326,51.4775396],[0.3051032,51.477519],[0.3051548,51.4775099],[0.3052206,51.4774871],[0.3052338,51.477476],[0.3052424,51.4774635],[0.3052465,51.4774455],[0.3052419,51.4774212],[0.3052263,51.4773735],[0.3051267,51.4771239],[0.3050404,51.4768901],[0.3049937,51.4767808],[0.3049632,51.4767359],[0.3049246,51.4766818],[0.304707,51.4764114],[0.3045711,51.4762554],[0.304517,51.4762149],[0.3044451,51.4761762],[0.3043397,51.4761479],[0.3042902,51.4761382],[0.3035631,51.4761041],[0.3035349,51.4761145],[0.3035067,51.4761375],[0.3035009,51.4761619],[0.3034963,51.4762185],[0.3034842,51.4763236],[0.3034261,51.4767639]]]}},
{"type":"Feature","properties":{"highway":"footway","name":null,"category":"Footpath (pedestrian only)"},"geometry":{"type":"MultiLineString","coordinates":[[[0.3033534,51.4773482],[0.3033152,51.4776439],[0.3033032,51.4777315]]]}},
{"type":"Feature","properties":{"highway":"footway","name":null,"category":"Footpath (pedestrian only)"},"geometry":{"type":"MultiLineString","coordinates":[[[0.3033603,51.4772812],[0.3033568,51.4773135],[0.3033534,51.4773482]]]}},
{"type":"Feature","properties":{"highway":"footway","name":null,"category":"Footpath (pedestrian only)"},"geometry":{"type":"MultiLineString","coordinates":[[[0.3034172,51.4768371],[0.3033853,51.4770805],[0.3033603,51.4772812]]]}},
{"type":"Feature","properties":{"highway":"footway","name":null,"category":"Footpath (pedestrian only)"},"geometry":{"type":"MultiLineString","coordinates":[[[0.3034261,51.4767639],[0.3034228,51.4767959],[0.3034172,51.4768371]]]}},
{"type":"Feature","properties":{"highway":"footway","name":null,"category":"Footpath (pedestrian only)"},"geometry":{"type":"MultiLineString","coordinates":[[[0.3167721,51.4772735],[0.3167879,51.4772852],[0.3172858,51.4774233],[0.3174248,51.4774619],[0.3174299,51.4775011],[0.3174187,51.4775429],[0.3174156,51.4775935],[0.3174207,51.4780088],[0.3174248,51.4782183],[0.317435,51.4782765],[0.3174726,51.4785222],[0.3174787,51.4786437],[0.3174695,51.478719],[0.3174329,51.478764],[0.3173588,51.4788158],[0.3172448,51.4788834],[0.3171804,51.4789369],[0.3170624,51.479884],[0.3170329,51.4801288],[0.3170356,51.480224],[0.3171147,51.4803843],[0.3171241,51.4804253],[0.3171026,51.480462],[0.3170503,51.4804871],[0.3163315,51.4806123],[0.3162483,51.4806174],[0.3161679,51.480604],[0.3160727,51.4805848],[0.3156918,51.4804737],[0.3155362,51.4804361],[0.3154236,51.4804161],[0.3153726,51.4803935],[0.3153498,51.4803526],[0.3153498,51.4803],[0.3153753,51.480239],[0.3154008,51.4801931],[0.3155242,51.4800953],[0.3156878,51.4799801],[0.3157387,51.4799609],[0.3158058,51.4799492],[0.3160485,51.47996],[0.3160847,51.4799776],[0.3160834,51.480036],[0.3163221,51.4800277],[0.3163114,51.4798949],[0.3156556,51.4798991],[0.3155805,51.4798941],[0.3155349,51.4798774],[0.3154732,51.4798406],[0.3154155,51.4798155],[0.3153512,51.4797988],[0.3152519,51.4797938],[0.314634,51.4797775],[0.3145559,51.4797755],[0.3143815,51.4797412],[0.3143104,51.4797215],[0.3142833,51.4797068],[0.3142732,51.4796911],[0.3142928,51.479657],[0.3142609,51.4796481],[0.3141281,51.4796168],[0.3140422,51.4797529],[0.3143842,51.4798264],[0.3144928,51.4798456],[0.3145969,51.4798477],[0.3146202,51.4798481],[0.3152921,51.4798632],[0.3153552,51.4798774],[0.3154397,51.4799158],[0.3154839,51.4799584],[0.3154866,51.4800018],[0.3154651,51.4800344],[0.315441,51.4800511],[0.3153069,51.4801605],[0.3152519,51.4802599],[0.3152224,51.4803484],[0.3151741,51.4803768],[0.3150802,51.4803843],[0.3148751,51.4803701],[0.3145733,51.4803501],[0.3144781,51.4803467],[0.3143882,51.4803501],[0.3143024,51.4803685],[0.3142273,51.4803918],[0.3140892,51.480452],[0.3140208,51.4804762],[0.3139671,51.4804821],[0.3139242,51.4804737],[0.313884,51.4804486],[0.3134374,51.4801354],[0.3133408,51.4800628],[0.3133006,51.4800227],[0.3132885,51.4799884],[0.3132751,51.479935],[0.3132724,51.479849],[0.3132617,51.4795566],[0.3132403,51.4794631],[0.313207,51.4794091],[0.3131759,51.4793587],[0.3131102,51.4792793],[0.3129868,51.4791941],[0.312858,51.4791407],[0.3128098,51.4791006],[0.3128017,51.4790196],[0.3128002,51.4789402],[0.3128104,51.4788246],[0.3128735,51.4786164],[0.3129452,51.4784265],[0.3130082,51.4782662],[0.3130666,51.4780204],[0.3131162,51.477779],[0.3131551,51.4775773],[0.313217,51.4774065],[0.3133144,51.4771883],[0.3134292,51.4768573],[0.3134549,51.4767977],[0.3134829,51.476773],[0.313553,51.4767693],[0.3137771,51.4768086],[0.314278,51.4768697],[0.3147111,51.4769249],[0.3151162,51.4769766]]]}},
{"type":"Feature","properties":{"highway":"footway","name":null,"category":"Footpath (pedestrian only)"},"geometry":{"type":"MultiLineString","coordinates":[[[0.3151162,51.4769766],[0.3152124,51.4769866],[0.3152844,51.476994]]]}},
{"type":"Feature","properties":{"highway":"footway","name":null,"category":"Footpath (pedestrian only)"},"geometry":{"type":"MultiLineString","coordinates":[[[0.2985096,51.4799246],[0.2984423,51.4799217],[0.2978225,51.4799004],[0.2972212,51.4800821],[0.2967157,51.4801527],[0.2963444,51.4801221],[0.2960971,51.4798814],[0.2960747,51.4798597],[0.2959724,51.4797828]]]}},
{"type":"Feature","properties":{"highway":"footway","name":null,"category":"Footpath (pedestrian only)"},"geometry":{"type":"MultiLineString","coordinates":[[[0.2949169,51.4798264],[0.2949664,51.4797781],[0.2949973,51.4796955],[0.2950235,51.4795725],[0.2950849,51.4792772]]]}}
]
}
