{
"type": "FeatureCollection",
"name": "EASHE_67_walking",
"crs": { "type": "name", "properties": { "name": "urn:ogc:def:crs:OGC:1.3:CRS84" } },
"features": [
{"type":"Feature","properties":{"highway":"footway","name":null,"category":"Footpath (pedestrian only)"},"geometry":{"type":"MultiLineString","coordinates":[[[0.1449614,51.8633412],[0.1449771,51.8632852],[0.1450008,51.8632022],[0.1450173,51.8631676],[0.1450643,51.8631212],[0.145126,51.863069],[0.145421,51.862838],[0.1459139,51.8625299],[0.1459573,51.8625048],[0.1460537,51.862447],[0.1462437,51.8623349],[0.1463147,51.862299],[0.1465227,51.8621811],[0.1471272,51.8618583],[0.1471658,51.8618159],[0.147721,51.8614789],[0.1477964,51.8614228],[0.1478542,51.8613611],[0.1479167,51.8612958],[0.147965,51.8612506],[0.1480786,51.8610745],[0.1481183,51.8610022],[0.1481586,51.8609086],[0.1481837,51.8608322]]]}},
{"type":"Feature","properties":{"highway":"footway","name":null,"category":"Footpath (pedestrian only)"},"geometry":{"type":"MultiLineString","coordinates":[[[0.1587201,51.8708888],[0.1587546,51.8708788],[0.1587821,51.8708743],[0.1588109,51.870871],[0.1588699,51.8708871],[0.1588951,51.8708957],[0.1590806,51.8709593],[0.1590996,51.8709658]]]}},
{"type":"Feature","properties":{"highway":"footway","name":null,"category":"Footpath (pedestrian only)"},"geometry":{"type":"MultiLineString","coordinates":[[[0.1568461,51.864996],[0.1570688,51.8642987],[0.1571775,51.8639693],[0.1572317,51.863805],[0.1579854,51.8641114],[0.1580518,51.8641463],[0.158084,51.8641786],[0.1580948,51.864215],[0.1580881,51.8642614],[0.1580679,51.8642937],[0.1580304,51.8643235],[0.157966,51.8643558],[0.1579137,51.8643674],[0.1578614,51.8643716],[0.1578024,51.8643714]]]}},
{"type":"Feature","properties":{"highway":"footway","name":null,"category":"Footpath (pedestrian only)"},"geometry":{"type":"MultiLineString","coordinates":[[[0.1670592,51.8630103],[0.1669872,51.8630507],[0.166902,51.8631168],[0.1668415,51.8631686],[0.1666709,51.8633233],[0.1664476,51.8636425],[0.1663305,51.8637751],[0.1662222,51.8638678],[0.1659386,51.8640839],[0.1657673,51.8642569],[0.1655741,51.8645326],[0.1654059,51.8647316],[0.1652885,51.8648167],[0.1651674,51.8648623],[0.1650212,51.864901],[0.1646856,51.8649568],[0.164226,51.8650487],[0.1640971,51.8650804],[0.1639568,51.8651464],[0.1635461,51.865374],[0.1634733,51.8654178],[0.1630887,51.8656491],[0.1628392,51.8657585],[0.1621787,51.8660975],[0.1619795,51.8661997],[0.1616829,51.8663938],[0.1615831,51.8665316],[0.16155,51.8665773],[0.161547,51.8667298],[0.161636,51.8669536],[0.1618186,51.8672396],[0.1620054,51.8675262],[0.162106,51.8676951],[0.1622068,51.867845],[0.1623537,51.8680394],[0.1624219,51.8681538],[0.1625586,51.8683703],[0.1626492,51.8685899],[0.162654,51.8687831],[0.1626834,51.8689643],[0.1628031,51.8692115],[0.1628799,51.8693775],[0.1630441,51.8697375],[0.1631259,51.8699431]]]}},
{"type":"Feature","properties":{"highway":"footway","name":null,"category":"Footpath (pedestrian only)"},"geometry":{"type":"MultiLineString","coordinates":[[[0.1418479,51.8617911],[0.14183,51.861861],[0.1418473,51.8619463],[0.1419243,51.8620727],[0.1419356,51.8621336],[0.14195,51.8622786],[0.1418062,51.8625071],[0.140953,51.863027],[0.1399638,51.863638],[0.1399245,51.86366],[0.1398127,51.8637227],[0.1397615,51.8637867],[0.1397216,51.8638035]]]}},
{"type":"Feature","properties":{"highway":"footway","name":null,"category":"Footpath (pedestrian only)"},"geometry":{"type":"MultiLineString","coordinates":[[[0.1439402,51.8659931],[0.1439019,51.8659509],[0.1439025,51.8659244],[0.1439173,51.8659041],[0.1440429,51.865789],[0.1440739,51.8657616],[0.1440851,51.8657526]]]}},
{"type":"Feature","properties":{"highway":"footway","name":null,"category":"Footpath (pedestrian only)"},"geometry":{"type":"MultiLineString","coordinates":[[[0.1516466,51.867509],[0.1517036,51.8674834],[0.1517269,51.867447],[0.1517637,51.8673281],[0.1517732,51.867296],[0.1517474,51.8671354],[0.1518875,51.8665906],[0.1521852,51.8657774],[0.1522859,51.8655257]]]}},
{"type":"Feature","properties":{"highway":"footway","name":null,"category":"Footpath (pedestrian only)"},"geometry":{"type":"MultiLineString","coordinates":[[[0.1472542,51.8621956],[0.147522,51.8620489]]]}},
{"type":"Feature","properties":{"highway":"footway","name":null,"category":"Footpath (pedestrian only)"},"geometry":{"type":"MultiLineString","coordinates":[[[0.1476072,51.8632028],[0.147407,51.8633197],[0.1473304,51.8633722],[0.1472336,51.8634366],[0.147171,51.8634878],[0.1470246,51.8635225],[0.1468442,51.8636823],[0.1467845,51.8638011],[0.1467698,51.8638643],[0.1467718,51.8638999],[0.1467924,51.8639507],[0.1468481,51.8640068],[0.1468707,51.8640397],[0.1468917,51.864053],[0.146961,51.8640762],[0.146982,51.8640837],[0.147007,51.8640999],[0.147083,51.8641965],[0.1470938,51.8642256],[0.1471024,51.8642763],[0.1470876,51.8642898]]]}},
{"type":"Feature","properties":{"highway":"footway","name":null,"category":"Footpath (pedestrian only)"},"geometry":{"type":"MultiLineString","coordinates":[[[0.1531109,51.8613297],[0.153113,51.8607803],[0.152595,51.8604473]]]}},
{"type":"Feature","properties":{"highway":"footway","name":"The Coppice","category":"Footpath (pedestrian only)"},"geometry":{"type":"MultiLineString","coordinates":[[[0.1434343,51.8624798],[0.1437075,51.8624112],[0.1437761,51.8623907],[0.143833,51.8623657],[0.1439055,51.8623064],[0.144112,51.8622596],[0.1441114,51.8622311]]]}},
{"type":"Feature","properties":{"highway":"footway","name":null,"category":"Footpath (pedestrian only)"},"geometry":{"type":"MultiLineString","coordinates":[[[0.1461357,51.8607736],[0.1462335,51.8608847],[0.1463933,51.8610634]]]}},
{"type":"Feature","properties":{"highway":"footway","name":null,"category":"Footpath (pedestrian only)"},"geometry":{"type":"MultiLineString","coordinates":[[[0.1471153,51.8609837],[0.1471342,51.860933],[0.1470749,51.8607482],[0.1470253,51.8605892],[0.1469907,51.8605537]]]}},
{"type":"Feature","properties":{"highway":"footway","name":"Wentworth Drive","category":"Footpath (pedestrian only)"},"geometry":{"type":"MultiLineString","coordinates":[[[0.1474987,51.8655852],[0.1471407,51.8655549],[0.1470277,51.8655368],[0.1467883,51.8654932]]]}},
{"type":"Feature","properties":{"highway":"footway","name":null,"category":"Footpath (pedestrian only)"},"geometry":{"type":"MultiLineString","coordinates":[[[0.1461914,51.8638592],[0.1464189,51.8639688]]]}},
{"type":"Feature","properties":{"highway":"footway","name":null,"category":"Footpath (pedestrian only)"},"geometry":{"type":"MultiLineString","coordinates":[[[0.141129,51.863128],[0.140953,51.863027]]]}},
{"type":"Feature","properties":{"highway":"footway","name":null,"category":"Footpath (pedestrian only)"},"geometry":{"type":"MultiLineString","coordinates":[[[0.1622537,51.8604644],[0.1622713,51.8604334]]]}},
{"type":"Feature","properties":{"highway":"footway","name":null,"category":"Footpath (pedestrian only)"},"geometry":{"type":"MultiLineString","coordinates":[[[0.15675,51.8716214],[0.1567071,51.8715884],[0.1565782,51.8715615]]]}},
{"type":"Feature","properties":{"highway":"footway","name":null,"category":"Footpath (pedestrian only)"},"geometry":{"type":"MultiLineString","coordinates":[[[0.1585517,51.8701042],[0.1583896,51.8700579],[0.1583411,51.8700416]]]}},
{"type":"Feature","properties":{"highway":"footway","name":null,"category":"Footpath (pedestrian only)"},"geometry":{"type":"MultiLineString","coordinates":[[[0.1548339,51.8691812],[0.1549717,51.8691955],[0.1551461,51.8691744],[0.1552246,51.8690611],[0.1552437,51.8689272],[0.1552484,51.8688947],[0.1552558,51.8685872],[0.1556839,51.8685104],[0.1563904,51.8683742],[0.1564601,51.868361]]]}},
{"type":"Feature","properties":{"highway":"footway","name":null,"category":"Footpath (pedestrian only)"},"geometry":{"type":"MultiLineString","coordinates":[[[0.154986,51.8578693],[0.1557391,51.8580085],[0.1558207,51.8580355],[0.1565009,51.8582602],[0.1567557,51.8583696],[0.1570185,51.8584609],[0.1572654,51.8585701],[0.1576998,51.8588152],[0.1580754,51.8590786],[0.1585152,51.8594414],[0.1589045,51.8597602],[0.1593521,51.8599648],[0.159532,51.8601105]]]}},
{"type":"Feature","properties":{"highway":"footway","name":null,"category":"Footpath (pedestrian only)"},"geometry":{"type":"MultiLineString","coordinates":[[[0.1561539,51.8634464],[0.1558852,51.8632141],[0.1557404,51.8630977],[0.1555165,51.8629517],[0.1553722,51.8628991]]]}},
{"type":"Feature","properties":{"highway":"footway","name":null,"category":"Footpath (pedestrian only)"},"geometry":{"type":"MultiLineString","coordinates":[[[0.156177,51.8635303],[0.1561708,51.8636377],[0.1561904,51.8637736],[0.1562312,51.8638513],[0.1563385,51.8640452],[0.1562528,51.864136],[0.1562534,51.8641724],[0.1562782,51.8642109],[0.1563058,51.8642218]]]}},
{"type":"Feature","properties":{"highway":"footway","name":"Oak Street","category":"Footpath (pedestrian only)"},"geometry":{"type":"MultiLineString","coordinates":[[[0.1565575,51.8667914],[0.1567001,51.8668135]]]}},
{"type":"Feature","properties":{"highway":"footway","name":null,"category":"Footpath (pedestrian only)"},"geometry":{"type":"MultiLineString","coordinates":[[[0.1575086,51.8669857],[0.1576491,51.8670024],[0.1578293,51.8669686],[0.1579092,51.8669786],[0.1582695,51.8670268],[0.1584288,51.8670481]]]}},
{"type":"Feature","properties":{"highway":"footway","name":null,"category":"Footpath (pedestrian only)"},"geometry":{"type":"MultiLineString","coordinates":[[[0.15192,51.867294],[0.1519097,51.8673315],[0.1518645,51.8673432],[0.1517637,51.8673281]]]}},
{"type":"Feature","properties":{"highway":"footway","name":null,"category":"Footpath (pedestrian only)"},"geometry":{"type":"MultiLineString","coordinates":[[[0.1604968,51.871291],[0.160435,51.8712925],[0.1603093,51.8712942],[0.1597767,51.8713077],[0.159489,51.8713098],[0.1593881,51.8713061],[0.1593398,51.8713022],[0.1591495,51.8712854],[0.159116,51.8712767],[0.1590309,51.8712523],[0.158997,51.8712416],[0.1589698,51.8712365],[0.1589578,51.8712266],[0.1589604,51.871215],[0.1589685,51.8712009],[0.1591314,51.8709972],[0.1591583,51.8709707],[0.1592414,51.8709393],[0.1593016,51.8709185],[0.1594018,51.8708728],[0.1594909,51.8708084],[0.159566,51.8707397],[0.159582,51.8707091],[0.1596411,51.8705716],[0.1597282,51.8703729],[0.1597886,51.8702305],[0.1597982,51.870212],[0.1598449,51.8701245],[0.1598825,51.8700839],[0.1599629,51.8699961],[0.1600274,51.8699442],[0.1601668,51.8698156],[0.1602897,51.8696993],[0.1604095,51.8695688],[0.1604881,51.8694592],[0.1605383,51.8693345],[0.1606013,51.8690786],[0.1606509,51.868947],[0.1606992,51.8687234],[0.1607099,51.8686488],[0.1607587,51.868453],[0.1608172,51.8682646],[0.1608628,51.8681164],[0.1609044,51.8680568],[0.160946,51.8680327],[0.1609902,51.8680228],[0.1610331,51.8680137],[0.1611283,51.8679955],[0.1613992,51.8679549]]]}},
{"type":"Feature","properties":{"highway":"bridleway","name":null,"category":"Bridleway"},"geometry":{"type":"MultiLineString","coordinates":[[[0.1408622,51.8659701],[0.1409378,51.8658384],[0.1410369,51.8655063],[0.1410839,51.8653987],[0.1413083,51.8650478],[0.1413401,51.865014],[0.1415733,51.8646893]]]}},
{"type":"Feature","properties":{"highway":"footway","name":null,"category":"Footpath (pedestrian only)"},"geometry":{"type":"MultiLineString","coordinates":[[[0.1495992,51.8608533],[0.1492155,51.8608009],[0.1491921,51.8607801],[0.1491726,51.8607546],[0.149135,51.8605891]]]}},
{"type":"Feature","properties":{"highway":"footway","name":null,"category":"Footpath (pedestrian only)"},"geometry":{"type":"MultiLineString","coordinates":[[[0.1595257,51.8659129],[0.1595414,51.8659161],[0.1595542,51.865919],[0.159577,51.8659389],[0.1596096,51.8659594],[0.1596413,51.8659643],[0.1596756,51.8659621],[0.1597031,51.8659557],[0.1597507,51.8659302],[0.1598017,51.8659157],[0.1598533,51.8659128],[0.1599123,51.8659207],[0.1599532,51.8659368],[0.159978,51.8659567],[0.1599894,51.8659811],[0.1599911,51.8660192],[0.1599599,51.8660509],[0.1599233,51.8660729],[0.1598664,51.8661024],[0.1598483,51.8661211],[0.1598413,51.8661414],[0.1598501,51.8662954],[0.1598508,51.8663185]]]}},
{"type":"Feature","properties":{"highway":"footway","name":"New Path","category":"Footpath (pedestrian only)"},"geometry":{"type":"MultiLineString","coordinates":[[[0.1607782,51.8662825],[0.160706,51.8662861],[0.1605793,51.8662829],[0.1603793,51.8662919],[0.1602696,51.8663062]]]}},
{"type":"Feature","properties":{"highway":"footway","name":null,"category":"Footpath (pedestrian only)"},"geometry":{"type":"MultiLineString","coordinates":[[[0.1484556,51.8701813],[0.1486258,51.8698052],[0.1483897,51.8696508]]]}},
{"type":"Feature","properties":{"highway":"path","name":null,"category":"Shared path"},"geometry":{"type":"MultiLineString","coordinates":[[[0.1444309,51.8687433],[0.1445825,51.868737],[0.1446986,51.8687055],[0.1447477,51.8686798],[0.1448011,51.8686457],[0.144819,51.8685182],[0.1447774,51.8683525],[0.1447359,51.8682274],[0.1447547,51.8681686],[0.1447963,51.868138],[0.1451772,51.8681015],[0.1458102,51.8680452],[0.1459765,51.8680154],[0.1461642,51.8679558],[0.1463895,51.8678631],[0.1466029,51.8677933],[0.1466953,51.8677686],[0.1469894,51.8677096],[0.1470802,51.8676837]]]}},
{"type":"Feature","properties":{"highway":"footway","name":null,"category":"Footpath (pedestrian only)"},"geometry":{"type":"MultiLineString","coordinates":[[[0.14689,51.8687648],[0.1468831,51.8688088],[0.146985,51.8688965],[0.1470481,51.8689387],[0.1471298,51.8689826],[0.1471406,51.8690124],[0.1471694,51.8690471],[0.1471969,51.8690803],[0.1472439,51.8691366],[0.1473109,51.8691913],[0.1473885,51.8692366],[0.1475415,51.8693437],[0.1476381,51.8694115],[0.1477951,51.8694852],[0.1479748,51.8695474],[0.148086,51.8696101]]]}},
{"type":"Feature","properties":{"highway":"footway","name":"Riverside Walk","category":"Footpath (pedestrian only)"},"geometry":{"type":"MultiLineString","coordinates":[[[0.1613959,51.868507],[0.1607587,51.868453],[0.1607191,51.8684496]]]}},
{"type":"Feature","properties":{"highway":"footway","name":null,"category":"Footpath (pedestrian only)"},"geometry":{"type":"MultiLineString","coordinates":[[[0.1583896,51.8700579],[0.1584453,51.8699692],[0.1586663,51.8696119]]]}},
{"type":"Feature","properties":{"highway":"footway","name":null,"category":"Footpath (pedestrian only)"},"geometry":{"type":"MultiLineString","coordinates":[[[0.1613541,51.869743],[0.1612893,51.8697328],[0.161237,51.8697096],[0.1611726,51.8696732],[0.1609111,51.8695895],[0.1605114,51.8694662],[0.1604881,51.8694592],[0.1604461,51.8694467]]]}},
{"type":"Feature","properties":{"highway":"footway","name":"The Dells","category":"Footpath (pedestrian only)"},"geometry":{"type":"MultiLineString","coordinates":[[[0.1609365,51.8699567],[0.1608451,51.8699218],[0.1605409,51.8698144],[0.1604343,51.8697657],[0.1602897,51.8696993],[0.1602556,51.8696851]]]}},
{"type":"Feature","properties":{"highway":"footway","name":null,"category":"Footpath (pedestrian only)"},"geometry":{"type":"MultiLineString","coordinates":[[[0.1480935,51.8656879],[0.1480922,51.8656782],[0.148147,51.8655296],[0.1485058,51.865524],[0.1492644,51.8655147],[0.1493125,51.8653621],[0.1493092,51.865193]]]}},
{"type":"Feature","properties":{"highway":"footway","name":null,"category":"Footpath (pedestrian only)"},"geometry":{"type":"MultiLineString","coordinates":[[[0.148147,51.8655296],[0.1478244,51.8655234],[0.1477359,51.8655375],[0.147693,51.8655685],[0.1476672,51.8655921],[0.1476316,51.8656019],[0.1474987,51.8655852]]]}},
{"type":"Feature","properties":{"highway":"footway","name":null,"category":"Footpath (pedestrian only)"},"geometry":{"type":"MultiLineString","coordinates":[[[0.1439338,51.8636539],[0.1435933,51.8634816],[0.1435691,51.8634701],[0.1434952,51.863432],[0.1431662,51.8632934],[0.1430125,51.863249]]]}},
{"type":"Feature","properties":{"highway":"footway","name":null,"category":"Footpath (pedestrian only)"},"geometry":{"type":"MultiLineString","coordinates":[[[0.1428763,51.8629154],[0.142778,51.8629366]]]}},
{"type":"Feature","properties":{"highway":"footway","name":null,"category":"Footpath (pedestrian only)"},"geometry":{"type":"MultiLineString","coordinates":[[[0.1414617,51.8637017],[0.1414998,51.8636934],[0.141503,51.8636354],[0.1415295,51.8635877],[0.1415797,51.8635276],[0.1416548,51.8634306],[0.1416606,51.8633955],[0.1416534,51.8633739]]]}},
{"type":"Feature","properties":{"highway":"footway","name":null,"category":"Footpath (pedestrian only)"},"geometry":{"type":"MultiLineString","coordinates":[[[0.142513,51.8624234],[0.1425422,51.8625052],[0.1425718,51.8625657],[0.1427964,51.8628144],[0.1428763,51.8629154],[0.1429731,51.8630456],[0.1430236,51.8631371],[0.1430217,51.8632033],[0.1430125,51.863249],[0.1429526,51.8633602],[0.142797,51.8635517],[0.1426372,51.8637444],[0.1424698,51.8639032],[0.1423182,51.8640598]]]}},
{"type":"Feature","properties":{"highway":"footway","name":null,"category":"Footpath (pedestrian only)"},"geometry":{"type":"MultiLineString","coordinates":[[[0.1424067,51.863412],[0.1424276,51.8634133],[0.1425549,51.8634758],[0.142797,51.8635517]]]}},
{"type":"Feature","properties":{"highway":"footway","name":null,"category":"Footpath (pedestrian only)"},"geometry":{"type":"MultiLineString","coordinates":[[[0.1458789,51.8624485],[0.1458678,51.8623857],[0.14582,51.8623509],[0.1457584,51.8622945],[0.1457422,51.8622619],[0.1457229,51.8622067],[0.145696,51.8621301],[0.1456661,51.8620447],[0.1456489,51.8619913],[0.1456362,51.8619417],[0.1456435,51.8618098],[0.1456453,51.8617935],[0.1456776,51.861713],[0.1458019,51.8617355],[0.1459271,51.8617519],[0.14601,51.8617481],[0.1460791,51.8617336],[0.1462119,51.8616665]]]}},
{"type":"Feature","properties":{"highway":"footway","name":null,"category":"Footpath (pedestrian only)"},"geometry":{"type":"MultiLineString","coordinates":[[[0.1456776,51.861713],[0.1456916,51.8616721],[0.1456992,51.8616458],[0.1457337,51.8615127],[0.1457539,51.8613902],[0.1457576,51.8613433],[0.1457516,51.8613055],[0.1457064,51.8612586],[0.1455549,51.8611257],[0.1454198,51.8609651],[0.1452242,51.8607497],[0.1451829,51.8607133],[0.1449582,51.8605886],[0.1449146,51.8605679],[0.144856,51.8605495],[0.1446463,51.8604927],[0.1444454,51.8604384],[0.144333,51.8604233],[0.1442454,51.8604],[0.1441635,51.8603683],[0.1440696,51.8603255],[0.1439325,51.8602893],[0.1438575,51.8602626],[0.1437975,51.8602226]]]}},
{"type":"Feature","properties":{"highway":"footway","name":null,"category":"Footpath (pedestrian only)"},"geometry":{"type":"MultiLineString","coordinates":[[[0.1455102,51.8620699],[0.1455476,51.8620727],[0.1456136,51.8620887],[0.145696,51.8621301]]]}},
{"type":"Feature","properties":{"highway":"footway","name":null,"category":"Footpath (pedestrian only)"},"geometry":{"type":"MultiLineString","coordinates":[[[0.1455041,51.8616895],[0.1455469,51.8617126],[0.1455939,51.8617475],[0.1456453,51.8617935]]]}},
{"type":"Feature","properties":{"highway":"footway","name":null,"category":"Footpath (pedestrian only)"},"geometry":{"type":"MultiLineString","coordinates":[[[0.1456362,51.8619417],[0.1456144,51.8619943],[0.1455885,51.8620243],[0.1455568,51.862044],[0.1455102,51.8620699]]]}},
{"type":"Feature","properties":{"highway":"footway","name":null,"category":"Footpath (pedestrian only)"},"geometry":{"type":"MultiLineString","coordinates":[[[0.1452715,51.8614477],[0.1452762,51.8614779],[0.1452788,51.8615024],[0.1452893,51.8615389],[0.1453654,51.8617196],[0.1455041,51.8616895],[0.1456992,51.8616458]]]}},
{"type":"Feature","properties":{"highway":"footway","name":null,"category":"Footpath (pedestrian only)"},"geometry":{"type":"MultiLineString","coordinates":[[[0.1482207,51.860683],[0.1486978,51.8606375],[0.149135,51.8605891],[0.1492872,51.8605767],[0.1494433,51.8605705],[0.1496297,51.8605722],[0.1498097,51.8605763],[0.1500132,51.8605793],[0.1500994,51.8605849],[0.1502601,51.8606078],[0.1503899,51.860632],[0.1504867,51.8606654],[0.1510478,51.8607755]]]}},
{"type":"Feature","properties":{"highway":"footway","name":null,"category":"Footpath (pedestrian only)"},"geometry":{"type":"MultiLineString","coordinates":[[[0.1619862,51.8678616],[0.1617703,51.867886],[0.1617671,51.8679133],[0.161785,51.8680301],[0.161759,51.8683381],[0.1616975,51.8686433],[0.1616422,51.8689523],[0.1616323,51.8690673],[0.1615592,51.8690622]]]}},
{"type":"Feature","properties":{"highway":"footway","name":"Knebworth Court","category":"Footpath (pedestrian only)"},"geometry":{"type":"MultiLineString","coordinates":[[[0.146734,51.8649393],[0.1466848,51.8649162],[0.1467861,51.8648231],[0.1468122,51.8648202],[0.1469139,51.8648628],[0.1469306,51.8648304],[0.1470197,51.8647485],[0.1470311,51.864725],[0.1470996,51.8646868],[0.1470721,51.8645878],[0.1470104,51.8645646],[0.146977,51.8644455],[0.1469501,51.8643216]]]}},
{"type":"Feature","properties":{"highway":"footway","name":"Knebworth Court","category":"Footpath (pedestrian only)"},"geometry":{"type":"MultiLineString","coordinates":[[[0.1467592,51.864333],[0.1467931,51.8644636],[0.146977,51.8644455]]]}},
{"type":"Feature","properties":{"highway":"footway","name":null,"category":"Footpath (pedestrian only)"},"geometry":{"type":"MultiLineString","coordinates":[[[0.1544068,51.8642465],[0.1546322,51.8642307],[0.1548132,51.8641885],[0.154942,51.8641272],[0.1550438,51.8640551],[0.1551174,51.8640102]]]}},
{"type":"Feature","properties":{"highway":"footway","name":null,"category":"Footpath (pedestrian only)"},"geometry":{"type":"MultiLineString","coordinates":[[[0.1524932,51.8651023],[0.1525506,51.865151]]]}},
{"type":"Feature","properties":{"highway":"footway","name":null,"category":"Footpath (pedestrian only)"},"geometry":{"type":"MultiLineString","coordinates":[[[0.1532837,51.8645105],[0.1539723,51.8646697],[0.1541091,51.8646324],[0.1541829,51.8645736],[0.1541131,51.8645007],[0.1542165,51.8643363],[0.1542915,51.864311],[0.154376,51.8642879],[0.1544068,51.8642465],[0.1543412,51.8641686],[0.1543474,51.8641396],[0.1545178,51.8638786],[0.1545651,51.8638514],[0.1550443,51.8639251]]]}},
{"type":"Feature","properties":{"highway":"footway","name":null,"category":"Footpath (pedestrian only)"},"geometry":{"type":"MultiLineString","coordinates":[[[0.1551523,51.8638717],[0.1550599,51.8635889],[0.1549862,51.8632894]]]}},
{"type":"Feature","properties":{"highway":"footway","name":null,"category":"Footpath (pedestrian only)"},"geometry":{"type":"MultiLineString","coordinates":[[[0.1554276,51.8645336],[0.1554006,51.8645452],[0.1553801,51.864561],[0.1553676,51.8645797],[0.1553646,51.8646029],[0.1553739,51.8646255],[0.1553945,51.864645],[0.1554243,51.8646593],[0.1554599,51.8646669],[0.1554977,51.8646669],[0.1555334,51.8646594],[0.1555686,51.8646361],[0.1555831,51.8646269],[0.1555929,51.8646057],[0.1555917,51.8645837],[0.1555797,51.864563],[0.1555579,51.8645455],[0.1555286,51.864533],[0.1554944,51.8645267],[0.1554588,51.8645272],[0.1554276,51.8645336]]]}},
{"type":"Feature","properties":{"highway":"footway","name":null,"category":"Footpath (pedestrian only)"},"geometry":{"type":"MultiLineString","coordinates":[[[0.1525477,51.8650486],[0.1525102,51.8648735],[0.152495,51.8647997],[0.152024,51.864432]]]}},
{"type":"Feature","properties":{"highway":"footway","name":null,"category":"Footpath (pedestrian only)"},"geometry":{"type":"MultiLineString","coordinates":[[[0.1555686,51.8646361],[0.1558225,51.864798],[0.1559036,51.8648237],[0.1559303,51.8648251],[0.1560065,51.8648187]]]}},
{"type":"Feature","properties":{"highway":"footway","name":null,"category":"Footpath (pedestrian only)"},"geometry":{"type":"MultiLineString","coordinates":[[[0.1550407,51.8639461],[0.1550472,51.8639667],[0.1550632,51.8639854],[0.1550873,51.8640003],[0.1551174,51.8640102],[0.1551441,51.8640139],[0.1551715,51.8640136],[0.155198,51.8640094],[0.1552289,51.8639983],[0.1552529,51.8639818],[0.1552675,51.8639617],[0.1552714,51.8639397],[0.1552643,51.863918],[0.1552467,51.8638987],[0.1552204,51.8638837],[0.1551879,51.8638744],[0.1551523,51.8638717],[0.155116,51.8638761],[0.1550839,51.8638873],[0.1550591,51.8639042],[0.1550443,51.8639251],[0.1550407,51.8639461]]]}},
{"type":"Feature","properties":{"highway":"footway","name":null,"category":"Footpath (pedestrian only)"},"geometry":{"type":"MultiLineString","coordinates":[[[0.1542001,51.8672718],[0.1547274,51.8673329]]]}},
{"type":"Feature","properties":{"highway":"footway","name":null,"category":"Footpath (pedestrian only)"},"geometry":{"type":"MultiLineString","coordinates":[[[0.1584415,51.8671748],[0.1584555,51.8671761],[0.1584595,51.867169]]]}},
{"type":"Feature","properties":{"highway":"footway","name":null,"category":"Footpath (pedestrian only)"},"geometry":{"type":"MultiLineString","coordinates":[[[0.1580348,51.8705573],[0.158087,51.8705464]]]}},
{"type":"Feature","properties":{"highway":"footway","name":null,"category":"Footpath (pedestrian only)"},"geometry":{"type":"MultiLineString","coordinates":[[[0.1578294,51.8708899],[0.1578885,51.870902]]]}},
{"type":"Feature","properties":{"highway":"footway","name":null,"category":"Footpath (pedestrian only)"},"geometry":{"type":"MultiLineString","coordinates":[[[0.1570528,51.8707028],[0.1571289,51.8706958],[0.1571888,51.8706918],[0.1574601,51.8706762],[0.1576401,51.8706523],[0.157995,51.8705762]]]}},
{"type":"Feature","properties":{"highway":"footway","name":null,"category":"Footpath (pedestrian only)"},"geometry":{"type":"MultiLineString","coordinates":[[[0.1573489,51.8703391],[0.1576401,51.8706523],[0.1577447,51.8707783]]]}},
{"type":"Feature","properties":{"highway":"footway","name":null,"category":"Footpath (pedestrian only)"},"geometry":{"type":"MultiLineString","coordinates":[[[0.1572211,51.869319],[0.1572779,51.8698068],[0.157314,51.8701166],[0.1573489,51.8703391]]]}},
{"type":"Feature","properties":{"highway":"footway","name":null,"category":"Footpath (pedestrian only)"},"geometry":{"type":"MultiLineString","coordinates":[[[0.1578293,51.8669686],[0.157798,51.8670609]]]}},
{"type":"Feature","properties":{"highway":"footway","name":null,"category":"Footpath (pedestrian only)"},"geometry":{"type":"MultiLineString","coordinates":[[[0.155198,51.8640094],[0.1554408,51.8644841],[0.1554588,51.8645272]]]}},
{"type":"Feature","properties":{"highway":"footway","name":null,"category":"Footpath (pedestrian only)"},"geometry":{"type":"MultiLineString","coordinates":[[[0.1570246,51.8667395],[0.1575346,51.8668096],[0.1575772,51.8668157],[0.1575086,51.8669857],[0.157489,51.8670335],[0.1574175,51.8670672],[0.1572854,51.8670483],[0.1568112,51.8669851],[0.1566479,51.8669616]]]}},
{"type":"Feature","properties":{"highway":"footway","name":null,"category":"Footpath (pedestrian only)"},"geometry":{"type":"MultiLineString","coordinates":[[[0.1553676,51.8645797],[0.1553108,51.8645529],[0.1551994,51.8645288],[0.154828,51.8645363],[0.1543827,51.8645495],[0.1541829,51.8645736]]]}},
{"type":"Feature","properties":{"highway":"footway","name":null,"category":"Footpath (pedestrian only)"},"geometry":{"type":"MultiLineString","coordinates":[[[0.1595714,51.8658086],[0.1595672,51.8658264],[0.1595257,51.8659129],[0.1593716,51.8662293]]]}},
{"type":"Feature","properties":{"highway":"footway","name":null,"category":"Footpath (pedestrian only)"},"geometry":{"type":"MultiLineString","coordinates":[[[0.1595875,51.865828],[0.1595714,51.8658086]]]}},
{"type":"Feature","properties":{"highway":"footway","name":null,"category":"Footpath (pedestrian only)"},"geometry":{"type":"MultiLineString","coordinates":[[[0.1576989,51.8663615],[0.157699,51.8663166],[0.157755,51.8661648],[0.1578078,51.8660323],[0.1578236,51.8659904]]]}},
{"type":"Feature","properties":{"highway":"footway","name":null,"category":"Footpath (pedestrian only)"},"geometry":{"type":"MultiLineString","coordinates":[[[0.1483897,51.8696508],[0.148086,51.8696101],[0.1473844,51.8693829],[0.1470617,51.8692953],[0.1467464,51.8692267],[0.1448296,51.8688195],[0.1444309,51.8687433],[0.1430798,51.8687836],[0.1429137,51.8688113]]]}},
{"type":"Feature","properties":{"highway":"footway","name":"Chapel Row","category":"Footpath (pedestrian only)"},"geometry":{"type":"MultiLineString","coordinates":[[[0.1598107,51.8678479],[0.1597796,51.8674978],[0.1597796,51.8673889],[0.1597881,51.8673093]]]}},
{"type":"Feature","properties":{"highway":"footway","name":null,"category":"Footpath (pedestrian only)"},"geometry":{"type":"MultiLineString","coordinates":[[[0.157617,51.8665849],[0.1578054,51.8666105],[0.1579737,51.8667972],[0.1579092,51.8669786]]]}},
{"type":"Feature","properties":{"highway":"footway","name":null,"category":"Footpath (pedestrian only)"},"geometry":{"type":"MultiLineString","coordinates":[[[0.1515334,51.868169],[0.1515565,51.8681826],[0.1515552,51.8682543],[0.1515688,51.8683191],[0.1515939,51.8683676],[0.151577,51.8683762]]]}},
{"type":"Feature","properties":{"highway":"path","name":null,"category":"Shared path"},"geometry":{"type":"MultiLineString","coordinates":[[[0.1410725,51.8689416],[0.1409431,51.8688339],[0.1408995,51.8687666],[0.1407517,51.8685326],[0.1405385,51.8683499],[0.1402934,51.8681397],[0.1402103,51.8679459],[0.1401647,51.8676726],[0.1401379,51.867025],[0.1402747,51.8668528],[0.1404034,51.8668313],[0.1419135,51.8668197],[0.1422166,51.8668263],[0.1425358,51.8669356],[0.1425921,51.8671807],[0.1428737,51.8672138],[0.1433324,51.8672188],[0.1440298,51.8672586],[0.1441156,51.8672238],[0.144298,51.8668263],[0.1443865,51.866548],[0.1445099,51.8664785],[0.1446574,51.8664255],[0.144931,51.8664338],[0.1451777,51.8664718],[0.1464327,51.8667751],[0.1465349,51.8667998],[0.1468193,51.8668014],[0.1468863,51.866924],[0.1469346,51.8671128],[0.1469507,51.8672884],[0.1469319,51.8675699],[0.1468798,51.8676249],[0.1468488,51.8676577],[0.1466029,51.8677933]]]}},
{"type":"Feature","properties":{"highway":"footway","name":null,"category":"Footpath (pedestrian only)"},"geometry":{"type":"MultiLineString","coordinates":[[[0.1630092,51.86429],[0.1630293,51.8642317],[0.1631126,51.864129],[0.1631396,51.8641002],[0.1631843,51.8640709],[0.1634949,51.8639542],[0.1635171,51.8639409],[0.163619,51.8638613],[0.1636411,51.8638467],[0.1636721,51.8638223],[0.1637009,51.8637933],[0.1637901,51.8637112],[0.1637836,51.8636654],[0.1637895,51.8636295]]]}},
{"type":"Feature","properties":{"highway":"footway","name":null,"category":"Footpath (pedestrian only)"},"geometry":{"type":"MultiLineString","coordinates":[[[0.1637836,51.8636654],[0.1636018,51.8636225],[0.1637828,51.8633302]]]}},
{"type":"Feature","properties":{"highway":"path","name":null,"category":"Shared path"},"geometry":{"type":"MultiLineString","coordinates":[[[0.1604582,51.8701437],[0.1604809,51.8700884]]]}},
{"type":"Feature","properties":{"highway":"footway","name":null,"category":"Footpath (pedestrian only)"},"geometry":{"type":"MultiLineString","coordinates":[[[0.1599918,51.8699318],[0.1600274,51.8699442],[0.1602654,51.8700183],[0.1604372,51.8700591],[0.1604388,51.8700787]]]}},
{"type":"Feature","properties":{"highway":"footway","name":null,"category":"Footpath (pedestrian only)"},"geometry":{"type":"MultiLineString","coordinates":[[[0.1524775,51.8704901],[0.1521765,51.8704391],[0.1518687,51.8703787],[0.1514221,51.8702702],[0.1511208,51.8701926]]]}},
{"type":"Feature","properties":{"highway":"footway","name":"The Coppice","category":"Footpath (pedestrian only)"},"geometry":{"type":"MultiLineString","coordinates":[[[0.1445528,51.8626369],[0.1445566,51.8626738],[0.1445472,51.8627185],[0.1445352,51.8627545],[0.1445078,51.8627909],[0.1443514,51.8629578],[0.1443087,51.8630086]]]}},
{"type":"Feature","properties":{"highway":"footway","name":null,"category":"Footpath (pedestrian only)"},"geometry":{"type":"MultiLineString","coordinates":[[[0.1447235,51.8634844],[0.1446107,51.8634299],[0.144482,51.8633677],[0.1444206,51.8633381]]]}},
{"type":"Feature","properties":{"highway":"footway","name":null,"category":"Footpath (pedestrian only)"},"geometry":{"type":"MultiLineString","coordinates":[[[0.1464189,51.8639688],[0.1464326,51.8639718],[0.1464868,51.8639414],[0.1465139,51.8639408],[0.146537,51.8639458],[0.1465756,51.8639792],[0.1465957,51.8639851],[0.1466268,51.8639867],[0.1466629,51.8639848],[0.1467217,51.8639696]]]}},
{"type":"Feature","properties":{"highway":"footway","name":null,"category":"Footpath (pedestrian only)"},"geometry":{"type":"MultiLineString","coordinates":[[[0.1630083,51.867447],[0.1641703,51.8674371],[0.1641247,51.8675307],[0.1641818,51.867546],[0.1642464,51.8675624],[0.1641672,51.8677675]]]}},
{"type":"Feature","properties":{"highway":"footway","name":null,"category":"Footpath (pedestrian only)"},"geometry":{"type":"MultiLineString","coordinates":[[[0.1553439,51.86152],[0.1555507,51.8615541],[0.1556027,51.861562],[0.1561032,51.8616377],[0.1562561,51.8616526],[0.1564586,51.8616485],[0.1566378,51.8616698]]]}},
{"type":"Feature","properties":{"highway":"footway","name":null,"category":"Footpath (pedestrian only)"},"geometry":{"type":"MultiLineString","coordinates":[[[0.1573489,51.8703391],[0.1570528,51.8707028],[0.1569505,51.8708267],[0.1569009,51.8708914],[0.1568716,51.870882],[0.1568015,51.8709719]]]}},
{"type":"Feature","properties":{"highway":"footway","name":null,"category":"Footpath (pedestrian only)"},"geometry":{"type":"MultiLineString","coordinates":[[[0.1608454,51.8670001],[0.1609641,51.8670039],[0.1611666,51.8670054],[0.1613128,51.8669896]]]}},
{"type":"Feature","properties":{"highway":"footway","name":null,"category":"Footpath (pedestrian only)"},"geometry":{"type":"MultiLineString","coordinates":[[[0.1471298,51.8689826],[0.1471203,51.8688921],[0.147114,51.8688331],[0.1471341,51.8686884],[0.1471362,51.868673]]]}},
{"type":"Feature","properties":{"highway":"footway","name":null,"category":"Footpath (pedestrian only)"},"geometry":{"type":"MultiLineString","coordinates":[[[0.1471203,51.8688921],[0.1473373,51.8688802]]]}},
{"type":"Feature","properties":{"highway":"footway","name":null,"category":"Footpath (pedestrian only)"},"geometry":{"type":"MultiLineString","coordinates":[[[0.1471341,51.8686884],[0.1471014,51.8686799],[0.1471398,51.8684713],[0.1472967,51.8678063]]]}},
{"type":"Feature","properties":{"highway":"footway","name":null,"category":"Footpath (pedestrian only)"},"geometry":{"type":"MultiLineString","coordinates":[[[0.1471982,51.8667125],[0.1471727,51.8670223],[0.1471674,51.8671869]]]}},
{"type":"Feature","properties":{"highway":"footway","name":null,"category":"Footpath (pedestrian only)"},"geometry":{"type":"MultiLineString","coordinates":[[[0.1517474,51.8671354],[0.1516167,51.8672785],[0.1512429,51.8672419]]]}},
{"type":"Feature","properties":{"highway":"footway","name":null,"category":"Footpath (pedestrian only)"},"geometry":{"type":"MultiLineString","coordinates":[[[0.1578087,51.8709268],[0.1577757,51.8709907]]]}},
{"type":"Feature","properties":{"highway":"footway","name":null,"category":"Footpath (pedestrian only)"},"geometry":{"type":"MultiLineString","coordinates":[[[0.1577757,51.8709907],[0.1574873,51.870941],[0.1573836,51.8709465],[0.1573089,51.8709749]]]}},
{"type":"Feature","properties":{"highway":"footway","name":null,"category":"Footpath (pedestrian only)"},"geometry":{"type":"MultiLineString","coordinates":[[[0.1577447,51.8707783],[0.1578753,51.8708064],[0.1578527,51.8708466]]]}},
{"type":"Feature","properties":{"highway":"footway","name":null,"category":"Footpath (pedestrian only)"},"geometry":{"type":"MultiLineString","coordinates":[[[0.1574601,51.8706762],[0.1577447,51.8707783]]]}},
{"type":"Feature","properties":{"highway":"footway","name":null,"category":"Footpath (pedestrian only)"},"geometry":{"type":"MultiLineString","coordinates":[[[0.1578614,51.8643716],[0.1578654,51.864461],[0.1578534,51.8645231],[0.1578198,51.8645794],[0.1577528,51.8646515],[0.1576991,51.8646946],[0.1576374,51.8647335],[0.157565,51.8647699],[0.1574819,51.8648022],[0.1574068,51.8648262],[0.1573116,51.8648395],[0.1572405,51.8648544],[0.1571788,51.8648701],[0.157101,51.8649016],[0.157052,51.8649183]]]}},
{"type":"Feature","properties":{"highway":"footway","name":null,"category":"Footpath (pedestrian only)"},"geometry":{"type":"MultiLineString","coordinates":[[[0.1567129,51.8650452],[0.1564063,51.8650117],[0.1564304,51.8649268],[0.1563929,51.8649231],[0.156185,51.8643202],[0.156173,51.8642825],[0.1561709,51.864266],[0.156187,51.8642473],[0.15623,51.8642291],[0.1562782,51.8642109]]]}},
{"type":"Feature","properties":{"highway":"footway","name":null,"category":"Footpath (pedestrian only)"},"geometry":{"type":"MultiLineString","coordinates":[[[0.1569397,51.8651159],[0.1570085,51.8649761],[0.157052,51.8649183],[0.1571251,51.8648213],[0.1572284,51.8647053],[0.1573022,51.8646358],[0.1574484,51.8645811],[0.1575302,51.8645314],[0.1575959,51.8644801],[0.1576425,51.8644314]]]}},
{"type":"Feature","properties":{"highway":"footway","name":null,"category":"Footpath (pedestrian only)"},"geometry":{"type":"MultiLineString","coordinates":[[[0.1563385,51.8640452],[0.1568033,51.8636357]]]}},
{"type":"Feature","properties":{"highway":"footway","name":null,"category":"Footpath (pedestrian only)"},"geometry":{"type":"MultiLineString","coordinates":[[[0.1564656,51.8641619],[0.1565565,51.8640883],[0.1566477,51.8640345],[0.15681,51.8639782],[0.1569682,51.8639633],[0.1571251,51.8639658],[0.1571775,51.8639693],[0.1573665,51.8640022],[0.1574966,51.8640519],[0.1575798,51.8641157],[0.1576321,51.8641902],[0.1576509,51.8642358],[0.1576584,51.8642872]]]}},
{"type":"Feature","properties":{"highway":"footway","name":null,"category":"Footpath (pedestrian only)"},"geometry":{"type":"MultiLineString","coordinates":[[[0.1565471,51.8642448],[0.1570688,51.8642987],[0.157561,51.8643485]]]}},
{"type":"Feature","properties":{"highway":"footway","name":null,"category":"Footpath (pedestrian only)"},"geometry":{"type":"MultiLineString","coordinates":[[[0.1564291,51.8643087],[0.1564861,51.8643997],[0.1565813,51.8645078],[0.1566497,51.8645935],[0.1566671,51.8647681],[0.1566786,51.8649534],[0.1566805,51.8649847],[0.1567129,51.8650452]]]}},
{"type":"Feature","properties":{"highway":"footway","name":null,"category":"Footpath (pedestrian only)"},"geometry":{"type":"MultiLineString","coordinates":[[[0.1583469,51.8639492],[0.157443,51.8636113],[0.1573384,51.8635765],[0.1572981,51.8635931],[0.1572821,51.8636279],[0.1572317,51.863805],[0.1569998,51.8637037],[0.1568033,51.8636357],[0.1565377,51.863533],[0.1563661,51.863478],[0.1562883,51.8634653]]]}},
{"type":"Feature","properties":{"highway":"footway","name":null,"category":"Footpath (pedestrian only)"},"geometry":{"type":"MultiLineString","coordinates":[[[0.1562132,51.8634324],[0.1561813,51.8634358],[0.1561539,51.8634464],[0.1561352,51.8634627],[0.156128,51.8634821],[0.1561334,51.8635018],[0.1561506,51.8635187],[0.156177,51.8635303],[0.1562085,51.8635347],[0.1562404,51.8635314],[0.1562677,51.8635207],[0.1562865,51.8635045],[0.1562937,51.863485],[0.1562883,51.8634653],[0.1562711,51.8634484],[0.1562447,51.8634369],[0.1562132,51.8634324]]]}},
{"type":"Feature","properties":{"highway":"footway","name":null,"category":"Footpath (pedestrian only)"},"geometry":{"type":"MultiLineString","coordinates":[[[0.157679,51.8642846],[0.1576584,51.8642872],[0.1576374,51.8642897],[0.1576012,51.8643033],[0.1575747,51.8643237],[0.157561,51.8643485],[0.157562,51.8643747],[0.1575774,51.8643991],[0.1576053,51.8644188],[0.1576425,51.8644314],[0.1576844,51.8644353],[0.157726,51.8644302],[0.1577622,51.8644166],[0.1577887,51.8643962],[0.1578024,51.8643714],[0.1578014,51.8643453],[0.157786,51.8643209],[0.1577581,51.8643012],[0.1577209,51.8642886],[0.157679,51.8642846]]]}},
{"type":"Feature","properties":{"highway":"footway","name":null,"category":"Footpath (pedestrian only)"},"geometry":{"type":"MultiLineString","coordinates":[[[0.1564237,51.8641579],[0.1563822,51.864163],[0.1563459,51.8641766],[0.1563194,51.8641971],[0.1563058,51.8642218],[0.1563067,51.864248],[0.1563221,51.8642724],[0.15635,51.8642921],[0.1563872,51.8643047],[0.1564291,51.8643087],[0.1564707,51.8643036],[0.1565069,51.86429],[0.1565334,51.8642695],[0.1565471,51.8642448],[0.1565461,51.8642186],[0.1565308,51.8641942],[0.1565028,51.8641745],[0.1564656,51.8641619],[0.1564237,51.8641579]]]}},
{"type":"Feature","properties":{"highway":"footway","name":null,"category":"Footpath (pedestrian only)"},"geometry":{"type":"MultiLineString","coordinates":[[[0.1547411,51.8672745],[0.1547192,51.8672303],[0.1547232,51.8672063],[0.1546749,51.8671342],[0.1547232,51.8669347],[0.1546629,51.866885],[0.1546508,51.8668229],[0.1546267,51.8667947],[0.1546293,51.8667036],[0.1545542,51.8667003],[0.1545855,51.8664736]]]}},
{"type":"Feature","properties":{"highway":"footway","name":null,"category":"Footpath (pedestrian only)"},"geometry":{"type":"MultiLineString","coordinates":[[[0.1492644,51.8655147],[0.149281,51.8655194],[0.1493432,51.8655179]]]}},
{"type":"Feature","properties":{"highway":"footway","name":null,"category":"Footpath (pedestrian only)"},"geometry":{"type":"MultiLineString","coordinates":[[[0.1435691,51.8634701],[0.1435725,51.8634998],[0.1435643,51.8635293],[0.143541,51.8635592],[0.1433603,51.8636924]]]}},
{"type":"Feature","properties":{"highway":"footway","name":null,"category":"Footpath (pedestrian only)"},"geometry":{"type":"MultiLineString","coordinates":[[[0.1496854,51.860938],[0.1497826,51.8609139],[0.1498442,51.860889],[0.1498766,51.8608578],[0.149899,51.8608121],[0.1500132,51.8605793]]]}},
{"type":"Feature","properties":{"highway":"footway","name":null,"category":"Footpath (pedestrian only)"},"geometry":{"type":"MultiLineString","coordinates":[[[0.1486488,51.8609386],[0.1486214,51.8609112],[0.1486978,51.8606375]]]}},
{"type":"Feature","properties":{"highway":"footway","name":null,"category":"Footpath (pedestrian only)"},"geometry":{"type":"MultiLineString","coordinates":[[[0.1415733,51.8646893],[0.1418296,51.8647792],[0.1421928,51.8648999],[0.1422307,51.8649662],[0.1422445,51.8650163]]]}},
{"type":"Feature","properties":{"highway":"footway","name":null,"category":"Footpath (pedestrian only)"},"geometry":{"type":"MultiLineString","coordinates":[[[0.1567945,51.8671409],[0.1568147,51.8670796],[0.1567885,51.8670562],[0.1567415,51.867017]]]}},
{"type":"Feature","properties":{"highway":"footway","name":null,"category":"Footpath (pedestrian only)"},"geometry":{"type":"MultiLineString","coordinates":[[[0.1449371,51.86215],[0.1446769,51.8622111],[0.1446133,51.8622752],[0.144406,51.8623227]]]}},
{"type":"Feature","properties":{"highway":"footway","name":null,"category":"Footpath (pedestrian only)"},"geometry":{"type":"MultiLineString","coordinates":[[[0.15199,51.8582923],[0.1522064,51.8583466],[0.152617,51.8584362],[0.152653,51.8584654],[0.1528093,51.858498]]]}},
{"type":"Feature","properties":{"highway":"track","name":null,"category":"Track"},"geometry":{"type":"MultiLineString","coordinates":[[[0.151933,51.8706059],[0.1515763,51.8706921]]]}},
{"type":"Feature","properties":{"highway":"footway","name":null,"category":"Footpath (pedestrian only)"},"geometry":{"type":"MultiLineString","coordinates":[[[0.1621787,51.8660975],[0.162435,51.8662628],[0.1628266,51.8662662],[0.1628481,51.8666015]]]}},
{"type":"Feature","properties":{"highway":"footway","name":null,"category":"Footpath (pedestrian only)"},"geometry":{"type":"MultiLineString","coordinates":[[[0.1621988,51.8666068],[0.1620758,51.8666125],[0.1619737,51.8666173],[0.1617779,51.8665295],[0.1617232,51.8665301]]]}},
{"type":"Feature","properties":{"highway":"footway","name":null,"category":"Footpath (pedestrian only)"},"geometry":{"type":"MultiLineString","coordinates":[[[0.1607094,51.8664039],[0.1606919,51.8664045],[0.1605922,51.8663533],[0.1605365,51.8663353],[0.160415,51.8663369],[0.1602828,51.8663471],[0.1601394,51.8663854],[0.1601119,51.8663853],[0.1600961,51.866361]]]}},
{"type":"Feature","properties":{"highway":"footway","name":null,"category":"Footpath (pedestrian only)"},"geometry":{"type":"MultiLineString","coordinates":[[[0.1602828,51.8663471],[0.1602784,51.8663274],[0.1602696,51.8663062]]]}},
{"type":"Feature","properties":{"highway":"footway","name":null,"category":"Footpath (pedestrian only)"},"geometry":{"type":"MultiLineString","coordinates":[[[0.1576213,51.8665735],[0.1575068,51.866553],[0.1571108,51.8664915]]]}},
{"type":"Feature","properties":{"highway":"footway","name":"Grove Place","category":"Footpath (pedestrian only)"},"geometry":{"type":"MultiLineString","coordinates":[[[0.1580156,51.8675928],[0.1579965,51.8676237],[0.1578798,51.8677871],[0.1577415,51.8679692],[0.1576355,51.8679928],[0.1576225,51.8679946],[0.1574545,51.8680177]]]}},
{"type":"Feature","properties":{"highway":"footway","name":null,"category":"Footpath (pedestrian only)"},"geometry":{"type":"MultiLineString","coordinates":[[[0.1571849,51.8679539],[0.1571205,51.8679498],[0.1570763,51.8679547]]]}},
{"type":"Feature","properties":{"highway":"footway","name":"Wentworth Drive","category":"Footpath (pedestrian only)"},"geometry":{"type":"MultiLineString","coordinates":[[[0.1474288,51.8657565],[0.1470726,51.8656757],[0.1471407,51.8655549]]]}},
{"type":"Feature","properties":{"highway":"footway","name":null,"category":"Footpath (pedestrian only)"},"geometry":{"type":"MultiLineString","coordinates":[[[0.1423579,51.8647076],[0.1425296,51.8647088],[0.1426463,51.8646872],[0.1427905,51.8646222],[0.143064,51.8644136],[0.1431496,51.8643521],[0.1432278,51.8643008],[0.1436944,51.8639175],[0.1439655,51.8637052],[0.1440201,51.8636612],[0.1443656,51.8633879],[0.1444206,51.8633381]]]}},
{"type":"Feature","properties":{"highway":"footway","name":null,"category":"Footpath (pedestrian only)"},"geometry":{"type":"MultiLineString","coordinates":[[[0.1480193,51.8608084],[0.1479851,51.8607604],[0.1480697,51.8605662],[0.148067,51.8604502],[0.1480425,51.8603241],[0.1479705,51.8602845],[0.1479516,51.8602332],[0.147898,51.8602208],[0.1478854,51.8601843],[0.1478685,51.8601355],[0.1479302,51.8600659],[0.1479144,51.8600363],[0.1478417,51.8599002],[0.1476345,51.8596141],[0.1474735,51.8595752],[0.1474475,51.859559],[0.1474279,51.8595376],[0.1474032,51.8595073],[0.1474322,51.8594867],[0.1474434,51.8594671],[0.1474495,51.8594429],[0.1474393,51.8594165],[0.1471135,51.859067],[0.1468978,51.8588453],[0.1468215,51.8587637],[0.1467608,51.8586955],[0.1466052,51.858533],[0.1464751,51.8584041],[0.1464215,51.8583249],[0.1463316,51.8581841],[0.1463144,51.8581485],[0.1462847,51.8580872],[0.1462391,51.8578677],[0.1462391,51.8578205],[0.1462284,51.8577923],[0.1461962,51.8577724],[0.14616,51.8577592],[0.146151,51.8577097],[0.1461452,51.8576598],[0.1461908,51.857644],[0.146231,51.8576142],[0.1462592,51.8575976],[0.1462565,51.8575537],[0.1463075,51.8574701],[0.1463611,51.8573657],[0.1464805,51.8571371],[0.1465299,51.8570732],[0.1465476,51.8570468],[0.1466582,51.8569278],[0.1468279,51.856761],[0.1470149,51.8566202],[0.1471982,51.8565071],[0.1473493,51.8564306],[0.1474072,51.856409],[0.1474555,51.8563917],[0.1475487,51.8563581],[0.1475989,51.8563407],[0.1479275,51.8562367],[0.1479578,51.8562306],[0.1482172,51.8561779],[0.1484412,51.8561498],[0.1488965,51.8561209],[0.1489186,51.8561196]]]}},
{"type":"Feature","properties":{"highway":"footway","name":null,"category":"Footpath (pedestrian only)"},"geometry":{"type":"MultiLineString","coordinates":[[[0.142512,51.8613668],[0.142528,51.861399],[0.1425551,51.8614532],[0.1427642,51.8618131],[0.1428313,51.8619286],[0.142997,51.8621683],[0.1429789,51.8622019],[0.1430006,51.8622348],[0.1430245,51.8622648],[0.1430593,51.8622756],[0.143284,51.8624901],[0.1434127,51.8626093],[0.1435267,51.8626892],[0.1437051,51.8628176],[0.1437265,51.8628374],[0.1437571,51.8628681],[0.1438124,51.8628947],[0.1438501,51.8629069],[0.1440021,51.8629936],[0.1443589,51.8631974],[0.1443928,51.8632269],[0.1444138,51.8632388],[0.1444527,51.8632703],[0.144442,51.8633017],[0.1444299,51.8633274],[0.1444206,51.8633381]]]}},
{"type":"Feature","properties":{"highway":"footway","name":null,"category":"Footpath (pedestrian only)"},"geometry":{"type":"MultiLineString","coordinates":[[[0.143174,51.8621691],[0.1433135,51.8623406],[0.1434343,51.8624798],[0.1434523,51.8624984],[0.1436292,51.8626405],[0.1436669,51.8626731],[0.1438975,51.8628247],[0.1441564,51.8629513],[0.1443087,51.8630086],[0.1445332,51.8630964],[0.144601,51.8631173],[0.144666,51.8631162],[0.1447143,51.8631058],[0.1447432,51.8630866],[0.1447559,51.8630508],[0.1450264,51.862919],[0.1454076,51.862684],[0.1458678,51.8623857],[0.1459507,51.8623797]]]}},
{"type":"Feature","properties":{"highway":"footway","name":null,"category":"Footpath (pedestrian only)"},"geometry":{"type":"MultiLineString","coordinates":[[[0.1481222,51.8599959],[0.1480061,51.8600184],[0.1479144,51.8600363]]]}},
{"type":"Feature","properties":{"highway":"footway","name":null,"category":"Footpath (pedestrian only)"},"geometry":{"type":"MultiLineString","coordinates":[[[0.1447432,51.8630866],[0.1447906,51.8631098],[0.1449328,51.863172],[0.1450008,51.8632022]]]}},
{"type":"Feature","properties":{"highway":"footway","name":null,"category":"Footpath (pedestrian only)"},"geometry":{"type":"MultiLineString","coordinates":[[[0.1586738,51.8602988],[0.1587795,51.860229],[0.1588144,51.8601529],[0.1588224,51.8600502],[0.1587313,51.8598861],[0.1587581,51.8598415],[0.1587919,51.8598177]]]}},
{"type":"Feature","properties":{"highway":"footway","name":null,"category":"Footpath (pedestrian only)"},"geometry":{"type":"MultiLineString","coordinates":[[[0.1567229,51.8589496],[0.1568389,51.8587623],[0.156924,51.8586211],[0.1569541,51.85857]]]}},
{"type":"Feature","properties":{"highway":"footway","name":null,"category":"Footpath (pedestrian only)"},"geometry":{"type":"MultiLineString","coordinates":[[[0.1569196,51.8600891],[0.156895,51.8600413],[0.1568276,51.8598458],[0.1568356,51.8597916],[0.156856,51.8597573],[0.1568872,51.8597389],[0.1569413,51.8597054]]]}},
{"type":"Feature","properties":{"highway":"footway","name":null,"category":"Footpath (pedestrian only)"},"geometry":{"type":"MultiLineString","coordinates":[[[0.1592088,51.8656078],[0.1592252,51.8656463],[0.1592494,51.8656107],[0.1592949,51.8655958],[0.159301,51.8655594],[0.1593447,51.8655898]]]}},
{"type":"Feature","properties":{"highway":"footway","name":null,"category":"Footpath (pedestrian only)"},"geometry":{"type":"MultiLineString","coordinates":[[[0.1462969,51.8611898],[0.1462133,51.8611249]]]}},
{"type":"Feature","properties":{"highway":"footway","name":null,"category":"Footpath (pedestrian only)"},"geometry":{"type":"MultiLineString","coordinates":[[[0.1450096,51.8642594],[0.1447849,51.8641001],[0.1442376,51.8638103],[0.1441323,51.8637574]]]}},
{"type":"Feature","properties":{"highway":"footway","name":null,"category":"Footpath (pedestrian only)"},"geometry":{"type":"MultiLineString","coordinates":[[[0.1441323,51.8637574],[0.1439338,51.8636539]]]}},
{"type":"Feature","properties":{"highway":"footway","name":null,"category":"Footpath (pedestrian only)"},"geometry":{"type":"MultiLineString","coordinates":[[[0.1553372,51.8602801],[0.1551229,51.8602922],[0.1550753,51.8603319],[0.1547595,51.8606634],[0.1545268,51.8609076]]]}},
{"type":"Feature","properties":{"highway":"footway","name":null,"category":"Footpath (pedestrian only)"},"geometry":{"type":"MultiLineString","coordinates":[[[0.1553324,51.8607618],[0.1553181,51.8606874],[0.155314,51.8606666],[0.1551933,51.8606566],[0.1547595,51.8606634]]]}},
{"type":"Feature","properties":{"highway":"footway","name":null,"category":"Footpath (pedestrian only)"},"geometry":{"type":"MultiLineString","coordinates":[[[0.1544108,51.8609519],[0.1544583,51.860935],[0.1545268,51.8609076]]]}},
{"type":"Feature","properties":{"highway":"footway","name":null,"category":"Footpath (pedestrian only)"},"geometry":{"type":"MultiLineString","coordinates":[[[0.1578236,51.8659904],[0.157901,51.8658121],[0.1579616,51.8656725],[0.1580221,51.8655323],[0.1580521,51.8654634]]]}},
{"type":"Feature","properties":{"highway":"footway","name":null,"category":"Footpath (pedestrian only)"},"geometry":{"type":"MultiLineString","coordinates":[[[0.1594781,51.8687928],[0.1595114,51.8687869]]]}},
{"type":"Feature","properties":{"highway":"footway","name":null,"category":"Footpath (pedestrian only)"},"geometry":{"type":"MultiLineString","coordinates":[[[0.159662,51.8688125],[0.1597589,51.8688062]]]}},
{"type":"Feature","properties":{"highway":"footway","name":null,"category":"Footpath (pedestrian only)"},"geometry":{"type":"MultiLineString","coordinates":[[[0.154708,51.8664796],[0.1547937,51.8660635]]]}},
{"type":"Feature","properties":{"highway":"footway","name":null,"category":"Footpath (pedestrian only)"},"geometry":{"type":"MultiLineString","coordinates":[[[0.1600691,51.868023],[0.1603769,51.8680404],[0.1603996,51.8680064],[0.1602506,51.867982],[0.1600905,51.8679551],[0.1600691,51.868023]]]}},
{"type":"Feature","properties":{"highway":"footway","name":null,"category":"Footpath (pedestrian only)"},"geometry":{"type":"MultiLineString","coordinates":[[[0.1602506,51.867982],[0.1602585,51.8679661],[0.160272,51.8679328]]]}},
{"type":"Feature","properties":{"highway":"footway","name":null,"category":"Footpath (pedestrian only)"},"geometry":{"type":"MultiLineString","coordinates":[[[0.162106,51.8676951],[0.1621845,51.8677446],[0.1622369,51.8677497],[0.1624418,51.8677364],[0.1625144,51.8677352],[0.1625289,51.8677884],[0.1625362,51.8678175],[0.162273,51.8678358]]]}},
{"type":"Feature","properties":{"highway":"footway","name":null,"category":"Footpath (pedestrian only)"},"geometry":{"type":"MultiLineString","coordinates":[[[0.162273,51.8678358],[0.1619862,51.8678616]]]}},
{"type":"Feature","properties":{"highway":"footway","name":null,"category":"Footpath (pedestrian only)"},"geometry":{"type":"MultiLineString","coordinates":[[[0.1617671,51.8679133],[0.1618684,51.8678917],[0.1620243,51.8678915],[0.1621069,51.8679833],[0.1621952,51.8681766],[0.1622364,51.8682652],[0.1622142,51.868315],[0.1622292,51.8683819],[0.1622799,51.8684557],[0.1623456,51.8685502],[0.1622987,51.8688731],[0.1622692,51.8689153],[0.1618749,51.8690727]]]}},
{"type":"Feature","properties":{"highway":"footway","name":null,"category":"Footpath (pedestrian only)"},"geometry":{"type":"MultiLineString","coordinates":[[[0.1616323,51.8690673],[0.1618749,51.8690727]]]}},
{"type":"Feature","properties":{"highway":"footway","name":null,"category":"Footpath (pedestrian only)"},"geometry":{"type":"MultiLineString","coordinates":[[[0.1618749,51.8690727],[0.1617633,51.8692105]]]}},
{"type":"Feature","properties":{"highway":"footway","name":null,"category":"Footpath (pedestrian only)"},"geometry":{"type":"MultiLineString","coordinates":[[[0.1617633,51.8692105],[0.1618403,51.8692353],[0.1618082,51.8692743]]]}},
{"type":"Feature","properties":{"highway":"path","name":null,"category":"Shared path"},"geometry":{"type":"MultiLineString","coordinates":[[[0.1606351,51.8659994],[0.1606175,51.8657766],[0.1606591,51.86571],[0.1607262,51.8656176],[0.1607617,51.8655688]]]}},
{"type":"Feature","properties":{"highway":"footway","name":null,"category":"Footpath (pedestrian only)"},"geometry":{"type":"MultiLineString","coordinates":[[[0.160776,51.8680212],[0.1607823,51.8679969],[0.1607647,51.8679819],[0.1607482,51.8679679],[0.1607784,51.8679572],[0.160771,51.8678727],[0.1607456,51.8676657],[0.1607417,51.8676453],[0.1607244,51.8675535],[0.1607151,51.8675168],[0.1607083,51.8674903],[0.1606993,51.8672646],[0.1606997,51.8672213],[0.1607013,51.8670767],[0.1607003,51.8670383],[0.1606983,51.8669665],[0.1607193,51.8669666]]]}},
{"type":"Feature","properties":{"highway":"footway","name":null,"category":"Footpath (pedestrian only)"},"geometry":{"type":"MultiLineString","coordinates":[[[0.1607617,51.8655688],[0.1605042,51.865517]]]}},
{"type":"Feature","properties":{"highway":"footway","name":null,"category":"Footpath (pedestrian only)"},"geometry":{"type":"MultiLineString","coordinates":[[[0.1587528,51.8667583],[0.1586233,51.8669474],[0.1586791,51.8669808]]]}},
{"type":"Feature","properties":{"highway":"footway","name":null,"category":"Footpath (pedestrian only)"},"geometry":{"type":"MultiLineString","coordinates":[[[0.1518188,51.8611152],[0.1518239,51.860867]]]}},
{"type":"Feature","properties":{"highway":"footway","name":null,"category":"Footpath (pedestrian only)"},"geometry":{"type":"MultiLineString","coordinates":[[[0.1514138,51.8607718],[0.1513659,51.8607403],[0.1511607,51.860696],[0.1510942,51.8606817]]]}},
{"type":"Feature","properties":{"highway":"footway","name":null,"category":"Footpath (pedestrian only)"},"geometry":{"type":"MultiLineString","coordinates":[[[0.1424765,51.8651349],[0.1425395,51.8651349],[0.1426039,51.8651424],[0.1426709,51.8651581],[0.1426966,51.8651718],[0.142852,51.865255],[0.1430692,51.8653527],[0.1431585,51.8653863],[0.1433884,51.8654728],[0.1438565,51.865655],[0.1440851,51.8657526],[0.1447376,51.866031],[0.1452573,51.8662279],[0.1458896,51.8664144],[0.1462356,51.8665005],[0.1465165,51.8665647],[0.1468887,51.8666496],[0.1469316,51.8666637],[0.1469504,51.8666902],[0.1469544,51.8667192],[0.146976,51.8667209]]]}},
{"type":"Feature","properties":{"highway":"footway","name":null,"category":"Footpath (pedestrian only)"},"geometry":{"type":"MultiLineString","coordinates":[[[0.1466769,51.8650312],[0.1466962,51.8649729],[0.146734,51.8649393]]]}},
{"type":"Feature","properties":{"highway":"footway","name":"Knebworth Court","category":"Footpath (pedestrian only)"},"geometry":{"type":"MultiLineString","coordinates":[[[0.146734,51.8649393],[0.146791,51.8649644],[0.1468218,51.8649627],[0.1469084,51.8648856],[0.1469139,51.8648628]]]}},
{"type":"Feature","properties":{"highway":"footway","name":null,"category":"Footpath (pedestrian only)"},"geometry":{"type":"MultiLineString","coordinates":[[[0.1511208,51.8701926],[0.1501092,51.870002],[0.149148,51.8697562],[0.1488166,51.8697103],[0.1487139,51.8697001],[0.1483897,51.8696508]]]}},
{"type":"Feature","properties":{"highway":"footway","name":null,"category":"Footpath (pedestrian only)"},"geometry":{"type":"MultiLineString","coordinates":[[[0.1611296,51.8700337],[0.1611431,51.8700193],[0.1610502,51.8699959],[0.1610142,51.8699835]]]}},
{"type":"Feature","properties":{"highway":"footway","name":null,"category":"Footpath (pedestrian only)"},"geometry":{"type":"MultiLineString","coordinates":[[[0.1479851,51.8607604],[0.1478177,51.8607974]]]}},
{"type":"Feature","properties":{"highway":"footway","name":null,"category":"Footpath (pedestrian only)"},"geometry":{"type":"MultiLineString","coordinates":[[[0.1567015,51.8651834],[0.1562159,51.8651388],[0.1561187,51.86513]]]}},
{"type":"Feature","properties":{"highway":"footway","name":null,"category":"Footpath (pedestrian only)"},"geometry":{"type":"MultiLineString","coordinates":[[[0.1572495,51.8701021],[0.1572767,51.8701082],[0.157314,51.8701166]]]}},
{"type":"Feature","properties":{"highway":"footway","name":null,"category":"Footpath (pedestrian only)"},"geometry":{"type":"MultiLineString","coordinates":[[[0.1570045,51.86976],[0.1569895,51.8697672],[0.1569793,51.8697772],[0.1569752,51.8697886],[0.1569778,51.8698003],[0.1569855,51.8698098],[0.1569976,51.8698173],[0.1570129,51.8698222],[0.1570298,51.8698239],[0.1570469,51.8698223],[0.1570622,51.8698175],[0.1570744,51.86981],[0.1570823,51.8698006],[0.157085,51.8697901],[0.1570823,51.8697796],[0.1570734,51.8697692],[0.1570593,51.8697613],[0.1570417,51.8697569],[0.1570227,51.8697564],[0.1570045,51.86976]]]}},
{"type":"Feature","properties":{"highway":"path","name":null,"category":"Shared path"},"geometry":{"type":"MultiLineString","coordinates":[[[0.1569416,51.8692308],[0.157045,51.8694036],[0.1570227,51.8697564]]]}},
{"type":"Feature","properties":{"highway":"footway","name":null,"category":"Footpath (pedestrian only)"},"geometry":{"type":"MultiLineString","coordinates":[[[0.1561413,51.8694581],[0.1562926,51.8691919]]]}},
{"type":"Feature","properties":{"highway":"footway","name":"Vicarage Close","category":"Footpath (pedestrian only)"},"geometry":{"type":"MultiLineString","coordinates":[[[0.1562895,51.8682134],[0.1566635,51.8680161],[0.156632,51.8679445],[0.1560705,51.8679809]]]}},
{"type":"Feature","properties":{"highway":"path","name":null,"category":"Shared path"},"geometry":{"type":"MultiLineString","coordinates":[[[0.1421866,51.8622807],[0.14195,51.8622786]]]}},
{"type":"Feature","properties":{"highway":"footway","name":null,"category":"Footpath (pedestrian only)"},"geometry":{"type":"MultiLineString","coordinates":[[[0.1431662,51.8632934],[0.1434273,51.8631308],[0.1435126,51.8630807]]]}},
{"type":"Feature","properties":{"highway":"footway","name":null,"category":"Footpath (pedestrian only)"},"geometry":{"type":"MultiLineString","coordinates":[[[0.1591478,51.8658392],[0.1591899,51.865732],[0.1592252,51.8656463]]]}},
{"type":"Feature","properties":{"highway":"footway","name":null,"category":"Footpath (pedestrian only)"},"geometry":{"type":"MultiLineString","coordinates":[[[0.1598491,51.8671811],[0.1597588,51.8672187]]]}},
{"type":"Feature","properties":{"highway":"path","name":null,"category":"Shared path"},"geometry":{"type":"MultiLineString","coordinates":[[[0.1562733,51.8686999],[0.1563266,51.8686859],[0.1564204,51.8687124],[0.1564767,51.8687803]]]}},
{"type":"Feature","properties":{"highway":"track","name":null,"category":"Track"},"geometry":{"type":"MultiLineString","coordinates":[[[0.1535728,51.8694982],[0.1534531,51.8696774],[0.1534117,51.8697394]]]}},
{"type":"Feature","properties":{"highway":"footway","name":null,"category":"Footpath (pedestrian only)"},"geometry":{"type":"MultiLineString","coordinates":[[[0.1516167,51.8672785],[0.1517732,51.867296]]]}},
{"type":"Feature","properties":{"highway":"footway","name":null,"category":"Footpath (pedestrian only)"},"geometry":{"type":"MultiLineString","coordinates":[[[0.1503908,51.8673909],[0.1505617,51.8675013],[0.1506985,51.867612],[0.1508722,51.8677982],[0.150897,51.8678248],[0.1511363,51.8681143],[0.1512531,51.8682513],[0.151357,51.8683697],[0.1514594,51.8684384],[0.151534,51.8684881],[0.1516762,51.8685701],[0.1518284,51.8686359],[0.1520053,51.86869],[0.1521373,51.8687077],[0.152368,51.8687789],[0.1524974,51.8688206]]]}},
{"type":"Feature","properties":{"highway":"footway","name":null,"category":"Footpath (pedestrian only)"},"geometry":{"type":"MultiLineString","coordinates":[[[0.1524619,51.8692407],[0.1523474,51.8691274],[0.152344,51.868968],[0.1523571,51.8688248],[0.152368,51.8687789],[0.1523787,51.8687338]]]}},
{"type":"Feature","properties":{"highway":"footway","name":null,"category":"Footpath (pedestrian only)"},"geometry":{"type":"MultiLineString","coordinates":[[[0.1433646,51.861576],[0.1433225,51.8615982],[0.1432953,51.8616973],[0.1432555,51.8617898]]]}},
{"type":"Feature","properties":{"highway":"footway","name":null,"category":"Footpath (pedestrian only)"},"geometry":{"type":"MultiLineString","coordinates":[[[0.1617633,51.8692105],[0.1617077,51.8691867],[0.1616701,51.8691681],[0.161648,51.8691465],[0.1616333,51.8691171],[0.1616323,51.8690673]]]}},
{"type":"Feature","properties":{"highway":"footway","name":null,"category":"Footpath (pedestrian only)"},"geometry":{"type":"MultiLineString","coordinates":[[[0.1636103,51.8639722],[0.1636007,51.8640532]]]}},
{"type":"Feature","properties":{"highway":"footway","name":null,"category":"Footpath (pedestrian only)"},"geometry":{"type":"MultiLineString","coordinates":[[[0.1636061,51.8640746],[0.1636227,51.8640953]]]}},
{"type":"Feature","properties":{"highway":"footway","name":null,"category":"Footpath (pedestrian only)"},"geometry":{"type":"MultiLineString","coordinates":[[[0.1614371,51.864799],[0.161469,51.8649632]]]}},
{"type":"Feature","properties":{"highway":"footway","name":null,"category":"Footpath (pedestrian only)"},"geometry":{"type":"MultiLineString","coordinates":[[[0.1496627,51.8712039],[0.1498234,51.8710054],[0.1498645,51.8709547],[0.1498913,51.8709514],[0.1499106,51.8709305],[0.1501985,51.8706198]]]}},
{"type":"Feature","properties":{"highway":"footway","name":null,"category":"Footpath (pedestrian only)"},"geometry":{"type":"MultiLineString","coordinates":[[[0.1499106,51.8709305],[0.1506664,51.8710623]]]}},
{"type":"Feature","properties":{"highway":"footway","name":null,"category":"Footpath (pedestrian only)"},"geometry":{"type":"MultiLineString","coordinates":[[[0.1503248,51.8625122],[0.150299,51.8624844],[0.1502375,51.8624724],[0.1501445,51.8624542]]]}},
{"type":"Feature","properties":{"highway":"footway","name":null,"category":"Footpath (pedestrian only)"},"geometry":{"type":"MultiLineString","coordinates":[[[0.1623262,51.8673856],[0.1630067,51.8673235]]]}},
{"type":"Feature","properties":{"highway":"footway","name":null,"category":"Footpath (pedestrian only)"},"geometry":{"type":"MultiLineString","coordinates":[[[0.1444364,51.8637486],[0.1444163,51.863737],[0.1443799,51.8637143]]]}},
{"type":"Feature","properties":{"highway":"path","name":null,"category":"Shared path"},"geometry":{"type":"MultiLineString","coordinates":[[[0.1443221,51.8637546],[0.1442376,51.8638103]]]}},
{"type":"Feature","properties":{"highway":"path","name":null,"category":"Shared path"},"geometry":{"type":"MultiLineString","coordinates":[[[0.1464327,51.8667751],[0.1465165,51.8665647]]]}},
{"type":"Feature","properties":{"highway":"footway","name":null,"category":"Footpath (pedestrian only)"},"geometry":{"type":"MultiLineString","coordinates":[[[0.1622771,51.8668101],[0.1620809,51.8668121],[0.1620511,51.8668125]]]}},
{"type":"Feature","properties":{"highway":"footway","name":null,"category":"Footpath (pedestrian only)"},"geometry":{"type":"MultiLineString","coordinates":[[[0.1620809,51.8668121],[0.1620758,51.8666125]]]}},
{"type":"Feature","properties":{"highway":"path","name":null,"category":"Shared path"},"geometry":{"type":"MultiLineString","coordinates":[[[0.1543112,51.8581634],[0.1548619,51.8582525],[0.1551999,51.8581449],[0.1556055,51.8582702],[0.1564069,51.8585176],[0.1568389,51.8587623],[0.1573269,51.8590261],[0.1588144,51.8601529]]]}},
{"type":"Feature","properties":{"highway":"footway","name":null,"category":"Footpath (pedestrian only)"},"geometry":{"type":"MultiLineString","coordinates":[[[0.158919,51.8663392],[0.158323,51.8662522]]]}},
{"type":"Feature","properties":{"highway":"footway","name":null,"category":"Footpath (pedestrian only)"},"geometry":{"type":"MultiLineString","coordinates":[[[0.1567973,51.867025],[0.1568112,51.8669851]]]}},
{"type":"Feature","properties":{"highway":"footway","name":null,"category":"Footpath (pedestrian only)"},"geometry":{"type":"MultiLineString","coordinates":[[[0.1567415,51.867017],[0.156702,51.8670121],[0.1566468,51.8670048]]]}},
{"type":"Feature","properties":{"highway":"footway","name":null,"category":"Footpath (pedestrian only)"},"geometry":{"type":"MultiLineString","coordinates":[[[0.1567973,51.867025],[0.1567885,51.8670562]]]}},
{"type":"Feature","properties":{"highway":"footway","name":null,"category":"Footpath (pedestrian only)"},"geometry":{"type":"MultiLineString","coordinates":[[[0.1567415,51.867017],[0.1567973,51.867025]]]}},
{"type":"Feature","properties":{"highway":"footway","name":null,"category":"Footpath (pedestrian only)"},"geometry":{"type":"MultiLineString","coordinates":[[[0.1572854,51.8670483],[0.1571003,51.8671214],[0.1570313,51.8671148]]]}},
{"type":"Feature","properties":{"highway":"footway","name":null,"category":"Footpath (pedestrian only)"},"geometry":{"type":"MultiLineString","coordinates":[[[0.1574175,51.8670672],[0.1573625,51.8672171]]]}},
{"type":"Feature","properties":{"highway":"footway","name":null,"category":"Footpath (pedestrian only)"},"geometry":{"type":"MultiLineString","coordinates":[[[0.157901,51.8658121],[0.1576103,51.8657673]]]}},
{"type":"Feature","properties":{"highway":"footway","name":null,"category":"Footpath (pedestrian only)"},"geometry":{"type":"MultiLineString","coordinates":[[[0.1579616,51.8656725],[0.1576723,51.8656247]]]}},
{"type":"Feature","properties":{"highway":"footway","name":null,"category":"Footpath (pedestrian only)"},"geometry":{"type":"MultiLineString","coordinates":[[[0.1580221,51.8655323],[0.1577335,51.8654839]]]}},
{"type":"Feature","properties":{"highway":"footway","name":"Knebworth Court","category":"Footpath (pedestrian only)"},"geometry":{"type":"MultiLineString","coordinates":[[[0.1470876,51.8642898],[0.1470573,51.8643067],[0.1470136,51.8643181],[0.1469501,51.8643216],[0.1467788,51.8643361],[0.1467592,51.864333],[0.146735,51.8643296],[0.1465981,51.8643422],[0.1466007,51.8643547],[0.1465374,51.864361],[0.1465364,51.8643876]]]}},
{"type":"Feature","properties":{"highway":"footway","name":null,"category":"Footpath (pedestrian only)"},"geometry":{"type":"MultiLineString","coordinates":[[[0.1467883,51.8654932],[0.1466175,51.8654616],[0.1466113,51.865454]]]}},
{"type":"Feature","properties":{"highway":"path","name":null,"category":"Shared path"},"geometry":{"type":"MultiLineString","coordinates":[[[0.1437799,51.8640502],[0.1430977,51.8645777],[0.1430387,51.864644],[0.1429556,51.864803],[0.1429878,51.8650283],[0.142893,51.8651047]]]}},
{"type":"Feature","properties":{"highway":"footway","name":"Wentworth Drive","category":"Footpath (pedestrian only)"},"geometry":{"type":"MultiLineString","coordinates":[[[0.1485768,51.8657788],[0.148108,51.865693],[0.1480935,51.8656879]]]}},
{"type":"Feature","properties":{"highway":"footway","name":null,"category":"Footpath (pedestrian only)"},"geometry":{"type":"MultiLineString","coordinates":[[[0.1443928,51.8632269],[0.1444333,51.8631929],[0.144496,51.8631351],[0.1445332,51.8630964]]]}},
{"type":"Feature","properties":{"highway":"footway","name":null,"category":"Footpath (pedestrian only)"},"geometry":{"type":"MultiLineString","coordinates":[[[0.1475581,51.8610456],[0.1475123,51.8610093],[0.1475748,51.8609325],[0.1476263,51.8608836],[0.1477183,51.8608166]]]}},
{"type":"Feature","properties":{"highway":"footway","name":null,"category":"Footpath (pedestrian only)"},"geometry":{"type":"MultiLineString","coordinates":[[[0.1635574,51.8658284],[0.1635523,51.8657439],[0.1635704,51.8657439],[0.1635693,51.8654888],[0.1638129,51.8654844],[0.1638248,51.8654994],[0.1639128,51.8656097],[0.1640134,51.8657358],[0.1640408,51.8657701],[0.164049,51.8658144]]]}},
{"type":"Feature","properties":{"highway":"footway","name":null,"category":"Footpath (pedestrian only)"},"geometry":{"type":"MultiLineString","coordinates":[[[0.1470617,51.8692953],[0.1471694,51.8690471]]]}},
{"type":"Feature","properties":{"highway":"footway","name":null,"category":"Footpath (pedestrian only)"},"geometry":{"type":"MultiLineString","coordinates":[[[0.1534577,51.8706361],[0.1524775,51.8704901]]]}},
{"type":"Feature","properties":{"highway":"footway","name":null,"category":"Footpath (pedestrian only)"},"geometry":{"type":"MultiLineString","coordinates":[[[0.1552437,51.8689272],[0.1552111,51.8689259],[0.1545661,51.868899],[0.1542308,51.8688651],[0.1540269,51.8687914],[0.1540001,51.8687665],[0.1537922,51.8687806],[0.1536461,51.8687649],[0.1535964,51.8687558],[0.1536493,51.8685824],[0.1536912,51.8684452]]]}},
{"type":"Feature","properties":{"highway":"footway","name":null,"category":"Footpath (pedestrian only)"},"geometry":{"type":"MultiLineString","coordinates":[[[0.1540001,51.8687665],[0.1540189,51.8687018]]]}},
{"type":"Feature","properties":{"highway":"footway","name":null,"category":"Footpath (pedestrian only)"},"geometry":{"type":"MultiLineString","coordinates":[[[0.1535964,51.8687558],[0.1533936,51.8690365]]]}},
{"type":"Feature","properties":{"highway":"footway","name":null,"category":"Footpath (pedestrian only)"},"geometry":{"type":"MultiLineString","coordinates":[[[0.1536493,51.8685824],[0.1537373,51.8685918],[0.1537694,51.8684643],[0.1537558,51.8684316]]]}},
{"type":"Feature","properties":{"highway":"footway","name":null,"category":"Footpath (pedestrian only)"},"geometry":{"type":"MultiLineString","coordinates":[[[0.1547828,51.8615168],[0.1550687,51.8616927],[0.1553809,51.861928],[0.1554162,51.8619518]]]}},
{"type":"Feature","properties":{"highway":"footway","name":null,"category":"Footpath (pedestrian only)"},"geometry":{"type":"MultiLineString","coordinates":[[[0.1553809,51.861928],[0.1550168,51.8618969],[0.1550687,51.8616927],[0.1551429,51.8616024]]]}},
{"type":"Feature","properties":{"highway":"footway","name":null,"category":"Footpath (pedestrian only)"},"geometry":{"type":"MultiLineString","coordinates":[[[0.1550687,51.8616927],[0.1552055,51.8616345]]]}},
{"type":"Feature","properties":{"highway":"footway","name":null,"category":"Footpath (pedestrian only)"},"geometry":{"type":"MultiLineString","coordinates":[[[0.1523293,51.8653634],[0.1522276,51.8651485]]]}},
{"type":"Feature","properties":{"highway":"footway","name":null,"category":"Footpath (pedestrian only)"},"geometry":{"type":"MultiLineString","coordinates":[[[0.1616809,51.8665305],[0.1615831,51.8665316]]]}},
{"type":"Feature","properties":{"highway":"footway","name":null,"category":"Footpath (pedestrian only)"},"geometry":{"type":"MultiLineString","coordinates":[[[0.1419243,51.8620727],[0.1420974,51.8622204],[0.1421866,51.8622807],[0.1423532,51.8623967],[0.142406,51.8624158],[0.1424909,51.8624383]]]}},
{"type":"Feature","properties":{"highway":"footway","name":null,"category":"Footpath (pedestrian only)"},"geometry":{"type":"MultiLineString","coordinates":[[[0.1437469,51.8633773],[0.1437214,51.8633835],[0.1435933,51.8634816]]]}},
{"type":"Feature","properties":{"highway":"footway","name":null,"category":"Footpath (pedestrian only)"},"geometry":{"type":"MultiLineString","coordinates":[[[0.1610142,51.8699835],[0.1609365,51.8699567]]]}},
{"type":"Feature","properties":{"highway":"footway","name":null,"category":"Footpath (pedestrian only)"},"geometry":{"type":"MultiLineString","coordinates":[[[0.1595343,51.8706998],[0.159582,51.8707091],[0.1597879,51.8707376]]]}},
{"type":"Feature","properties":{"highway":"footway","name":null,"category":"Footpath (pedestrian only)"},"geometry":{"type":"MultiLineString","coordinates":[[[0.1597982,51.870212],[0.1599535,51.8702367]]]}},
{"type":"Feature","properties":{"highway":"footway","name":null,"category":"Footpath (pedestrian only)"},"geometry":{"type":"MultiLineString","coordinates":[[[0.1605717,51.8682629],[0.1602935,51.8682522]]]}},
{"type":"Feature","properties":{"highway":"footway","name":null,"category":"Footpath (pedestrian only)"},"geometry":{"type":"MultiLineString","coordinates":[[[0.1606698,51.8682705],[0.1605717,51.8682629]]]}},
{"type":"Feature","properties":{"highway":"footway","name":null,"category":"Footpath (pedestrian only)"},"geometry":{"type":"MultiLineString","coordinates":[[[0.1607421,51.8682774],[0.1606698,51.8682705]]]}},
{"type":"Feature","properties":{"highway":"footway","name":null,"category":"Footpath (pedestrian only)"},"geometry":{"type":"MultiLineString","coordinates":[[[0.1632044,51.8677877],[0.1632068,51.8677448],[0.1638184,51.8677369],[0.1638578,51.8677411],[0.1640678,51.8677974],[0.1641233,51.8677827],[0.1641672,51.8677675]]]}},
{"type":"Feature","properties":{"highway":"footway","name":null,"category":"Footpath (pedestrian only)"},"geometry":{"type":"MultiLineString","coordinates":[[[0.1500585,51.8590256],[0.150073,51.8588443],[0.150075,51.8588202]]]}},
{"type":"Feature","properties":{"highway":"footway","name":null,"category":"Footpath (pedestrian only)"},"geometry":{"type":"MultiLineString","coordinates":[[[0.1571818,51.8700868],[0.1572495,51.8701021]]]}},
{"type":"Feature","properties":{"highway":"footway","name":null,"category":"Footpath (pedestrian only)"},"geometry":{"type":"MultiLineString","coordinates":[[[0.1515817,51.8587393],[0.151586,51.8587807],[0.1516172,51.8590805]]]}},
{"type":"Feature","properties":{"highway":"footway","name":null,"category":"Footpath (pedestrian only)"},"geometry":{"type":"MultiLineString","coordinates":[[[0.1432953,51.8616973],[0.1436321,51.8617243]]]}},
{"type":"Feature","properties":{"highway":"path","name":null,"category":"Shared path"},"geometry":{"type":"MultiLineString","coordinates":[[[0.1481761,51.8601247],[0.1483204,51.860112]]]}},
{"type":"Feature","properties":{"highway":"footway","name":null,"category":"Footpath (pedestrian only)"},"geometry":{"type":"MultiLineString","coordinates":[[[0.1549862,51.8632894],[0.1555192,51.8632856]]]}},
{"type":"Feature","properties":{"highway":"footway","name":null,"category":"Footpath (pedestrian only)"},"geometry":{"type":"MultiLineString","coordinates":[[[0.1480193,51.8608084],[0.1480787,51.8608169],[0.1481837,51.8608322]]]}},
{"type":"Feature","properties":{"highway":"footway","name":null,"category":"Footpath (pedestrian only)"},"geometry":{"type":"MultiLineString","coordinates":[[[0.1459507,51.8623797],[0.1459711,51.8623932],[0.1460537,51.862447]]]}},
{"type":"Feature","properties":{"highway":"footway","name":null,"category":"Footpath (pedestrian only)"},"geometry":{"type":"MultiLineString","coordinates":[[[0.1447849,51.8641001],[0.1447093,51.8640282],[0.1443221,51.8637546],[0.1443799,51.8637143],[0.1447235,51.8634844],[0.1447821,51.8634431],[0.1448317,51.8634208]]]}},
{"type":"Feature","properties":{"highway":"footway","name":null,"category":"Footpath (pedestrian only)"},"geometry":{"type":"MultiLineString","coordinates":[[[0.1448317,51.8634208],[0.1449144,51.8633864],[0.1449614,51.8633412]]]}},
{"type":"Feature","properties":{"highway":"footway","name":null,"category":"Footpath (pedestrian only)"},"geometry":{"type":"MultiLineString","coordinates":[[[0.1421928,51.8648999],[0.1422825,51.8648581],[0.1423385,51.8647973],[0.142362,51.8647523],[0.1423579,51.8647076]]]}},
{"type":"Feature","properties":{"highway":"footway","name":null,"category":"Footpath (pedestrian only)"},"geometry":{"type":"MultiLineString","coordinates":[[[0.1422445,51.8650163],[0.1423325,51.8650471],[0.1424375,51.8650974],[0.1424765,51.8651349]]]}},
{"type":"Feature","properties":{"highway":"footway","name":null,"category":"Footpath (pedestrian only)"},"geometry":{"type":"MultiLineString","coordinates":[[[0.1480783,51.8599173],[0.1480727,51.8599086],[0.1480094,51.8598224],[0.1478109,51.8595996],[0.1473493,51.8591024]]]}},
{"type":"Feature","properties":{"highway":"footway","name":null,"category":"Footpath (pedestrian only)"},"geometry":{"type":"MultiLineString","coordinates":[[[0.1523782,51.8651455],[0.1524932,51.8651023],[0.1525477,51.8650486],[0.1525676,51.865029],[0.1527178,51.8649098],[0.15299,51.864465],[0.1534044,51.8639756],[0.1535326,51.863776],[0.153898,51.8635715],[0.154075,51.8633839]]]}},
{"type":"Feature","properties":{"highway":"footway","name":null,"category":"Footpath (pedestrian only)"},"geometry":{"type":"MultiLineString","coordinates":[[[0.1523532,51.8652568],[0.1523782,51.8651455]]]}},
{"type":"Feature","properties":{"highway":"footway","name":null,"category":"Footpath (pedestrian only)"},"geometry":{"type":"MultiLineString","coordinates":[[[0.1522859,51.8655257],[0.1523132,51.8654353],[0.1523293,51.8653634],[0.1523532,51.8652568]]]}},
{"type":"Feature","properties":{"highway":"footway","name":null,"category":"Footpath (pedestrian only)"},"geometry":{"type":"MultiLineString","coordinates":[[[0.1503159,51.8626789],[0.1502859,51.8627237],[0.1501822,51.8627409],[0.1500825,51.8627748],[0.1500317,51.862808],[0.1499487,51.8627882]]]}},
{"type":"Feature","properties":{"highway":"footway","name":null,"category":"Footpath (pedestrian only)"},"geometry":{"type":"MultiLineString","coordinates":[[[0.1503159,51.8626789],[0.1503407,51.8626277],[0.1502889,51.8625901],[0.15024,51.8625279],[0.1502341,51.8625082],[0.1502375,51.8624724]]]}},
{"type":"Feature","properties":{"highway":"footway","name":null,"category":"Footpath (pedestrian only)"},"geometry":{"type":"MultiLineString","coordinates":[[[0.1495583,51.8637219],[0.149514,51.863763],[0.1494095,51.8637623],[0.1493441,51.8637729],[0.1492637,51.8638048],[0.1492419,51.8638169],[0.1491452,51.8637896]]]}},
{"type":"Feature","properties":{"highway":"footway","name":null,"category":"Footpath (pedestrian only)"},"geometry":{"type":"MultiLineString","coordinates":[[[0.1456746,51.8651708],[0.1456036,51.8651669],[0.1453218,51.8649853],[0.1451891,51.8649013],[0.145074,51.8648532],[0.1449423,51.8647601],[0.1448603,51.8647084],[0.144242,51.8643753]]]}},
{"type":"Feature","properties":{"highway":"footway","name":null,"category":"Footpath (pedestrian only)"},"geometry":{"type":"MultiLineString","coordinates":[[[0.1496791,51.8637611],[0.1497023,51.863734],[0.1495451,51.8636635],[0.1494951,51.8636074],[0.1494974,51.8635442],[0.1495056,51.8635068],[0.1494391,51.8634669]]]}},
{"type":"Feature","properties":{"highway":"footway","name":null,"category":"Footpath (pedestrian only)"},"geometry":{"type":"MultiLineString","coordinates":[[[0.152617,51.8584362],[0.152405,51.8584731],[0.1522319,51.858515],[0.1522246,51.8584582],[0.1522064,51.8583466]]]}},
{"type":"Feature","properties":{"highway":"footway","name":null,"category":"Footpath (pedestrian only)"},"geometry":{"type":"MultiLineString","coordinates":[[[0.149079,51.8615543],[0.1490517,51.8615855],[0.1491208,51.8616274],[0.1491912,51.8616837],[0.1492361,51.861728],[0.1492576,51.8617723],[0.149273,51.8618249],[0.1492824,51.8618787],[0.1492797,51.86194],[0.1492676,51.8619943],[0.1492609,51.8620092],[0.1493045,51.862026]]]}},
{"type":"Feature","properties":{"highway":"footway","name":null,"category":"Footpath (pedestrian only)"},"geometry":{"type":"MultiLineString","coordinates":[[[0.1511999,51.8609887],[0.1511753,51.8610397],[0.1511215,51.8610456],[0.151078,51.8610561],[0.1510346,51.8610719],[0.1509984,51.8610878],[0.1509023,51.8610672]]]}},
{"type":"Feature","properties":{"highway":"path","name":null,"category":"Shared path"},"geometry":{"type":"MultiLineString","coordinates":[[[0.1539125,51.8580989],[0.1539484,51.8581373],[0.1539606,51.8581725],[0.1539545,51.8582089],[0.153945,51.8582255],[0.1539346,51.8582511]]]}},
{"type":"Feature","properties":{"highway":"path","name":null,"category":"Shared path"},"geometry":{"type":"MultiLineString","coordinates":[[[0.153789,51.8583426],[0.1538284,51.8583519],[0.1539464,51.8582837],[0.1543112,51.8581634],[0.1548304,51.8579843],[0.1549239,51.857952]]]}},
{"type":"Feature","properties":{"highway":"footway","name":null,"category":"Footpath (pedestrian only)"},"geometry":{"type":"MultiLineString","coordinates":[[[0.1600915,51.8663472],[0.1600714,51.8663481],[0.1600368,51.8663518]]]}},
{"type":"Feature","properties":{"highway":"footway","name":null,"category":"Footpath (pedestrian only)"},"geometry":{"type":"MultiLineString","coordinates":[[[0.1602828,51.8663471],[0.1602866,51.866359]]]}},
{"type":"Feature","properties":{"highway":"footway","name":null,"category":"Footpath (pedestrian only)"},"geometry":{"type":"MultiLineString","coordinates":[[[0.1467217,51.8639696],[0.1467924,51.8639507]]]}},
{"type":"Feature","properties":{"highway":"footway","name":null,"category":"Footpath (pedestrian only)"},"geometry":{"type":"MultiLineString","coordinates":[[[0.1572015,51.869808],[0.1570744,51.86981]]]}},
{"type":"Feature","properties":{"highway":"footway","name":null,"category":"Footpath (pedestrian only)"},"geometry":{"type":"MultiLineString","coordinates":[[[0.1589576,51.8672793],[0.1588284,51.8672581],[0.1586315,51.8672102],[0.1586258,51.8672191],[0.1585206,51.867193],[0.1584824,51.8671835]]]}},
{"type":"Feature","properties":{"highway":"footway","name":null,"category":"Footpath (pedestrian only)"},"geometry":{"type":"MultiLineString","coordinates":[[[0.1582695,51.8670268],[0.1583025,51.8671227]]]}},
{"type":"Feature","properties":{"highway":"footway","name":null,"category":"Footpath (pedestrian only)"},"geometry":{"type":"MultiLineString","coordinates":[[[0.1575576,51.8667507],[0.1575346,51.8668096]]]}},
{"type":"Feature","properties":{"highway":"footway","name":null,"category":"Footpath (pedestrian only)"},"geometry":{"type":"MultiLineString","coordinates":[[[0.1575912,51.8666552],[0.1575576,51.8667507]]]}},
{"type":"Feature","properties":{"highway":"footway","name":null,"category":"Footpath (pedestrian only)"},"geometry":{"type":"MultiLineString","coordinates":[[[0.157617,51.8665849],[0.1575912,51.8666552]]]}},
{"type":"Feature","properties":{"highway":"footway","name":null,"category":"Footpath (pedestrian only)"},"geometry":{"type":"MultiLineString","coordinates":[[[0.1575068,51.866553],[0.1575288,51.8664987]]]}},
{"type":"Feature","properties":{"highway":"footway","name":null,"category":"Footpath (pedestrian only)"},"geometry":{"type":"MultiLineString","coordinates":[[[0.1611925,51.8651517],[0.1610023,51.8650999],[0.1609942,51.8650917],[0.1609922,51.8650801],[0.1610311,51.8649906]]]}},
{"type":"Feature","properties":{"highway":"footway","name":null,"category":"Footpath (pedestrian only)"},"geometry":{"type":"MultiLineString","coordinates":[[[0.1630092,51.86429],[0.1631172,51.8642565],[0.1632304,51.8642266]]]}},
{"type":"Feature","properties":{"highway":"footway","name":null,"category":"Footpath (pedestrian only)"},"geometry":{"type":"MultiLineString","coordinates":[[[0.1584676,51.8671562],[0.1584743,51.8671458],[0.1584837,51.8671479]]]}},
{"type":"Feature","properties":{"highway":"footway","name":null,"category":"Footpath (pedestrian only)"},"geometry":{"type":"MultiLineString","coordinates":[[[0.1584964,51.8671508],[0.1585038,51.8671529],[0.1584951,51.8671653]]]}},
{"type":"Feature","properties":{"highway":"footway","name":null,"category":"Footpath (pedestrian only)"},"geometry":{"type":"MultiLineString","coordinates":[[[0.1584879,51.8671755],[0.1584824,51.8671835]]]}},
{"type":"Feature","properties":{"highway":"path","name":null,"category":"Shared path"},"geometry":{"type":"MultiLineString","coordinates":[[[0.142893,51.8651047],[0.1427527,51.8651526],[0.1426966,51.8651718]]]}},
{"type":"Feature","properties":{"highway":"footway","name":null,"category":"Footpath (pedestrian only)"},"geometry":{"type":"MultiLineString","coordinates":[[[0.1576989,51.8663615],[0.1576213,51.8665735],[0.157617,51.8665849]]]}},
{"type":"Feature","properties":{"highway":"footway","name":null,"category":"Footpath (pedestrian only)"},"geometry":{"type":"MultiLineString","coordinates":[[[0.1583025,51.8671227],[0.1583984,51.8671645]]]}},
{"type":"Feature","properties":{"highway":"footway","name":null,"category":"Footpath (pedestrian only)"},"geometry":{"type":"MultiLineString","coordinates":[[[0.15539,51.862007],[0.1554162,51.8619518],[0.1554245,51.8618946],[0.1554124,51.8618325],[0.1553668,51.8617521],[0.1553199,51.8617082],[0.1552515,51.8616619],[0.1552055,51.8616345],[0.1551777,51.861618],[0.1551429,51.8616024],[0.1551053,51.8615857],[0.1549806,51.8615484],[0.1547828,51.8615168]]]}},
{"type":"Feature","properties":{"highway":"footway","name":null,"category":"Footpath (pedestrian only)"},"geometry":{"type":"MultiLineString","coordinates":[[[0.1454758,51.8613775],[0.1454761,51.861344],[0.1456548,51.8613179],[0.1457183,51.8613071],[0.1457516,51.8613055],[0.1457977,51.8613068],[0.1458386,51.8612969],[0.1458791,51.8612816],[0.1461531,51.8611519],[0.1462133,51.8611249],[0.1463,51.8610907],[0.1463933,51.8610634],[0.1465179,51.8610313],[0.1467888,51.8609841],[0.1471342,51.860933],[0.1474178,51.8608815],[0.1477183,51.8608166],[0.1478177,51.8607974],[0.1480193,51.8608084]]]}},
{"type":"Feature","properties":{"highway":"footway","name":null,"category":"Footpath (pedestrian only)"},"geometry":{"type":"MultiLineString","coordinates":[[[0.1482207,51.860683],[0.1482346,51.8606155],[0.1482462,51.8604626],[0.1482344,51.8603441],[0.1482056,51.8602147],[0.1481761,51.8601247],[0.1481222,51.8599959],[0.1480965,51.8599454],[0.1480783,51.8599173]]]}},
{"type":"Feature","properties":{"highway":"footway","name":null,"category":"Footpath (pedestrian only)"},"geometry":{"type":"MultiLineString","coordinates":[[[0.1481837,51.8608322],[0.1482055,51.8607697],[0.1482173,51.8607064],[0.1482207,51.860683]]]}},
{"type":"Feature","properties":{"highway":"footway","name":null,"category":"Footpath (pedestrian only)"},"geometry":{"type":"MultiLineString","coordinates":[[[0.1508722,51.8677982],[0.1507705,51.8678259]]]}},
{"type":"Feature","properties":{"highway":"footway","name":null,"category":"Footpath (pedestrian only)"},"geometry":{"type":"MultiLineString","coordinates":[[[0.1499262,51.8671252],[0.1498932,51.8671537]]]}},
{"type":"Feature","properties":{"highway":"footway","name":null,"category":"Footpath (pedestrian only)"},"geometry":{"type":"MultiLineString","coordinates":[[[0.1493921,51.8670501],[0.1493621,51.8671246],[0.1493184,51.8672333]]]}},
{"type":"Feature","properties":{"highway":"footway","name":null,"category":"Footpath (pedestrian only)"},"geometry":{"type":"MultiLineString","coordinates":[[[0.1639128,51.8656097],[0.1639277,51.8655395],[0.1638248,51.8654994]]]}},
{"type":"Feature","properties":{"highway":"footway","name":null,"category":"Footpath (pedestrian only)"},"geometry":{"type":"MultiLineString","coordinates":[[[0.1607193,51.8669666],[0.1607759,51.8669668],[0.1608343,51.8669662]]]}},
{"type":"Feature","properties":{"highway":"path","name":null,"category":"Shared path"},"geometry":{"type":"MultiLineString","coordinates":[[[0.1421642,51.865226],[0.1431585,51.8653863]]]}},
{"type":"Feature","properties":{"highway":"footway","name":null,"category":"Footpath (pedestrian only)"},"geometry":{"type":"MultiLineString","coordinates":[[[0.1606983,51.8669665],[0.1607073,51.8666968],[0.160707,51.8666635],[0.1607063,51.8665893],[0.160701,51.8664738],[0.1607094,51.8664039],[0.1607114,51.8663748],[0.160706,51.8662861],[0.1606908,51.8659976],[0.1607134,51.8657824],[0.1607839,51.8656313],[0.1607262,51.8656176]]]}},
{"type":"Feature","properties":{"highway":"footway","name":null,"category":"Footpath (pedestrian only)"},"geometry":{"type":"MultiLineString","coordinates":[[[0.1608343,51.8669662],[0.1608527,51.8669674],[0.1608454,51.8670001]]]}},
{"type":"Feature","properties":{"highway":"footway","name":null,"category":"Footpath (pedestrian only)"},"geometry":{"type":"MultiLineString","coordinates":[[[0.1526187,51.8688579],[0.1530233,51.8689768]]]}},
{"type":"Feature","properties":{"highway":"footway","name":null,"category":"Footpath (pedestrian only)"},"geometry":{"type":"MultiLineString","coordinates":[[[0.1524974,51.8688206],[0.1525548,51.868839],[0.1526187,51.8688579]]]}},
{"type":"Feature","properties":{"highway":"footway","name":null,"category":"Footpath (pedestrian only)"},"geometry":{"type":"MultiLineString","coordinates":[[[0.1531372,51.8690104],[0.1533348,51.8690688]]]}},
{"type":"Feature","properties":{"highway":"footway","name":null,"category":"Footpath (pedestrian only)"},"geometry":{"type":"MultiLineString","coordinates":[[[0.1530233,51.8689768],[0.1530771,51.8689927],[0.1531372,51.8690104]]]}},
{"type":"Feature","properties":{"highway":"footway","name":null,"category":"Footpath (pedestrian only)"},"geometry":{"type":"MultiLineString","coordinates":[[[0.1533348,51.8690688],[0.1533653,51.8690778]]]}},
{"type":"Feature","properties":{"highway":"footway","name":null,"category":"Footpath (pedestrian only)"},"geometry":{"type":"MultiLineString","coordinates":[[[0.1515121,51.86841],[0.1514594,51.8684384]]]}},
{"type":"Feature","properties":{"highway":"footway","name":null,"category":"Footpath (pedestrian only)"},"geometry":{"type":"MultiLineString","coordinates":[[[0.151577,51.8683762],[0.1515439,51.8683929]]]}},
{"type":"Feature","properties":{"highway":"footway","name":null,"category":"Footpath (pedestrian only)"},"geometry":{"type":"MultiLineString","coordinates":[[[0.1470484,51.8667263],[0.1470645,51.8667275],[0.1470879,51.8667058],[0.1471982,51.8667125],[0.1493921,51.8670501],[0.149873,51.8671711]]]}},
{"type":"Feature","properties":{"highway":"footway","name":null,"category":"Footpath (pedestrian only)"},"geometry":{"type":"MultiLineString","coordinates":[[[0.146976,51.8667209],[0.1470091,51.8667234],[0.1470484,51.8667263]]]}},
{"type":"Feature","properties":{"highway":"footway","name":null,"category":"Footpath (pedestrian only)"},"geometry":{"type":"MultiLineString","coordinates":[[[0.1503255,51.8673531],[0.1503502,51.8673646],[0.1503908,51.8673909]]]}},
{"type":"Feature","properties":{"highway":"footway","name":null,"category":"Footpath (pedestrian only)"},"geometry":{"type":"MultiLineString","coordinates":[[[0.1501049,51.8672504],[0.1503255,51.8673531]]]}},
{"type":"Feature","properties":{"highway":"footway","name":null,"category":"Footpath (pedestrian only)"},"geometry":{"type":"MultiLineString","coordinates":[[[0.1500198,51.8672193],[0.1500815,51.8672395],[0.1501049,51.8672504]]]}},
{"type":"Feature","properties":{"highway":"footway","name":null,"category":"Footpath (pedestrian only)"},"geometry":{"type":"MultiLineString","coordinates":[[[0.1498932,51.8671537],[0.149873,51.8671711],[0.1500198,51.8672193]]]}},
{"type":"Feature","properties":{"highway":"footway","name":null,"category":"Footpath (pedestrian only)"},"geometry":{"type":"MultiLineString","coordinates":[[[0.1557357,51.8581282],[0.1556055,51.8582702]]]}},
{"type":"Feature","properties":{"highway":"footway","name":null,"category":"Footpath (pedestrian only)"},"geometry":{"type":"MultiLineString","coordinates":[[[0.1569821,51.8585226],[0.1570185,51.8584609]]]}},
{"type":"Feature","properties":{"highway":"footway","name":null,"category":"Footpath (pedestrian only)"},"geometry":{"type":"MultiLineString","coordinates":[[[0.1569541,51.85857],[0.1569821,51.8585226]]]}},
{"type":"Feature","properties":{"highway":"footway","name":null,"category":"Footpath (pedestrian only)"},"geometry":{"type":"MultiLineString","coordinates":[[[0.1587919,51.8598177],[0.1589045,51.8597602]]]}},
{"type":"Feature","properties":{"highway":"track","name":null,"category":"Track"},"geometry":{"type":"MultiLineString","coordinates":[[[0.1481656,51.8639089],[0.1482481,51.8639343],[0.1483551,51.8638016],[0.1483752,51.8638077],[0.1483865,51.8637937],[0.1484392,51.8637284]]]}},
{"type":"Feature","properties":{"highway":"footway","name":null,"category":"Footpath (pedestrian only)"},"geometry":{"type":"MultiLineString","coordinates":[[[0.159532,51.8601105],[0.1596538,51.8601868],[0.1597068,51.8602235],[0.1597816,51.8602883],[0.1598631,51.8603294],[0.1599415,51.860369],[0.1600432,51.8604088],[0.1601319,51.8604239],[0.1603478,51.8604485],[0.1604464,51.8604536],[0.1605356,51.8604525],[0.1606132,51.8604666],[0.1607341,51.8604902],[0.1609273,51.8604832],[0.1612304,51.8604728],[0.1613534,51.8604679],[0.1615752,51.8604573],[0.1617084,51.8604397],[0.1618056,51.8604337],[0.1619089,51.8604314],[0.1620202,51.8604304],[0.1621088,51.8604412],[0.1622537,51.8604644],[0.1623756,51.860486],[0.1625582,51.860517],[0.1627554,51.8605495],[0.1629569,51.8605816],[0.163199,51.8606216],[0.1635056,51.8606707],[0.1636324,51.8607],[0.1637381,51.8607512],[0.164067,51.8608381],[0.1642835,51.8608868]]]}},
{"type":"Feature","properties":{"highway":"footway","name":null,"category":"Footpath (pedestrian only)"},"geometry":{"type":"MultiLineString","coordinates":[[[0.143174,51.8621691],[0.1431338,51.8621377],[0.1430031,51.8619409],[0.1429807,51.8618404],[0.1427756,51.8614243],[0.1424818,51.8608082]]]}},
{"type":"Feature","properties":{"highway":"footway","name":null,"category":"Footpath (pedestrian only)"},"geometry":{"type":"MultiLineString","coordinates":[[[0.1515439,51.8683929],[0.1515121,51.86841]]]}},
{"type":"Feature","properties":{"highway":"footway","name":null,"category":"Footpath (pedestrian only)"},"geometry":{"type":"MultiLineString","coordinates":[[[0.1564304,51.8649268],[0.1564653,51.8649302],[0.1566786,51.8649534]]]}},
{"type":"Feature","properties":{"highway":"pedestrian","name":null,"category":"Pedestrian area/street"},"geometry":{"type":"MultiLineString","coordinates":[[[0.1634733,51.8654178],[0.1640712,51.8654227]]]}}
]
}
