{
"type": "FeatureCollection",
"name": "BEDFO_42_cycling",
"crs": { "type": "name", "properties": { "name": "urn:ogc:def:crs:OGC:1.3:CRS84" } },
"features": [
{"type":"Feature","properties":{"highway":"cycleway","name":null,"category":"Dedicated cycleway"},"geometry":{"type":"MultiLineString","coordinates":[[[-0.456018,52.1532956],[-0.4536183,52.1532685]]]}},
{"type":"Feature","properties":{"highway":"cycleway","name":null,"category":"Dedicated cycleway"},"geometry":{"type":"MultiLineString","coordinates":[[[-0.4524112,52.1443452],[-0.4524841,52.1443468],[-0.452586,52.1445076],[-0.4548154,52.1446265],[-0.4549892,52.1446839],[-0.4550434,52.1447105],[-0.4550792,52.1447597],[-0.4551256,52.1448113],[-0.455246,52.1448334],[-0.4557628,52.1448602],[-0.4558164,52.1448937],[-0.4558216,52.1449624],[-0.4558604,52.1449924],[-0.4559424,52.1450134],[-0.4560007,52.1450642],[-0.4560216,52.1451006],[-0.4559914,52.145288],[-0.456018,52.1453325],[-0.4569495,52.1454356],[-0.4570105,52.1453769]]]}},
{"type":"Feature","properties":{"highway":"path","name":null,"category":"Shared path"},"geometry":{"type":"MultiLineString","coordinates":[[[-0.461,52.1474135],[-0.4614273,52.1474177],[-0.461659,52.1474526],[-0.4618458,52.147526],[-0.4620447,52.1475758],[-0.4621609,52.1476391],[-0.4622493,52.1477745],[-0.4622843,52.1479319],[-0.4622751,52.1480366],[-0.4621732,52.1481684],[-0.4620468,52.1482717],[-0.4619234,52.1483179],[-0.461772,52.1483415],[-0.4614982,52.1483425],[-0.4612501,52.1483621],[-0.4609696,52.148399],[-0.4606949,52.1484672],[-0.4603625,52.1486213],[-0.4602698,52.1487326],[-0.4602409,52.1488597]]]}},
{"type":"Feature","properties":{"highway":"cycleway","name":null,"category":"Dedicated cycleway"},"geometry":{"type":"MultiLineString","coordinates":[[[-0.4630682,52.149548],[-0.4625188,52.1499765],[-0.4624107,52.1501201],[-0.4623712,52.1502562],[-0.462519,52.150353],[-0.4625691,52.1504095],[-0.4625749,52.1504899],[-0.462642,52.1506059],[-0.4627595,52.1506929],[-0.4630167,52.150818],[-0.4637985,52.1510579],[-0.4642546,52.151252],[-0.4644232,52.1513689],[-0.4647147,52.1514476],[-0.4652505,52.1515906],[-0.4665659,52.1519102],[-0.4667133,52.1519307],[-0.4669093,52.1519246],[-0.4674101,52.1518487],[-0.4676521,52.1517721]]]}},
{"type":"Feature","properties":{"highway":"cycleway","name":null,"category":"Dedicated cycleway"},"geometry":{"type":"MultiLineString","coordinates":[[[-0.4676521,52.1517721],[-0.4678719,52.1518114],[-0.4681731,52.1518546],[-0.4686335,52.1519407],[-0.4688009,52.1520218]]]}},
{"type":"Feature","properties":{"highway":"cycleway","name":null,"category":"Dedicated cycleway"},"geometry":{"type":"MultiLineString","coordinates":[[[-0.4676521,52.1517721],[-0.4679022,52.1514806],[-0.4679712,52.1513869],[-0.4680429,52.1513043]]]}},
{"type":"Feature","properties":{"highway":"cycleway","name":null,"category":"Dedicated cycleway"},"geometry":{"type":"MultiLineString","coordinates":[[[-0.4644232,52.1513689],[-0.4643081,52.1514552],[-0.4640785,52.1517616],[-0.4639173,52.1519328],[-0.4638665,52.1519737]]]}},
{"type":"Feature","properties":{"highway":"track","name":null,"category":"Track"},"geometry":{"type":"MultiLineString","coordinates":[[[-0.4707143,52.1535833],[-0.4707258,52.1536117],[-0.470908,52.1541601],[-0.4710229,52.1546],[-0.4710801,52.1548124],[-0.4712939,52.1554837],[-0.4713912,52.1558238],[-0.4714742,52.1561197],[-0.4714845,52.156158],[-0.4715383,52.1563385],[-0.471686,52.1568856],[-0.4717107,52.1569555]]]}},
{"type":"Feature","properties":{"highway":"cycleway","name":null,"category":"Dedicated cycleway"},"geometry":{"type":"MultiLineString","coordinates":[[[-0.4517995,52.1537236],[-0.4516426,52.1537547],[-0.4514702,52.153693]]]}},
{"type":"Feature","properties":{"highway":"cycleway","name":null,"category":"Dedicated cycleway"},"geometry":{"type":"MultiLineString","coordinates":[[[-0.4518027,52.1531244],[-0.4520575,52.1530594],[-0.4522644,52.1530114]]]}},
{"type":"Feature","properties":{"highway":"cycleway","name":null,"category":"Dedicated cycleway"},"geometry":{"type":"MultiLineString","coordinates":[[[-0.4683496,52.1537209],[-0.4683908,52.1537853],[-0.4683105,52.1542213],[-0.4683378,52.1544517],[-0.4684401,52.1546163]]]}},
{"type":"Feature","properties":{"highway":"path","name":null,"category":"Shared path"},"geometry":{"type":"MultiLineString","coordinates":[[[-0.4644075,52.1561495],[-0.4635608,52.1558707],[-0.4626371,52.1554821],[-0.4621865,52.1552476],[-0.4613233,52.1550437],[-0.4608832,52.1548661],[-0.4605581,52.1547849],[-0.4603876,52.1547539],[-0.4602509,52.1547045],[-0.4600314,52.1546629],[-0.4597479,52.1545975],[-0.4592519,52.1545213],[-0.4587486,52.1545357],[-0.4584015,52.1545795],[-0.4576635,52.1546874],[-0.4572088,52.1547858],[-0.4565355,52.1549585]]]}},
{"type":"Feature","properties":{"highway":"cycleway","name":null,"category":"Dedicated cycleway"},"geometry":{"type":"MultiLineString","coordinates":[[[-0.4509915,52.1524051],[-0.4510148,52.152272],[-0.4511845,52.1522037],[-0.4519326,52.1520022]]]}},
{"type":"Feature","properties":{"highway":"cycleway","name":null,"category":"Dedicated cycleway"},"geometry":{"type":"MultiLineString","coordinates":[[[-0.4694261,52.1470551],[-0.4696653,52.1469973]]]}},
{"type":"Feature","properties":{"highway":"path","name":null,"category":"Shared path"},"geometry":{"type":"MultiLineString","coordinates":[[[-0.4589669,52.1484102],[-0.4589326,52.1483999],[-0.4588144,52.1484144],[-0.4579918,52.1481215],[-0.4579073,52.148103],[-0.4576758,52.1480517],[-0.4573689,52.1478906]]]}},
{"type":"Feature","properties":{"highway":"cycleway","name":null,"category":"Dedicated cycleway"},"geometry":{"type":"MultiLineString","coordinates":[[[-0.4686172,52.1454807],[-0.4689794,52.1454047]]]}},
{"type":"Feature","properties":{"highway":"cycleway","name":null,"category":"Dedicated cycleway"},"geometry":{"type":"MultiLineString","coordinates":[[[-0.4688532,52.1462091],[-0.4693809,52.1461053]]]}},
{"type":"Feature","properties":{"highway":"path","name":null,"category":"Shared path"},"geometry":{"type":"MultiLineString","coordinates":[[[-0.4599413,52.1488631],[-0.4597984,52.1488046],[-0.4596979,52.1487478],[-0.4595537,52.148718],[-0.4593523,52.1486843],[-0.4592959,52.1486614],[-0.4592124,52.1486082],[-0.4591501,52.1485147],[-0.4591311,52.1484388],[-0.459152,52.1483344],[-0.4592279,52.1482623],[-0.4593266,52.1481902],[-0.4595183,52.1482035],[-0.4596169,52.1481807],[-0.4597043,52.1480839],[-0.4597764,52.1480118],[-0.4600051,52.1479188],[-0.4601949,52.1478524],[-0.460379,52.1478429],[-0.4604815,52.1478713],[-0.460546,52.1478505],[-0.46062,52.1477195],[-0.460732,52.1475999],[-0.4608914,52.1475107],[-0.4610679,52.1474861],[-0.4611325,52.1475145],[-0.4612179,52.1476037],[-0.4612501,52.1477005],[-0.4613517,52.147767],[-0.4614684,52.1477689],[-0.4615538,52.1477366],[-0.4617018,52.1476721],[-0.4618537,52.1476797],[-0.4619201,52.1477138],[-0.4619675,52.1477745],[-0.4619429,52.1478448],[-0.4618651,52.1479928],[-0.461848,52.1480573],[-0.4617208,52.1481257],[-0.4615785,52.1481636],[-0.4613488,52.14812],[-0.4612065,52.1480573],[-0.4611325,52.1480535],[-0.4611002,52.1480858],[-0.4611021,52.1481465],[-0.4609427,52.1482775],[-0.4606485,52.1483534],[-0.46036,52.1483933],[-0.4602784,52.1483496],[-0.4601968,52.1483496],[-0.4601227,52.148399],[-0.4601076,52.1484996],[-0.4600298,52.1486077],[-0.459839,52.1486793],[-0.4597118,52.1487039],[-0.4595537,52.148718]]]}},
{"type":"Feature","properties":{"highway":"path","name":null,"category":"Shared path"},"geometry":{"type":"MultiLineString","coordinates":[[[-0.4679667,52.1448763],[-0.4680386,52.1451749]]]}},
{"type":"Feature","properties":{"highway":"path","name":null,"category":"Shared path"},"geometry":{"type":"MultiLineString","coordinates":[[[-0.467755,52.1451873],[-0.4679667,52.1448763],[-0.4689338,52.1446341],[-0.4689262,52.1444444]]]}},
{"type":"Feature","properties":{"highway":"cycleway","name":null,"category":"Dedicated cycleway"},"geometry":{"type":"MultiLineString","coordinates":[[[-0.4433867,52.1413306],[-0.4435734,52.1413697],[-0.4437157,52.1416316],[-0.4444741,52.1432951],[-0.4447518,52.1437937],[-0.4450142,52.1441086],[-0.4453342,52.1444915],[-0.4457357,52.1447946],[-0.4464009,52.1451681],[-0.4473182,52.1454831],[-0.4476791,52.1455861],[-0.4486249,52.1458562],[-0.4499415,52.1461663],[-0.4501287,52.146202],[-0.4514942,52.146462],[-0.4520627,52.1465657],[-0.4525364,52.1466329],[-0.4528439,52.1466995],[-0.4549424,52.1469897],[-0.4553875,52.1470799],[-0.4555021,52.1470541],[-0.4555641,52.1469759],[-0.4558051,52.1466719],[-0.4558467,52.1466218]]]}},
{"type":"Feature","properties":{"highway":"cycleway","name":null,"category":"Dedicated cycleway"},"geometry":{"type":"MultiLineString","coordinates":[[[-0.4558604,52.1449924],[-0.4558039,52.1450344],[-0.455559,52.1450794],[-0.4555075,52.1450742]]]}},
{"type":"Feature","properties":{"highway":"cycleway","name":null,"category":"Dedicated cycleway"},"geometry":{"type":"MultiLineString","coordinates":[[[-0.4509165,52.1403435],[-0.4509175,52.1404029],[-0.4509202,52.1404494],[-0.4507653,52.1404549],[-0.4507133,52.1404678],[-0.4506831,52.1404942],[-0.4506657,52.1405216],[-0.450641,52.1406477],[-0.450582,52.14117],[-0.4505418,52.141531],[-0.4505162,52.1417652],[-0.4504933,52.1419648],[-0.4504376,52.1424362],[-0.4503811,52.1429312],[-0.4503027,52.1433035],[-0.4502211,52.1436346]]]}},
{"type":"Feature","properties":{"highway":"track","name":null,"category":"Track"},"geometry":{"type":"MultiLineString","coordinates":[[[-0.4715541,52.1473362],[-0.4716029,52.1475145],[-0.4716803,52.147666],[-0.4716858,52.1476958],[-0.4716713,52.1477378],[-0.4716263,52.1477644],[-0.471556,52.1477809],[-0.4714533,52.147782],[-0.4713705,52.1477677],[-0.4713272,52.1477677],[-0.4712804,52.1477754],[-0.4712317,52.1477644],[-0.4712083,52.1477456],[-0.4712137,52.1477058],[-0.4711741,52.1476704],[-0.4711164,52.1476582],[-0.4710101,52.147666],[-0.4708047,52.1477234],[-0.4707885,52.1477588],[-0.4708423,52.1477982],[-0.4709182,52.1478539],[-0.4709561,52.148043],[-0.47092,52.1481082],[-0.4708606,52.1481469],[-0.4708137,52.1481613],[-0.4707579,52.1481601],[-0.4707038,52.1481425],[-0.4706011,52.1480938],[-0.4705813,52.1479954],[-0.4705687,52.147949],[-0.4706192,52.1479158],[-0.4707182,52.1479059],[-0.4707957,52.1478705],[-0.4708423,52.1477982]]]}},
{"type":"Feature","properties":{"highway":"cycleway","name":null,"category":"Dedicated cycleway"},"geometry":{"type":"MultiLineString","coordinates":[[[-0.4732443,52.1385701],[-0.4733209,52.1385908],[-0.4736698,52.1386211]]]}},
{"type":"Feature","properties":{"highway":"cycleway","name":null,"category":"Dedicated cycleway"},"geometry":{"type":"MultiLineString","coordinates":[[[-0.469259,52.1468191],[-0.469405,52.1469436],[-0.4696653,52.1469973],[-0.4699972,52.1469617]]]}},
{"type":"Feature","properties":{"highway":"cycleway","name":null,"category":"Dedicated cycleway"},"geometry":{"type":"MultiLineString","coordinates":[[[-0.4569495,52.1454356],[-0.4568232,52.1455764],[-0.4564451,52.1459824],[-0.455891,52.1465774],[-0.4558467,52.1466218]]]}},
{"type":"Feature","properties":{"highway":"cycleway","name":null,"category":"Dedicated cycleway"},"geometry":{"type":"MultiLineString","coordinates":[[[-0.4501551,52.1441296],[-0.4499415,52.1461663],[-0.4499381,52.1462544]]]}},
{"type":"Feature","properties":{"highway":"cycleway","name":null,"category":"Dedicated cycleway"},"geometry":{"type":"MultiLineString","coordinates":[[[-0.4685583,52.13864],[-0.4685521,52.1380635],[-0.4685864,52.13801],[-0.4686606,52.1378743],[-0.4686731,52.1378262]]]}},
{"type":"Feature","properties":{"highway":"cycleway","name":null,"category":"Dedicated cycleway"},"geometry":{"type":"MultiLineString","coordinates":[[[-0.4687687,52.1379419],[-0.4688004,52.1379638],[-0.468826,52.1379815],[-0.4688836,52.1379941],[-0.4693412,52.1381296],[-0.4695943,52.1382562],[-0.4696905,52.1383104],[-0.4698307,52.1383949]]]}},
{"type":"Feature","properties":{"highway":"track","name":null,"category":"Track"},"geometry":{"type":"MultiLineString","coordinates":[[[-0.4720275,52.1545561],[-0.4719775,52.1545743],[-0.4718694,52.1545939],[-0.4715228,52.1546223],[-0.471226,52.1546325],[-0.4711156,52.1546203],[-0.4710229,52.1546]]]}},
{"type":"Feature","properties":{"highway":"track","name":null,"category":"Track"},"geometry":{"type":"MultiLineString","coordinates":[[[-0.4724596,52.155998],[-0.4720275,52.1545561],[-0.4717157,52.1534796],[-0.471708,52.1534558]]]}},
{"type":"Feature","properties":{"highway":"path","name":null,"category":"Shared path"},"geometry":{"type":"MultiLineString","coordinates":[[[-0.45874,52.1488336],[-0.458691,52.1488166],[-0.4586065,52.1487827],[-0.458588,52.1486195],[-0.4586085,52.1485645],[-0.458601,52.1485137]]]}},
{"type":"Feature","properties":{"highway":"path","name":null,"category":"Shared path"},"geometry":{"type":"MultiLineString","coordinates":[[[-0.4586065,52.1487827],[-0.4584952,52.1487502],[-0.4582732,52.1486785],[-0.4581194,52.148614],[-0.4580228,52.1485595],[-0.4580162,52.1485208],[-0.4580435,52.1484897],[-0.4580999,52.1484814],[-0.4581408,52.1484658],[-0.4581754,52.1484377],[-0.458188,52.1484151]]]}},
{"type":"Feature","properties":{"highway":"cycleway","name":"Union Street","category":"Dedicated cycleway"},"geometry":{"type":"MultiLineString","coordinates":[[[-0.4744564,52.1415586],[-0.4746162,52.1416365]]]}},
{"type":"Feature","properties":{"highway":"cycleway","name":null,"category":"Dedicated cycleway"},"geometry":{"type":"MultiLineString","coordinates":[[[-0.4740001,52.1417905],[-0.4740768,52.1418299],[-0.4741868,52.1418616],[-0.4742384,52.1418669],[-0.4742828,52.1418496],[-0.474322,52.1418076],[-0.4743377,52.1417669]]]}},
{"type":"Feature","properties":{"highway":"cycleway","name":null,"category":"Dedicated cycleway"},"geometry":{"type":"MultiLineString","coordinates":[[[-0.4737998,52.1424187],[-0.4738497,52.1423523],[-0.4738671,52.1423291],[-0.47391,52.1422408],[-0.4739287,52.1421631],[-0.4739159,52.1420512],[-0.4738966,52.142005],[-0.4738644,52.1419458],[-0.4738219,52.1419091]]]}},
{"type":"Feature","properties":{"highway":"cycleway","name":null,"category":"Dedicated cycleway"},"geometry":{"type":"MultiLineString","coordinates":[[[-0.4748285,52.1424839],[-0.4747578,52.1424596],[-0.4746181,52.142383],[-0.474543,52.1423396],[-0.4744722,52.1423199],[-0.4743928,52.1423093],[-0.4743128,52.1423092],[-0.4741998,52.1423238],[-0.4741245,52.1423514],[-0.4740348,52.142403],[-0.4740138,52.142421],[-0.4739165,52.1425042]]]}},
{"type":"Feature","properties":{"highway":"cycleway","name":"Union Street","category":"Dedicated cycleway"},"geometry":{"type":"MultiLineString","coordinates":[[[-0.4746162,52.1416365],[-0.4745947,52.1417511],[-0.4745865,52.1417908]]]}},
{"type":"Feature","properties":{"highway":"cycleway","name":null,"category":"Dedicated cycleway"},"geometry":{"type":"MultiLineString","coordinates":[[[-0.4740001,52.1417905],[-0.473865,52.14173],[-0.4737292,52.141685],[-0.4736186,52.1417208]]]}},
{"type":"Feature","properties":{"highway":"cycleway","name":null,"category":"Dedicated cycleway"},"geometry":{"type":"MultiLineString","coordinates":[[[-0.4738219,52.1419091],[-0.473601,52.1417984],[-0.4736186,52.1417208]]]}},
{"type":"Feature","properties":{"highway":"cycleway","name":null,"category":"Dedicated cycleway"},"geometry":{"type":"MultiLineString","coordinates":[[[-0.4745865,52.1417908],[-0.4745996,52.1418221],[-0.4746288,52.1419525],[-0.474661,52.142067],[-0.4746894,52.1421061],[-0.4747061,52.142129],[-0.4748608,52.1422554]]]}},
{"type":"Feature","properties":{"highway":"cycleway","name":null,"category":"Dedicated cycleway"},"geometry":{"type":"MultiLineString","coordinates":[[[-0.4499381,52.1462544],[-0.4498899,52.1463464],[-0.4495217,52.1463442]]]}},
{"type":"Feature","properties":{"highway":"cycleway","name":null,"category":"Dedicated cycleway"},"geometry":{"type":"MultiLineString","coordinates":[[[-0.4569448,52.1461152],[-0.4567739,52.1460706],[-0.4566881,52.146069],[-0.4565302,52.1460132],[-0.4564451,52.1459824]]]}},
{"type":"Feature","properties":{"highway":"cycleway","name":null,"category":"Dedicated cycleway"},"geometry":{"type":"MultiLineString","coordinates":[[[-0.4826665,52.1462884],[-0.4823268,52.1461916],[-0.4820975,52.1461744],[-0.4818441,52.1461794],[-0.4815423,52.1461908],[-0.4813264,52.1462139],[-0.4810474,52.1462962],[-0.4807665,52.1463913],[-0.4805966,52.1464684],[-0.4805254,52.1465054],[-0.4804735,52.1465324],[-0.4796666,52.1469821],[-0.4795008,52.1470775],[-0.4788894,52.1473868],[-0.4782564,52.1477292],[-0.4776551,52.148061],[-0.4771996,52.1483349],[-0.4760463,52.1490031],[-0.4757596,52.1492222]]]}},
{"type":"Feature","properties":{"highway":"cycleway","name":null,"category":"Dedicated cycleway"},"geometry":{"type":"MultiLineString","coordinates":[[[-0.4818561,52.1456551],[-0.4816769,52.1455679],[-0.4815948,52.1456388],[-0.4815278,52.1456909],[-0.481457,52.1456445],[-0.4813883,52.1456706],[-0.48133,52.1456858]]]}},
{"type":"Feature","properties":{"highway":"cycleway","name":null,"category":"Dedicated cycleway"},"geometry":{"type":"MultiLineString","coordinates":[[[-0.4822423,52.1460073],[-0.4820807,52.1459623],[-0.4817934,52.1458889],[-0.4816362,52.1457687],[-0.4815278,52.1456909]]]}},
{"type":"Feature","properties":{"highway":"cycleway","name":null,"category":"Dedicated cycleway"},"geometry":{"type":"MultiLineString","coordinates":[[[-0.4814164,52.1458779],[-0.48133,52.1456858],[-0.4812018,52.1455849],[-0.480834,52.1453365],[-0.480416,52.1450666]]]}},
{"type":"Feature","properties":{"highway":"cycleway","name":null,"category":"Dedicated cycleway"},"geometry":{"type":"MultiLineString","coordinates":[[[-0.4814164,52.1458779],[-0.4813294,52.1459521],[-0.4811324,52.1460638],[-0.4808318,52.1462173],[-0.4806668,52.1462891],[-0.4804871,52.1463623],[-0.4802146,52.1464733],[-0.4797821,52.1466823],[-0.4795361,52.1468515],[-0.4793279,52.1469779],[-0.4790098,52.1471712],[-0.4788626,52.1472501]]]}},
{"type":"Feature","properties":{"highway":"cycleway","name":null,"category":"Dedicated cycleway"},"geometry":{"type":"MultiLineString","coordinates":[[[-0.4696858,52.1532067],[-0.4697724,52.1532235],[-0.4699511,52.1531315],[-0.4703156,52.1529149],[-0.4707085,52.1525693],[-0.47084,52.1524286],[-0.4711095,52.1519933],[-0.4712302,52.1518386],[-0.4715266,52.1515358],[-0.4715794,52.151491],[-0.4717311,52.1513804],[-0.4719464,52.1512313],[-0.4726197,52.1508643],[-0.4740352,52.1500968],[-0.4744742,52.1498456],[-0.475573,52.1493127],[-0.4757596,52.1492222]]]}},
{"type":"Feature","properties":{"highway":"cycleway","name":null,"category":"Dedicated cycleway"},"geometry":{"type":"MultiLineString","coordinates":[[[-0.475573,52.1493127],[-0.4756978,52.1493508],[-0.4760838,52.1501881],[-0.4761611,52.1503844],[-0.4765361,52.1512487],[-0.476658,52.1515232],[-0.4767002,52.151588],[-0.4767819,52.1517132],[-0.4768296,52.1517865],[-0.4769718,52.1519626],[-0.4771783,52.1523164],[-0.4773259,52.1527081],[-0.4772776,52.1528348],[-0.4772878,52.1528831],[-0.4773044,52.1529616],[-0.4773822,52.1530438],[-0.4773929,52.1532035],[-0.4773661,52.1533582],[-0.4774375,52.1533689]]]}},
{"type":"Feature","properties":{"highway":"cycleway","name":null,"category":"Dedicated cycleway"},"geometry":{"type":"MultiLineString","coordinates":[[[-0.4572922,52.1502894],[-0.4572592,52.1502574],[-0.4573046,52.1502015],[-0.4573101,52.1501523],[-0.4573884,52.1501035]]]}},
{"type":"Feature","properties":{"highway":"path","name":null,"category":"Shared path"},"geometry":{"type":"MultiLineString","coordinates":[[[-0.4585632,52.1489513],[-0.4572298,52.1484636],[-0.4571535,52.1484955],[-0.4570717,52.148564],[-0.4569163,52.1485492],[-0.456525,52.1485119],[-0.4563648,52.1484967]]]}},
{"type":"Feature","properties":{"highway":"path","name":null,"category":"Shared path"},"geometry":{"type":"MultiLineString","coordinates":[[[-0.4575259,52.1486331],[-0.4571535,52.1484955]]]}},
{"type":"Feature","properties":{"highway":"path","name":null,"category":"Shared path"},"geometry":{"type":"MultiLineString","coordinates":[[[-0.4569226,52.1485319],[-0.4569163,52.1485492],[-0.4568782,52.1486336],[-0.4568578,52.1486542],[-0.4568262,52.1486587],[-0.4567313,52.1486542],[-0.4564993,52.1486004],[-0.4563276,52.1485606],[-0.4563648,52.1484967],[-0.4564374,52.1483722]]]}},
{"type":"Feature","properties":{"highway":"path","name":null,"category":"Shared path"},"geometry":{"type":"MultiLineString","coordinates":[[[-0.4564993,52.1486004],[-0.456525,52.1485119],[-0.4565503,52.1484044]]]}},
{"type":"Feature","properties":{"highway":"cycleway","name":null,"category":"Dedicated cycleway"},"geometry":{"type":"MultiLineString","coordinates":[[[-0.4502211,52.1436346],[-0.4501884,52.1438323],[-0.4501551,52.1441296]]]}},
{"type":"Feature","properties":{"highway":"cycleway","name":null,"category":"Dedicated cycleway"},"geometry":{"type":"MultiLineString","coordinates":[[[-0.4746181,52.142383],[-0.4746801,52.1423504],[-0.4747867,52.1422944],[-0.4748608,52.1422554]]]}},
{"type":"Feature","properties":{"highway":"cycleway","name":null,"category":"Dedicated cycleway"},"geometry":{"type":"MultiLineString","coordinates":[[[-0.4740138,52.142421],[-0.4739359,52.1423884],[-0.4738497,52.1423523]]]}},
{"type":"Feature","properties":{"highway":"cycleway","name":null,"category":"Dedicated cycleway"},"geometry":{"type":"MultiLineString","coordinates":[[[-0.4745865,52.1417908],[-0.4744128,52.1417741],[-0.4743377,52.1417669]]]}},
{"type":"Feature","properties":{"highway":"cycleway","name":null,"category":"Dedicated cycleway"},"geometry":{"type":"MultiLineString","coordinates":[[[-0.4738219,52.1419091],[-0.4738726,52.1418754],[-0.4739138,52.141848],[-0.4740001,52.1417905]]]}},
{"type":"Feature","properties":{"highway":"path","name":null,"category":"Shared path"},"geometry":{"type":"MultiLineString","coordinates":[[[-0.4547224,52.1454595],[-0.4547198,52.1453431],[-0.4547489,52.1452554],[-0.4547748,52.1451773],[-0.4548853,52.1450064],[-0.4550407,52.1447915],[-0.4550792,52.1447597]]]}},
{"type":"Feature","properties":{"highway":"cycle_lane_on_street","name":"Park Avenue","category":"Cycle lane on street"},"geometry":{"type":"MultiLineString","coordinates":[[[-0.4690276,52.1444185],[-0.4689262,52.1444444],[-0.4688382,52.1444669],[-0.4684817,52.144558],[-0.4684174,52.1445744],[-0.4674164,52.1448302],[-0.4669854,52.144944]]]}},
{"type":"Feature","properties":{"highway":"cycle_lane_on_street","name":"St. Peter's Street","category":"Cycle lane on street"},"geometry":{"type":"MultiLineString","coordinates":[[[-0.4663272,52.1387423],[-0.4660092,52.1387988],[-0.4657401,52.138845],[-0.465186,52.1389347],[-0.4646981,52.1390143],[-0.4644032,52.1390627]]]}},
{"type":"Feature","properties":{"highway":"cycle_lane_on_street","name":"De Parys Avenue","category":"Cycle lane on street"},"geometry":{"type":"MultiLineString","coordinates":[[[-0.4669854,52.144944],[-0.4668812,52.1448263],[-0.4668319,52.1428702],[-0.4668051,52.1418043],[-0.4667448,52.1396104]]]}},
{"type":"Feature","properties":{"highway":"cycle_lane_on_street","name":"Dame Alice Street","category":"Cycle lane on street"},"geometry":{"type":"MultiLineString","coordinates":[[[-0.4668177,52.1386319],[-0.4671034,52.1386259],[-0.4685583,52.13864],[-0.4686227,52.1386399]]]}},
{"type":"Feature","properties":{"highway":"cycle_lane_on_street","name":"Park Avenue","category":"Cycle lane on street"},"geometry":{"type":"MultiLineString","coordinates":[[[-0.4668068,52.1449945],[-0.4666148,52.1450426],[-0.4663046,52.1451481],[-0.4633428,52.1462143],[-0.4621102,52.1466616],[-0.4593455,52.1476548],[-0.459201,52.1477043],[-0.4588846,52.1478009],[-0.4586278,52.1478448],[-0.4583851,52.1478624],[-0.4581222,52.1478509],[-0.457556,52.1477931],[-0.4573641,52.1477691],[-0.456244,52.147635],[-0.455777,52.1475823],[-0.4556437,52.1475649],[-0.4554464,52.1475416],[-0.4552841,52.1475212]]]}},
{"type":"Feature","properties":{"highway":"cycle_lane_on_street","name":"Park Avenue","category":"Cycle lane on street"},"geometry":{"type":"MultiLineString","coordinates":[[[-0.4669854,52.144944],[-0.4668068,52.1449945]]]}},
{"type":"Feature","properties":{"highway":"cycle_lane_on_street","name":"Union Street","category":"Cycle lane on street"},"geometry":{"type":"MultiLineString","coordinates":[[[-0.4748642,52.1404928],[-0.4749069,52.140367],[-0.4749803,52.1400941],[-0.4750021,52.1400027],[-0.4750054,52.139974],[-0.4750204,52.1398241],[-0.4750296,52.1396382]]]}}
]
}
