{
"type": "FeatureCollection",
"name": "BEDFO_159_cycling",
"crs": { "type": "name", "properties": { "name": "urn:ogc:def:crs:OGC:1.3:CRS84" } },
"features": [
{"type":"Feature","properties":{"highway":"bridleway","name":null,"category":"Bridleway"},"geometry":{"type":"MultiLineString","coordinates":[[[-0.4708354,52.2468032],[-0.4713583,52.2463658],[-0.471723,52.2462016],[-0.4725921,52.2459257],[-0.4732573,52.2454922],[-0.4735407,52.245198],[-0.4743516,52.2447761],[-0.4747593,52.2440535],[-0.4751885,52.2434163],[-0.4760468,52.2425031],[-0.4769936,52.2418531],[-0.4764228,52.241591],[-0.4773235,52.2402038],[-0.4783301,52.2393589],[-0.4785055,52.2393717],[-0.4786431,52.2393168],[-0.4811108,52.2413732],[-0.4822051,52.2411104],[-0.4831822,52.2402774],[-0.4839969,52.2402643],[-0.4845129,52.2401443]]]}},
{"type":"Feature","properties":{"highway":"track","name":null,"category":"Track"},"geometry":{"type":"MultiLineString","coordinates":[[[-0.4802051,52.2482981],[-0.477666,52.2470737],[-0.4735407,52.245198]]]}},
{"type":"Feature","properties":{"highway":"bridleway","name":null,"category":"Bridleway"},"geometry":{"type":"MultiLineString","coordinates":[[[-0.5038368,52.234663],[-0.5005927,52.2362271],[-0.4962797,52.2380667],[-0.4934688,52.2403268],[-0.490655,52.24262],[-0.4904862,52.2427576],[-0.490303,52.2429149],[-0.4886193,52.2443605],[-0.4871127,52.2454429],[-0.4869359,52.2455699]]]}},
{"type":"Feature","properties":{"highway":"bridleway","name":null,"category":"Bridleway"},"geometry":{"type":"MultiLineString","coordinates":[[[-0.4890938,52.2494379],[-0.4900892,52.2465808],[-0.4926185,52.2447631]]]}},
{"type":"Feature","properties":{"highway":"track","name":null,"category":"Track"},"geometry":{"type":"MultiLineString","coordinates":[[[-0.4821165,52.2466804],[-0.4817662,52.2470221],[-0.4811254,52.2475606],[-0.4803072,52.2483384]]]}},
{"type":"Feature","properties":{"highway":"bridleway","name":null,"category":"Bridleway"},"geometry":{"type":"MultiLineString","coordinates":[[[-0.4881714,52.2533087],[-0.485602,52.2516987]]]}},
{"type":"Feature","properties":{"highway":"track","name":null,"category":"Track"},"geometry":{"type":"MultiLineString","coordinates":[[[-0.4821165,52.2466804],[-0.4822194,52.246695],[-0.4841853,52.247567]]]}},
{"type":"Feature","properties":{"highway":"track","name":null,"category":"Track"},"geometry":{"type":"MultiLineString","coordinates":[[[-0.4894569,52.2537911],[-0.4898689,52.2535611],[-0.4899097,52.2534978],[-0.4899587,52.2533613],[-0.4900267,52.2531981],[-0.4901735,52.2530083],[-0.4903612,52.2528585],[-0.4907583,52.2525904],[-0.4914898,52.2521076],[-0.4916394,52.252001],[-0.4917237,52.2518828],[-0.4917944,52.2515482],[-0.4918434,52.2513267],[-0.4918488,52.2512102],[-0.4917645,52.2510653],[-0.4916231,52.2509321],[-0.4911689,52.2506774],[-0.4902334,52.2501146],[-0.4892911,52.2495342],[-0.4890938,52.2494379]]]}}
]
}
