{
"type": "FeatureCollection",
"name": "BEDFO_6_cycling",
"crs": { "type": "name", "properties": { "name": "urn:ogc:def:crs:OGC:1.3:CRS84" } },
"features": [
{"type":"Feature","properties":{"highway":"cycleway","name":null,"category":"Dedicated cycleway"},"geometry":{"type":"MultiLineString","coordinates":[[[-0.4267731,52.1574312],[-0.4267012,52.1574007],[-0.4266636,52.1573448],[-0.4266583,52.1572296],[-0.4266046,52.1571506],[-0.4264199,52.1570441],[-0.4262966,52.1568873],[-0.4260004,52.1566864],[-0.4258385,52.1565087],[-0.4256243,52.156164],[-0.4254661,52.1559083],[-0.425376,52.1556713],[-0.4249299,52.1550418],[-0.4245521,52.1547472],[-0.42399,52.1545076],[-0.4237432,52.1544119],[-0.4232992,52.154249],[-0.4223573,52.1540749],[-0.4212075,52.154093],[-0.4207951,52.1541352],[-0.4205212,52.1542521],[-0.4204209,52.1543531],[-0.420398,52.1544815],[-0.4202757,52.1545242]]]}},
{"type":"Feature","properties":{"highway":"cycleway","name":null,"category":"Dedicated cycleway"},"geometry":{"type":"MultiLineString","coordinates":[[[-0.431198,52.1548432],[-0.4311132,52.1548202],[-0.4309713,52.1547887]]]}},
{"type":"Feature","properties":{"highway":"cycleway","name":null,"category":"Dedicated cycleway"},"geometry":{"type":"MultiLineString","coordinates":[[[-0.4169967,52.1517493],[-0.4171078,52.1517814],[-0.4172124,52.151972],[-0.4172615,52.1520181],[-0.4173466,52.1520272],[-0.4174968,52.151998],[-0.4182663,52.1518289],[-0.4188509,52.151696],[-0.420785,52.1512501]]]}},
{"type":"Feature","properties":{"highway":"cycleway","name":null,"category":"Dedicated cycleway"},"geometry":{"type":"MultiLineString","coordinates":[[[-0.4174968,52.151998],[-0.4176636,52.1523069],[-0.4177544,52.1522923]]]}},
{"type":"Feature","properties":{"highway":"cycleway","name":null,"category":"Dedicated cycleway"},"geometry":{"type":"MultiLineString","coordinates":[[[-0.4240041,52.145171],[-0.424067,52.1452015],[-0.4241387,52.1452362],[-0.4242795,52.1452812],[-0.4245203,52.1453225],[-0.4248896,52.1453443]]]}},
{"type":"Feature","properties":{"highway":"track","name":null,"category":"Track"},"geometry":{"type":"MultiLineString","coordinates":[[[-0.427419,52.1586736],[-0.4268634,52.1588971],[-0.4267157,52.1589225],[-0.4254633,52.1590237],[-0.4253764,52.1590672],[-0.4253313,52.1591316],[-0.4253613,52.1594964],[-0.4254157,52.159674],[-0.4253786,52.1598053]]]}},
{"type":"Feature","properties":{"highway":"path","name":null,"category":"Shared path"},"geometry":{"type":"MultiLineString","coordinates":[[[-0.4288878,52.1537729],[-0.4287154,52.1539945]]]}},
{"type":"Feature","properties":{"highway":"bridleway","name":null,"category":"Bridleway"},"geometry":{"type":"MultiLineString","coordinates":[[[-0.4199005,52.1615061],[-0.4198611,52.1614438],[-0.4198413,52.1612311],[-0.4198667,52.1607383],[-0.4199203,52.1605619],[-0.4199851,52.1603199],[-0.4200358,52.160038],[-0.4200443,52.1597337],[-0.4200274,52.159502],[-0.4200105,52.159393],[-0.4199118,52.1592305],[-0.4197596,52.1590714],[-0.4195905,52.1589434],[-0.4195534,52.1589221],[-0.4191085,52.1586667],[-0.4184771,52.1583209],[-0.4182967,52.1582413],[-0.4180965,52.1581877],[-0.4178598,52.1581549],[-0.4173327,52.1580944],[-0.4163545,52.1579526],[-0.4162682,52.157942],[-0.4156834,52.1578701],[-0.4149339,52.1577779],[-0.4146323,52.1577295],[-0.4143871,52.1576776],[-0.4141982,52.1576136],[-0.4139755,52.1575047],[-0.413781,52.1573733],[-0.4135386,52.1572003],[-0.4133357,52.1571069],[-0.4131158,52.1570481],[-0.4128452,52.1570066],[-0.4124957,52.1569669],[-0.4123068,52.1569617],[-0.4118156,52.1569415],[-0.411396,52.1568809],[-0.4110014,52.1567755],[-0.4105769,52.1565823],[-0.4098306,52.1562047]]]}},
{"type":"Feature","properties":{"highway":"cycleway","name":null,"category":"Dedicated cycleway"},"geometry":{"type":"MultiLineString","coordinates":[[[-0.420785,52.1512501],[-0.4204042,52.1506113],[-0.4202046,52.1502513],[-0.4200768,52.1501929]]]}},
{"type":"Feature","properties":{"highway":"cycleway","name":null,"category":"Dedicated cycleway"},"geometry":{"type":"MultiLineString","coordinates":[[[-0.420785,52.1512501],[-0.4209171,52.1512331],[-0.4223578,52.1509236],[-0.4225022,52.1508955]]]}},
{"type":"Feature","properties":{"highway":"cycleway","name":null,"category":"Dedicated cycleway"},"geometry":{"type":"MultiLineString","coordinates":[[[-0.4267731,52.1574312],[-0.4267996,52.1574913],[-0.4268038,52.1576943],[-0.4269567,52.1578383],[-0.4269483,52.1578575]]]}},
{"type":"Feature","properties":{"highway":"path","name":null,"category":"Shared path"},"geometry":{"type":"MultiLineString","coordinates":[[[-0.4178598,52.1581549],[-0.4177425,52.1572888],[-0.4178304,52.157217],[-0.4180158,52.1571871],[-0.4183376,52.1572409],[-0.4190007,52.1575761],[-0.4202004,52.1577136]]]}},
{"type":"Feature","properties":{"highway":"cycleway","name":null,"category":"Dedicated cycleway"},"geometry":{"type":"MultiLineString","coordinates":[[[-0.4334888,52.1587795],[-0.432751,52.1588379],[-0.4322873,52.1588506],[-0.4318442,52.1588268],[-0.4313856,52.1587791],[-0.4310214,52.1587303],[-0.4304581,52.1585954],[-0.4301094,52.1584966],[-0.4295891,52.1582893],[-0.4291599,52.1580984],[-0.4288148,52.1579174],[-0.4285573,52.1577891],[-0.4277523,52.1573899],[-0.4273396,52.1571539],[-0.4270928,52.1571375],[-0.4269158,52.1572066],[-0.4268675,52.1573218],[-0.4267731,52.1574312]]]}},
{"type":"Feature","properties":{"highway":"cycleway","name":null,"category":"Dedicated cycleway"},"geometry":{"type":"MultiLineString","coordinates":[[[-0.4107106,52.151513],[-0.410683,52.1515653],[-0.4110103,52.1516378],[-0.4111255,52.1516652],[-0.4113,52.1517069],[-0.4115253,52.151799],[-0.4116647,52.1519702],[-0.4116309,52.152124],[-0.4116282,52.1522386],[-0.4116202,52.1525651],[-0.4116377,52.1527687],[-0.4116947,52.1529209],[-0.4118224,52.1531723],[-0.4120246,52.15344],[-0.4122906,52.1536963],[-0.4123838,52.1537681],[-0.4126896,52.153959],[-0.4128334,52.154039],[-0.4138578,52.1544603],[-0.4141872,52.1547117],[-0.4144245,52.1549162],[-0.4144942,52.1550548],[-0.4145595,52.1550606],[-0.4146275,52.1550696],[-0.4146805,52.155092],[-0.4147348,52.1551236],[-0.4150668,52.1549933],[-0.4152672,52.1549429],[-0.415452,52.1549374],[-0.4157066,52.1549515],[-0.4159762,52.1549755],[-0.4164275,52.1549825],[-0.4167574,52.154971],[-0.4171139,52.1549351],[-0.4174172,52.1548894],[-0.417843,52.154804],[-0.4183962,52.1546723],[-0.418758,52.1545989],[-0.4190586,52.1545548],[-0.4193137,52.1545278],[-0.4196104,52.1545044],[-0.4198745,52.154496],[-0.4200759,52.1545261],[-0.4201494,52.1545478],[-0.4202757,52.1545242]]]}},
{"type":"Feature","properties":{"highway":"path","name":null,"category":"Shared path"},"geometry":{"type":"MultiLineString","coordinates":[[[-0.4287488,52.1541933],[-0.4288123,52.1540356]]]}},
{"type":"Feature","properties":{"highway":"path","name":null,"category":"Shared path"},"geometry":{"type":"MultiLineString","coordinates":[[[-0.4275132,52.1537891],[-0.4276196,52.1537501],[-0.4277942,52.1537832],[-0.4279493,52.1537365],[-0.4280586,52.1534451],[-0.4281354,52.1534519]]]}},
{"type":"Feature","properties":{"highway":"path","name":null,"category":"Shared path"},"geometry":{"type":"MultiLineString","coordinates":[[[-0.4288123,52.1540356],[-0.4287154,52.1539945],[-0.428159,52.1538493],[-0.4282658,52.153472],[-0.4281354,52.1534519]]]}},
{"type":"Feature","properties":{"highway":"path","name":null,"category":"Shared path"},"geometry":{"type":"MultiLineString","coordinates":[[[-0.417843,52.154804],[-0.4178123,52.1547508],[-0.4177876,52.1547027],[-0.4182414,52.1545908],[-0.4183137,52.1545692],[-0.4183853,52.1545511],[-0.4198729,52.154195],[-0.4199267,52.1540875]]]}},
{"type":"Feature","properties":{"highway":"path","name":null,"category":"Shared path"},"geometry":{"type":"MultiLineString","coordinates":[[[-0.4202004,52.1577136],[-0.4205515,52.1570255],[-0.420808,52.1567977]]]}},
{"type":"Feature","properties":{"highway":"cycle_lane_on_street","name":"Ettrick Drive","category":"Cycle lane on street"},"geometry":{"type":"MultiLineString","coordinates":[[[-0.4236374,52.1527708],[-0.4233185,52.1528873],[-0.4231203,52.1529448],[-0.4230256,52.1529489],[-0.4228811,52.1529346],[-0.422241,52.1528375],[-0.4220788,52.1528103],[-0.4217949,52.152758],[-0.4215835,52.1527191],[-0.4213348,52.1526739],[-0.4210592,52.1526578],[-0.420815,52.1526598],[-0.4205913,52.1526842],[-0.4203762,52.1527211],[-0.4199215,52.1528166],[-0.4198818,52.1528235],[-0.4193614,52.152929]]]}},
{"type":"Feature","properties":{"highway":"cycle_lane_on_street","name":"Poppyfields","category":"Cycle lane on street"},"geometry":{"type":"MultiLineString","coordinates":[[[-0.418348,52.1546216],[-0.4183137,52.1545692],[-0.4181782,52.1542875],[-0.4181451,52.1542209],[-0.4180633,52.154072],[-0.4178548,52.1538178],[-0.417778,52.1537632],[-0.417702,52.1536809],[-0.4175647,52.1534282],[-0.4173646,52.1530598]]]}},
{"type":"Feature","properties":{"highway":"cycle_lane_on_street","name":"Poppyfields","category":"Cycle lane on street"},"geometry":{"type":"MultiLineString","coordinates":[[[-0.4183158,52.1528603],[-0.4178194,52.1529644],[-0.4173646,52.1530598]]]}},
{"type":"Feature","properties":{"highway":"cycle_lane_on_street","name":"Poppyfields","category":"Cycle lane on street"},"geometry":{"type":"MultiLineString","coordinates":[[[-0.4179776,52.1522399],[-0.418291,52.1528148],[-0.4183158,52.1528603]]]}},
{"type":"Feature","properties":{"highway":"cycle_lane_on_street","name":"Needwood Road","category":"Cycle lane on street"},"geometry":{"type":"MultiLineString","coordinates":[[[-0.4267132,52.15364],[-0.4269269,52.1536771],[-0.426963,52.1536853],[-0.4275132,52.1537891]]]}},
{"type":"Feature","properties":{"highway":"cycle_lane_on_street","name":"Needwood Road","category":"Cycle lane on street"},"geometry":{"type":"MultiLineString","coordinates":[[[-0.4236374,52.1527708],[-0.4237571,52.1528867],[-0.4239469,52.1529968],[-0.4241753,52.1531101],[-0.4243718,52.1531731],[-0.4245643,52.1532186],[-0.4247889,52.153265],[-0.4249358,52.1532965],[-0.4251786,52.1533401],[-0.4255342,52.1534221],[-0.4259392,52.1534938],[-0.4264189,52.1535892],[-0.4267132,52.15364]]]}},
{"type":"Feature","properties":{"highway":"cycle_lane_on_street","name":"Glenavon Road","category":"Cycle lane on street"},"geometry":{"type":"MultiLineString","coordinates":[[[-0.4193614,52.152929],[-0.4196281,52.1533891],[-0.4196752,52.1535385],[-0.4196901,52.1536822],[-0.4199267,52.1540875],[-0.4200266,52.1542081]]]}},
{"type":"Feature","properties":{"highway":"cycle_lane_on_street","name":"Poppyfields","category":"Cycle lane on street"},"geometry":{"type":"MultiLineString","coordinates":[[[-0.4177544,52.1522923],[-0.4179776,52.1522399]]]}}
]
}
