{
"type": "FeatureCollection",
"name": "ROCHF_22_walking",
"crs": { "type": "name", "properties": { "name": "urn:ogc:def:crs:OGC:1.3:CRS84" } },
"features": [
{"type":"Feature","properties":{"highway":"track","name":"Tinker's Lane","category":"Track"},"geometry":{"type":"MultiLineString","coordinates":[[[0.7111394,51.5776362],[0.7106682,51.5776213],[0.7093863,51.5776666],[0.7071644,51.5777484]]]}},
{"type":"Feature","properties":{"highway":"footway","name":null,"category":"Footpath (pedestrian only)"},"geometry":{"type":"MultiLineString","coordinates":[[[0.6996502,51.5880897],[0.6995783,51.5880765]]]}},
{"type":"Feature","properties":{"highway":"footway","name":null,"category":"Footpath (pedestrian only)"},"geometry":{"type":"MultiLineString","coordinates":[[[0.7072039,51.5796204],[0.706901,51.5796083],[0.706836,51.5796141],[0.7066611,51.5795852],[0.7066015,51.5797302],[0.7065789,51.5797623],[0.706518,51.5797903],[0.7063987,51.5798257],[0.7063576,51.5798636],[0.7062966,51.5799534],[0.7062038,51.5800275],[0.7060938,51.5800769],[0.7059759,51.5801189],[0.7058182,51.5801511],[0.7057174,51.5801659]]]}},
{"type":"Feature","properties":{"highway":"footway","name":null,"category":"Footpath (pedestrian only)"},"geometry":{"type":"MultiLineString","coordinates":[[[0.7018924,51.5818019],[0.7018675,51.5817926],[0.7018581,51.5817763],[0.7017451,51.5818874],[0.7017268,51.5818831],[0.7015985,51.5820025],[0.7015667,51.5819935],[0.701697,51.5818731],[0.701676,51.5818633],[0.7017991,51.5817495],[0.7017598,51.5817356],[0.7016406,51.5818489],[0.7016159,51.5818518],[0.7015058,51.5819557],[0.7015262,51.5819707],[0.7014281,51.5820635],[0.7013463,51.5820657]]]}},
{"type":"Feature","properties":{"highway":"footway","name":null,"category":"Footpath (pedestrian only)"},"geometry":{"type":"MultiLineString","coordinates":[[[0.70197,51.5819126],[0.7018142,51.5818467]]]}},
{"type":"Feature","properties":{"highway":"footway","name":null,"category":"Footpath (pedestrian only)"},"geometry":{"type":"MultiLineString","coordinates":[[[0.6999033,51.5803399],[0.6999045,51.580316],[0.6999341,51.580271],[0.6999823,51.5802443],[0.7000789,51.580216],[0.700162,51.5802077],[0.7004222,51.5802443],[0.7004598,51.5802493],[0.7005027,51.5802727],[0.7005927,51.5805331]]]}},
{"type":"Feature","properties":{"highway":"track","name":null,"category":"Track"},"geometry":{"type":"MultiLineString","coordinates":[[[0.6974826,51.5801473],[0.6973485,51.5806073],[0.6974156,51.5807723],[0.6973709,51.5811475],[0.6972761,51.5817057],[0.697225,51.58194]]]}},
{"type":"Feature","properties":{"highway":"track","name":null,"category":"Track"},"geometry":{"type":"MultiLineString","coordinates":[[[0.6978018,51.5805823],[0.6978184,51.5807451],[0.6974156,51.5807723]]]}},
{"type":"Feature","properties":{"highway":"track","name":null,"category":"Track"},"geometry":{"type":"MultiLineString","coordinates":[[[0.6980673,51.581069],[0.6979949,51.581154],[0.6973709,51.5811475]]]}},
{"type":"Feature","properties":{"highway":"track","name":"Ironwell Lane","category":"Track"},"geometry":{"type":"MultiLineString","coordinates":[[[0.6802349,51.5904543],[0.6803395,51.5904493],[0.6806989,51.5904309],[0.6811039,51.590291],[0.6814607,51.590121],[0.6818228,51.589921],[0.6820776,51.5897527],[0.6823136,51.5895394],[0.6826676,51.5891811],[0.6829385,51.5888745],[0.6832765,51.5885095],[0.6834938,51.5882979],[0.6840682,51.5880055],[0.6849098,51.5876025],[0.685422,51.5874166],[0.6865807,51.58723],[0.6871815,51.58691],[0.6872146,51.5868894],[0.6874175,51.5867634],[0.6882758,51.58655],[0.6888981,51.5864567],[0.6898637,51.5863767],[0.6907864,51.5862167],[0.6916982,51.5859689],[0.692578,51.5857343],[0.6933184,51.5854034],[0.6943269,51.5852968],[0.6953354,51.5852168],[0.6962152,51.5851235],[0.6967945,51.5850452]]]}},
{"type":"Feature","properties":{"highway":"track","name":null,"category":"Track"},"geometry":{"type":"MultiLineString","coordinates":[[[0.7141463,51.5828819],[0.7141608,51.583555],[0.7142037,51.5835767],[0.714303,51.5835583],[0.7144443,51.5835429],[0.714648,51.5835291],[0.7148536,51.5835166],[0.7150149,51.583509],[0.7151298,51.5835015],[0.7151802,51.5835153],[0.7152085,51.5835404],[0.7152145,51.5836243],[0.7152217,51.5837397],[0.7152605,51.5838299],[0.7152861,51.5839126],[0.7153132,51.584006],[0.7153321,51.5840751],[0.7153703,51.5841881],[0.7154195,51.5843506],[0.7154444,51.5844377],[0.7154739,51.5845451],[0.7155181,51.5846683],[0.7155466,51.5847622],[0.7155834,51.5849085]]]}},
{"type":"Feature","properties":{"highway":"footway","name":null,"category":"Footpath (pedestrian only)"},"geometry":{"type":"MultiLineString","coordinates":[[[0.7081021,51.586231],[0.7081929,51.5862416],[0.7083458,51.5862199],[0.7084316,51.5862466],[0.7086006,51.5862166],[0.7083941,51.5858249],[0.708462,51.585628],[0.7083236,51.5853232]]]}},
{"type":"Feature","properties":{"highway":"footway","name":null,"category":"Footpath (pedestrian only)"},"geometry":{"type":"MultiLineString","coordinates":[[[0.7057135,51.5822429],[0.7056999,51.5820438]]]}},
{"type":"Feature","properties":{"highway":"footway","name":null,"category":"Footpath (pedestrian only)"},"geometry":{"type":"MultiLineString","coordinates":[[[0.7203322,51.5790033],[0.7202883,51.5790278],[0.7200576,51.5790945],[0.7198645,51.5791428],[0.7196311,51.5791862],[0.71932,51.5792762],[0.7190464,51.5793528],[0.7187085,51.5794245],[0.718569,51.5794695],[0.7183812,51.5795262],[0.7182123,51.5795812],[0.718113,51.5796462],[0.717944,51.5797412],[0.7177402,51.5797729],[0.7175658,51.5798412],[0.7173298,51.5799129],[0.717169,51.5799749],[0.717016,51.5800496],[0.7168175,51.5800629],[0.7165064,51.5800796],[0.7163508,51.5800712],[0.716214,51.5800662],[0.7160397,51.5801146],[0.7158385,51.5801696],[0.7155917,51.5801479],[0.7154415,51.5801062],[0.7153074,51.5800796],[0.7150902,51.5800479],[0.7149105,51.5800462],[0.7147031,51.5800434],[0.7145189,51.5800329],[0.7143125,51.5799666],[0.7140977,51.5799346],[0.7138349,51.5799012],[0.7136981,51.5798779],[0.713513,51.5798346],[0.7133628,51.5798196],[0.7132314,51.5797912],[0.7131429,51.5797079],[0.7129578,51.5795645],[0.7128773,51.5795362],[0.7127486,51.5795462],[0.7125689,51.5795179],[0.7124723,51.5794595],[0.712341,51.5793532],[0.7121666,51.5792662],[0.7120406,51.5792015],[0.7118366,51.5791695],[0.7116034,51.5791265],[0.7114021,51.5791278],[0.7112707,51.5791628],[0.7110561,51.5792112],[0.7108524,51.5792748],[0.710752,51.5792973],[0.7106217,51.5793265],[0.7104338,51.5793428],[0.7103266,51.5793145],[0.7101845,51.5792648],[0.7099645,51.5792562],[0.7097503,51.5792433],[0.7093948,51.5792179],[0.7088821,51.5792408],[0.7085878,51.5792493]]]}},
{"type":"Feature","properties":{"highway":"footway","name":"Rectory Road to Ironwell Lane PROW 285","category":"Footpath (pedestrian only)"},"geometry":{"type":"MultiLineString","coordinates":[[[0.685865,51.5950964],[0.6860336,51.595078],[0.6861799,51.5951583],[0.6864696,51.5953332],[0.6865983,51.5953632],[0.6867351,51.5953116],[0.6886146,51.594119],[0.6890489,51.5938905],[0.6897668,51.5934043],[0.6914152,51.5918061],[0.6933255,51.5898728],[0.6941635,51.5892219],[0.695815,51.5876063],[0.6968502,51.5866108],[0.6973334,51.5861844],[0.6986717,51.5849005],[0.6987304,51.5848441]]]}},
{"type":"Feature","properties":{"highway":"footway","name":null,"category":"Footpath (pedestrian only)"},"geometry":{"type":"MultiLineString","coordinates":[[[0.6973969,51.5864545],[0.6979203,51.5865769]]]}},
{"type":"Feature","properties":{"highway":"footway","name":null,"category":"Footpath (pedestrian only)"},"geometry":{"type":"MultiLineString","coordinates":[[[0.7066611,51.5795852],[0.70661,51.5793986],[0.7064769,51.5793158],[0.7058407,51.5792639],[0.7047621,51.5792097],[0.704686,51.5792448],[0.7046002,51.5793415],[0.7045141,51.5795988],[0.7049315,51.5797682],[0.7052909,51.580199],[0.7054403,51.5802012],[0.7057174,51.5801659]]]}},
{"type":"Feature","properties":{"highway":"footway","name":null,"category":"Footpath (pedestrian only)"},"geometry":{"type":"MultiLineString","coordinates":[[[0.7037206,51.5819497],[0.7036342,51.5818714],[0.7036385,51.5812224],[0.7036803,51.5806095],[0.7045141,51.5795988]]]}},
{"type":"Feature","properties":{"highway":"footway","name":null,"category":"Footpath (pedestrian only)"},"geometry":{"type":"MultiLineString","coordinates":[[[0.7103721,51.5808119],[0.7103721,51.5809773],[0.7105402,51.581015],[0.7105495,51.5811224],[0.7105776,51.5811862],[0.7106336,51.5812443],[0.7106523,51.5813197],[0.7106196,51.58134],[0.7108251,51.5816215],[0.7107223,51.5818624],[0.7107597,51.5820046],[0.7108531,51.5821409],[0.7107457,51.5821322],[0.7108527,51.5821969],[0.7109778,51.582214],[0.7110586,51.5821758],[0.7111473,51.5820771],[0.7113248,51.581903],[0.711194,51.5818682],[0.7111613,51.5817782],[0.7110165,51.5816795],[0.7108251,51.5816215]]]}},
{"type":"Feature","properties":{"highway":"footway","name":null,"category":"Footpath (pedestrian only)"},"geometry":{"type":"MultiLineString","coordinates":[[[0.7113248,51.581903],[0.7117357,51.5817579],[0.711689,51.5815461],[0.711605,51.5812588],[0.7116376,51.5809889],[0.711619,51.5807408],[0.7115022,51.5806493],[0.7113318,51.5805768],[0.7110913,51.5806131],[0.710692,51.5808365],[0.7105729,51.5809454],[0.7105402,51.581015]]]}},
{"type":"Feature","properties":{"highway":"footway","name":null,"category":"Footpath (pedestrian only)"},"geometry":{"type":"MultiLineString","coordinates":[[[0.7054403,51.5802012],[0.7040378,51.5812926],[0.7036342,51.5818714]]]}},
{"type":"Feature","properties":{"highway":"footway","name":null,"category":"Footpath (pedestrian only)"},"geometry":{"type":"MultiLineString","coordinates":[[[0.6958514,51.5842963],[0.6959642,51.5844136],[0.69662,51.5847085],[0.6967509,51.5847793],[0.6968319,51.5848768],[0.6958618,51.5849734],[0.6955668,51.5850867],[0.6948748,51.5851634],[0.6940165,51.5851867],[0.6929275,51.5854167],[0.692375,51.5856733],[0.6919893,51.5857975],[0.6913021,51.5859333],[0.6907334,51.58613],[0.6901863,51.58618],[0.6891617,51.5863333],[0.688636,51.5863336],[0.6879869,51.5864833],[0.6873866,51.5866374],[0.6871238,51.5868137]]]}},
{"type":"Feature","properties":{"highway":"footway","name":null,"category":"Footpath (pedestrian only)"},"geometry":{"type":"MultiLineString","coordinates":[[[0.6969099,51.5849708],[0.6969585,51.5850294]]]}},
{"type":"Feature","properties":{"highway":"footway","name":null,"category":"Footpath (pedestrian only)"},"geometry":{"type":"MultiLineString","coordinates":[[[0.6968319,51.5848768],[0.6969099,51.5849708]]]}},
{"type":"Feature","properties":{"highway":"footway","name":null,"category":"Footpath (pedestrian only)"},"geometry":{"type":"MultiLineString","coordinates":[[[0.6946541,51.5842527],[0.6947938,51.5843119]]]}},
{"type":"Feature","properties":{"highway":"footway","name":"Edward Place","category":"Footpath (pedestrian only)"},"geometry":{"type":"MultiLineString","coordinates":[[[0.6951628,51.5840285],[0.6946182,51.5837901],[0.6942924,51.5836403],[0.69416,51.5837502]]]}},
{"type":"Feature","properties":{"highway":"footway","name":null,"category":"Footpath (pedestrian only)"},"geometry":{"type":"MultiLineString","coordinates":[[[0.6946182,51.5837901],[0.6946884,51.5837283]]]}},
{"type":"Feature","properties":{"highway":"footway","name":null,"category":"Footpath (pedestrian only)"},"geometry":{"type":"MultiLineString","coordinates":[[[0.6955875,51.5839365],[0.6956478,51.5838318],[0.6956926,51.5838432],[0.695796,51.583734]]]}},
{"type":"Feature","properties":{"highway":"footway","name":null,"category":"Footpath (pedestrian only)"},"geometry":{"type":"MultiLineString","coordinates":[[[0.6930756,51.5821125],[0.6930756,51.5820747]]]}},
{"type":"Feature","properties":{"highway":"footway","name":null,"category":"Footpath (pedestrian only)"},"geometry":{"type":"MultiLineString","coordinates":[[[0.6930756,51.5820747],[0.6930756,51.581977]]]}},
{"type":"Feature","properties":{"highway":"footway","name":null,"category":"Footpath (pedestrian only)"},"geometry":{"type":"MultiLineString","coordinates":[[[0.6930756,51.581977],[0.6930756,51.5819401]]]}},
{"type":"Feature","properties":{"highway":"footway","name":null,"category":"Footpath (pedestrian only)"},"geometry":{"type":"MultiLineString","coordinates":[[[0.7063072,51.5872723],[0.706383,51.5872692],[0.7066729,51.5872496],[0.7069653,51.5872275],[0.7070343,51.5872236],[0.7071368,51.5872201],[0.707221,51.5872118],[0.7073115,51.587198],[0.7074242,51.5871784],[0.7075267,51.5871615],[0.7076805,51.5871422],[0.7077988,51.5871257],[0.7078587,51.5871155],[0.707887,51.5871087],[0.7078966,51.587103],[0.7079462,51.5871416],[0.7080208,51.5874415]]]}},
{"type":"Feature","properties":{"highway":"footway","name":null,"category":"Footpath (pedestrian only)"},"geometry":{"type":"MultiLineString","coordinates":[[[0.694268,51.5839957],[0.6944132,51.5838664]]]}},
{"type":"Feature","properties":{"highway":"footway","name":null,"category":"Footpath (pedestrian only)"},"geometry":{"type":"MultiLineString","coordinates":[[[0.6942977,51.583107],[0.694411,51.5830133]]]}},
{"type":"Feature","properties":{"highway":"footway","name":null,"category":"Footpath (pedestrian only)"},"geometry":{"type":"MultiLineString","coordinates":[[[0.69662,51.5847085],[0.6967354,51.5845515],[0.6967315,51.5842902],[0.696638,51.5842346],[0.6965524,51.5842201],[0.6963148,51.584266],[0.6962319,51.5842907]]]}},
{"type":"Feature","properties":{"highway":"footway","name":null,"category":"Footpath (pedestrian only)"},"geometry":{"type":"MultiLineString","coordinates":[[[0.6965524,51.5842201],[0.6965212,51.5841741],[0.6964511,51.583666],[0.6964479,51.5834046],[0.6964433,51.5830417],[0.6964823,51.5829812],[0.6964083,51.5827344],[0.6962876,51.5825529],[0.6962253,51.5825215],[0.6961852,51.5823825],[0.6962158,51.5822464],[0.6961908,51.5820935],[0.6960289,51.582095]]]}},
{"type":"Feature","properties":{"highway":"footway","name":null,"category":"Footpath (pedestrian only)"},"geometry":{"type":"MultiLineString","coordinates":[[[0.6964479,51.5834046],[0.6962878,51.5833722]]]}},
{"type":"Feature","properties":{"highway":"footway","name":null,"category":"Footpath (pedestrian only)"},"geometry":{"type":"MultiLineString","coordinates":[[[0.6962945,51.5837467],[0.6962806,51.5836788],[0.6962253,51.583431]]]}},
{"type":"Feature","properties":{"highway":"footway","name":null,"category":"Footpath (pedestrian only)"},"geometry":{"type":"MultiLineString","coordinates":[[[0.6964511,51.583666],[0.6962806,51.5836788]]]}},
{"type":"Feature","properties":{"highway":"footway","name":null,"category":"Footpath (pedestrian only)"},"geometry":{"type":"MultiLineString","coordinates":[[[0.6954162,51.5821042],[0.6956568,51.5819278]]]}},
{"type":"Feature","properties":{"highway":"footway","name":null,"category":"Footpath (pedestrian only)"},"geometry":{"type":"MultiLineString","coordinates":[[[0.6963074,51.5827527],[0.6964083,51.5827344]]]}},
{"type":"Feature","properties":{"highway":"footway","name":null,"category":"Footpath (pedestrian only)"},"geometry":{"type":"MultiLineString","coordinates":[[[0.6962253,51.5825215],[0.6961663,51.5825341]]]}},
{"type":"Feature","properties":{"highway":"footway","name":null,"category":"Footpath (pedestrian only)"},"geometry":{"type":"MultiLineString","coordinates":[[[0.69408,51.5843295],[0.6942621,51.5842965]]]}},
{"type":"Feature","properties":{"highway":"footway","name":null,"category":"Footpath (pedestrian only)"},"geometry":{"type":"MultiLineString","coordinates":[[[0.6926308,51.5836734],[0.6928462,51.5836585],[0.6929882,51.5836159],[0.6931913,51.5836083],[0.6932761,51.5835907],[0.6933125,51.5835832],[0.693452,51.5835512],[0.6935297,51.5835595],[0.6935878,51.5835657],[0.6937432,51.5835452],[0.6938742,51.5835237]]]}},
{"type":"Feature","properties":{"highway":"footway","name":null,"category":"Footpath (pedestrian only)"},"geometry":{"type":"MultiLineString","coordinates":[[[0.6932848,51.5839773],[0.693239,51.5838942],[0.6932292,51.5837748],[0.6932709,51.5836592],[0.6932761,51.5835907]]]}},
{"type":"Feature","properties":{"highway":"footway","name":null,"category":"Footpath (pedestrian only)"},"geometry":{"type":"MultiLineString","coordinates":[[[0.6935297,51.5835595],[0.6935499,51.5835026],[0.6935315,51.5834106]]]}},
{"type":"Feature","properties":{"highway":"footway","name":null,"category":"Footpath (pedestrian only)"},"geometry":{"type":"MultiLineString","coordinates":[[[0.6938742,51.5835237],[0.6939758,51.5835049],[0.6942924,51.5836403]]]}},
{"type":"Feature","properties":{"highway":"footway","name":null,"category":"Footpath (pedestrian only)"},"geometry":{"type":"MultiLineString","coordinates":[[[0.708454,51.5848365],[0.7087766,51.5849062],[0.7090851,51.5849195],[0.7095062,51.5848495],[0.7098227,51.5847462],[0.7099648,51.5846262],[0.7099904,51.5845537]]]}},
{"type":"Feature","properties":{"highway":"footway","name":null,"category":"Footpath (pedestrian only)"},"geometry":{"type":"MultiLineString","coordinates":[[[0.708454,51.5848365],[0.7085003,51.5847362],[0.7086103,51.5847162],[0.7087525,51.5846262],[0.7090287,51.5845245],[0.7092594,51.5844712],[0.7095518,51.5844595],[0.7098254,51.5844862],[0.7099541,51.5845079],[0.7099904,51.5845537]]]}},
{"type":"Feature","properties":{"highway":"footway","name":null,"category":"Footpath (pedestrian only)"},"geometry":{"type":"MultiLineString","coordinates":[[[0.6946506,51.5839968],[0.6950087,51.5841475]]]}},
{"type":"Feature","properties":{"highway":"footway","name":null,"category":"Footpath (pedestrian only)"},"geometry":{"type":"MultiLineString","coordinates":[[[0.7123797,51.5855669],[0.7117822,51.5856836]]]}},
{"type":"Feature","properties":{"highway":"footway","name":null,"category":"Footpath (pedestrian only)"},"geometry":{"type":"MultiLineString","coordinates":[[[0.7117822,51.5856836],[0.7115698,51.585633],[0.7115319,51.585569]]]}},
{"type":"Feature","properties":{"highway":"footway","name":null,"category":"Footpath (pedestrian only)"},"geometry":{"type":"MultiLineString","coordinates":[[[0.7104507,51.5868963],[0.7104052,51.5867957],[0.7103746,51.5867279],[0.7109707,51.5866675],[0.7118271,51.5865807],[0.7119808,51.5865651]]]}},
{"type":"Feature","properties":{"highway":"footway","name":null,"category":"Footpath (pedestrian only)"},"geometry":{"type":"MultiLineString","coordinates":[[[0.7109707,51.5866675],[0.7103875,51.58552],[0.710778,51.5854427],[0.7106406,51.5851798]]]}},
{"type":"Feature","properties":{"highway":"footway","name":null,"category":"Footpath (pedestrian only)"},"geometry":{"type":"MultiLineString","coordinates":[[[0.7086006,51.5862166],[0.7086666,51.5862],[0.7090786,51.5869946],[0.7104052,51.5867957]]]}},
{"type":"Feature","properties":{"highway":"footway","name":null,"category":"Footpath (pedestrian only)"},"geometry":{"type":"MultiLineString","coordinates":[[[0.7103875,51.58552],[0.7083941,51.5858249]]]}},
{"type":"Feature","properties":{"highway":"footway","name":null,"category":"Footpath (pedestrian only)"},"geometry":{"type":"MultiLineString","coordinates":[[[0.7118271,51.5865807],[0.7114218,51.585744],[0.7117822,51.5856836]]]}},
{"type":"Feature","properties":{"highway":"footway","name":null,"category":"Footpath (pedestrian only)"},"geometry":{"type":"MultiLineString","coordinates":[[[0.7114218,51.585744],[0.7112415,51.5853653],[0.710778,51.5854427]]]}},
{"type":"Feature","properties":{"highway":"footway","name":null,"category":"Footpath (pedestrian only)"},"geometry":{"type":"MultiLineString","coordinates":[[[0.7118271,51.5865807],[0.7120309,51.5870576]]]}},
{"type":"Feature","properties":{"highway":"footway","name":null,"category":"Footpath (pedestrian only)"},"geometry":{"type":"MultiLineString","coordinates":[[[0.7011103,51.577203],[0.7011981,51.5771932],[0.7013318,51.5771847],[0.7014144,51.5771786],[0.7015088,51.5771725],[0.701567,51.5771567]]]}},
{"type":"Feature","properties":{"highway":"track","name":null,"category":"Track"},"geometry":{"type":"MultiLineString","coordinates":[[[0.6997785,51.5796993],[0.7001843,51.5795483],[0.7004292,51.5794534],[0.7006821,51.579366],[0.7009018,51.5792722],[0.7011026,51.5791422],[0.7012611,51.5790144],[0.7013632,51.5789178],[0.7014746,51.5788101]]]}},
{"type":"Feature","properties":{"highway":"footway","name":null,"category":"Footpath (pedestrian only)"},"geometry":{"type":"MultiLineString","coordinates":[[[0.7031672,51.5771655],[0.7029286,51.5772383],[0.7027774,51.5772963]]]}},
{"type":"Feature","properties":{"highway":"footway","name":null,"category":"Footpath (pedestrian only)"},"geometry":{"type":"MultiLineString","coordinates":[[[0.7001491,51.5796504],[0.7005699,51.5796327],[0.7007233,51.5796247],[0.7007213,51.5795978]]]}},
{"type":"Feature","properties":{"highway":"footway","name":null,"category":"Footpath (pedestrian only)"},"geometry":{"type":"MultiLineString","coordinates":[[[0.7005617,51.5796016],[0.7005699,51.5796327]]]}},
{"type":"Feature","properties":{"highway":"footway","name":null,"category":"Footpath (pedestrian only)"},"geometry":{"type":"MultiLineString","coordinates":[[[0.7098601,51.5834851],[0.7099071,51.5834738],[0.7098068,51.583274]]]}},
{"type":"Feature","properties":{"highway":"footway","name":null,"category":"Footpath (pedestrian only)"},"geometry":{"type":"MultiLineString","coordinates":[[[0.693984,51.5850626],[0.6940165,51.5851867]]]}},
{"type":"Feature","properties":{"highway":"path","name":null,"category":"Shared path"},"geometry":{"type":"MultiLineString","coordinates":[[[0.7040263,51.583057],[0.7040302,51.5830872]]]}},
{"type":"Feature","properties":{"highway":"footway","name":"Golf course footpath to old crossing","category":"Footpath (pedestrian only)"},"geometry":{"type":"MultiLineString","coordinates":[[[0.7014868,51.5787283],[0.7014888,51.5787148],[0.7016658,51.578739],[0.7019737,51.5788907],[0.7023559,51.5786884],[0.7025683,51.5787412],[0.7027205,51.5787808],[0.7028054,51.5788335],[0.7029222,51.5788775],[0.70403,51.5789567],[0.7041326,51.5789347],[0.7044618,51.5784794],[0.7045821,51.5782023],[0.7047767,51.5778108],[0.7048758,51.577824]]]}},
{"type":"Feature","properties":{"highway":"footway","name":"Golf course footpath to old crossing","category":"Footpath (pedestrian only)"},"geometry":{"type":"MultiLineString","coordinates":[[[0.7013562,51.5798961],[0.7014746,51.5788101]]]}},
{"type":"Feature","properties":{"highway":"footway","name":"Golf course footpath to old crossing","category":"Footpath (pedestrian only)"},"geometry":{"type":"MultiLineString","coordinates":[[[0.7014746,51.5788101],[0.7014868,51.5787283]]]}},
{"type":"Feature","properties":{"highway":"footway","name":"Middlemead to Oast Way Cut through","category":"Footpath (pedestrian only)"},"geometry":{"type":"MultiLineString","coordinates":[[[0.7077371,51.5849874],[0.7075828,51.5846275],[0.7075723,51.5846031],[0.7076482,51.5845403]]]}},
{"type":"Feature","properties":{"highway":"footway","name":"Dalys Road to Oast Way Footpath","category":"Footpath (pedestrian only)"},"geometry":{"type":"MultiLineString","coordinates":[[[0.7065122,51.5846902],[0.7068899,51.5847377],[0.7070912,51.5847326],[0.7075828,51.5846275]]]}},
{"type":"Feature","properties":{"highway":"footway","name":null,"category":"Footpath (pedestrian only)"},"geometry":{"type":"MultiLineString","coordinates":[[[0.6993709,51.5802586],[0.699274,51.580193],[0.6988943,51.5795079],[0.698515,51.5788665],[0.6978974,51.5780048],[0.6977055,51.5779813]]]}},
{"type":"Feature","properties":{"highway":"footway","name":null,"category":"Footpath (pedestrian only)"},"geometry":{"type":"MultiLineString","coordinates":[[[0.7145431,51.5828688],[0.7146479,51.5829334],[0.7147874,51.5829501],[0.7149107,51.5829568],[0.7152406,51.5829651],[0.7153908,51.5829534],[0.7157422,51.5829218],[0.7161124,51.5828918],[0.7163108,51.5828701],[0.7166783,51.5828368],[0.7169005,51.5828244]]]}},
{"type":"Feature","properties":{"highway":"footway","name":null,"category":"Footpath (pedestrian only)"},"geometry":{"type":"MultiLineString","coordinates":[[[0.6820776,51.5897527],[0.6874279,51.5892579],[0.6918116,51.5871812],[0.6930258,51.5862469],[0.6944082,51.5856898],[0.6967945,51.5850452]]]}},
{"type":"Feature","properties":{"highway":"footway","name":null,"category":"Footpath (pedestrian only)"},"geometry":{"type":"MultiLineString","coordinates":[[[0.7139957,51.5738908],[0.7140202,51.5738564],[0.7141095,51.5737525],[0.714148,51.5737166],[0.714196,51.5736759]]]}},
{"type":"Feature","properties":{"highway":"footway","name":null,"category":"Footpath (pedestrian only)"},"geometry":{"type":"MultiLineString","coordinates":[[[0.7111394,51.5776362],[0.7112749,51.5775468],[0.7114398,51.5775612],[0.7119389,51.5775947],[0.7120205,51.5774913],[0.7125014,51.5758424],[0.7133729,51.573858]]]}},
{"type":"Feature","properties":{"highway":"footway","name":null,"category":"Footpath (pedestrian only)"},"geometry":{"type":"MultiLineString","coordinates":[[[0.7012385,51.5808064],[0.7010901,51.5807344],[0.7009801,51.5806644],[0.7008514,51.5806127],[0.7007146,51.5805677],[0.7006287,51.580541],[0.7005927,51.5805331],[0.700492,51.580511],[0.7002023,51.5804493],[0.6999957,51.5804043],[0.699926,51.580381],[0.6999033,51.5803399],[0.6998026,51.580341],[0.6996739,51.5803427],[0.6995532,51.580351]]]}},
{"type":"Feature","properties":{"highway":"footway","name":null,"category":"Footpath (pedestrian only)"},"geometry":{"type":"MultiLineString","coordinates":[[[0.6993167,51.5804272],[0.6996757,51.5807588],[0.701227,51.5814088]]]}},
{"type":"Feature","properties":{"highway":"footway","name":null,"category":"Footpath (pedestrian only)"},"geometry":{"type":"MultiLineString","coordinates":[[[0.6995532,51.580351],[0.6994262,51.5803174],[0.6993709,51.5802586]]]}},
{"type":"Feature","properties":{"highway":"footway","name":null,"category":"Footpath (pedestrian only)"},"geometry":{"type":"MultiLineString","coordinates":[[[0.7078966,51.587103],[0.707906,51.5870938],[0.7079077,51.5870832],[0.7078982,51.5870541],[0.7078672,51.5869677]]]}},
{"type":"Feature","properties":{"highway":"footway","name":null,"category":"Footpath (pedestrian only)"},"geometry":{"type":"MultiLineString","coordinates":[[[0.7111394,51.5776362],[0.7111009,51.5778362],[0.710772,51.5791199],[0.710752,51.5792973]]]}},
{"type":"Feature","properties":{"highway":"bridleway","name":null,"category":"Bridleway"},"geometry":{"type":"MultiLineString","coordinates":[[[0.7111394,51.5776362],[0.7111628,51.5776549],[0.7110441,51.578168],[0.710924,51.5786371],[0.710793,51.5792144],[0.7110149,51.579202],[0.7113291,51.579112],[0.7118714,51.5791187],[0.7121656,51.5792326],[0.7122997,51.5793044],[0.7125954,51.5794557],[0.712902,51.5795179],[0.7130514,51.579561],[0.7131177,51.5796376],[0.7133303,51.5797802],[0.7143008,51.5799267],[0.7146705,51.5799697],[0.7151312,51.5800234],[0.7156457,51.5801019],[0.7157874,51.58012],[0.7160339,51.5800674],[0.7163189,51.5800291],[0.7169366,51.5800253],[0.717234,51.5798951],[0.7176052,51.5797754],[0.7181937,51.5795495],[0.718679,51.5794049],[0.7193229,51.579247],[0.7196988,51.5791445],[0.7203322,51.5790033]]]}},
{"type":"Feature","properties":{"highway":"track","name":"Water Lane","category":"Track"},"geometry":{"type":"MultiLineString","coordinates":[[[0.7085878,51.5792493],[0.7083445,51.5792732],[0.7081191,51.5792962],[0.7078562,51.5793395],[0.7075265,51.5793365],[0.7073376,51.5793196]]]}}
]
}
