{
"type": "FeatureCollection",
"name": "e6dc109627bc_visibility",
"crs": { "type": "name", "properties": { "name": "urn:ogc:def:crs:OGC:1.3:CRS84" } },
"features": [
{ "type": "Feature", "properties": { "visible_points": 11, "total_points": 62, "visibility_pct": 17.741935483870968 }, "geometry": { "type": "Point", "coordinates": [ 0.740041524343731, 51.53188942231084 ] } },
{ "type": "Feature", "properties": { "visible_points": 11, "total_points": 69, "visibility_pct": 15.942028985507244 }, "geometry": { "type": "Point", "coordinates": [ 0.740241055578789, 51.531884760050893 ] } },
{ "type": "Feature", "properties": { "visible_points": 18, "total_points": 76, "visibility_pct": 23.684210526315788 }, "geometry": { "type": "Point", "coordinates": [ 0.740440586760259, 51.531880097451811 ] } },
{ "type": "Feature", "properties": { "visible_points": 0, "total_points": 81, "visibility_pct": 0.0 }, "geometry": { "type": "Point", "coordinates": [ 0.74064011788814, 51.53187543451353 ] } },
{ "type": "Feature", "properties": { "visible_points": 6, "total_points": 83, "visibility_pct": 7.2289156626506017 }, "geometry": { "type": "Point", "coordinates": [ 0.740839648962425, 51.531870771236122 ] } },
{ "type": "Feature", "properties": { "visible_points": 0, "total_points": 82, "visibility_pct": 0.0 }, "geometry": { "type": "Point", "coordinates": [ 0.741039179983113, 51.531866107619493 ] } },
{ "type": "Feature", "properties": { "visible_points": 0, "total_points": 80, "visibility_pct": 0.0 }, "geometry": { "type": "Point", "coordinates": [ 0.7412387109502, 51.531861443663722 ] } },
{ "type": "Feature", "properties": { "visible_points": 6, "total_points": 65, "visibility_pct": 9.2307692307692317 }, "geometry": { "type": "Point", "coordinates": [ 0.739948233310146, 51.531999527353904 ] } },
{ "type": "Feature", "properties": { "visible_points": 20, "total_points": 74, "visibility_pct": 27.027027027027028 }, "geometry": { "type": "Point", "coordinates": [ 0.740147765040763, 51.531994865247015 ] } },
{ "type": "Feature", "properties": { "visible_points": 24, "total_points": 82, "visibility_pct": 29.268292682926827 }, "geometry": { "type": "Point", "coordinates": [ 0.740347296717798, 51.531990202800948 ] } },
{ "type": "Feature", "properties": { "visible_points": 22, "total_points": 89, "visibility_pct": 24.719101123595504 }, "geometry": { "type": "Point", "coordinates": [ 0.740546828341242, 51.531985540015711 ] } },
{ "type": "Feature", "properties": { "visible_points": 14, "total_points": 94, "visibility_pct": 14.893617021276595 }, "geometry": { "type": "Point", "coordinates": [ 0.740746359911091, 51.531980876891289 ] } },
{ "type": "Feature", "properties": { "visible_points": 7, "total_points": 93, "visibility_pct": 7.5268817204301079 }, "geometry": { "type": "Point", "coordinates": [ 0.740945891427348, 51.531976213427725 ] } },
{ "type": "Feature", "properties": { "visible_points": 19, "total_points": 92, "visibility_pct": 20.652173913043477 }, "geometry": { "type": "Point", "coordinates": [ 0.74114542289, 51.531971549624963 ] } },
{ "type": "Feature", "properties": { "visible_points": 10, "total_points": 90, "visibility_pct": 11.111111111111111 }, "geometry": { "type": "Point", "coordinates": [ 0.741344954299048, 51.531966885483044 ] } },
{ "type": "Feature", "properties": { "visible_points": 12, "total_points": 88, "visibility_pct": 13.636363636363635 }, "geometry": { "type": "Point", "coordinates": [ 0.741544485654492, 51.531962221001955 ] } },
{ "type": "Feature", "properties": { "visible_points": 10, "total_points": 86, "visibility_pct": 11.627906976744185 }, "geometry": { "type": "Point", "coordinates": [ 0.741744016956317, 51.531957556181681 ] } },
{ "type": "Feature", "properties": { "visible_points": 13, "total_points": 84, "visibility_pct": 15.476190476190476 }, "geometry": { "type": "Point", "coordinates": [ 0.741943548204533, 51.531952891022243 ] } },
{ "type": "Feature", "properties": { "visible_points": 0, "total_points": 83, "visibility_pct": 0.0 }, "geometry": { "type": "Point", "coordinates": [ 0.742143079399124, 51.531948225523657 ] } },
{ "type": "Feature", "properties": { "visible_points": 1, "total_points": 82, "visibility_pct": 1.2195121951219512 }, "geometry": { "type": "Point", "coordinates": [ 0.742342610540093, 51.531943559685885 ] } },
{ "type": "Feature", "properties": { "visible_points": 0, "total_points": 80, "visibility_pct": 0.0 }, "geometry": { "type": "Point", "coordinates": [ 0.742542141627435, 51.531938893508929 ] } },
{ "type": "Feature", "properties": { "visible_points": 20, "total_points": 77, "visibility_pct": 25.97402597402597 }, "geometry": { "type": "Point", "coordinates": [ 0.740054474060772, 51.532104970372409 ] } },
{ "type": "Feature", "properties": { "visible_points": 24, "total_points": 86, "visibility_pct": 27.906976744186046 }, "geometry": { "type": "Point", "coordinates": [ 0.74025400623337, 51.532100308079357 ] } },
{ "type": "Feature", "properties": { "visible_points": 25, "total_points": 95, "visibility_pct": 26.315789473684209 }, "geometry": { "type": "Point", "coordinates": [ 0.74045353835238, 51.53209564544715 ] } },
{ "type": "Feature", "properties": { "visible_points": 21, "total_points": 102, "visibility_pct": 20.588235294117645 }, "geometry": { "type": "Point", "coordinates": [ 0.740653070417799, 51.532090982475765 ] } },
{ "type": "Feature", "properties": { "visible_points": 15, "total_points": 103, "visibility_pct": 14.563106796116504 }, "geometry": { "type": "Point", "coordinates": [ 0.740852602429624, 51.532086319165217 ] } },
{ "type": "Feature", "properties": { "visible_points": 17, "total_points": 102, "visibility_pct": 16.666666666666664 }, "geometry": { "type": "Point", "coordinates": [ 0.741052134387844, 51.532081655515498 ] } },
{ "type": "Feature", "properties": { "visible_points": 0, "total_points": 101, "visibility_pct": 0.0 }, "geometry": { "type": "Point", "coordinates": [ 0.741251666292469, 51.532076991526601 ] } },
{ "type": "Feature", "properties": { "visible_points": 3, "total_points": 99, "visibility_pct": 3.0303030303030303 }, "geometry": { "type": "Point", "coordinates": [ 0.741451198143482, 51.532072327198527 ] } },
{ "type": "Feature", "properties": { "visible_points": 9, "total_points": 97, "visibility_pct": 9.2783505154639183 }, "geometry": { "type": "Point", "coordinates": [ 0.741650729940886, 51.532067662531297 ] } },
{ "type": "Feature", "properties": { "visible_points": 19, "total_points": 95, "visibility_pct": 20.0 }, "geometry": { "type": "Point", "coordinates": [ 0.741850261684677, 51.532062997524896 ] } },
{ "type": "Feature", "properties": { "visible_points": 16, "total_points": 94, "visibility_pct": 17.021276595744681 }, "geometry": { "type": "Point", "coordinates": [ 0.742049793374843, 51.53205833217929 ] } },
{ "type": "Feature", "properties": { "visible_points": 13, "total_points": 93, "visibility_pct": 13.978494623655912 }, "geometry": { "type": "Point", "coordinates": [ 0.742249325011394, 51.532053666494541 ] } },
{ "type": "Feature", "properties": { "visible_points": 16, "total_points": 92, "visibility_pct": 17.391304347826086 }, "geometry": { "type": "Point", "coordinates": [ 0.742448856594317, 51.532049000470614 ] } },
{ "type": "Feature", "properties": { "visible_points": 14, "total_points": 90, "visibility_pct": 15.555555555555555 }, "geometry": { "type": "Point", "coordinates": [ 0.742648388123609, 51.532044334107525 ] } },
{ "type": "Feature", "properties": { "visible_points": 13, "total_points": 88, "visibility_pct": 14.772727272727273 }, "geometry": { "type": "Point", "coordinates": [ 0.742847919599265, 51.532039667405265 ] } },
{ "type": "Feature", "properties": { "visible_points": 16, "total_points": 86, "visibility_pct": 18.604651162790699 }, "geometry": { "type": "Point", "coordinates": [ 0.743047451021288, 51.532035000363827 ] } },
{ "type": "Feature", "properties": { "visible_points": 16, "total_points": 84, "visibility_pct": 19.047619047619047 }, "geometry": { "type": "Point", "coordinates": [ 0.743246982389666, 51.532030332983204 ] } },
{ "type": "Feature", "properties": { "visible_points": 1, "total_points": 83, "visibility_pct": 1.2048192771084338 }, "geometry": { "type": "Point", "coordinates": [ 0.743446513704397, 51.532025665263419 ] } },
{ "type": "Feature", "properties": { "visible_points": 7, "total_points": 82, "visibility_pct": 8.536585365853659 }, "geometry": { "type": "Point", "coordinates": [ 0.743646044965482, 51.532020997204476 ] } },
{ "type": "Feature", "properties": { "visible_points": 2, "total_points": 79, "visibility_pct": 2.5316455696202533 }, "geometry": { "type": "Point", "coordinates": [ 0.743845576172912, 51.532016328806371 ] } },
{ "type": "Feature", "properties": { "visible_points": 0, "total_points": 73, "visibility_pct": 0.0 }, "geometry": { "type": "Point", "coordinates": [ 0.744045107326684, 51.532011660069088 ] } },
{ "type": "Feature", "properties": { "visible_points": 1, "total_points": 77, "visibility_pct": 1.2987012987012987 }, "geometry": { "type": "Point", "coordinates": [ 0.73996118263881, 51.53221507542704 ] } },
{ "type": "Feature", "properties": { "visible_points": 25, "total_points": 89, "visibility_pct": 28.08988764044944 }, "geometry": { "type": "Point", "coordinates": [ 0.740160715306974, 51.532210413287068 ] } },
{ "type": "Feature", "properties": { "visible_points": 24, "total_points": 99, "visibility_pct": 24.242424242424242 }, "geometry": { "type": "Point", "coordinates": [ 0.740360247921552, 51.53220575080789 ] } },
{ "type": "Feature", "properties": { "visible_points": 7, "total_points": 108, "visibility_pct": 6.481481481481481 }, "geometry": { "type": "Point", "coordinates": [ 0.74055978048254, 51.532201087989542 ] } },
{ "type": "Feature", "properties": { "visible_points": 12, "total_points": 112, "visibility_pct": 10.714285714285714 }, "geometry": { "type": "Point", "coordinates": [ 0.740759312989936, 51.532196424832009 ] } },
{ "type": "Feature", "properties": { "visible_points": 21, "total_points": 111, "visibility_pct": 18.918918918918919 }, "geometry": { "type": "Point", "coordinates": [ 0.740958845443733, 51.532191761335312 ] } },
{ "type": "Feature", "properties": { "visible_points": 24, "total_points": 110, "visibility_pct": 21.818181818181817 }, "geometry": { "type": "Point", "coordinates": [ 0.741158377843927, 51.532187097499445 ] } },
{ "type": "Feature", "properties": { "visible_points": 23, "total_points": 109, "visibility_pct": 21.100917431192663 }, "geometry": { "type": "Point", "coordinates": [ 0.741357910190522, 51.532182433324408 ] } },
{ "type": "Feature", "properties": { "visible_points": 2, "total_points": 107, "visibility_pct": 1.8691588785046727 }, "geometry": { "type": "Point", "coordinates": [ 0.741557442483499, 51.532177768810193 ] } },
{ "type": "Feature", "properties": { "visible_points": 9, "total_points": 105, "visibility_pct": 8.5714285714285712 }, "geometry": { "type": "Point", "coordinates": [ 0.741756974722867, 51.532173103956794 ] } },
{ "type": "Feature", "properties": { "visible_points": 24, "total_points": 104, "visibility_pct": 23.076923076923077 }, "geometry": { "type": "Point", "coordinates": [ 0.741956506908622, 51.532168438764231 ] } },
{ "type": "Feature", "properties": { "visible_points": 5, "total_points": 103, "visibility_pct": 4.8543689320388346 }, "geometry": { "type": "Point", "coordinates": [ 0.742156039040752, 51.532163773232497 ] } },
{ "type": "Feature", "properties": { "visible_points": 9, "total_points": 102, "visibility_pct": 8.8235294117647065 }, "geometry": { "type": "Point", "coordinates": [ 0.742355571119254, 51.532159107361593 ] } },
{ "type": "Feature", "properties": { "visible_points": 9, "total_points": 101, "visibility_pct": 8.9108910891089099 }, "geometry": { "type": "Point", "coordinates": [ 0.742555103144131, 51.532154441151512 ] } },
{ "type": "Feature", "properties": { "visible_points": 12, "total_points": 99, "visibility_pct": 12.121212121212121 }, "geometry": { "type": "Point", "coordinates": [ 0.742754635115378, 51.532149774602267 ] } },
{ "type": "Feature", "properties": { "visible_points": 9, "total_points": 97, "visibility_pct": 9.2783505154639183 }, "geometry": { "type": "Point", "coordinates": [ 0.742954167032986, 51.532145107713838 ] } },
{ "type": "Feature", "properties": { "visible_points": 11, "total_points": 95, "visibility_pct": 11.578947368421053 }, "geometry": { "type": "Point", "coordinates": [ 0.743153698896953, 51.532140440486245 ] } },
{ "type": "Feature", "properties": { "visible_points": 14, "total_points": 94, "visibility_pct": 14.893617021276595 }, "geometry": { "type": "Point", "coordinates": [ 0.743353230707278, 51.532135772919474 ] } },
{ "type": "Feature", "properties": { "visible_points": 17, "total_points": 93, "visibility_pct": 18.27956989247312 }, "geometry": { "type": "Point", "coordinates": [ 0.743552762463952, 51.532131105013548 ] } },
{ "type": "Feature", "properties": { "visible_points": 12, "total_points": 92, "visibility_pct": 13.043478260869565 }, "geometry": { "type": "Point", "coordinates": [ 0.743752294166978, 51.532126436768444 ] } },
{ "type": "Feature", "properties": { "visible_points": 12, "total_points": 86, "visibility_pct": 13.953488372093023 }, "geometry": { "type": "Point", "coordinates": [ 0.743951825816346, 51.532121768184162 ] } },
{ "type": "Feature", "properties": { "visible_points": 0, "total_points": 78, "visibility_pct": 0.0 }, "geometry": { "type": "Point", "coordinates": [ 0.744151357412055, 51.532117099260702 ] } },
{ "type": "Feature", "properties": { "visible_points": 0, "total_points": 69, "visibility_pct": 0.0 }, "geometry": { "type": "Point", "coordinates": [ 0.744350888954099, 51.532112429998094 ] } },
{ "type": "Feature", "properties": { "visible_points": 0, "total_points": 59, "visibility_pct": 0.0 }, "geometry": { "type": "Point", "coordinates": [ 0.744550420442478, 51.532107760396286 ] } },
{ "type": "Feature", "properties": { "visible_points": 30, "total_points": 88, "visibility_pct": 34.090909090909086 }, "geometry": { "type": "Point", "coordinates": [ 0.740067423938604, 51.532320518424029 ] } },
{ "type": "Feature", "properties": { "visible_points": 33, "total_points": 100, "visibility_pct": 33.0 }, "geometry": { "type": "Point", "coordinates": [ 0.740266957048753, 51.532315856097888 ] } },
{ "type": "Feature", "properties": { "visible_points": 0, "total_points": 111, "visibility_pct": 0.0 }, "geometry": { "type": "Point", "coordinates": [ 0.740466490105313, 51.532311193432577 ] } },
{ "type": "Feature", "properties": { "visible_points": 15, "total_points": 117, "visibility_pct": 12.820512820512819 }, "geometry": { "type": "Point", "coordinates": [ 0.740666023108281, 51.532306530428087 ] } },
{ "type": "Feature", "properties": { "visible_points": 17, "total_points": 118, "visibility_pct": 14.40677966101695 }, "geometry": { "type": "Point", "coordinates": [ 0.740865556057656, 51.532301867084421 ] } },
{ "type": "Feature", "properties": { "visible_points": 21, "total_points": 117, "visibility_pct": 17.948717948717949 }, "geometry": { "type": "Point", "coordinates": [ 0.741065088953428, 51.532297203401598 ] } },
{ "type": "Feature", "properties": { "visible_points": 24, "total_points": 116, "visibility_pct": 20.689655172413794 }, "geometry": { "type": "Point", "coordinates": [ 0.741264621795597, 51.532292539379561 ] } },
{ "type": "Feature", "properties": { "visible_points": 22, "total_points": 115, "visibility_pct": 19.130434782608695 }, "geometry": { "type": "Point", "coordinates": [ 0.741464154584158, 51.532287875018369 ] } },
{ "type": "Feature", "properties": { "visible_points": 13, "total_points": 114, "visibility_pct": 11.403508771929824 }, "geometry": { "type": "Point", "coordinates": [ 0.741663687319109, 51.532283210318006 ] } },
{ "type": "Feature", "properties": { "visible_points": 17, "total_points": 113, "visibility_pct": 15.044247787610621 }, "geometry": { "type": "Point", "coordinates": [ 0.741863220000444, 51.532278545278459 ] } },
{ "type": "Feature", "properties": { "visible_points": 20, "total_points": 112, "visibility_pct": 17.857142857142858 }, "geometry": { "type": "Point", "coordinates": [ 0.742062752628155, 51.532273879899748 ] } },
{ "type": "Feature", "properties": { "visible_points": 18, "total_points": 111, "visibility_pct": 16.216216216216218 }, "geometry": { "type": "Point", "coordinates": [ 0.742262285202248, 51.532269214181873 ] } },
{ "type": "Feature", "properties": { "visible_points": 0, "total_points": 110, "visibility_pct": 0.0 }, "geometry": { "type": "Point", "coordinates": [ 0.74246181772271, 51.532264548124814 ] } },
{ "type": "Feature", "properties": { "visible_points": 24, "total_points": 109, "visibility_pct": 22.018348623853214 }, "geometry": { "type": "Point", "coordinates": [ 0.742661350189545, 51.532259881728571 ] } },
{ "type": "Feature", "properties": { "visible_points": 2, "total_points": 107, "visibility_pct": 1.8691588785046727 }, "geometry": { "type": "Point", "coordinates": [ 0.742860882602745, 51.532255214993157 ] } },
{ "type": "Feature", "properties": { "visible_points": 0, "total_points": 105, "visibility_pct": 0.0 }, "geometry": { "type": "Point", "coordinates": [ 0.743060414962305, 51.532250547918593 ] } },
{ "type": "Feature", "properties": { "visible_points": 2, "total_points": 104, "visibility_pct": 1.9230769230769231 }, "geometry": { "type": "Point", "coordinates": [ 0.743259947268222, 51.532245880504838 ] } },
{ "type": "Feature", "properties": { "visible_points": 17, "total_points": 103, "visibility_pct": 16.50485436893204 }, "geometry": { "type": "Point", "coordinates": [ 0.74345947952049, 51.532241212751913 ] } },
{ "type": "Feature", "properties": { "visible_points": 19, "total_points": 102, "visibility_pct": 18.627450980392158 }, "geometry": { "type": "Point", "coordinates": [ 0.743659011719113, 51.532236544659817 ] } },
{ "type": "Feature", "properties": { "visible_points": 23, "total_points": 99, "visibility_pct": 23.232323232323232 }, "geometry": { "type": "Point", "coordinates": [ 0.743858543864079, 51.532231876228551 ] } },
{ "type": "Feature", "properties": { "visible_points": 6, "total_points": 91, "visibility_pct": 6.593406593406594 }, "geometry": { "type": "Point", "coordinates": [ 0.744058075955388, 51.532227207458092 ] } },
{ "type": "Feature", "properties": { "visible_points": 3, "total_points": 81, "visibility_pct": 3.7037037037037033 }, "geometry": { "type": "Point", "coordinates": [ 0.744257607993032, 51.532222538348478 ] } },
{ "type": "Feature", "properties": { "visible_points": 10, "total_points": 71, "visibility_pct": 14.084507042253522 }, "geometry": { "type": "Point", "coordinates": [ 0.744457139977013, 51.532217868899693 ] } },
{ "type": "Feature", "properties": { "visible_points": 0, "total_points": 61, "visibility_pct": 0.0 }, "geometry": { "type": "Point", "coordinates": [ 0.744656671907328, 51.532213199111744 ] } },
{ "type": "Feature", "properties": { "visible_points": 28, "total_points": 82, "visibility_pct": 34.146341463414636 }, "geometry": { "type": "Point", "coordinates": [ 0.739974132128257, 51.532430623490285 ] } },
{ "type": "Feature", "properties": { "visible_points": 41, "total_points": 95, "visibility_pct": 43.15789473684211 }, "geometry": { "type": "Point", "coordinates": [ 0.74017366573398, 51.532425961317188 ] } },
{ "type": "Feature", "properties": { "visible_points": 48, "total_points": 106, "visibility_pct": 45.283018867924532 }, "geometry": { "type": "Point", "coordinates": [ 0.740373199286113, 51.532421298804906 ] } },
{ "type": "Feature", "properties": { "visible_points": 33, "total_points": 115, "visibility_pct": 28.695652173913043 }, "geometry": { "type": "Point", "coordinates": [ 0.740572732784664, 51.532416635953453 ] } },
{ "type": "Feature", "properties": { "visible_points": 18, "total_points": 120, "visibility_pct": 15.0 }, "geometry": { "type": "Point", "coordinates": [ 0.740772266229609, 51.532411972762816 ] } },
{ "type": "Feature", "properties": { "visible_points": 20, "total_points": 120, "visibility_pct": 16.666666666666664 }, "geometry": { "type": "Point", "coordinates": [ 0.740971799620963, 51.532407309233001 ] } },
{ "type": "Feature", "properties": { "visible_points": 23, "total_points": 120, "visibility_pct": 19.166666666666668 }, "geometry": { "type": "Point", "coordinates": [ 0.741171332958713, 51.532402645364016 ] } },
{ "type": "Feature", "properties": { "visible_points": 27, "total_points": 120, "visibility_pct": 22.5 }, "geometry": { "type": "Point", "coordinates": [ 0.741370866242857, 51.532397981155846 ] } },
{ "type": "Feature", "properties": { "visible_points": 30, "total_points": 120, "visibility_pct": 25.0 }, "geometry": { "type": "Point", "coordinates": [ 0.74157039947339, 51.532393316608498 ] } },
{ "type": "Feature", "properties": { "visible_points": 26, "total_points": 120, "visibility_pct": 21.666666666666668 }, "geometry": { "type": "Point", "coordinates": [ 0.741769932650309, 51.53238865172198 ] } },
{ "type": "Feature", "properties": { "visible_points": 25, "total_points": 119, "visibility_pct": 21.008403361344538 }, "geometry": { "type": "Point", "coordinates": [ 0.74196946577361, 51.532383986496306 ] } },
{ "type": "Feature", "properties": { "visible_points": 25, "total_points": 118, "visibility_pct": 21.1864406779661 }, "geometry": { "type": "Point", "coordinates": [ 0.74216899884329, 51.532379320931433 ] } },
{ "type": "Feature", "properties": { "visible_points": 28, "total_points": 117, "visibility_pct": 23.931623931623932 }, "geometry": { "type": "Point", "coordinates": [ 0.742368531859345, 51.532374655027404 ] } },
{ "type": "Feature", "properties": { "visible_points": 26, "total_points": 116, "visibility_pct": 22.413793103448278 }, "geometry": { "type": "Point", "coordinates": [ 0.742568064821768, 51.532369988784168 ] } },
{ "type": "Feature", "properties": { "visible_points": 20, "total_points": 115, "visibility_pct": 17.391304347826086 }, "geometry": { "type": "Point", "coordinates": [ 0.742767597730557, 51.532365322201777 ] } },
{ "type": "Feature", "properties": { "visible_points": 0, "total_points": 114, "visibility_pct": 0.0 }, "geometry": { "type": "Point", "coordinates": [ 0.742967130585717, 51.532360655280229 ] } },
{ "type": "Feature", "properties": { "visible_points": 15, "total_points": 113, "visibility_pct": 13.274336283185843 }, "geometry": { "type": "Point", "coordinates": [ 0.743166663387225, 51.532355988019482 ] } },
{ "type": "Feature", "properties": { "visible_points": 28, "total_points": 112, "visibility_pct": 25.0 }, "geometry": { "type": "Point", "coordinates": [ 0.743366196135093, 51.532351320419579 ] } },
{ "type": "Feature", "properties": { "visible_points": 42, "total_points": 111, "visibility_pct": 37.837837837837839 }, "geometry": { "type": "Point", "coordinates": [ 0.743565728829312, 51.532346652480491 ] } },
{ "type": "Feature", "properties": { "visible_points": 32, "total_points": 110, "visibility_pct": 29.09090909090909 }, "geometry": { "type": "Point", "coordinates": [ 0.743765261469879, 51.532341984202233 ] } },
{ "type": "Feature", "properties": { "visible_points": 27, "total_points": 104, "visibility_pct": 25.961538461538463 }, "geometry": { "type": "Point", "coordinates": [ 0.743964794056791, 51.532337315584797 ] } },
{ "type": "Feature", "properties": { "visible_points": 22, "total_points": 94, "visibility_pct": 23.404255319148938 }, "geometry": { "type": "Point", "coordinates": [ 0.74416432659004, 51.532332646628184 ] } },
{ "type": "Feature", "properties": { "visible_points": 19, "total_points": 83, "visibility_pct": 22.891566265060241 }, "geometry": { "type": "Point", "coordinates": [ 0.744363859069624, 51.532327977332415 ] } },
{ "type": "Feature", "properties": { "visible_points": 6, "total_points": 72, "visibility_pct": 8.3333333333333321 }, "geometry": { "type": "Point", "coordinates": [ 0.744563391495542, 51.532323307697467 ] } },
{ "type": "Feature", "properties": { "visible_points": 40, "total_points": 89, "visibility_pct": 44.943820224719097 }, "geometry": { "type": "Point", "coordinates": [ 0.74008037397723, 51.532536066465759 ] } },
{ "type": "Feature", "properties": { "visible_points": 47, "total_points": 100, "visibility_pct": 47.0 }, "geometry": { "type": "Point", "coordinates": [ 0.740279908024939, 51.5325314041065 ] } },
{ "type": "Feature", "properties": { "visible_points": 51, "total_points": 111, "visibility_pct": 45.945945945945951 }, "geometry": { "type": "Point", "coordinates": [ 0.740479442019066, 51.532526741408077 ] } },
{ "type": "Feature", "properties": { "visible_points": 33, "total_points": 118, "visibility_pct": 27.966101694915253 }, "geometry": { "type": "Point", "coordinates": [ 0.740678975959593, 51.532522078370484 ] } },
{ "type": "Feature", "properties": { "visible_points": 20, "total_points": 120, "visibility_pct": 16.666666666666664 }, "geometry": { "type": "Point", "coordinates": [ 0.740878509846531, 51.532517414993698 ] } },
{ "type": "Feature", "properties": { "visible_points": 23, "total_points": 120, "visibility_pct": 19.166666666666668 }, "geometry": { "type": "Point", "coordinates": [ 0.741078043679861, 51.53251275127775 ] } },
{ "type": "Feature", "properties": { "visible_points": 25, "total_points": 120, "visibility_pct": 20.833333333333336 }, "geometry": { "type": "Point", "coordinates": [ 0.741277577459591, 51.532508087222602 ] } },
{ "type": "Feature", "properties": { "visible_points": 28, "total_points": 120, "visibility_pct": 23.333333333333332 }, "geometry": { "type": "Point", "coordinates": [ 0.741477111185709, 51.532503422828285 ] } },
{ "type": "Feature", "properties": { "visible_points": 33, "total_points": 120, "visibility_pct": 27.5 }, "geometry": { "type": "Point", "coordinates": [ 0.741676644858215, 51.532498758094803 ] } },
{ "type": "Feature", "properties": { "visible_points": 25, "total_points": 120, "visibility_pct": 20.833333333333336 }, "geometry": { "type": "Point", "coordinates": [ 0.741876178477106, 51.532494093022137 ] } },
{ "type": "Feature", "properties": { "visible_points": 26, "total_points": 120, "visibility_pct": 21.666666666666668 }, "geometry": { "type": "Point", "coordinates": [ 0.742075712042376, 51.532489427610294 ] } },
{ "type": "Feature", "properties": { "visible_points": 32, "total_points": 120, "visibility_pct": 26.666666666666668 }, "geometry": { "type": "Point", "coordinates": [ 0.742275245554023, 51.53248476185928 ] } },
{ "type": "Feature", "properties": { "visible_points": 30, "total_points": 120, "visibility_pct": 25.0 }, "geometry": { "type": "Point", "coordinates": [ 0.742474779012043, 51.532480095769074 ] } },
{ "type": "Feature", "properties": { "visible_points": 29, "total_points": 120, "visibility_pct": 24.166666666666668 }, "geometry": { "type": "Point", "coordinates": [ 0.742674312416428, 51.532475429339712 ] } },
{ "type": "Feature", "properties": { "visible_points": 26, "total_points": 120, "visibility_pct": 21.666666666666668 }, "geometry": { "type": "Point", "coordinates": [ 0.742873845767174, 51.532470762571137 ] } },
{ "type": "Feature", "properties": { "visible_points": 18, "total_points": 120, "visibility_pct": 15.0 }, "geometry": { "type": "Point", "coordinates": [ 0.74307337906429, 51.532466095463441 ] } },
{ "type": "Feature", "properties": { "visible_points": 15, "total_points": 119, "visibility_pct": 12.605042016806722 }, "geometry": { "type": "Point", "coordinates": [ 0.743272912307756, 51.532461428016532 ] } },
{ "type": "Feature", "properties": { "visible_points": 48, "total_points": 118, "visibility_pct": 40.677966101694921 }, "geometry": { "type": "Point", "coordinates": [ 0.743472445497577, 51.532456760230474 ] } },
{ "type": "Feature", "properties": { "visible_points": 46, "total_points": 117, "visibility_pct": 39.316239316239319 }, "geometry": { "type": "Point", "coordinates": [ 0.743671978633745, 51.53245209210521 ] } },
{ "type": "Feature", "properties": { "visible_points": 35, "total_points": 114, "visibility_pct": 30.701754385964914 }, "geometry": { "type": "Point", "coordinates": [ 0.74387151171626, 51.532447423640789 ] } },
{ "type": "Feature", "properties": { "visible_points": 31, "total_points": 106, "visibility_pct": 29.245283018867923 }, "geometry": { "type": "Point", "coordinates": [ 0.744071044745116, 51.532442754837192 ] } },
{ "type": "Feature", "properties": { "visible_points": 27, "total_points": 95, "visibility_pct": 28.421052631578945 }, "geometry": { "type": "Point", "coordinates": [ 0.744270577720303, 51.532438085694423 ] } },
{ "type": "Feature", "properties": { "visible_points": 25, "total_points": 84, "visibility_pct": 29.761904761904763 }, "geometry": { "type": "Point", "coordinates": [ 0.744470110641837, 51.53243341621247 ] } },
{ "type": "Feature", "properties": { "visible_points": 0, "total_points": 72, "visibility_pct": 0.0 }, "geometry": { "type": "Point", "coordinates": [ 0.744669643509684, 51.532428746391361 ] } },
{ "type": "Feature", "properties": { "visible_points": 32, "total_points": 82, "visibility_pct": 39.024390243902438 }, "geometry": { "type": "Point", "coordinates": [ 0.739987081778493, 51.532646171543597 ] } },
{ "type": "Feature", "properties": { "visible_points": 42, "total_points": 95, "visibility_pct": 44.210526315789473 }, "geometry": { "type": "Point", "coordinates": [ 0.74018661632179, 51.532641509337395 ] } },
{ "type": "Feature", "properties": { "visible_points": 47, "total_points": 106, "visibility_pct": 44.339622641509436 }, "geometry": { "type": "Point", "coordinates": [ 0.740386150811489, 51.532636846792009 ] } },
{ "type": "Feature", "properties": { "visible_points": 53, "total_points": 115, "visibility_pct": 46.086956521739133 }, "geometry": { "type": "Point", "coordinates": [ 0.740585685247606, 51.532632183907431 ] } },
{ "type": "Feature", "properties": { "visible_points": 42, "total_points": 120, "visibility_pct": 35.0 }, "geometry": { "type": "Point", "coordinates": [ 0.740785219630123, 51.53262752068369 ] } },
{ "type": "Feature", "properties": { "visible_points": 0, "total_points": 120, "visibility_pct": 0.0 }, "geometry": { "type": "Point", "coordinates": [ 0.740984753959039, 51.532622857120778 ] } },
{ "type": "Feature", "properties": { "visible_points": 0, "total_points": 120, "visibility_pct": 0.0 }, "geometry": { "type": "Point", "coordinates": [ 0.741184288234356, 51.532618193218653 ] } },
{ "type": "Feature", "properties": { "visible_points": 21, "total_points": 120, "visibility_pct": 17.5 }, "geometry": { "type": "Point", "coordinates": [ 0.741383822456063, 51.532613528977357 ] } },
{ "type": "Feature", "properties": { "visible_points": 26, "total_points": 120, "visibility_pct": 21.666666666666668 }, "geometry": { "type": "Point", "coordinates": [ 0.741583356624162, 51.532608864396899 ] } },
{ "type": "Feature", "properties": { "visible_points": 27, "total_points": 120, "visibility_pct": 22.5 }, "geometry": { "type": "Point", "coordinates": [ 0.741782890738641, 51.532604199477248 ] } },
{ "type": "Feature", "properties": { "visible_points": 25, "total_points": 120, "visibility_pct": 20.833333333333336 }, "geometry": { "type": "Point", "coordinates": [ 0.741982424799502, 51.532599534218448 ] } },
{ "type": "Feature", "properties": { "visible_points": 30, "total_points": 120, "visibility_pct": 25.0 }, "geometry": { "type": "Point", "coordinates": [ 0.742181958806749, 51.532594868620443 ] } },
{ "type": "Feature", "properties": { "visible_points": 33, "total_points": 120, "visibility_pct": 27.5 }, "geometry": { "type": "Point", "coordinates": [ 0.74238149276036, 51.532590202683267 ] } },
{ "type": "Feature", "properties": { "visible_points": 30, "total_points": 120, "visibility_pct": 25.0 }, "geometry": { "type": "Point", "coordinates": [ 0.742581026660343, 51.53258553640692 ] } },
{ "type": "Feature", "properties": { "visible_points": 28, "total_points": 120, "visibility_pct": 23.333333333333332 }, "geometry": { "type": "Point", "coordinates": [ 0.742780560506692, 51.532580869791396 ] } },
{ "type": "Feature", "properties": { "visible_points": 23, "total_points": 120, "visibility_pct": 19.166666666666668 }, "geometry": { "type": "Point", "coordinates": [ 0.742980094299405, 51.53257620283668 ] } },
{ "type": "Feature", "properties": { "visible_points": 17, "total_points": 120, "visibility_pct": 14.166666666666666 }, "geometry": { "type": "Point", "coordinates": [ 0.743179628038474, 51.5325715355428 ] } },
{ "type": "Feature", "properties": { "visible_points": 61, "total_points": 120, "visibility_pct": 50.833333333333329 }, "geometry": { "type": "Point", "coordinates": [ 0.743379161723898, 51.532566867909743 ] } },
{ "type": "Feature", "properties": { "visible_points": 54, "total_points": 120, "visibility_pct": 45.0 }, "geometry": { "type": "Point", "coordinates": [ 0.743578695355673, 51.532562199937502 ] } },
{ "type": "Feature", "properties": { "visible_points": 47, "total_points": 120, "visibility_pct": 39.166666666666664 }, "geometry": { "type": "Point", "coordinates": [ 0.743778228933789, 51.532557531626082 ] } },
{ "type": "Feature", "properties": { "visible_points": 39, "total_points": 115, "visibility_pct": 33.913043478260867 }, "geometry": { "type": "Point", "coordinates": [ 0.743977762458256, 51.532552862975507 ] } },
{ "type": "Feature", "properties": { "visible_points": 36, "total_points": 106, "visibility_pct": 33.962264150943398 }, "geometry": { "type": "Point", "coordinates": [ 0.74417729592906, 51.532548193985733 ] } },
{ "type": "Feature", "properties": { "visible_points": 34, "total_points": 95, "visibility_pct": 35.789473684210527 }, "geometry": { "type": "Point", "coordinates": [ 0.744376829346195, 51.532543524656795 ] } },
{ "type": "Feature", "properties": { "visible_points": 0, "total_points": 82, "visibility_pct": 0.0 }, "geometry": { "type": "Point", "coordinates": [ 0.744576362709657, 51.532538854988687 ] } },
{ "type": "Feature", "properties": { "visible_points": 39, "total_points": 88, "visibility_pct": 44.31818181818182 }, "geometry": { "type": "Point", "coordinates": [ 0.740093324176647, 51.532751614497556 ] } },
{ "type": "Feature", "properties": { "visible_points": 43, "total_points": 100, "visibility_pct": 43.0 }, "geometry": { "type": "Point", "coordinates": [ 0.740292859161937, 51.532746952105214 ] } },
{ "type": "Feature", "properties": { "visible_points": 48, "total_points": 111, "visibility_pct": 43.243243243243242 }, "geometry": { "type": "Point", "coordinates": [ 0.740492394093636, 51.532742289373672 ] } },
{ "type": "Feature", "properties": { "visible_points": 56, "total_points": 118, "visibility_pct": 47.457627118644069 }, "geometry": { "type": "Point", "coordinates": [ 0.740691928971737, 51.532737626302968 ] } },
{ "type": "Feature", "properties": { "visible_points": 56, "total_points": 120, "visibility_pct": 46.666666666666664 }, "geometry": { "type": "Point", "coordinates": [ 0.740891463796243, 51.532732962893057 ] } },
{ "type": "Feature", "properties": { "visible_points": 56, "total_points": 120, "visibility_pct": 46.666666666666664 }, "geometry": { "type": "Point", "coordinates": [ 0.741090998567151, 51.532728299143997 ] } },
{ "type": "Feature", "properties": { "visible_points": 57, "total_points": 120, "visibility_pct": 47.5 }, "geometry": { "type": "Point", "coordinates": [ 0.741290533284448, 51.532723635055731 ] } },
{ "type": "Feature", "properties": { "visible_points": 57, "total_points": 120, "visibility_pct": 47.5 }, "geometry": { "type": "Point", "coordinates": [ 0.741490067948139, 51.532718970628295 ] } },
{ "type": "Feature", "properties": { "visible_points": 0, "total_points": 120, "visibility_pct": 0.0 }, "geometry": { "type": "Point", "coordinates": [ 0.74168960255821, 51.532714305861688 ] } },
{ "type": "Feature", "properties": { "visible_points": 0, "total_points": 120, "visibility_pct": 0.0 }, "geometry": { "type": "Point", "coordinates": [ 0.741889137114673, 51.532709640755883 ] } },
{ "type": "Feature", "properties": { "visible_points": 3, "total_points": 120, "visibility_pct": 2.5 }, "geometry": { "type": "Point", "coordinates": [ 0.742088671617509, 51.532704975310907 ] } },
{ "type": "Feature", "properties": { "visible_points": 30, "total_points": 120, "visibility_pct": 25.0 }, "geometry": { "type": "Point", "coordinates": [ 0.742288206066721, 51.53270030952676 ] } },
{ "type": "Feature", "properties": { "visible_points": 31, "total_points": 120, "visibility_pct": 25.833333333333336 }, "geometry": { "type": "Point", "coordinates": [ 0.742487740462308, 51.532695643403422 ] } },
{ "type": "Feature", "properties": { "visible_points": 27, "total_points": 120, "visibility_pct": 22.5 }, "geometry": { "type": "Point", "coordinates": [ 0.742687274804255, 51.532690976940913 ] } },
{ "type": "Feature", "properties": { "visible_points": 24, "total_points": 120, "visibility_pct": 20.0 }, "geometry": { "type": "Point", "coordinates": [ 0.742886809092569, 51.532686310139226 ] } },
{ "type": "Feature", "properties": { "visible_points": 20, "total_points": 120, "visibility_pct": 16.666666666666664 }, "geometry": { "type": "Point", "coordinates": [ 0.743086343327247, 51.532681642998369 ] } },
{ "type": "Feature", "properties": { "visible_points": 53, "total_points": 120, "visibility_pct": 44.166666666666664 }, "geometry": { "type": "Point", "coordinates": [ 0.74328587750827, 51.532676975518321 ] } },
{ "type": "Feature", "properties": { "visible_points": 61, "total_points": 120, "visibility_pct": 50.833333333333329 }, "geometry": { "type": "Point", "coordinates": [ 0.743485411635656, 51.532672307699094 ] } },
{ "type": "Feature", "properties": { "visible_points": 49, "total_points": 120, "visibility_pct": 40.833333333333336 }, "geometry": { "type": "Point", "coordinates": [ 0.743684945709383, 51.532667639540705 ] } },
{ "type": "Feature", "properties": { "visible_points": 43, "total_points": 118, "visibility_pct": 36.440677966101696 }, "geometry": { "type": "Point", "coordinates": [ 0.743884479729455, 51.532662971043116 ] } },
{ "type": "Feature", "properties": { "visible_points": 39, "total_points": 111, "visibility_pct": 35.135135135135137 }, "geometry": { "type": "Point", "coordinates": [ 0.744084013695873, 51.532658302206357 ] } },
{ "type": "Feature", "properties": { "visible_points": 39, "total_points": 100, "visibility_pct": 39.0 }, "geometry": { "type": "Point", "coordinates": [ 0.744283547608621, 51.532653633030442 ] } },
{ "type": "Feature", "properties": { "visible_points": 28, "total_points": 89, "visibility_pct": 31.460674157303369 }, "geometry": { "type": "Point", "coordinates": [ 0.7444830814677, 51.532648963515328 ] } },
{ "type": "Feature", "properties": { "visible_points": 0, "total_points": 76, "visibility_pct": 0.0 }, "geometry": { "type": "Point", "coordinates": [ 0.744682615273114, 51.532644293661036 ] } },
{ "type": "Feature", "properties": { "visible_points": 15, "total_points": 78, "visibility_pct": 19.230769230769234 }, "geometry": { "type": "Point", "coordinates": [ 0.740000031589524, 51.532861719587004 ] } },
{ "type": "Feature", "properties": { "visible_points": 40, "total_points": 91, "visibility_pct": 43.956043956043956 }, "geometry": { "type": "Point", "coordinates": [ 0.740199567070396, 51.532857057347684 ] } },
{ "type": "Feature", "properties": { "visible_points": 47, "total_points": 103, "visibility_pct": 45.631067961165051 }, "geometry": { "type": "Point", "coordinates": [ 0.740399102497684, 51.532852394769193 ] } },
{ "type": "Feature", "properties": { "visible_points": 56, "total_points": 114, "visibility_pct": 49.122807017543856 }, "geometry": { "type": "Point", "coordinates": [ 0.740598637871374, 51.532847731851497 ] } },
{ "type": "Feature", "properties": { "visible_points": 62, "total_points": 120, "visibility_pct": 51.666666666666671 }, "geometry": { "type": "Point", "coordinates": [ 0.740798173191471, 51.532843068594644 ] } },
{ "type": "Feature", "properties": { "visible_points": 63, "total_points": 120, "visibility_pct": 52.5 }, "geometry": { "type": "Point", "coordinates": [ 0.740997708457965, 51.532838404998607 ] } },
{ "type": "Feature", "properties": { "visible_points": 65, "total_points": 120, "visibility_pct": 54.166666666666664 }, "geometry": { "type": "Point", "coordinates": [ 0.741197243670862, 51.532833741063378 ] } },
{ "type": "Feature", "properties": { "visible_points": 65, "total_points": 120, "visibility_pct": 54.166666666666664 }, "geometry": { "type": "Point", "coordinates": [ 0.741396778830143, 51.532829076788971 ] } },
{ "type": "Feature", "properties": { "visible_points": 64, "total_points": 120, "visibility_pct": 53.333333333333336 }, "geometry": { "type": "Point", "coordinates": [ 0.741596313935815, 51.532824412175387 ] } },
{ "type": "Feature", "properties": { "visible_points": 61, "total_points": 120, "visibility_pct": 50.833333333333329 }, "geometry": { "type": "Point", "coordinates": [ 0.741795848987871, 51.532819747222611 ] } },
{ "type": "Feature", "properties": { "visible_points": 59, "total_points": 120, "visibility_pct": 49.166666666666664 }, "geometry": { "type": "Point", "coordinates": [ 0.741995383986309, 51.532815081930664 ] } },
{ "type": "Feature", "properties": { "visible_points": 68, "total_points": 120, "visibility_pct": 56.666666666666664 }, "geometry": { "type": "Point", "coordinates": [ 0.742194918931123, 51.53281041629954 ] } },
{ "type": "Feature", "properties": { "visible_points": 52, "total_points": 120, "visibility_pct": 43.333333333333336 }, "geometry": { "type": "Point", "coordinates": [ 0.742394453822307, 51.532805750329231 ] } },
{ "type": "Feature", "properties": { "visible_points": 67, "total_points": 120, "visibility_pct": 55.833333333333336 }, "geometry": { "type": "Point", "coordinates": [ 0.742593988659863, 51.532801084019738 ] } },
{ "type": "Feature", "properties": { "visible_points": 7, "total_points": 120, "visibility_pct": 5.833333333333333 }, "geometry": { "type": "Point", "coordinates": [ 0.74279352344378, 51.532796417371081 ] } },
{ "type": "Feature", "properties": { "visible_points": 22, "total_points": 120, "visibility_pct": 18.333333333333332 }, "geometry": { "type": "Point", "coordinates": [ 0.742993058174063, 51.532791750383225 ] } },
{ "type": "Feature", "properties": { "visible_points": 26, "total_points": 120, "visibility_pct": 21.666666666666668 }, "geometry": { "type": "Point", "coordinates": [ 0.7431925928507, 51.532787083056192 ] } },
{ "type": "Feature", "properties": { "visible_points": 1, "total_points": 120, "visibility_pct": 0.83333333333333337 }, "geometry": { "type": "Point", "coordinates": [ 0.743392127473689, 51.532782415389967 ] } },
{ "type": "Feature", "properties": { "visible_points": 48, "total_points": 120, "visibility_pct": 40.0 }, "geometry": { "type": "Point", "coordinates": [ 0.743591662043031, 51.5327777473846 ] } },
{ "type": "Feature", "properties": { "visible_points": 51, "total_points": 120, "visibility_pct": 42.5 }, "geometry": { "type": "Point", "coordinates": [ 0.743791196558716, 51.532773079040027 ] } },
{ "type": "Feature", "properties": { "visible_points": 44, "total_points": 115, "visibility_pct": 38.260869565217391 }, "geometry": { "type": "Point", "coordinates": [ 0.743990731020746, 51.532768410356283 ] } },
{ "type": "Feature", "properties": { "visible_points": 45, "total_points": 106, "visibility_pct": 42.452830188679243 }, "geometry": { "type": "Point", "coordinates": [ 0.744190265429109, 51.532763741333355 ] } },
{ "type": "Feature", "properties": { "visible_points": 35, "total_points": 95, "visibility_pct": 36.84210526315789 }, "geometry": { "type": "Point", "coordinates": [ 0.744389799783811, 51.532759071971263 ] } },
{ "type": "Feature", "properties": { "visible_points": 6, "total_points": 82, "visibility_pct": 7.3170731707317067 }, "geometry": { "type": "Point", "coordinates": [ 0.744589334084838, 51.532754402269987 ] } },
{ "type": "Feature", "properties": { "visible_points": 17, "total_points": 68, "visibility_pct": 25.0 }, "geometry": { "type": "Point", "coordinates": [ 0.739906738560408, 51.532971824605738 ] } },
{ "type": "Feature", "properties": { "visible_points": 34, "total_points": 81, "visibility_pct": 41.975308641975303 }, "geometry": { "type": "Point", "coordinates": [ 0.740106274536868, 51.532967162519455 ] } },
{ "type": "Feature", "properties": { "visible_points": 39, "total_points": 93, "visibility_pct": 41.935483870967744 }, "geometry": { "type": "Point", "coordinates": [ 0.740305810459745, 51.532962500094008 ] } },
{ "type": "Feature", "properties": { "visible_points": 52, "total_points": 105, "visibility_pct": 49.523809523809526 }, "geometry": { "type": "Point", "coordinates": [ 0.740505346329026, 51.532957837329349 ] } },
{ "type": "Feature", "properties": { "visible_points": 64, "total_points": 115, "visibility_pct": 55.652173913043477 }, "geometry": { "type": "Point", "coordinates": [ 0.740704882144716, 51.532953174225533 ] } },
{ "type": "Feature", "properties": { "visible_points": 69, "total_points": 119, "visibility_pct": 57.983193277310932 }, "geometry": { "type": "Point", "coordinates": [ 0.740904417906806, 51.532948510782504 ] } },
{ "type": "Feature", "properties": { "visible_points": 71, "total_points": 120, "visibility_pct": 59.166666666666664 }, "geometry": { "type": "Point", "coordinates": [ 0.741103953615292, 51.532943847000318 ] } },
{ "type": "Feature", "properties": { "visible_points": 72, "total_points": 120, "visibility_pct": 60.0 }, "geometry": { "type": "Point", "coordinates": [ 0.741303489270176, 51.532939182878941 ] } },
{ "type": "Feature", "properties": { "visible_points": 69, "total_points": 120, "visibility_pct": 57.5 }, "geometry": { "type": "Point", "coordinates": [ 0.741503024871446, 51.532934518418379 ] } },
{ "type": "Feature", "properties": { "visible_points": 72, "total_points": 120, "visibility_pct": 60.0 }, "geometry": { "type": "Point", "coordinates": [ 0.741702560419101, 51.532929853618626 ] } },
{ "type": "Feature", "properties": { "visible_points": 68, "total_points": 120, "visibility_pct": 56.666666666666664 }, "geometry": { "type": "Point", "coordinates": [ 0.74190209591314, 51.532925188479723 ] } },
{ "type": "Feature", "properties": { "visible_points": 64, "total_points": 120, "visibility_pct": 53.333333333333336 }, "geometry": { "type": "Point", "coordinates": [ 0.742101631353556, 51.532920523001607 ] } },
{ "type": "Feature", "properties": { "visible_points": 68, "total_points": 120, "visibility_pct": 56.666666666666664 }, "geometry": { "type": "Point", "coordinates": [ 0.742301166740348, 51.532915857184328 ] } },
{ "type": "Feature", "properties": { "visible_points": 66, "total_points": 120, "visibility_pct": 55.000000000000007 }, "geometry": { "type": "Point", "coordinates": [ 0.742500702073508, 51.532911191027857 ] } },
{ "type": "Feature", "properties": { "visible_points": 70, "total_points": 120, "visibility_pct": 58.333333333333336 }, "geometry": { "type": "Point", "coordinates": [ 0.742700237353034, 51.532906524532216 ] } },
{ "type": "Feature", "properties": { "visible_points": 74, "total_points": 120, "visibility_pct": 61.666666666666671 }, "geometry": { "type": "Point", "coordinates": [ 0.742899772578923, 51.532901857697375 ] } },
{ "type": "Feature", "properties": { "visible_points": 74, "total_points": 120, "visibility_pct": 61.666666666666671 }, "geometry": { "type": "Point", "coordinates": [ 0.743099307751174, 51.532897190523379 ] } },
{ "type": "Feature", "properties": { "visible_points": 72, "total_points": 120, "visibility_pct": 60.0 }, "geometry": { "type": "Point", "coordinates": [ 0.743298842869776, 51.532892523010176 ] } },
{ "type": "Feature", "properties": { "visible_points": 65, "total_points": 120, "visibility_pct": 54.166666666666664 }, "geometry": { "type": "Point", "coordinates": [ 0.743498377934728, 51.532887855157803 ] } },
{ "type": "Feature", "properties": { "visible_points": 43, "total_points": 120, "visibility_pct": 35.833333333333336 }, "geometry": { "type": "Point", "coordinates": [ 0.743697912946031, 51.532883186966259 ] } },
{ "type": "Feature", "properties": { "visible_points": 0, "total_points": 118, "visibility_pct": 0.0 }, "geometry": { "type": "Point", "coordinates": [ 0.743897447903676, 51.532878518435517 ] } },
{ "type": "Feature", "properties": { "visible_points": 46, "total_points": 111, "visibility_pct": 41.441441441441441 }, "geometry": { "type": "Point", "coordinates": [ 0.744096982807655, 51.532873849565611 ] } },
{ "type": "Feature", "properties": { "visible_points": 38, "total_points": 100, "visibility_pct": 38.0 }, "geometry": { "type": "Point", "coordinates": [ 0.744296517657977, 51.532869180356506 ] } },
{ "type": "Feature", "properties": { "visible_points": 34, "total_points": 89, "visibility_pct": 38.202247191011232 }, "geometry": { "type": "Point", "coordinates": [ 0.744496052454629, 51.532864510808245 ] } },
{ "type": "Feature", "properties": { "visible_points": 8, "total_points": 76, "visibility_pct": 10.526315789473683 }, "geometry": { "type": "Point", "coordinates": [ 0.744695587197603, 51.5328598409208 ] } },
{ "type": "Feature", "properties": { "visible_points": 21, "total_points": 70, "visibility_pct": 30.0 }, "geometry": { "type": "Point", "coordinates": [ 0.740012981561346, 51.533077267620506 ] } },
{ "type": "Feature", "properties": { "visible_points": 23, "total_points": 83, "visibility_pct": 27.710843373493976 }, "geometry": { "type": "Point", "coordinates": [ 0.740212517979813, 51.533072605348075 ] } },
{ "type": "Feature", "properties": { "visible_points": 21, "total_points": 95, "visibility_pct": 22.105263157894736 }, "geometry": { "type": "Point", "coordinates": [ 0.74041205434469, 51.533067942736473 ] } },
{ "type": "Feature", "properties": { "visible_points": 54, "total_points": 106, "visibility_pct": 50.943396226415096 }, "geometry": { "type": "Point", "coordinates": [ 0.740611590655975, 51.533063279785672 ] } },
{ "type": "Feature", "properties": { "visible_points": 64, "total_points": 115, "visibility_pct": 55.652173913043477 }, "geometry": { "type": "Point", "coordinates": [ 0.740811126913662, 51.533058616495694 ] } },
{ "type": "Feature", "properties": { "visible_points": 70, "total_points": 118, "visibility_pct": 59.322033898305079 }, "geometry": { "type": "Point", "coordinates": [ 0.741010663117748, 51.533053952866538 ] } },
{ "type": "Feature", "properties": { "visible_points": 73, "total_points": 120, "visibility_pct": 60.833333333333329 }, "geometry": { "type": "Point", "coordinates": [ 0.741210199268227, 51.533049288898184 ] } },
{ "type": "Feature", "properties": { "visible_points": 73, "total_points": 120, "visibility_pct": 60.833333333333329 }, "geometry": { "type": "Point", "coordinates": [ 0.741409735365097, 51.533044624590659 ] } },
{ "type": "Feature", "properties": { "visible_points": 74, "total_points": 120, "visibility_pct": 61.666666666666671 }, "geometry": { "type": "Point", "coordinates": [ 0.74160927140836, 51.533039959943956 ] } },
{ "type": "Feature", "properties": { "visible_points": 71, "total_points": 120, "visibility_pct": 59.166666666666664 }, "geometry": { "type": "Point", "coordinates": [ 0.741808807398001, 51.533035294958054 ] } },
{ "type": "Feature", "properties": { "visible_points": 59, "total_points": 120, "visibility_pct": 49.166666666666664 }, "geometry": { "type": "Point", "coordinates": [ 0.742008343334022, 51.533030629632975 ] } },
{ "type": "Feature", "properties": { "visible_points": 61, "total_points": 120, "visibility_pct": 50.833333333333329 }, "geometry": { "type": "Point", "coordinates": [ 0.742207879216416, 51.533025963968697 ] } },
{ "type": "Feature", "properties": { "visible_points": 69, "total_points": 120, "visibility_pct": 57.5 }, "geometry": { "type": "Point", "coordinates": [ 0.742407415045187, 51.533021297965249 ] } },
{ "type": "Feature", "properties": { "visible_points": 74, "total_points": 120, "visibility_pct": 61.666666666666671 }, "geometry": { "type": "Point", "coordinates": [ 0.742606950820327, 51.533016631622644 ] } },
{ "type": "Feature", "properties": { "visible_points": 76, "total_points": 120, "visibility_pct": 63.333333333333329 }, "geometry": { "type": "Point", "coordinates": [ 0.742806486541824, 51.533011964940826 ] } },
{ "type": "Feature", "properties": { "visible_points": 79, "total_points": 120, "visibility_pct": 65.833333333333329 }, "geometry": { "type": "Point", "coordinates": [ 0.743006022209687, 51.533007297919831 ] } },
{ "type": "Feature", "properties": { "visible_points": 74, "total_points": 120, "visibility_pct": 61.666666666666671 }, "geometry": { "type": "Point", "coordinates": [ 0.743205557823911, 51.533002630559658 ] } },
{ "type": "Feature", "properties": { "visible_points": 76, "total_points": 120, "visibility_pct": 63.333333333333329 }, "geometry": { "type": "Point", "coordinates": [ 0.743405093384473, 51.5329979628603 ] } },
{ "type": "Feature", "properties": { "visible_points": 70, "total_points": 120, "visibility_pct": 58.333333333333336 }, "geometry": { "type": "Point", "coordinates": [ 0.74360462889139, 51.532993294821772 ] } },
{ "type": "Feature", "properties": { "visible_points": 56, "total_points": 120, "visibility_pct": 46.666666666666664 }, "geometry": { "type": "Point", "coordinates": [ 0.743804164344659, 51.532988626444052 ] } },
{ "type": "Feature", "properties": { "visible_points": 28, "total_points": 115, "visibility_pct": 24.347826086956523 }, "geometry": { "type": "Point", "coordinates": [ 0.744003699744261, 51.532983957727154 ] } },
{ "type": "Feature", "properties": { "visible_points": 39, "total_points": 106, "visibility_pct": 36.79245283018868 }, "geometry": { "type": "Point", "coordinates": [ 0.744203235090201, 51.532979288671065 ] } },
{ "type": "Feature", "properties": { "visible_points": 30, "total_points": 95, "visibility_pct": 31.578947368421051 }, "geometry": { "type": "Point", "coordinates": [ 0.744402770382475, 51.532974619275812 ] } },
{ "type": "Feature", "properties": { "visible_points": 8, "total_points": 82, "visibility_pct": 9.7560975609756095 }, "geometry": { "type": "Point", "coordinates": [ 0.744602305621081, 51.532969949541368 ] } },
{ "type": "Feature", "properties": { "visible_points": 5, "total_points": 60, "visibility_pct": 8.3333333333333321 }, "geometry": { "type": "Point", "coordinates": [ 0.73991968814383, 51.533187372650815 ] } },
{ "type": "Feature", "properties": { "visible_points": 11, "total_points": 73, "visibility_pct": 15.068493150684931 }, "geometry": { "type": "Point", "coordinates": [ 0.740119225057888, 51.53318271053142 ] } },
{ "type": "Feature", "properties": { "visible_points": 15, "total_points": 85, "visibility_pct": 17.647058823529413 }, "geometry": { "type": "Point", "coordinates": [ 0.740318761918362, 51.53317804807287 ] } },
{ "type": "Feature", "properties": { "visible_points": 0, "total_points": 97, "visibility_pct": 0.0 }, "geometry": { "type": "Point", "coordinates": [ 0.740518298725243, 51.533173385275113 ] } },
{ "type": "Feature", "properties": { "visible_points": 57, "total_points": 107, "visibility_pct": 53.271028037383175 }, "geometry": { "type": "Point", "coordinates": [ 0.740717835478528, 51.533168722138178 ] } },
{ "type": "Feature", "properties": { "visible_points": 68, "total_points": 114, "visibility_pct": 59.649122807017541 }, "geometry": { "type": "Point", "coordinates": [ 0.740917372178213, 51.533164058662045 ] } },
{ "type": "Feature", "properties": { "visible_points": 72, "total_points": 117, "visibility_pct": 61.53846153846154 }, "geometry": { "type": "Point", "coordinates": [ 0.741116908824298, 51.533159394846734 ] } },
{ "type": "Feature", "properties": { "visible_points": 73, "total_points": 120, "visibility_pct": 60.833333333333329 }, "geometry": { "type": "Point", "coordinates": [ 0.741316445416772, 51.533154730692239 ] } },
{ "type": "Feature", "properties": { "visible_points": 77, "total_points": 120, "visibility_pct": 64.166666666666671 }, "geometry": { "type": "Point", "coordinates": [ 0.741515981955636, 51.533150066198552 ] } },
{ "type": "Feature", "properties": { "visible_points": 77, "total_points": 120, "visibility_pct": 64.166666666666671 }, "geometry": { "type": "Point", "coordinates": [ 0.741715518440885, 51.53314540136568 ] } },
{ "type": "Feature", "properties": { "visible_points": 62, "total_points": 120, "visibility_pct": 51.666666666666671 }, "geometry": { "type": "Point", "coordinates": [ 0.741915054872513, 51.53314073619363 ] } },
{ "type": "Feature", "properties": { "visible_points": 23, "total_points": 120, "visibility_pct": 19.166666666666668 }, "geometry": { "type": "Point", "coordinates": [ 0.742114591250526, 51.533136070682382 ] } },
{ "type": "Feature", "properties": { "visible_points": 64, "total_points": 120, "visibility_pct": 53.333333333333336 }, "geometry": { "type": "Point", "coordinates": [ 0.7423141275749, 51.533131404831963 ] } },
{ "type": "Feature", "properties": { "visible_points": 77, "total_points": 120, "visibility_pct": 64.166666666666671 }, "geometry": { "type": "Point", "coordinates": [ 0.74251366384565, 51.533126738642352 ] } },
{ "type": "Feature", "properties": { "visible_points": 79, "total_points": 120, "visibility_pct": 65.833333333333329 }, "geometry": { "type": "Point", "coordinates": [ 0.742713200062764, 51.533122072113585 ] } },
{ "type": "Feature", "properties": { "visible_points": 83, "total_points": 120, "visibility_pct": 69.166666666666671 }, "geometry": { "type": "Point", "coordinates": [ 0.742912736226244, 51.533117405245598 ] } },
{ "type": "Feature", "properties": { "visible_points": 81, "total_points": 120, "visibility_pct": 67.5 }, "geometry": { "type": "Point", "coordinates": [ 0.743112272336074, 51.533112738038454 ] } },
{ "type": "Feature", "properties": { "visible_points": 81, "total_points": 120, "visibility_pct": 67.5 }, "geometry": { "type": "Point", "coordinates": [ 0.743311808392265, 51.533108070492119 ] } },
{ "type": "Feature", "properties": { "visible_points": 84, "total_points": 120, "visibility_pct": 70.0 }, "geometry": { "type": "Point", "coordinates": [ 0.743511344394804, 51.533103402606592 ] } },
{ "type": "Feature", "properties": { "visible_points": 77, "total_points": 120, "visibility_pct": 64.166666666666671 }, "geometry": { "type": "Point", "coordinates": [ 0.743710880343687, 51.53309873438188 ] } },
{ "type": "Feature", "properties": { "visible_points": 64, "total_points": 118, "visibility_pct": 54.237288135593218 }, "geometry": { "type": "Point", "coordinates": [ 0.743910416238914, 51.533094065817998 ] } },
{ "type": "Feature", "properties": { "visible_points": 24, "total_points": 111, "visibility_pct": 21.621621621621621 }, "geometry": { "type": "Point", "coordinates": [ 0.74410995208048, 51.533089396914939 ] } },
{ "type": "Feature", "properties": { "visible_points": 38, "total_points": 100, "visibility_pct": 38.0 }, "geometry": { "type": "Point", "coordinates": [ 0.744309487868377, 51.53308472767268 ] } },
{ "type": "Feature", "properties": { "visible_points": 26, "total_points": 88, "visibility_pct": 29.545454545454547 }, "geometry": { "type": "Point", "coordinates": [ 0.744509023602609, 51.533080058091251 ] } },
{ "type": "Feature", "properties": { "visible_points": 0, "total_points": 62, "visibility_pct": 0.0 }, "geometry": { "type": "Point", "coordinates": [ 0.740025931693967, 51.53329281564406 ] } },
{ "type": "Feature", "properties": { "visible_points": 0, "total_points": 75, "visibility_pct": 0.0 }, "geometry": { "type": "Point", "coordinates": [ 0.740225469050037, 51.533288153338532 ] } },
{ "type": "Feature", "properties": { "visible_points": 0, "total_points": 87, "visibility_pct": 0.0 }, "geometry": { "type": "Point", "coordinates": [ 0.740425006352519, 51.533283490693805 ] } },
{ "type": "Feature", "properties": { "visible_points": 0, "total_points": 98, "visibility_pct": 0.0 }, "geometry": { "type": "Point", "coordinates": [ 0.740624543601403, 51.533278827709921 ] } },
{ "type": "Feature", "properties": { "visible_points": 55, "total_points": 107, "visibility_pct": 51.401869158878498 }, "geometry": { "type": "Point", "coordinates": [ 0.740824080796695, 51.533274164386825 ] } },
{ "type": "Feature", "properties": { "visible_points": 73, "total_points": 113, "visibility_pct": 64.601769911504419 }, "geometry": { "type": "Point", "coordinates": [ 0.741023617938382, 51.533269500724543 ] } },
{ "type": "Feature", "properties": { "visible_points": 75, "total_points": 117, "visibility_pct": 64.102564102564102 }, "geometry": { "type": "Point", "coordinates": [ 0.741223155026462, 51.533264836723077 ] } },
{ "type": "Feature", "properties": { "visible_points": 80, "total_points": 120, "visibility_pct": 66.666666666666657 }, "geometry": { "type": "Point", "coordinates": [ 0.741422692060932, 51.533260172382427 ] } },
{ "type": "Feature", "properties": { "visible_points": 84, "total_points": 120, "visibility_pct": 70.0 }, "geometry": { "type": "Point", "coordinates": [ 0.74162222904179, 51.533255507702592 ] } },
{ "type": "Feature", "properties": { "visible_points": 81, "total_points": 120, "visibility_pct": 67.5 }, "geometry": { "type": "Point", "coordinates": [ 0.741821765969028, 51.533250842683564 ] } },
{ "type": "Feature", "properties": { "visible_points": 73, "total_points": 120, "visibility_pct": 60.833333333333329 }, "geometry": { "type": "Point", "coordinates": [ 0.742021302842649, 51.53324617732536 ] } },
{ "type": "Feature", "properties": { "visible_points": 75, "total_points": 120, "visibility_pct": 62.5 }, "geometry": { "type": "Point", "coordinates": [ 0.742220839662641, 51.533241511627963 ] } },
{ "type": "Feature", "properties": { "visible_points": 80, "total_points": 120, "visibility_pct": 66.666666666666657 }, "geometry": { "type": "Point", "coordinates": [ 0.742420376429007, 51.533236845591375 ] } },
{ "type": "Feature", "properties": { "visible_points": 88, "total_points": 120, "visibility_pct": 73.333333333333329 }, "geometry": { "type": "Point", "coordinates": [ 0.742619913141735, 51.533232179215624 ] } },
{ "type": "Feature", "properties": { "visible_points": 91, "total_points": 120, "visibility_pct": 75.833333333333329 }, "geometry": { "type": "Point", "coordinates": [ 0.74281944980083, 51.533227512500666 ] } },
{ "type": "Feature", "properties": { "visible_points": 88, "total_points": 120, "visibility_pct": 73.333333333333329 }, "geometry": { "type": "Point", "coordinates": [ 0.743018986406287, 51.533222845446531 ] } },
{ "type": "Feature", "properties": { "visible_points": 86, "total_points": 120, "visibility_pct": 71.666666666666671 }, "geometry": { "type": "Point", "coordinates": [ 0.743218522958092, 51.533218178053218 ] } },
{ "type": "Feature", "properties": { "visible_points": 91, "total_points": 120, "visibility_pct": 75.833333333333329 }, "geometry": { "type": "Point", "coordinates": [ 0.743418059456252, 51.533213510320707 ] } },
{ "type": "Feature", "properties": { "visible_points": 82, "total_points": 120, "visibility_pct": 68.333333333333329 }, "geometry": { "type": "Point", "coordinates": [ 0.743617595900764, 51.53320884224901 ] } },
{ "type": "Feature", "properties": { "visible_points": 76, "total_points": 120, "visibility_pct": 63.333333333333329 }, "geometry": { "type": "Point", "coordinates": [ 0.743817132291612, 51.533204173838143 ] } },
{ "type": "Feature", "properties": { "visible_points": 62, "total_points": 115, "visibility_pct": 53.913043478260867 }, "geometry": { "type": "Point", "coordinates": [ 0.744016668628804, 51.533199505088099 ] } },
{ "type": "Feature", "properties": { "visible_points": 54, "total_points": 105, "visibility_pct": 51.428571428571423 }, "geometry": { "type": "Point", "coordinates": [ 0.744216204912338, 51.533194835998863 ] } },
{ "type": "Feature", "properties": { "visible_points": 38, "total_points": 94, "visibility_pct": 40.425531914893611 }, "geometry": { "type": "Point", "coordinates": [ 0.744415741142193, 51.533190166570428 ] } },
{ "type": "Feature", "properties": { "visible_points": 0, "total_points": 81, "visibility_pct": 0.0 }, "geometry": { "type": "Point", "coordinates": [ 0.744615277318382, 51.533185496802837 ] } },
{ "type": "Feature", "properties": { "visible_points": 41, "total_points": 98, "visibility_pct": 41.836734693877553 }, "geometry": { "type": "Point", "coordinates": [ 0.740730788973181, 51.533384270040891 ] } },
{ "type": "Feature", "properties": { "visible_points": 58, "total_points": 106, "visibility_pct": 54.716981132075468 }, "geometry": { "type": "Point", "coordinates": [ 0.740930326610475, 51.533379606531639 ] } },
{ "type": "Feature", "properties": { "visible_points": 75, "total_points": 112, "visibility_pct": 66.964285714285708 }, "geometry": { "type": "Point", "coordinates": [ 0.741129864194162, 51.533374942683231 ] } },
{ "type": "Feature", "properties": { "visible_points": 79, "total_points": 117, "visibility_pct": 67.521367521367523 }, "geometry": { "type": "Point", "coordinates": [ 0.741329401724243, 51.533370278495596 ] } },
{ "type": "Feature", "properties": { "visible_points": 83, "total_points": 120, "visibility_pct": 69.166666666666671 }, "geometry": { "type": "Point", "coordinates": [ 0.741528939200713, 51.533365613968783 ] } },
{ "type": "Feature", "properties": { "visible_points": 83, "total_points": 120, "visibility_pct": 69.166666666666671 }, "geometry": { "type": "Point", "coordinates": [ 0.741728476623564, 51.5333609491028 ] } },
{ "type": "Feature", "properties": { "visible_points": 83, "total_points": 120, "visibility_pct": 69.166666666666671 }, "geometry": { "type": "Point", "coordinates": [ 0.741928013992798, 51.533356283897625 ] } },
{ "type": "Feature", "properties": { "visible_points": 84, "total_points": 120, "visibility_pct": 70.0 }, "geometry": { "type": "Point", "coordinates": [ 0.742127551308408, 51.533351618353258 ] } },
{ "type": "Feature", "properties": { "visible_points": 86, "total_points": 120, "visibility_pct": 71.666666666666671 }, "geometry": { "type": "Point", "coordinates": [ 0.742327088570388, 51.533346952469685 ] } },
{ "type": "Feature", "properties": { "visible_points": 91, "total_points": 120, "visibility_pct": 75.833333333333329 }, "geometry": { "type": "Point", "coordinates": [ 0.742526625778736, 51.533342286246956 ] } },
{ "type": "Feature", "properties": { "visible_points": 98, "total_points": 120, "visibility_pct": 81.666666666666671 }, "geometry": { "type": "Point", "coordinates": [ 0.742726162933452, 51.533337619685035 ] } },
{ "type": "Feature", "properties": { "visible_points": 96, "total_points": 120, "visibility_pct": 80.0 }, "geometry": { "type": "Point", "coordinates": [ 0.742925700034524, 51.533332952783908 ] } },
{ "type": "Feature", "properties": { "visible_points": 94, "total_points": 120, "visibility_pct": 78.333333333333329 }, "geometry": { "type": "Point", "coordinates": [ 0.743125237081959, 51.533328285543611 ] } },
{ "type": "Feature", "properties": { "visible_points": 96, "total_points": 120, "visibility_pct": 80.0 }, "geometry": { "type": "Point", "coordinates": [ 0.743324774075741, 51.533323617964136 ] } },
{ "type": "Feature", "properties": { "visible_points": 95, "total_points": 120, "visibility_pct": 79.166666666666657 }, "geometry": { "type": "Point", "coordinates": [ 0.74352431101588, 51.533318950045448 ] } },
{ "type": "Feature", "properties": { "visible_points": 85, "total_points": 120, "visibility_pct": 70.833333333333343 }, "geometry": { "type": "Point", "coordinates": [ 0.743723847902356, 51.533314281787597 ] } },
{ "type": "Feature", "properties": { "visible_points": 73, "total_points": 118, "visibility_pct": 61.864406779661017 }, "geometry": { "type": "Point", "coordinates": [ 0.743923384735176, 51.533309613190561 ] } },
{ "type": "Feature", "properties": { "visible_points": 64, "total_points": 110, "visibility_pct": 58.18181818181818 }, "geometry": { "type": "Point", "coordinates": [ 0.744122921514336, 51.53330494425434 ] } },
{ "type": "Feature", "properties": { "visible_points": 53, "total_points": 99, "visibility_pct": 53.535353535353536 }, "geometry": { "type": "Point", "coordinates": [ 0.744322458239829, 51.533300274978934 ] } },
{ "type": "Feature", "properties": { "visible_points": 8, "total_points": 87, "visibility_pct": 9.1954022988505741 }, "geometry": { "type": "Point", "coordinates": [ 0.744521994911649, 51.53329560536433 ] } },
{ "type": "Feature", "properties": { "visible_points": 0, "total_points": 88, "visibility_pct": 0.0 }, "geometry": { "type": "Point", "coordinates": [ 0.74063749670767, 51.533494375624244 ] } },
{ "type": "Feature", "properties": { "visible_points": 0, "total_points": 97, "visibility_pct": 0.0 }, "geometry": { "type": "Point", "coordinates": [ 0.740837034840573, 51.533489712268022 ] } },
{ "type": "Feature", "properties": { "visible_points": 57, "total_points": 105, "visibility_pct": 54.285714285714285 }, "geometry": { "type": "Point", "coordinates": [ 0.741036572919872, 51.533485048572643 ] } },
{ "type": "Feature", "properties": { "visible_points": 71, "total_points": 112, "visibility_pct": 63.392857142857139 }, "geometry": { "type": "Point", "coordinates": [ 0.741236110945568, 51.533480384538038 ] } },
{ "type": "Feature", "properties": { "visible_points": 72, "total_points": 118, "visibility_pct": 61.016949152542374 }, "geometry": { "type": "Point", "coordinates": [ 0.741435648917645, 51.533475720164276 ] } },
{ "type": "Feature", "properties": { "visible_points": 77, "total_points": 120, "visibility_pct": 64.166666666666671 }, "geometry": { "type": "Point", "coordinates": [ 0.741635186836115, 51.533471055451308 ] } },
{ "type": "Feature", "properties": { "visible_points": 74, "total_points": 120, "visibility_pct": 61.666666666666671 }, "geometry": { "type": "Point", "coordinates": [ 0.741834724700964, 51.533466390399155 ] } },
{ "type": "Feature", "properties": { "visible_points": 43, "total_points": 120, "visibility_pct": 35.833333333333336 }, "geometry": { "type": "Point", "coordinates": [ 0.742034262512187, 51.533461725007825 ] } },
{ "type": "Feature", "properties": { "visible_points": 72, "total_points": 120, "visibility_pct": 60.0 }, "geometry": { "type": "Point", "coordinates": [ 0.742233800269794, 51.533457059277303 ] } },
{ "type": "Feature", "properties": { "visible_points": 87, "total_points": 120, "visibility_pct": 72.5 }, "geometry": { "type": "Point", "coordinates": [ 0.742433337973762, 51.533452393207575 ] } },
{ "type": "Feature", "properties": { "visible_points": 95, "total_points": 120, "visibility_pct": 79.166666666666657 }, "geometry": { "type": "Point", "coordinates": [ 0.742632875624096, 51.533447726798691 ] } },
{ "type": "Feature", "properties": { "visible_points": 97, "total_points": 120, "visibility_pct": 80.833333333333329 }, "geometry": { "type": "Point", "coordinates": [ 0.7428324132208, 51.533443060050587 ] } },
{ "type": "Feature", "properties": { "visible_points": 97, "total_points": 120, "visibility_pct": 80.833333333333329 }, "geometry": { "type": "Point", "coordinates": [ 0.743031950763856, 51.533438392963312 ] } },
{ "type": "Feature", "properties": { "visible_points": 100, "total_points": 120, "visibility_pct": 83.333333333333343 }, "geometry": { "type": "Point", "coordinates": [ 0.743231488253265, 51.533433725536838 ] } },
{ "type": "Feature", "properties": { "visible_points": 98, "total_points": 120, "visibility_pct": 81.666666666666671 }, "geometry": { "type": "Point", "coordinates": [ 0.743431025689032, 51.533429057771187 ] } },
{ "type": "Feature", "properties": { "visible_points": 93, "total_points": 120, "visibility_pct": 77.5 }, "geometry": { "type": "Point", "coordinates": [ 0.743630563071138, 51.533424389666351 ] } },
{ "type": "Feature", "properties": { "visible_points": 79, "total_points": 120, "visibility_pct": 65.833333333333329 }, "geometry": { "type": "Point", "coordinates": [ 0.743830100399592, 51.53341972122233 ] } },
{ "type": "Feature", "properties": { "visible_points": 68, "total_points": 114, "visibility_pct": 59.649122807017541 }, "geometry": { "type": "Point", "coordinates": [ 0.744029637674383, 51.533415052439111 ] } },
{ "type": "Feature", "properties": { "visible_points": 63, "total_points": 104, "visibility_pct": 60.576923076923073 }, "geometry": { "type": "Point", "coordinates": [ 0.744229174895507, 51.533410383316713 ] } },
{ "type": "Feature", "properties": { "visible_points": 47, "total_points": 93, "visibility_pct": 50.537634408602152 }, "geometry": { "type": "Point", "coordinates": [ 0.744428712062969, 51.533405713855124 ] } },
{ "type": "Feature", "properties": { "visible_points": 1, "total_points": 80, "visibility_pct": 1.25 }, "geometry": { "type": "Point", "coordinates": [ 0.744628249176753, 51.533401044054365 ] } },
{ "type": "Feature", "properties": { "visible_points": 1, "total_points": 87, "visibility_pct": 1.1494252873563218 }, "geometry": { "type": "Point", "coordinates": [ 0.740743742628674, 51.533599817933698 ] } },
{ "type": "Feature", "properties": { "visible_points": 46, "total_points": 96, "visibility_pct": 47.916666666666671 }, "geometry": { "type": "Point", "coordinates": [ 0.740943281203589, 51.533595154391328 ] } },
{ "type": "Feature", "properties": { "visible_points": 58, "total_points": 104, "visibility_pct": 55.769230769230774 }, "geometry": { "type": "Point", "coordinates": [ 0.741142819724891, 51.533590490509795 ] } },
{ "type": "Feature", "properties": { "visible_points": 67, "total_points": 112, "visibility_pct": 59.821428571428569 }, "geometry": { "type": "Point", "coordinates": [ 0.741342358192593, 51.533585826289055 ] } },
{ "type": "Feature", "properties": { "visible_points": 70, "total_points": 119, "visibility_pct": 58.82352941176471 }, "geometry": { "type": "Point", "coordinates": [ 0.741541896606676, 51.533581161729124 ] } },
{ "type": "Feature", "properties": { "visible_points": 71, "total_points": 120, "visibility_pct": 59.166666666666664 }, "geometry": { "type": "Point", "coordinates": [ 0.741741434967144, 51.533576496829994 ] } },
{ "type": "Feature", "properties": { "visible_points": 55, "total_points": 120, "visibility_pct": 45.833333333333329 }, "geometry": { "type": "Point", "coordinates": [ 0.741940973273992, 51.533571831591686 ] } },
{ "type": "Feature", "properties": { "visible_points": 0, "total_points": 120, "visibility_pct": 0.0 }, "geometry": { "type": "Point", "coordinates": [ 0.742140511527212, 51.533567166014187 ] } },
{ "type": "Feature", "properties": { "visible_points": 71, "total_points": 120, "visibility_pct": 59.166666666666664 }, "geometry": { "type": "Point", "coordinates": [ 0.742340049726807, 51.533562500097489 ] } },
{ "type": "Feature", "properties": { "visible_points": 86, "total_points": 120, "visibility_pct": 71.666666666666671 }, "geometry": { "type": "Point", "coordinates": [ 0.74253958787277, 51.53355783384162 ] } },
{ "type": "Feature", "properties": { "visible_points": 92, "total_points": 120, "visibility_pct": 76.666666666666671 }, "geometry": { "type": "Point", "coordinates": [ 0.742739125965096, 51.533553167246559 ] } },
{ "type": "Feature", "properties": { "visible_points": 94, "total_points": 120, "visibility_pct": 78.333333333333329 }, "geometry": { "type": "Point", "coordinates": [ 0.742938664003781, 51.533548500312307 ] } },
{ "type": "Feature", "properties": { "visible_points": 95, "total_points": 120, "visibility_pct": 79.166666666666657 }, "geometry": { "type": "Point", "coordinates": [ 0.743138201988823, 51.533543833038856 ] } },
{ "type": "Feature", "properties": { "visible_points": 97, "total_points": 120, "visibility_pct": 80.833333333333329 }, "geometry": { "type": "Point", "coordinates": [ 0.743337739920213, 51.533539165426227 ] } },
{ "type": "Feature", "properties": { "visible_points": 94, "total_points": 120, "visibility_pct": 78.333333333333329 }, "geometry": { "type": "Point", "coordinates": [ 0.743537277797958, 51.533534497474392 ] } },
{ "type": "Feature", "properties": { "visible_points": 85, "total_points": 120, "visibility_pct": 70.833333333333343 }, "geometry": { "type": "Point", "coordinates": [ 0.743736815622042, 51.533529829183408 ] } },
{ "type": "Feature", "properties": { "visible_points": 73, "total_points": 117, "visibility_pct": 62.393162393162392 }, "geometry": { "type": "Point", "coordinates": [ 0.743936353392469, 51.533525160553204 ] } },
{ "type": "Feature", "properties": { "visible_points": 67, "total_points": 109, "visibility_pct": 61.467889908256879 }, "geometry": { "type": "Point", "coordinates": [ 0.744135891109232, 51.533520491583815 ] } },
{ "type": "Feature", "properties": { "visible_points": 58, "total_points": 98, "visibility_pct": 59.183673469387756 }, "geometry": { "type": "Point", "coordinates": [ 0.744335428772329, 51.533515822275255 ] } },
{ "type": "Feature", "properties": { "visible_points": 40, "total_points": 86, "visibility_pct": 46.511627906976742 }, "geometry": { "type": "Point", "coordinates": [ 0.744534966381752, 51.53351115262749 ] } },
{ "type": "Feature", "properties": { "visible_points": 0, "total_points": 84, "visibility_pct": 0.0 }, "geometry": { "type": "Point", "coordinates": [ 0.740849989045299, 51.533705260139314 ] } },
{ "type": "Feature", "properties": { "visible_points": 41, "total_points": 92, "visibility_pct": 44.565217391304344 }, "geometry": { "type": "Point", "coordinates": [ 0.741049528062224, 51.53370059641081 ] } },
{ "type": "Feature", "properties": { "visible_points": 56, "total_points": 100, "visibility_pct": 56.000000000000007 }, "geometry": { "type": "Point", "coordinates": [ 0.741249067025539, 51.533695932343107 ] } },
{ "type": "Feature", "properties": { "visible_points": 60, "total_points": 108, "visibility_pct": 55.555555555555557 }, "geometry": { "type": "Point", "coordinates": [ 0.741448605935246, 51.533691267936206 ] } },
{ "type": "Feature", "properties": { "visible_points": 65, "total_points": 115, "visibility_pct": 56.521739130434781 }, "geometry": { "type": "Point", "coordinates": [ 0.741648144791334, 51.533686603190127 ] } },
{ "type": "Feature", "properties": { "visible_points": 63, "total_points": 115, "visibility_pct": 54.782608695652172 }, "geometry": { "type": "Point", "coordinates": [ 0.741847683593805, 51.533681938104841 ] } },
{ "type": "Feature", "properties": { "visible_points": 64, "total_points": 115, "visibility_pct": 55.652173913043477 }, "geometry": { "type": "Point", "coordinates": [ 0.74204722234265, 51.533677272680379 ] } },
{ "type": "Feature", "properties": { "visible_points": 72, "total_points": 116, "visibility_pct": 62.068965517241381 }, "geometry": { "type": "Point", "coordinates": [ 0.742246761037872, 51.533672606916717 ] } },
{ "type": "Feature", "properties": { "visible_points": 78, "total_points": 117, "visibility_pct": 66.666666666666657 }, "geometry": { "type": "Point", "coordinates": [ 0.742446299679457, 51.533667940813856 ] } },
{ "type": "Feature", "properties": { "visible_points": 83, "total_points": 118, "visibility_pct": 70.33898305084746 }, "geometry": { "type": "Point", "coordinates": [ 0.742645838267414, 51.533663274371825 ] } },
{ "type": "Feature", "properties": { "visible_points": 89, "total_points": 119, "visibility_pct": 74.789915966386559 }, "geometry": { "type": "Point", "coordinates": [ 0.742845376801729, 51.533658607590581 ] } },
{ "type": "Feature", "properties": { "visible_points": 89, "total_points": 120, "visibility_pct": 74.166666666666671 }, "geometry": { "type": "Point", "coordinates": [ 0.743044915282401, 51.53365394047016 ] } },
{ "type": "Feature", "properties": { "visible_points": 96, "total_points": 120, "visibility_pct": 80.0 }, "geometry": { "type": "Point", "coordinates": [ 0.743244453709429, 51.533649273010546 ] } },
{ "type": "Feature", "properties": { "visible_points": 93, "total_points": 120, "visibility_pct": 77.5 }, "geometry": { "type": "Point", "coordinates": [ 0.743443992082806, 51.533644605211748 ] } },
{ "type": "Feature", "properties": { "visible_points": 83, "total_points": 120, "visibility_pct": 69.166666666666671 }, "geometry": { "type": "Point", "coordinates": [ 0.743643530402528, 51.533639937073765 ] } },
{ "type": "Feature", "properties": { "visible_points": 74, "total_points": 119, "visibility_pct": 62.184873949579831 }, "geometry": { "type": "Point", "coordinates": [ 0.743843068668592, 51.533635268596584 ] } },
{ "type": "Feature", "properties": { "visible_points": 66, "total_points": 113, "visibility_pct": 58.407079646017699 }, "geometry": { "type": "Point", "coordinates": [ 0.744042606880994, 51.533630599780217 ] } },
{ "type": "Feature", "properties": { "visible_points": 60, "total_points": 103, "visibility_pct": 58.252427184466015 }, "geometry": { "type": "Point", "coordinates": [ 0.744242145039732, 51.533625930624652 ] } },
{ "type": "Feature", "properties": { "visible_points": 45, "total_points": 91, "visibility_pct": 49.450549450549453 }, "geometry": { "type": "Point", "coordinates": [ 0.744441683144799, 51.533621261129916 ] } },
{ "type": "Feature", "properties": { "visible_points": 0, "total_points": 79, "visibility_pct": 0.0 }, "geometry": { "type": "Point", "coordinates": [ 0.740956235957916, 51.533810702262208 ] } },
{ "type": "Feature", "properties": { "visible_points": 39, "total_points": 87, "visibility_pct": 44.827586206896555 }, "geometry": { "type": "Point", "coordinates": [ 0.741155775416803, 51.533806038343407 ] } },
{ "type": "Feature", "properties": { "visible_points": 49, "total_points": 95, "visibility_pct": 51.578947368421055 }, "geometry": { "type": "Point", "coordinates": [ 0.741355314822072, 51.533801374085407 ] } },
{ "type": "Feature", "properties": { "visible_points": 57, "total_points": 102, "visibility_pct": 55.882352941176471 }, "geometry": { "type": "Point", "coordinates": [ 0.741554854173715, 51.533796709488236 ] } },
{ "type": "Feature", "properties": { "visible_points": 58, "total_points": 107, "visibility_pct": 54.205607476635507 }, "geometry": { "type": "Point", "coordinates": [ 0.741754393471728, 51.533792044551859 ] } },
{ "type": "Feature", "properties": { "visible_points": 65, "total_points": 108, "visibility_pct": 60.185185185185183 }, "geometry": { "type": "Point", "coordinates": [ 0.74195393271611, 51.533787379276284 ] } },
{ "type": "Feature", "properties": { "visible_points": 70, "total_points": 109, "visibility_pct": 64.22018348623854 }, "geometry": { "type": "Point", "coordinates": [ 0.742153471906944, 51.533782713665218 ] } },
{ "type": "Feature", "properties": { "visible_points": 71, "total_points": 110, "visibility_pct": 64.545454545454547 }, "geometry": { "type": "Point", "coordinates": [ 0.742353011044167, 51.533778047715387 ] } },
{ "type": "Feature", "properties": { "visible_points": 75, "total_points": 111, "visibility_pct": 67.567567567567565 }, "geometry": { "type": "Point", "coordinates": [ 0.742552550127751, 51.533773381426379 ] } },
{ "type": "Feature", "properties": { "visible_points": 81, "total_points": 112, "visibility_pct": 72.321428571428569 }, "geometry": { "type": "Point", "coordinates": [ 0.7427520891577, 51.533768714798164 ] } },
{ "type": "Feature", "properties": { "visible_points": 83, "total_points": 113, "visibility_pct": 73.451327433628322 }, "geometry": { "type": "Point", "coordinates": [ 0.742951628134005, 51.533764047830765 ] } },
{ "type": "Feature", "properties": { "visible_points": 86, "total_points": 114, "visibility_pct": 75.438596491228068 }, "geometry": { "type": "Point", "coordinates": [ 0.74315116705667, 51.533759380524181 ] } },
{ "type": "Feature", "properties": { "visible_points": 86, "total_points": 115, "visibility_pct": 74.782608695652172 }, "geometry": { "type": "Point", "coordinates": [ 0.743350705925679, 51.533754712878398 ] } },
{ "type": "Feature", "properties": { "visible_points": 81, "total_points": 115, "visibility_pct": 70.434782608695656 }, "geometry": { "type": "Point", "coordinates": [ 0.743550244741044, 51.533750044893431 ] } },
{ "type": "Feature", "properties": { "visible_points": 73, "total_points": 115, "visibility_pct": 63.478260869565219 }, "geometry": { "type": "Point", "coordinates": [ 0.743749783502746, 51.533745376569257 ] } },
{ "type": "Feature", "properties": { "visible_points": 64, "total_points": 111, "visibility_pct": 57.657657657657658 }, "geometry": { "type": "Point", "coordinates": [ 0.743949322210791, 51.533740707905906 ] } },
{ "type": "Feature", "properties": { "visible_points": 59, "total_points": 102, "visibility_pct": 57.843137254901968 }, "geometry": { "type": "Point", "coordinates": [ 0.74414886086517, 51.533736038903363 ] } },
{ "type": "Feature", "properties": { "visible_points": 53, "total_points": 91, "visibility_pct": 58.241758241758248 }, "geometry": { "type": "Point", "coordinates": [ 0.744348399465883, 51.533731369561643 ] } },
{ "type": "Feature", "properties": { "visible_points": 0, "total_points": 80, "visibility_pct": 0.0 }, "geometry": { "type": "Point", "coordinates": [ 0.744547938012922, 51.533726699880724 ] } },
{ "type": "Feature", "properties": { "visible_points": 0, "total_points": 74, "visibility_pct": 0.0 }, "geometry": { "type": "Point", "coordinates": [ 0.74106248333805, 51.533916144435501 ] } },
{ "type": "Feature", "properties": { "visible_points": 38, "total_points": 82, "visibility_pct": 46.341463414634148 }, "geometry": { "type": "Point", "coordinates": [ 0.741262023242453, 51.533911480323809 ] } },
{ "type": "Feature", "properties": { "visible_points": 43, "total_points": 89, "visibility_pct": 48.314606741573037 }, "geometry": { "type": "Point", "coordinates": [ 0.74146156309306, 51.53390681587296 ] } },
{ "type": "Feature", "properties": { "visible_points": 46, "total_points": 95, "visibility_pct": 48.421052631578945 }, "geometry": { "type": "Point", "coordinates": [ 0.741661102889866, 51.533902151082899 ] } },
{ "type": "Feature", "properties": { "visible_points": 53, "total_points": 99, "visibility_pct": 53.535353535353536 }, "geometry": { "type": "Point", "coordinates": [ 0.741860642632861, 51.533897485953659 ] } },
{ "type": "Feature", "properties": { "visible_points": 57, "total_points": 100, "visibility_pct": 56.999999999999993 }, "geometry": { "type": "Point", "coordinates": [ 0.742060182319589, 51.533892820486919 ] } },
{ "type": "Feature", "properties": { "visible_points": 65, "total_points": 101, "visibility_pct": 64.356435643564353 }, "geometry": { "type": "Point", "coordinates": [ 0.742259721953855, 51.533888154682465 ] } },
{ "type": "Feature", "properties": { "visible_points": 63, "total_points": 102, "visibility_pct": 61.764705882352942 }, "geometry": { "type": "Point", "coordinates": [ 0.742459261534581, 51.533883488538976 ] } },
{ "type": "Feature", "properties": { "visible_points": 66, "total_points": 103, "visibility_pct": 64.077669902912632 }, "geometry": { "type": "Point", "coordinates": [ 0.742658801061573, 51.533878822056302 ] } },
{ "type": "Feature", "properties": { "visible_points": 71, "total_points": 104, "visibility_pct": 68.269230769230774 }, "geometry": { "type": "Point", "coordinates": [ 0.742858340534831, 51.533874155234422 ] } },
{ "type": "Feature", "properties": { "visible_points": 76, "total_points": 105, "visibility_pct": 72.38095238095238 }, "geometry": { "type": "Point", "coordinates": [ 0.743057879954342, 51.533869488073385 ] } },
{ "type": "Feature", "properties": { "visible_points": 77, "total_points": 106, "visibility_pct": 72.641509433962256 }, "geometry": { "type": "Point", "coordinates": [ 0.743257419320109, 51.533864820573136 ] } },
{ "type": "Feature", "properties": { "visible_points": 72, "total_points": 107, "visibility_pct": 67.289719626168221 }, "geometry": { "type": "Point", "coordinates": [ 0.743456958632128, 51.533860152733716 ] } },
{ "type": "Feature", "properties": { "visible_points": 66, "total_points": 107, "visibility_pct": 61.682242990654203 }, "geometry": { "type": "Point", "coordinates": [ 0.743656497890391, 51.533855484555104 ] } },
{ "type": "Feature", "properties": { "visible_points": 61, "total_points": 105, "visibility_pct": 58.095238095238102 }, "geometry": { "type": "Point", "coordinates": [ 0.743856037094895, 51.533850816037287 ] } },
{ "type": "Feature", "properties": { "visible_points": 55, "total_points": 98, "visibility_pct": 56.12244897959183 }, "geometry": { "type": "Point", "coordinates": [ 0.744055576245644, 51.533846147180306 ] } },
{ "type": "Feature", "properties": { "visible_points": 50, "total_points": 89, "visibility_pct": 56.17977528089888 }, "geometry": { "type": "Point", "coordinates": [ 0.744255115342621, 51.533841477984133 ] } },
{ "type": "Feature", "properties": { "visible_points": 0, "total_points": 79, "visibility_pct": 0.0 }, "geometry": { "type": "Point", "coordinates": [ 0.744454654385831, 51.533836808448783 ] } },
{ "type": "Feature", "properties": { "visible_points": 0, "total_points": 69, "visibility_pct": 0.0 }, "geometry": { "type": "Point", "coordinates": [ 0.741168731192494, 51.534021586653786 ] } },
{ "type": "Feature", "properties": { "visible_points": 0, "total_points": 76, "visibility_pct": 0.0 }, "geometry": { "type": "Point", "coordinates": [ 0.741368271540993, 51.534016922351718 ] } },
{ "type": "Feature", "properties": { "visible_points": 0, "total_points": 82, "visibility_pct": 0.0 }, "geometry": { "type": "Point", "coordinates": [ 0.741567811835682, 51.534012257710472 ] } },
{ "type": "Feature", "properties": { "visible_points": 0, "total_points": 87, "visibility_pct": 0.0 }, "geometry": { "type": "Point", "coordinates": [ 0.741767352076551, 51.534007592730042 ] } },
{ "type": "Feature", "properties": { "visible_points": 33, "total_points": 90, "visibility_pct": 36.666666666666664 }, "geometry": { "type": "Point", "coordinates": [ 0.741966892263605, 51.534002927410398 ] } },
{ "type": "Feature", "properties": { "visible_points": 38, "total_points": 91, "visibility_pct": 41.758241758241759 }, "geometry": { "type": "Point", "coordinates": [ 0.742166432396833, 51.533998261751591 ] } },
{ "type": "Feature", "properties": { "visible_points": 45, "total_points": 92, "visibility_pct": 48.913043478260867 }, "geometry": { "type": "Point", "coordinates": [ 0.742365972476234, 51.533993595753593 ] } },
{ "type": "Feature", "properties": { "visible_points": 49, "total_points": 93, "visibility_pct": 52.688172043010752 }, "geometry": { "type": "Point", "coordinates": [ 0.742565512501808, 51.533988929416395 ] } },
{ "type": "Feature", "properties": { "visible_points": 51, "total_points": 94, "visibility_pct": 54.255319148936167 }, "geometry": { "type": "Point", "coordinates": [ 0.742765052473537, 51.533984262740042 ] } },
{ "type": "Feature", "properties": { "visible_points": 48, "total_points": 95, "visibility_pct": 50.526315789473685 }, "geometry": { "type": "Point", "coordinates": [ 0.742964592391436, 51.533979595724468 ] } },
{ "type": "Feature", "properties": { "visible_points": 0, "total_points": 96, "visibility_pct": 0.0 }, "geometry": { "type": "Point", "coordinates": [ 0.743164132255487, 51.533974928369737 ] } },
{ "type": "Feature", "properties": { "visible_points": 55, "total_points": 97, "visibility_pct": 56.701030927835049 }, "geometry": { "type": "Point", "coordinates": [ 0.743363672065696, 51.533970260675808 ] } },
{ "type": "Feature", "properties": { "visible_points": 56, "total_points": 98, "visibility_pct": 57.142857142857139 }, "geometry": { "type": "Point", "coordinates": [ 0.743563211822052, 51.533965592642701 ] } },
{ "type": "Feature", "properties": { "visible_points": 53, "total_points": 98, "visibility_pct": 54.081632653061227 }, "geometry": { "type": "Point", "coordinates": [ 0.743762751524552, 51.533960924270403 ] } },
{ "type": "Feature", "properties": { "visible_points": 51, "total_points": 92, "visibility_pct": 55.434782608695656 }, "geometry": { "type": "Point", "coordinates": [ 0.743962291173193, 51.53395625555892 ] } },
{ "type": "Feature", "properties": { "visible_points": 46, "total_points": 85, "visibility_pct": 54.117647058823529 }, "geometry": { "type": "Point", "coordinates": [ 0.744161830767974, 51.533951586508266 ] } },
{ "type": "Feature", "properties": { "visible_points": 24, "total_points": 76, "visibility_pct": 31.578947368421051 }, "geometry": { "type": "Point", "coordinates": [ 0.744361370308886, 51.533946917118421 ] } },
{ "type": "Feature", "properties": { "visible_points": 0, "total_points": 67, "visibility_pct": 0.0 }, "geometry": { "type": "Point", "coordinates": [ 0.744560909795932, 51.53394224738939 ] } },
{ "type": "Feature", "properties": { "visible_points": 0, "total_points": 78, "visibility_pct": 0.0 }, "geometry": { "type": "Point", "coordinates": [ 0.741873601761801, 51.534113034298322 ] } },
{ "type": "Feature", "properties": { "visible_points": 0, "total_points": 80, "visibility_pct": 0.0 }, "geometry": { "type": "Point", "coordinates": [ 0.74207314239304, 51.53410836879241 ] } },
{ "type": "Feature", "properties": { "visible_points": 0, "total_points": 81, "visibility_pct": 0.0 }, "geometry": { "type": "Point", "coordinates": [ 0.742272682970449, 51.534103702947327 ] } },
{ "type": "Feature", "properties": { "visible_points": 0, "total_points": 82, "visibility_pct": 0.0 }, "geometry": { "type": "Point", "coordinates": [ 0.742472223494029, 51.534099036763052 ] } },
{ "type": "Feature", "properties": { "visible_points": 0, "total_points": 83, "visibility_pct": 0.0 }, "geometry": { "type": "Point", "coordinates": [ 0.74267176396378, 51.5340943702396 ] } },
{ "type": "Feature", "properties": { "visible_points": 11, "total_points": 84, "visibility_pct": 13.095238095238097 }, "geometry": { "type": "Point", "coordinates": [ 0.74287130437969, 51.534089703376942 ] } },
{ "type": "Feature", "properties": { "visible_points": 18, "total_points": 85, "visibility_pct": 21.176470588235293 }, "geometry": { "type": "Point", "coordinates": [ 0.743070844741758, 51.534085036175128 ] } },
{ "type": "Feature", "properties": { "visible_points": 0, "total_points": 86, "visibility_pct": 0.0 }, "geometry": { "type": "Point", "coordinates": [ 0.743270385049977, 51.534080368634086 ] } },
{ "type": "Feature", "properties": { "visible_points": 39, "total_points": 87, "visibility_pct": 44.827586206896555 }, "geometry": { "type": "Point", "coordinates": [ 0.743469925304356, 51.534075700753874 ] } },
{ "type": "Feature", "properties": { "visible_points": 44, "total_points": 88, "visibility_pct": 50.0 }, "geometry": { "type": "Point", "coordinates": [ 0.743669465504875, 51.534071032534492 ] } },
{ "type": "Feature", "properties": { "visible_points": 42, "total_points": 85, "visibility_pct": 49.411764705882355 }, "geometry": { "type": "Point", "coordinates": [ 0.743869005651538, 51.534066363975924 ] } },
{ "type": "Feature", "properties": { "visible_points": 41, "total_points": 79, "visibility_pct": 51.898734177215189 }, "geometry": { "type": "Point", "coordinates": [ 0.744068545744343, 51.534061695078158 ] } },
{ "type": "Feature", "properties": { "visible_points": 34, "total_points": 72, "visibility_pct": 47.222222222222221 }, "geometry": { "type": "Point", "coordinates": [ 0.744268085783279, 51.534057025841214 ] } },
{ "type": "Feature", "properties": { "visible_points": 3, "total_points": 64, "visibility_pct": 4.6875 }, "geometry": { "type": "Point", "coordinates": [ 0.744467625768347, 51.534052356265072 ] } },
{ "type": "Feature", "properties": { "visible_points": 1, "total_points": 76, "visibility_pct": 1.3157894736842104 }, "geometry": { "type": "Point", "coordinates": [ 0.743775719685733, 51.534176472322315 ] } },
{ "type": "Feature", "properties": { "visible_points": 1, "total_points": 72, "visibility_pct": 1.3888888888888888 }, "geometry": { "type": "Point", "coordinates": [ 0.743975260276559, 51.534171803577465 ] } },
{ "type": "Feature", "properties": { "visible_points": 0, "total_points": 66, "visibility_pct": 0.0 }, "geometry": { "type": "Point", "coordinates": [ 0.744174800813523, 51.534167134493408 ] } },
{ "type": "Feature", "properties": { "visible_points": 0, "total_points": 59, "visibility_pct": 0.0 }, "geometry": { "type": "Point", "coordinates": [ 0.744374341296623, 51.534162465070175 ] } },
{ "type": "Feature", "properties": { "visible_points": 2, "total_points": 52, "visibility_pct": 3.8461538461538463 }, "geometry": { "type": "Point", "coordinates": [ 0.744573881725846, 51.534157795307763 ] } }
]
}
