{
"type": "FeatureCollection",
"name": "654ad6bf09a5_foliage",
"crs": { "type": "name", "properties": { "name": "urn:ogc:def:crs:OGC:1.3:CRS84" } },
"features": [
{ "type": "Feature", "properties": { "max_height": 6.44000244140625, "mean_height": 0.67404735088348389, "std_height": 1.4298273324966431, "count_pixels": 42, "percent_cover": 0.88383838383838376, "percent_above_0.1m": 38.095238095238095, "low_level_<0.5": 7.1428571428571423, "mid_level_0.5-2": 21.428571428571427, "tall_2+": 9.5238095238095237 }, "geometry": { "type": "Point", "coordinates": [ 0.882890766930643, 52.325743323513159 ] } },
{ "type": "Feature", "properties": { "max_height": 6.8474998474121094, "mean_height": 2.5433917045593262, "std_height": 2.2629728317260742, "count_pixels": 42, "percent_cover": 0.88383838383838376, "percent_above_0.1m": 88.095238095238088, "low_level_<0.5": 14.285714285714285, "mid_level_0.5-2": 16.666666666666664, "tall_2+": 50.0 }, "geometry": { "type": "Point", "coordinates": [ 0.882796242802237, 52.325853549298465 ] } },
{ "type": "Feature", "properties": { "max_height": 3.6299972534179688, "mean_height": 0.42118945717811584, "std_height": 0.82279092073440552, "count_pixels": 42, "percent_cover": 0.88383838383838376, "percent_above_0.1m": 26.190476190476193, "low_level_<0.5": 2.3809523809523809, "mid_level_0.5-2": 16.666666666666664, "tall_2+": 7.1428571428571423 }, "geometry": { "type": "Point", "coordinates": [ 0.882999300766055, 52.325848591009141 ] } },
{ "type": "Feature", "properties": { "max_height": 2.0, "mean_height": 0.45642733573913574, "std_height": 0.67140018939971924, "count_pixels": 42, "percent_cover": 0.88383838383838376, "percent_above_0.1m": 40.476190476190474, "low_level_<0.5": 9.5238095238095237, "mid_level_0.5-2": 26.190476190476193, "tall_2+": 2.3809523809523809 }, "geometry": { "type": "Point", "coordinates": [ 0.88320235867178, 52.325843632370919 ] } },
{ "type": "Feature", "properties": { "max_height": 5.3274993896484375, "mean_height": 0.67154675722122192, "std_height": 1.3869597911834717, "count_pixels": 42, "percent_cover": 0.88383838383838376, "percent_above_0.1m": 30.952380952380953, "low_level_<0.5": 2.3809523809523809, "mid_level_0.5-2": 11.904761904761903, "tall_2+": 14.285714285714285 }, "geometry": { "type": "Point", "coordinates": [ 0.882904776695762, 52.325958816879172 ] } },
{ "type": "Feature", "properties": { "max_height": 0.02249908447265625, "mean_height": -0.0058560622856020927, "std_height": 0.013056585565209389, "count_pixels": 38, "percent_cover": 0.79966329966329963, "percent_above_0.1m": 0.0, "low_level_<0.5": 0.0, "mid_level_0.5-2": 0.0, "tall_2+": 0.0 }, "geometry": { "type": "Point", "coordinates": [ 0.88310783511293, 52.325953858398577 ] } },
{ "type": "Feature", "properties": { "max_height": 1.1100006103515625, "mean_height": 0.091487385332584381, "std_height": 0.24970671534538269, "count_pixels": 42, "percent_cover": 0.88383838383838376, "percent_above_0.1m": 16.666666666666664, "low_level_<0.5": 7.1428571428571423, "mid_level_0.5-2": 7.1428571428571423, "tall_2+": 0.0 }, "geometry": { "type": "Point", "coordinates": [ 0.883310893471996, 52.325948899569049 ] } },
{ "type": "Feature", "properties": { "max_height": 3.7674980163574219, "mean_height": 0.45085319876670837, "std_height": 0.88391810655593872, "count_pixels": 41, "percent_cover": 0.86279461279461289, "percent_above_0.1m": 41.463414634146339, "low_level_<0.5": 12.195121951219512, "mid_level_0.5-2": 17.073170731707318, "tall_2+": 7.3170731707317067 }, "geometry": { "type": "Point", "coordinates": [ 0.883513951772959, 52.325943940390594 ] } },
{ "type": "Feature", "properties": { "max_height": 4.6375007629394531, "mean_height": 0.30267760157585144, "std_height": 0.93040215969085693, "count_pixels": 42, "percent_cover": 0.88383838383838376, "percent_above_0.1m": 16.666666666666664, "low_level_<0.5": 4.7619047619047619, "mid_level_0.5-2": 7.1428571428571423, "tall_2+": 4.7619047619047619 }, "geometry": { "type": "Point", "coordinates": [ 0.883920068200547, 52.325934020986949 ] } },
{ "type": "Feature", "properties": { "max_height": 5.2475013732910156, "mean_height": 1.4365463256835938, "std_height": 1.5433982610702515, "count_pixels": 42, "percent_cover": 0.88383838383838376, "percent_above_0.1m": 76.19047619047619, "low_level_<0.5": 9.5238095238095237, "mid_level_0.5-2": 38.095238095238095, "tall_2+": 26.190476190476193 }, "geometry": { "type": "Point", "coordinates": [ 0.882810252172141, 52.326069042676359 ] } },
{ "type": "Feature", "properties": { "max_height": 0.05999755859375, "mean_height": 0.0098208021372556686, "std_height": 0.018121371045708656, "count_pixels": 42, "percent_cover": 0.88383838383838376, "percent_above_0.1m": 0.0, "low_level_<0.5": 0.0, "mid_level_0.5-2": 0.0, "tall_2+": 0.0 }, "geometry": { "type": "Point", "coordinates": [ 0.883013311100756, 52.326064084353369 ] } },
{ "type": "Feature", "properties": { "max_height": 0.0625, "mean_height": 0.013273057527840137, "std_height": 0.017021525651216507, "count_pixels": 42, "percent_cover": 0.88383838383838376, "percent_above_0.1m": 0.0, "low_level_<0.5": 0.0, "mid_level_0.5-2": 0.0, "tall_2+": 0.0 }, "geometry": { "type": "Point", "coordinates": [ 0.883216369971276, 52.326059125681454 ] } },
{ "type": "Feature", "properties": { "max_height": 0.1374969482421875, "mean_height": 0.0023203350137919188, "std_height": 0.023900693282485008, "count_pixels": 42, "percent_cover": 0.88383838383838376, "percent_above_0.1m": 2.3809523809523809, "low_level_<0.5": 0.0, "mid_level_0.5-2": 0.0, "tall_2+": 0.0 }, "geometry": { "type": "Point", "coordinates": [ 0.883419428783686, 52.326054166660626 ] } },
{ "type": "Feature", "properties": { "max_height": 5.092498779296875, "mean_height": 0.51083230972290039, "std_height": 1.1946867704391479, "count_pixels": 42, "percent_cover": 0.88383838383838376, "percent_above_0.1m": 35.714285714285715, "low_level_<0.5": 14.285714285714285, "mid_level_0.5-2": 2.3809523809523809, "tall_2+": 11.904761904761903 }, "geometry": { "type": "Point", "coordinates": [ 0.883622487537987, 52.326049207290865 ] } },
{ "type": "Feature", "properties": { "max_height": 0.52249908447265625, "mean_height": 0.044761203229427338, "std_height": 0.12574845552444458, "count_pixels": 42, "percent_cover": 0.88383838383838376, "percent_above_0.1m": 9.5238095238095237, "low_level_<0.5": 4.7619047619047619, "mid_level_0.5-2": 2.3809523809523809, "tall_2+": 0.0 }, "geometry": { "type": "Point", "coordinates": [ 0.883825546234176, 52.326044247572199 ] } },
{ "type": "Feature", "properties": { "max_height": 0.67499923706054688, "mean_height": 0.093536004424095154, "std_height": 0.18663561344146729, "count_pixels": 41, "percent_cover": 0.86279461279461289, "percent_above_0.1m": 21.951219512195124, "low_level_<0.5": 14.634146341463413, "mid_level_0.5-2": 7.3170731707317067, "tall_2+": 0.0 }, "geometry": { "type": "Point", "coordinates": [ 0.884028604872253, 52.326039287504592 ] } },
{ "type": "Feature", "properties": { "max_height": 1.0174980163574219, "mean_height": 0.11463351547718048, "std_height": 0.20725838840007782, "count_pixels": 41, "percent_cover": 0.86279461279461289, "percent_above_0.1m": 24.390243902439025, "low_level_<0.5": 14.634146341463413, "mid_level_0.5-2": 7.3170731707317067, "tall_2+": 0.0 }, "geometry": { "type": "Point", "coordinates": [ 0.882715727195191, 52.326179268400651 ] } },
{ "type": "Feature", "properties": { "max_height": 1.7600021362304688, "mean_height": 0.081963948905467987, "std_height": 0.31509384512901306, "count_pixels": 42, "percent_cover": 0.88383838383838376, "percent_above_0.1m": 14.285714285714285, "low_level_<0.5": 4.7619047619047619, "mid_level_0.5-2": 4.7619047619047619, "tall_2+": 0.0 }, "geometry": { "type": "Point", "coordinates": [ 0.882918786635255, 52.326174310235281 ] } },
{ "type": "Feature", "properties": { "max_height": 0.032501220703125, "mean_height": 0.0086176516488194466, "std_height": 0.011437822133302689, "count_pixels": 38, "percent_cover": 0.79966329966329963, "percent_above_0.1m": 0.0, "low_level_<0.5": 0.0, "mid_level_0.5-2": 0.0, "tall_2+": 0.0 }, "geometry": { "type": "Point", "coordinates": [ 0.883121846017225, 52.326169351720999 ] } },
{ "type": "Feature", "properties": { "max_height": 0.720001220703125, "mean_height": 0.040892191231250763, "std_height": 0.12325835227966309, "count_pixels": 42, "percent_cover": 0.88383838383838376, "percent_above_0.1m": 9.5238095238095237, "low_level_<0.5": 4.7619047619047619, "mid_level_0.5-2": 2.3809523809523809, "tall_2+": 0.0 }, "geometry": { "type": "Point", "coordinates": [ 0.883324905341086, 52.326164392857777 ] } },
{ "type": "Feature", "properties": { "max_height": 1.4350013732910156, "mean_height": 0.22371901571750641, "std_height": 0.3947313129901886, "count_pixels": 41, "percent_cover": 0.86279461279461289, "percent_above_0.1m": 41.463414634146339, "low_level_<0.5": 24.390243902439025, "mid_level_0.5-2": 12.195121951219512, "tall_2+": 0.0 }, "geometry": { "type": "Point", "coordinates": [ 0.883527964606845, 52.326159433645657 ] } },
{ "type": "Feature", "properties": { "max_height": 0.032501220703125, "mean_height": 0.0026184264570474625, "std_height": 0.010550163686275482, "count_pixels": 42, "percent_cover": 0.88383838383838376, "percent_above_0.1m": 0.0, "low_level_<0.5": 0.0, "mid_level_0.5-2": 0.0, "tall_2+": 0.0 }, "geometry": { "type": "Point", "coordinates": [ 0.883731023814493, 52.326154474084582 ] } },
{ "type": "Feature", "properties": { "max_height": 3.8899993896484375, "mean_height": 0.30220121145248413, "std_height": 0.78114134073257446, "count_pixels": 42, "percent_cover": 0.88383838383838376, "percent_above_0.1m": 21.428571428571427, "low_level_<0.5": 4.7619047619047619, "mid_level_0.5-2": 9.5238095238095237, "tall_2+": 7.1428571428571423 }, "geometry": { "type": "Point", "coordinates": [ 0.883934082964019, 52.326149514174602 ] } },
{ "type": "Feature", "properties": { "max_height": 3.6875, "mean_height": 0.48924335837364197, "std_height": 0.80349767208099365, "count_pixels": 43, "percent_cover": 0.90488215488215495, "percent_above_0.1m": 46.511627906976742, "low_level_<0.5": 13.953488372093023, "mid_level_0.5-2": 23.255813953488371, "tall_2+": 6.9767441860465116 }, "geometry": { "type": "Point", "coordinates": [ 0.884137142055437, 52.326144553915704 ] } },
{ "type": "Feature", "properties": { "max_height": 5.9424972534179688, "mean_height": 2.5130946636199951, "std_height": 2.222919225692749, "count_pixels": 42, "percent_cover": 0.88383838383838376, "percent_above_0.1m": 69.047619047619051, "low_level_<0.5": 4.7619047619047619, "mid_level_0.5-2": 11.904761904761903, "tall_2+": 52.380952380952387 }, "geometry": { "type": "Point", "coordinates": [ 0.882824261716423, 52.326284536044355 ] } },
{ "type": "Feature", "properties": { "max_height": 3.1149978637695312, "mean_height": 0.92482024431228638, "std_height": 1.1301120519638062, "count_pixels": 42, "percent_cover": 0.88383838383838376, "percent_above_0.1m": 50.0, "low_level_<0.5": 0.0, "mid_level_0.5-2": 19.047619047619047, "tall_2+": 26.190476190476193 }, "geometry": { "type": "Point", "coordinates": [ 0.883027321609839, 52.326279577687686 ] } },
{ "type": "Feature", "properties": { "max_height": 0.057498931884765625, "mean_height": 0.011725425720214844, "std_height": 0.018236644566059113, "count_pixels": 42, "percent_cover": 0.88383838383838376, "percent_above_0.1m": 0.0, "low_level_<0.5": 0.0, "mid_level_0.5-2": 0.0, "tall_2+": 0.0 }, "geometry": { "type": "Point", "coordinates": [ 0.883230381445167, 52.326274618982083 ] } },
{ "type": "Feature", "properties": { "max_height": 1.4025001525878906, "mean_height": 0.2594045102596283, "std_height": 0.39250612258911133, "count_pixels": 42, "percent_cover": 0.88383838383838376, "percent_above_0.1m": 40.476190476190474, "low_level_<0.5": 9.5238095238095237, "mid_level_0.5-2": 23.809523809523807, "tall_2+": 0.0 }, "geometry": { "type": "Point", "coordinates": [ 0.883433441222376, 52.326269659927569 ] } },
{ "type": "Feature", "properties": { "max_height": 6.7174949645996094, "mean_height": 0.66642749309539795, "std_height": 1.3925278186798096, "count_pixels": 42, "percent_cover": 0.88383838383838376, "percent_above_0.1m": 28.571428571428569, "low_level_<0.5": 4.7619047619047619, "mid_level_0.5-2": 7.1428571428571423, "tall_2+": 16.666666666666664 }, "geometry": { "type": "Point", "coordinates": [ 0.883636500941483, 52.326264700524128 ] } },
{ "type": "Feature", "properties": { "max_height": 0.045001983642578125, "mean_height": 0.0038092476315796375, "std_height": 0.012774053961038589, "count_pixels": 42, "percent_cover": 0.88383838383838376, "percent_above_0.1m": 0.0, "low_level_<0.5": 0.0, "mid_level_0.5-2": 0.0, "tall_2+": 0.0 }, "geometry": { "type": "Point", "coordinates": [ 0.883839560602474, 52.326259740771761 ] } },
{ "type": "Feature", "properties": { "max_height": 0.779998779296875, "mean_height": 0.036096435040235519, "std_height": 0.13797755539417267, "count_pixels": 41, "percent_cover": 0.86279461279461289, "percent_above_0.1m": 7.3170731707317067, "low_level_<0.5": 4.8780487804878048, "mid_level_0.5-2": 2.4390243902439024, "tall_2+": 0.0 }, "geometry": { "type": "Point", "coordinates": [ 0.88404262020535, 52.326254780670467 ] } },
{ "type": "Feature", "properties": { "max_height": 4.220001220703125, "mean_height": 0.35335269570350647, "std_height": 0.91679620742797852, "count_pixels": 41, "percent_cover": 0.86279461279461289, "percent_above_0.1m": 21.951219512195124, "low_level_<0.5": 2.4390243902439024, "mid_level_0.5-2": 7.3170731707317067, "tall_2+": 7.3170731707317067 }, "geometry": { "type": "Point", "coordinates": [ 0.884245679750101, 52.326249820220269 ] } },
{ "type": "Feature", "properties": { "max_height": 5.9500007629394531, "mean_height": 1.6859523057937622, "std_height": 1.4703356027603149, "count_pixels": 42, "percent_cover": 0.88383838383838376, "percent_above_0.1m": 83.333333333333343, "low_level_<0.5": 4.7619047619047619, "mid_level_0.5-2": 42.857142857142854, "tall_2+": 35.714285714285715 }, "geometry": { "type": "Point", "coordinates": [ 0.882932796749129, 52.326389803581506 ] } },
{ "type": "Feature", "properties": { "max_height": 7.6474990844726562, "mean_height": 2.8867757320404053, "std_height": 2.5582931041717529, "count_pixels": 38, "percent_cover": 0.79966329966329963, "percent_above_0.1m": 65.789473684210535, "low_level_<0.5": 0.0, "mid_level_0.5-2": 10.526315789473683, "tall_2+": 55.26315789473685 }, "geometry": { "type": "Point", "coordinates": [ 0.883135857095907, 52.326384845033537 ] } },
{ "type": "Feature", "properties": { "max_height": 5.7599983215332031, "mean_height": 0.65196359157562256, "std_height": 1.2208230495452881, "count_pixels": 42, "percent_cover": 0.88383838383838376, "percent_above_0.1m": 42.857142857142854, "low_level_<0.5": 9.5238095238095237, "mid_level_0.5-2": 26.190476190476193, "tall_2+": 7.1428571428571423 }, "geometry": { "type": "Point", "coordinates": [ 0.88333891738458, 52.326379886136635 ] } },
{ "type": "Feature", "properties": { "max_height": 10.914997100830078, "mean_height": 3.7292673587799072, "std_height": 2.8117120265960693, "count_pixels": 41, "percent_cover": 0.86279461279461289, "percent_above_0.1m": 90.243902439024396, "low_level_<0.5": 4.8780487804878048, "mid_level_0.5-2": 19.512195121951219, "tall_2+": 65.853658536585371 }, "geometry": { "type": "Point", "coordinates": [ 0.883541977615149, 52.326374926890807 ] } },
{ "type": "Feature", "properties": { "max_height": 17.719997406005859, "mean_height": 2.7515463829040527, "std_height": 3.8979659080505371, "count_pixels": 42, "percent_cover": 0.88383838383838376, "percent_above_0.1m": 52.380952380952387, "low_level_<0.5": 4.7619047619047619, "mid_level_0.5-2": 2.3809523809523809, "tall_2+": 42.857142857142854 }, "geometry": { "type": "Point", "coordinates": [ 0.883745037787602, 52.326369967296053 ] } },
{ "type": "Feature", "properties": { "max_height": 5.3999977111816406, "mean_height": 2.1936893463134766, "std_height": 1.8472402095794678, "count_pixels": 42, "percent_cover": 0.88383838383838376, "percent_above_0.1m": 71.428571428571431, "low_level_<0.5": 2.3809523809523809, "mid_level_0.5-2": 19.047619047619047, "tall_2+": 50.0 }, "geometry": { "type": "Point", "coordinates": [ 0.88394809790194, 52.326365007352372 ] } },
{ "type": "Feature", "properties": { "max_height": 13.49749755859375, "mean_height": 2.6795921325683594, "std_height": 3.1202101707458496, "count_pixels": 43, "percent_cover": 0.90488215488215495, "percent_above_0.1m": 79.069767441860463, "low_level_<0.5": 4.6511627906976747, "mid_level_0.5-2": 23.255813953488371, "tall_2+": 48.837209302325576 }, "geometry": { "type": "Point", "coordinates": [ 0.884151157958159, 52.326360047059765 ] } },
{ "type": "Feature", "properties": { "max_height": 4.0224990844726562, "mean_height": 0.2653561532497406, "std_height": 0.77796763181686401, "count_pixels": 42, "percent_cover": 0.88383838383838376, "percent_above_0.1m": 16.666666666666664, "low_level_<0.5": 2.3809523809523809, "mid_level_0.5-2": 4.7619047619047619, "tall_2+": 7.1428571428571423 }, "geometry": { "type": "Point", "coordinates": [ 0.884354217956257, 52.326355086418246 ] } },
{ "type": "Feature", "properties": { "max_height": 15.689998626708984, "mean_height": 8.3969631195068359, "std_height": 3.8455564975738525, "count_pixels": 42, "percent_cover": 0.88383838383838376, "percent_above_0.1m": 100.0, "low_level_<0.5": 0.0, "mid_level_0.5-2": 2.3809523809523809, "tall_2+": 97.61904761904762 }, "geometry": { "type": "Point", "coordinates": [ 0.883041332293317, 52.326495071012111 ] } },
{ "type": "Feature", "properties": { "max_height": 11.409999847412109, "mean_height": 5.2457733154296875, "std_height": 2.989856481552124, "count_pixels": 42, "percent_cover": 0.88383838383838376, "percent_above_0.1m": 100.0, "low_level_<0.5": 2.3809523809523809, "mid_level_0.5-2": 9.5238095238095237, "tall_2+": 85.714285714285708 }, "geometry": { "type": "Point", "coordinates": [ 0.883244393093453, 52.326490112272836 ] } },
{ "type": "Feature", "properties": { "max_height": 11.304996490478516, "mean_height": 6.2693443298339844, "std_height": 3.0648362636566162, "count_pixels": 42, "percent_cover": 0.88383838383838376, "percent_above_0.1m": 97.61904761904762, "low_level_<0.5": 0.0, "mid_level_0.5-2": 7.1428571428571423, "tall_2+": 90.476190476190482 }, "geometry": { "type": "Point", "coordinates": [ 0.883447453835482, 52.326485153184613 ] } },
{ "type": "Feature", "properties": { "max_height": 16.430000305175781, "mean_height": 8.5140457153320312, "std_height": 2.7106473445892334, "count_pixels": 42, "percent_cover": 0.88383838383838376, "percent_above_0.1m": 100.0, "low_level_<0.5": 0.0, "mid_level_0.5-2": 4.7619047619047619, "tall_2+": 95.238095238095227 }, "geometry": { "type": "Point", "coordinates": [ 0.883650514519404, 52.326480193747493 ] } },
{ "type": "Feature", "properties": { "max_height": 11.017499923706055, "mean_height": 6.656308650970459, "std_height": 2.7716996669769287, "count_pixels": 42, "percent_cover": 0.88383838383838376, "percent_above_0.1m": 100.0, "low_level_<0.5": 0.0, "mid_level_0.5-2": 7.1428571428571423, "tall_2+": 92.857142857142861 }, "geometry": { "type": "Point", "coordinates": [ 0.883853575145206, 52.326475233961432 ] } },
{ "type": "Feature", "properties": { "max_height": 12.247501373291016, "mean_height": 5.2631087303161621, "std_height": 2.4973700046539307, "count_pixels": 41, "percent_cover": 0.86279461279461289, "percent_above_0.1m": 100.0, "low_level_<0.5": 0.0, "mid_level_0.5-2": 9.7560975609756095, "tall_2+": 90.243902439024396 }, "geometry": { "type": "Point", "coordinates": [ 0.884056635712894, 52.32647027382643 ] } },
{ "type": "Feature", "properties": { "max_height": 4.4124984741210938, "mean_height": 0.75981616973876953, "std_height": 1.2141498327255249, "count_pixels": 41, "percent_cover": 0.86279461279461289, "percent_above_0.1m": 48.780487804878049, "low_level_<0.5": 12.195121951219512, "mid_level_0.5-2": 17.073170731707318, "tall_2+": 17.073170731707318 }, "geometry": { "type": "Point", "coordinates": [ 0.884259696222458, 52.326465313342517 ] } }
]
}
