{
"type": "FeatureCollection",
"name": "35232509c292_foliage",
"crs": { "type": "name", "properties": { "name": "urn:ogc:def:crs:OGC:1.3:CRS84" } },
"features": [
{ "type": "Feature", "properties": { "max_height": 8.3824996948242188, "mean_height": 1.0056555271148682, "std_height": 2.3641130924224854, "count_pixels": 42, "percent_cover": 0.28386050283860503, "percent_above_0.1m": 19.047619047619047, "low_level_<0.5": 2.3809523809523809, "mid_level_0.5-2": 0.0, "tall_2+": 16.666666666666664 }, "geometry": { "type": "Point", "coordinates": [ 0.663656859473599, 52.774152721951751 ] } },
{ "type": "Feature", "properties": { "max_height": 0.0175018310546875, "mean_height": 0.00065503799123689532, "std_height": 0.0028905225917696953, "count_pixels": 42, "percent_cover": 0.28386050283860503, "percent_above_0.1m": 0.0, "low_level_<0.5": 0.0, "mid_level_0.5-2": 0.0, "tall_2+": 0.0 }, "geometry": { "type": "Point", "coordinates": [ 0.663862034824469, 52.774148115391156 ] } },
{ "type": "Feature", "properties": { "max_height": 0.04750823974609375, "mean_height": 0.0043909954838454723, "std_height": 0.011553331278264523, "count_pixels": 41, "percent_cover": 0.27710191943768586, "percent_above_0.1m": 0.0, "low_level_<0.5": 0.0, "mid_level_0.5-2": 0.0, "tall_2+": 0.0 }, "geometry": { "type": "Point", "coordinates": [ 0.664067210119431, 52.774143508475817 ] } },
{ "type": "Feature", "properties": { "max_height": 0.01749420166015625, "mean_height": 0.00041743688052520156, "std_height": 0.0026669434737414122, "count_pixels": 42, "percent_cover": 0.28386050283860503, "percent_above_0.1m": 0.0, "low_level_<0.5": 0.0, "mid_level_0.5-2": 0.0, "tall_2+": 0.0 }, "geometry": { "type": "Point", "coordinates": [ 0.66356085228467, 52.774262785729569 ] } },
{ "type": "Feature", "properties": { "max_height": 0.00250244140625, "mean_height": 0.00017856416525319219, "std_height": 0.00064382294658571482, "count_pixels": 42, "percent_cover": 0.28386050283860503, "percent_above_0.1m": 0.0, "low_level_<0.5": 0.0, "mid_level_0.5-2": 0.0, "tall_2+": 0.0 }, "geometry": { "type": "Point", "coordinates": [ 0.663766028169083, 52.774258179330438 ] } },
{ "type": "Feature", "properties": { "max_height": 0.00250244140625, "mean_height": -0.00011861891834996641, "std_height": 0.00093739922158420086, "count_pixels": 42, "percent_cover": 0.28386050283860503, "percent_above_0.1m": 0.0, "low_level_<0.5": 0.0, "mid_level_0.5-2": 0.0, "tall_2+": 0.0 }, "geometry": { "type": "Point", "coordinates": [ 0.663971203997594, 52.774253572576583 ] } },
{ "type": "Feature", "properties": { "max_height": 0.024993896484375, "mean_height": 0.0015115072019398212, "std_height": 0.0048254127614200115, "count_pixels": 43, "percent_cover": 0.2906190862395242, "percent_above_0.1m": 0.0, "low_level_<0.5": 0.0, "mid_level_0.5-2": 0.0, "tall_2+": 0.0 }, "geometry": { "type": "Point", "coordinates": [ 0.664176379770187, 52.774248965467983 ] } },
{ "type": "Feature", "properties": { "max_height": 0.93750762939453125, "mean_height": 0.078451976180076599, "std_height": 0.21351541578769684, "count_pixels": 42, "percent_cover": 0.28386050283860503, "percent_above_0.1m": 14.285714285714285, "low_level_<0.5": 7.1428571428571423, "mid_level_0.5-2": 7.1428571428571423, "tall_2+": 0.0 }, "geometry": { "type": "Point", "coordinates": [ 0.663464844618108, 52.774372849432176 ] } },
{ "type": "Feature", "properties": { "max_height": 0.0, "mean_height": 0.0, "std_height": 0.0, "count_pixels": 42, "percent_cover": 0.28386050283860503, "percent_above_0.1m": 0.0, "low_level_<0.5": 0.0, "mid_level_0.5-2": 0.0, "tall_2+": 0.0 }, "geometry": { "type": "Point", "coordinates": [ 0.663670021036073, 52.774368243194516 ] } },
{ "type": "Feature", "properties": { "max_height": 0.00249481201171875, "mean_height": 5.9400284953881055e-05, "std_height": 0.00038034742465242743, "count_pixels": 42, "percent_cover": 0.28386050283860503, "percent_above_0.1m": 0.0, "low_level_<0.5": 0.0, "mid_level_0.5-2": 0.0, "tall_2+": 0.0 }, "geometry": { "type": "Point", "coordinates": [ 0.663875197398135, 52.774363636602132 ] } },
{ "type": "Feature", "properties": { "max_height": 0.00250244140625, "mean_height": 1.860827865129977e-07, "std_height": 0.00055185490055009723, "count_pixels": 41, "percent_cover": 0.27710191943768586, "percent_above_0.1m": 0.0, "low_level_<0.5": 0.0, "mid_level_0.5-2": 0.0, "tall_2+": 0.0 }, "geometry": { "type": "Point", "coordinates": [ 0.664080373704282, 52.774359029655017 ] } },
{ "type": "Feature", "properties": { "max_height": 14.584999084472656, "mean_height": 2.46875, "std_height": 4.7415823936462402, "count_pixels": 40, "percent_cover": 0.27034333603676669, "percent_above_0.1m": 30.0, "low_level_<0.5": 0.0, "mid_level_0.5-2": 7.5, "tall_2+": 22.5 }, "geometry": { "type": "Point", "coordinates": [ 0.664285549954513, 52.774354422353156 ] } },
{ "type": "Feature", "properties": { "max_height": 0.029998779296875, "mean_height": 0.00085337570635601878, "std_height": 0.0046394821256399155, "count_pixels": 41, "percent_cover": 0.27710191943768586, "percent_above_0.1m": 0.0, "low_level_<0.5": 0.0, "mid_level_0.5-2": 0.0, "tall_2+": 0.0 }, "geometry": { "type": "Point", "coordinates": [ 0.663368836473912, 52.774482913059551 ] } },
{ "type": "Feature", "properties": { "max_height": 7.62939453125e-06, "mean_height": 9.0826125642706756e-07, "std_height": 2.4707376269361703e-06, "count_pixels": 42, "percent_cover": 0.28386050283860503, "percent_above_0.1m": 0.0, "low_level_<0.5": 0.0, "mid_level_0.5-2": 0.0, "tall_2+": 0.0 }, "geometry": { "type": "Point", "coordinates": [ 0.663574013425436, 52.774478306983383 ] } },
{ "type": "Feature", "properties": { "max_height": 7.62939453125e-06, "mean_height": 5.4495677659360808e-07, "std_height": 1.9648693978524534e-06, "count_pixels": 42, "percent_cover": 0.28386050283860503, "percent_above_0.1m": 0.0, "low_level_<0.5": 0.0, "mid_level_0.5-2": 0.0, "tall_2+": 0.0 }, "geometry": { "type": "Point", "coordinates": [ 0.663779190321044, 52.774473700552477 ] } },
{ "type": "Feature", "properties": { "max_height": 0.00250244140625, "mean_height": 1.8165225412758446e-07, "std_height": 0.0005460787215270102, "count_pixels": 42, "percent_cover": 0.28386050283860503, "percent_above_0.1m": 0.0, "low_level_<0.5": 0.0, "mid_level_0.5-2": 0.0, "tall_2+": 0.0 }, "geometry": { "type": "Point", "coordinates": [ 0.66398436716075, 52.774469093766839 ] } },
{ "type": "Feature", "properties": { "max_height": 1.5275039672851562, "mean_height": 0.059069789946079254, "std_height": 0.27337092161178589, "count_pixels": 43, "percent_cover": 0.2906190862395242, "percent_above_0.1m": 4.6511627906976747, "low_level_<0.5": 0.0, "mid_level_0.5-2": 4.6511627906976747, "tall_2+": 0.0 }, "geometry": { "type": "Point", "coordinates": [ 0.664189543944539, 52.774464486626464 ] } },
{ "type": "Feature", "properties": { "max_height": 0.06499481201171875, "mean_height": 0.0045934277586638927, "std_height": 0.014006569050252438, "count_pixels": 43, "percent_cover": 0.2906190862395242, "percent_above_0.1m": 0.0, "low_level_<0.5": 0.0, "mid_level_0.5-2": 0.0, "tall_2+": 0.0 }, "geometry": { "type": "Point", "coordinates": [ 0.663272827852083, 52.774592976611743 ] } },
{ "type": "Feature", "properties": { "max_height": 0.0, "mean_height": 0.0, "std_height": 0.0, "count_pixels": 42, "percent_cover": 0.28386050283860503, "percent_above_0.1m": 0.0, "low_level_<0.5": 0.0, "mid_level_0.5-2": 0.0, "tall_2+": 0.0 }, "geometry": { "type": "Point", "coordinates": [ 0.663478005337158, 52.774588370697053 ] } },
{ "type": "Feature", "properties": { "max_height": 0.00249481201171875, "mean_height": 5.9581936511676759e-05, "std_height": 0.00038032085285522044, "count_pixels": 42, "percent_cover": 0.28386050283860503, "percent_above_0.1m": 0.0, "low_level_<0.5": 0.0, "mid_level_0.5-2": 0.0, "tall_2+": 0.0 }, "geometry": { "type": "Point", "coordinates": [ 0.663683182766324, 52.774583764427625 ] } },
{ "type": "Feature", "properties": { "max_height": 7.62939453125e-06, "mean_height": 1.8165225412758446e-07, "std_height": 1.1631419738478144e-06, "count_pixels": 42, "percent_cover": 0.28386050283860503, "percent_above_0.1m": 0.0, "low_level_<0.5": 0.0, "mid_level_0.5-2": 0.0, "tall_2+": 0.0 }, "geometry": { "type": "Point", "coordinates": [ 0.663888360139591, 52.774579157803466 ] } },
{ "type": "Feature", "properties": { "max_height": 0.6074981689453125, "mean_height": 0.014878435991704464, "std_height": 0.093702204525470734, "count_pixels": 41, "percent_cover": 0.27710191943768586, "percent_above_0.1m": 2.4390243902439024, "low_level_<0.5": 0.0, "mid_level_0.5-2": 2.4390243902439024, "tall_2+": 0.0 }, "geometry": { "type": "Point", "coordinates": [ 0.66409353745694, 52.774574550824546 ] } },
{ "type": "Feature", "properties": { "max_height": 8.5100021362304688, "mean_height": 1.365561842918396, "std_height": 2.3534708023071289, "count_pixels": 40, "percent_cover": 0.27034333603676669, "percent_above_0.1m": 42.5, "low_level_<0.5": 10.0, "mid_level_0.5-2": 7.5, "tall_2+": 25.0 }, "geometry": { "type": "Point", "coordinates": [ 0.664298714718374, 52.774569943490917 ] } },
{ "type": "Feature", "properties": { "max_height": 0.00249481201171875, "mean_height": 6.1221238865982741e-05, "std_height": 0.00038478799979202449, "count_pixels": 41, "percent_cover": 0.27710191943768586, "percent_above_0.1m": 0.0, "low_level_<0.5": 0.0, "mid_level_0.5-2": 0.0, "tall_2+": 0.0 }, "geometry": { "type": "Point", "coordinates": [ 0.663381996771244, 52.774698434335527 ] } },
{ "type": "Feature", "properties": { "max_height": 0.0, "mean_height": 0.0, "std_height": 0.0, "count_pixels": 42, "percent_cover": 0.28386050283860503, "percent_above_0.1m": 0.0, "low_level_<0.5": 0.0, "mid_level_0.5-2": 0.0, "tall_2+": 0.0 }, "geometry": { "type": "Point", "coordinates": [ 0.663587174733969, 52.774693828227576 ] } },
{ "type": "Feature", "properties": { "max_height": 0.00250244140625, "mean_height": 7.2660901651033782e-07, "std_height": 0.00054524902952834964, "count_pixels": 42, "percent_cover": 0.28386050283860503, "percent_above_0.1m": 0.0, "low_level_<0.5": 0.0, "mid_level_0.5-2": 0.0, "tall_2+": 0.0 }, "geometry": { "type": "Point", "coordinates": [ 0.663792352640798, 52.774689221764881 ] } },
{ "type": "Feature", "properties": { "max_height": 7.62939453125e-06, "mean_height": 5.4495677659360808e-07, "std_height": 1.9648693978524534e-06, "count_pixels": 42, "percent_cover": 0.28386050283860503, "percent_above_0.1m": 0.0, "low_level_<0.5": 0.0, "mid_level_0.5-2": 0.0, "tall_2+": 0.0 }, "geometry": { "type": "Point", "coordinates": [ 0.663997530491711, 52.774684614947446 ] } },
{ "type": "Feature", "properties": { "max_height": 1.2050018310546875, "mean_height": 0.096104823052883148, "std_height": 0.27393200993537903, "count_pixels": 43, "percent_cover": 0.2906190862395242, "percent_above_0.1m": 13.953488372093023, "low_level_<0.5": 4.6511627906976747, "mid_level_0.5-2": 6.9767441860465116, "tall_2+": 0.0 }, "geometry": { "type": "Point", "coordinates": [ 0.664202708286703, 52.774680007775281 ] } },
{ "type": "Feature", "properties": { "max_height": 6.9850006103515625, "mean_height": 0.27924436330795288, "std_height": 1.1355805397033691, "count_pixels": 43, "percent_cover": 0.2906190862395242, "percent_above_0.1m": 11.627906976744185, "low_level_<0.5": 2.3255813953488373, "mid_level_0.5-2": 4.6511627906976747, "tall_2+": 4.6511627906976747 }, "geometry": { "type": "Point", "coordinates": [ 0.663285987727684, 52.774808497898782 ] } },
{ "type": "Feature", "properties": { "max_height": 6.4575042724609375, "mean_height": 0.32595297694206238, "std_height": 1.1626347303390503, "count_pixels": 42, "percent_cover": 0.28386050283860503, "percent_above_0.1m": 11.904761904761903, "low_level_<0.5": 0.0, "mid_level_0.5-2": 2.3809523809523809, "tall_2+": 7.1428571428571423 }, "geometry": { "type": "Point", "coordinates": [ 0.663491166223976, 52.774803891952317 ] } },
{ "type": "Feature", "properties": { "max_height": 0.05499267578125, "mean_height": 0.0068455650471150875, "std_height": 0.012944432906806469, "count_pixels": 42, "percent_cover": 0.28386050283860503, "percent_above_0.1m": 0.0, "low_level_<0.5": 0.0, "mid_level_0.5-2": 0.0, "tall_2+": 0.0 }, "geometry": { "type": "Point", "coordinates": [ 0.663696344664365, 52.774799285651106 ] } },
{ "type": "Feature", "properties": { "max_height": 7.62939453125e-06, "mean_height": 1.8165225412758446e-07, "std_height": 1.1631419738478144e-06, "count_pixels": 42, "percent_cover": 0.28386050283860503, "percent_above_0.1m": 0.0, "low_level_<0.5": 0.0, "mid_level_0.5-2": 0.0, "tall_2+": 0.0 }, "geometry": { "type": "Point", "coordinates": [ 0.663901523048842, 52.77479467899515 ] } },
{ "type": "Feature", "properties": { "max_height": 0.17249298095703125, "mean_height": 0.010732139460742474, "std_height": 0.034756064414978027, "count_pixels": 41, "percent_cover": 0.27710191943768586, "percent_above_0.1m": 4.8780487804878048, "low_level_<0.5": 2.4390243902439024, "mid_level_0.5-2": 0.0, "tall_2+": 0.0 }, "geometry": { "type": "Point", "coordinates": [ 0.664106701377407, 52.774790071984448 ] } },
{ "type": "Feature", "properties": { "max_height": 9.1399993896484375, "mean_height": 0.91576385498046875, "std_height": 2.2405428886413574, "count_pixels": 36, "percent_cover": 0.24330900243309003, "percent_above_0.1m": 30.555555555555557, "low_level_<0.5": 2.7777777777777777, "mid_level_0.5-2": 8.3333333333333321, "tall_2+": 13.888888888888889 }, "geometry": { "type": "Point", "coordinates": [ 0.662984799120722, 52.774923166817089 ] } },
{ "type": "Feature", "properties": { "max_height": 0.11249542236328125, "mean_height": 0.012500572018325329, "std_height": 0.026498660445213318, "count_pixels": 40, "percent_cover": 0.27034333603676669, "percent_above_0.1m": 2.5, "low_level_<0.5": 0.0, "mid_level_0.5-2": 0.0, "tall_2+": 0.0 }, "geometry": { "type": "Point", "coordinates": [ 0.663189978206479, 52.774918561386826 ] } },
{ "type": "Feature", "properties": { "max_height": 10.294998168945312, "mean_height": 3.6261582374572754, "std_height": 3.9254269599914551, "count_pixels": 41, "percent_cover": 0.27710191943768586, "percent_above_0.1m": 56.09756097560976, "low_level_<0.5": 0.0, "mid_level_0.5-2": 7.3170731707317067, "tall_2+": 48.780487804878049 }, "geometry": { "type": "Point", "coordinates": [ 0.663395157236337, 52.774913955601846 ] } },
{ "type": "Feature", "properties": { "max_height": 1.3874969482421875, "mean_height": 0.032976604998111725, "std_height": 0.21154086291790009, "count_pixels": 42, "percent_cover": 0.28386050283860503, "percent_above_0.1m": 2.3809523809523809, "low_level_<0.5": 0.0, "mid_level_0.5-2": 2.3809523809523809, "tall_2+": 0.0 }, "geometry": { "type": "Point", "coordinates": [ 0.663600336210292, 52.774909349462121 ] } },
{ "type": "Feature", "properties": { "max_height": 5.4025039672851562, "mean_height": 1.1473219394683838, "std_height": 1.5647566318511963, "count_pixels": 42, "percent_cover": 0.28386050283860503, "percent_above_0.1m": 52.380952380952387, "low_level_<0.5": 7.1428571428571423, "mid_level_0.5-2": 19.047619047619047, "tall_2+": 23.809523809523807 }, "geometry": { "type": "Point", "coordinates": [ 0.663805515128338, 52.774904742967649 ] } },
{ "type": "Feature", "properties": { "max_height": 1.0250091552734375, "mean_height": 0.0252387635409832, "std_height": 0.15618810057640076, "count_pixels": 42, "percent_cover": 0.28386050283860503, "percent_above_0.1m": 2.3809523809523809, "low_level_<0.5": 0.0, "mid_level_0.5-2": 2.3809523809523809, "tall_2+": 0.0 }, "geometry": { "type": "Point", "coordinates": [ 0.664010693990473, 52.774900136118433 ] } },
{ "type": "Feature", "properties": { "max_height": 3.4574966430664062, "mean_height": 0.15337212383747101, "std_height": 0.52908843755722046, "count_pixels": 43, "percent_cover": 0.2906190862395242, "percent_above_0.1m": 25.581395348837212, "low_level_<0.5": 11.627906976744185, "mid_level_0.5-2": 4.6511627906976747, "tall_2+": 2.3255813953488373 }, "geometry": { "type": "Point", "coordinates": [ 0.664215872796687, 52.774895528914477 ] } },
{ "type": "Feature", "properties": { "max_height": 13.709999084472656, "mean_height": 4.9409089088439941, "std_height": 3.7974717617034912, "count_pixels": 44, "percent_cover": 0.29737766964044338, "percent_above_0.1m": 81.818181818181827, "low_level_<0.5": 2.2727272727272729, "mid_level_0.5-2": 4.5454545454545459, "tall_2+": 75.0 }, "geometry": { "type": "Point", "coordinates": [ 0.6628887885883, 52.775033230068445 ] } },
{ "type": "Feature", "properties": { "max_height": 0.15749359130859375, "mean_height": 0.0075567420572042465, "std_height": 0.027059353888034821, "count_pixels": 44, "percent_cover": 0.29737766964044338, "percent_above_0.1m": 2.2727272727272729, "low_level_<0.5": 2.2727272727272729, "mid_level_0.5-2": 0.0, "tall_2+": 0.0 }, "geometry": { "type": "Point", "coordinates": [ 0.663093968207623, 52.775028624799688 ] } },
{ "type": "Feature", "properties": { "max_height": 0.11750030517578125, "mean_height": 0.003662819042801857, "std_height": 0.018570730462670326, "count_pixels": 43, "percent_cover": 0.2906190862395242, "percent_above_0.1m": 2.3255813953488373, "low_level_<0.5": 0.0, "mid_level_0.5-2": 0.0, "tall_2+": 0.0 }, "geometry": { "type": "Point", "coordinates": [ 0.663299147771047, 52.775024019176186 ] } },
{ "type": "Feature", "properties": { "max_height": 11.1875, "mean_height": 1.4239290952682495, "std_height": 3.1115281581878662, "count_pixels": 42, "percent_cover": 0.28386050283860503, "percent_above_0.1m": 26.190476190476193, "low_level_<0.5": 7.1428571428571423, "mid_level_0.5-2": 0.0, "tall_2+": 19.047619047619047 }, "geometry": { "type": "Point", "coordinates": [ 0.66350432727857, 52.775019413197924 ] } },
{ "type": "Feature", "properties": { "max_height": 10.972496032714844, "mean_height": 3.6784522533416748, "std_height": 4.2242746353149414, "count_pixels": 42, "percent_cover": 0.28386050283860503, "percent_above_0.1m": 57.142857142857139, "low_level_<0.5": 0.0, "mid_level_0.5-2": 4.7619047619047619, "tall_2+": 50.0 }, "geometry": { "type": "Point", "coordinates": [ 0.663709506730184, 52.775014806864945 ] } },
{ "type": "Feature", "properties": { "max_height": 5.1100006103515625, "mean_height": 1.1904771327972412, "std_height": 1.8322937488555908, "count_pixels": 42, "percent_cover": 0.28386050283860503, "percent_above_0.1m": 38.095238095238095, "low_level_<0.5": 0.0, "mid_level_0.5-2": 11.904761904761903, "tall_2+": 26.190476190476193 }, "geometry": { "type": "Point", "coordinates": [ 0.663914686125894, 52.775010200177192 ] } },
{ "type": "Feature", "properties": { "max_height": 1.5799942016601562, "mean_height": 0.065548963844776154, "std_height": 0.29320746660232544, "count_pixels": 41, "percent_cover": 0.27710191943768586, "percent_above_0.1m": 4.8780487804878048, "low_level_<0.5": 0.0, "mid_level_0.5-2": 4.8780487804878048, "tall_2+": 0.0 }, "geometry": { "type": "Point", "coordinates": [ 0.664119865465689, 52.775005593134743 ] } },
{ "type": "Feature", "properties": { "max_height": 14.977508544921875, "mean_height": 7.0598130226135254, "std_height": 4.2187638282775879, "count_pixels": 40, "percent_cover": 0.27034333603676669, "percent_above_0.1m": 85.0, "low_level_<0.5": 2.5, "mid_level_0.5-2": 7.5, "tall_2+": 75.0 }, "geometry": { "type": "Point", "coordinates": [ 0.662792777578219, 52.775143293244611 ] } },
{ "type": "Feature", "properties": { "max_height": 0.69750213623046875, "mean_height": 0.027569452300667763, "std_height": 0.11652477085590363, "count_pixels": 36, "percent_cover": 0.24330900243309003, "percent_above_0.1m": 8.3333333333333321, "low_level_<0.5": 0.0, "mid_level_0.5-2": 2.7777777777777777, "tall_2+": 0.0 }, "geometry": { "type": "Point", "coordinates": [ 0.662997957731112, 52.775138688137339 ] } },
{ "type": "Feature", "properties": { "max_height": 0.0, "mean_height": 0.0, "std_height": 0.0, "count_pixels": 40, "percent_cover": 0.27034333603676669, "percent_above_0.1m": 0.0, "low_level_<0.5": 0.0, "mid_level_0.5-2": 0.0, "tall_2+": 0.0 }, "geometry": { "type": "Point", "coordinates": [ 0.663203137828101, 52.775134082675322 ] } },
{ "type": "Feature", "properties": { "max_height": 0.0, "mean_height": 0.0, "std_height": 0.0, "count_pixels": 41, "percent_cover": 0.27710191943768586, "percent_above_0.1m": 0.0, "low_level_<0.5": 0.0, "mid_level_0.5-2": 0.0, "tall_2+": 0.0 }, "geometry": { "type": "Point", "coordinates": [ 0.663408317869202, 52.775129476858559 ] } },
{ "type": "Feature", "properties": { "max_height": 9.0674972534179688, "mean_height": 0.73250037431716919, "std_height": 1.9785993099212646, "count_pixels": 42, "percent_cover": 0.28386050283860503, "percent_above_0.1m": 19.047619047619047, "low_level_<0.5": 4.7619047619047619, "mid_level_0.5-2": 0.0, "tall_2+": 14.285714285714285 }, "geometry": { "type": "Point", "coordinates": [ 0.663613497854389, 52.775124870687037 ] } },
{ "type": "Feature", "properties": { "max_height": 11.069999694824219, "mean_height": 2.1045236587524414, "std_height": 3.6069128513336182, "count_pixels": 42, "percent_cover": 0.28386050283860503, "percent_above_0.1m": 33.333333333333329, "low_level_<0.5": 2.3809523809523809, "mid_level_0.5-2": 2.3809523809523809, "tall_2+": 28.571428571428569 }, "geometry": { "type": "Point", "coordinates": [ 0.663818677783673, 52.775120264160769 ] } },
{ "type": "Feature", "properties": { "max_height": 12.157501220703125, "mean_height": 2.1497619152069092, "std_height": 3.6517610549926758, "count_pixels": 42, "percent_cover": 0.28386050283860503, "percent_above_0.1m": 38.095238095238095, "low_level_<0.5": 0.0, "mid_level_0.5-2": 7.1428571428571423, "tall_2+": 28.571428571428569 }, "geometry": { "type": "Point", "coordinates": [ 0.66402385765704, 52.775115657279777 ] } },
{ "type": "Feature", "properties": { "max_height": 8.1725006103515625, "mean_height": 1.5844049453735352, "std_height": 2.3851194381713867, "count_pixels": 42, "percent_cover": 0.28386050283860503, "percent_above_0.1m": 42.857142857142854, "low_level_<0.5": 2.3809523809523809, "mid_level_0.5-2": 7.1428571428571423, "tall_2+": 30.952380952380953 }, "geometry": { "type": "Point", "coordinates": [ 0.662696766090476, 52.775253356345551 ] } },
{ "type": "Feature", "properties": { "max_height": 0.54250335693359375, "mean_height": 0.029886592179536819, "std_height": 0.084290631115436554, "count_pixels": 44, "percent_cover": 0.29737766964044338, "percent_above_0.1m": 4.5454545454545459, "low_level_<0.5": 0.0, "mid_level_0.5-2": 2.2727272727272729, "tall_2+": 0.0 }, "geometry": { "type": "Point", "coordinates": [ 0.662901946776937, 52.775248751399765 ] } },
{ "type": "Feature", "properties": { "max_height": 0.0, "mean_height": 0.0, "std_height": 0.0, "count_pixels": 44, "percent_cover": 0.29737766964044338, "percent_above_0.1m": 0.0, "low_level_<0.5": 0.0, "mid_level_0.5-2": 0.0, "tall_2+": 0.0 }, "geometry": { "type": "Point", "coordinates": [ 0.663107127407507, 52.77524414609924 ] } },
{ "type": "Feature", "properties": { "max_height": 0.0, "mean_height": 0.0, "std_height": 0.0, "count_pixels": 43, "percent_cover": 0.2906190862395242, "percent_above_0.1m": 0.0, "low_level_<0.5": 0.0, "mid_level_0.5-2": 0.0, "tall_2+": 0.0 }, "geometry": { "type": "Point", "coordinates": [ 0.663312307982172, 52.775239540443948 ] } },
{ "type": "Feature", "properties": { "max_height": 0.6300048828125, "mean_height": 0.0191072728484869, "std_height": 0.098962336778640747, "count_pixels": 42, "percent_cover": 0.28386050283860503, "percent_above_0.1m": 4.7619047619047619, "low_level_<0.5": 2.3809523809523809, "mid_level_0.5-2": 2.3809523809523809, "tall_2+": 0.0 }, "geometry": { "type": "Point", "coordinates": [ 0.66351748850094, 52.775234934433925 ] } },
{ "type": "Feature", "properties": { "max_height": 3.6500015258789062, "mean_height": 0.80374962091445923, "std_height": 1.0738967657089233, "count_pixels": 42, "percent_cover": 0.28386050283860503, "percent_above_0.1m": 50.0, "low_level_<0.5": 7.1428571428571423, "mid_level_0.5-2": 21.428571428571427, "tall_2+": 19.047619047619047 }, "geometry": { "type": "Point", "coordinates": [ 0.663722668963801, 52.775230328069149 ] } },
{ "type": "Feature", "properties": { "max_height": 14.06500244140625, "mean_height": 6.4594640731811523, "std_height": 4.7225456237792969, "count_pixels": 42, "percent_cover": 0.28386050283860503, "percent_above_0.1m": 83.333333333333343, "low_level_<0.5": 2.3809523809523809, "mid_level_0.5-2": 4.7619047619047619, "tall_2+": 73.80952380952381 }, "geometry": { "type": "Point", "coordinates": [ 0.663927849370749, 52.775225721349635 ] } },
{ "type": "Feature", "properties": { "max_height": 0.99249267578125, "mean_height": 0.043841663748025894, "std_height": 0.18224537372589111, "count_pixels": 41, "percent_cover": 0.27710191943768586, "percent_above_0.1m": 7.3170731707317067, "low_level_<0.5": 0.0, "mid_level_0.5-2": 4.8780487804878048, "tall_2+": 0.0 }, "geometry": { "type": "Point", "coordinates": [ 0.664133029721781, 52.775221114275368 ] } },
{ "type": "Feature", "properties": { "max_height": 10.194999694824219, "mean_height": 2.8037502765655518, "std_height": 3.6719255447387695, "count_pixels": 42, "percent_cover": 0.28386050283860503, "percent_above_0.1m": 50.0, "low_level_<0.5": 2.3809523809523809, "mid_level_0.5-2": 11.904761904761903, "tall_2+": 35.714285714285715 }, "geometry": { "type": "Point", "coordinates": [ 0.66260075412343, 52.775363419364595 ] } },
{ "type": "Feature", "properties": { "max_height": 0.0500030517578125, "mean_height": 0.004562759306281805, "std_height": 0.012360663153231144, "count_pixels": 40, "percent_cover": 0.27034333603676669, "percent_above_0.1m": 0.0, "low_level_<0.5": 0.0, "mid_level_0.5-2": 0.0, "tall_2+": 0.0 }, "geometry": { "type": "Point", "coordinates": [ 0.662805935343738, 52.775358814580898 ] } },
{ "type": "Feature", "properties": { "max_height": 0.3800048828125, "mean_height": 0.012569639831781387, "std_height": 0.063239499926567078, "count_pixels": 36, "percent_cover": 0.24330900243309003, "percent_above_0.1m": 2.7777777777777777, "low_level_<0.5": 2.7777777777777777, "mid_level_0.5-2": 0.0, "tall_2+": 0.0 }, "geometry": { "type": "Point", "coordinates": [ 0.6630111165081, 52.775354209442483 ] } },
{ "type": "Feature", "properties": { "max_height": 0.0, "mean_height": 0.0, "std_height": 0.0, "count_pixels": 40, "percent_cover": 0.27034333603676669, "percent_above_0.1m": 0.0, "low_level_<0.5": 0.0, "mid_level_0.5-2": 0.0, "tall_2+": 0.0 }, "geometry": { "type": "Point", "coordinates": [ 0.663216297616565, 52.775349603949408 ] } },
{ "type": "Feature", "properties": { "max_height": 0.0, "mean_height": 0.0, "std_height": 0.0, "count_pixels": 41, "percent_cover": 0.27710191943768586, "percent_above_0.1m": 0.0, "low_level_<0.5": 0.0, "mid_level_0.5-2": 0.0, "tall_2+": 0.0 }, "geometry": { "type": "Point", "coordinates": [ 0.663421478669118, 52.775344998101716 ] } },
{ "type": "Feature", "properties": { "max_height": 4.4775009155273438, "mean_height": 0.74035626649856567, "std_height": 1.1214617490768433, "count_pixels": 42, "percent_cover": 0.28386050283860503, "percent_above_0.1m": 52.380952380952387, "low_level_<0.5": 14.285714285714285, "mid_level_0.5-2": 16.666666666666664, "tall_2+": 16.666666666666664 }, "geometry": { "type": "Point", "coordinates": [ 0.663626659665762, 52.775340391899384 ] } },
{ "type": "Feature", "properties": { "max_height": 0.8224945068359375, "mean_height": 0.048035759478807449, "std_height": 0.17705127596855164, "count_pixels": 42, "percent_cover": 0.28386050283860503, "percent_above_0.1m": 7.1428571428571423, "low_level_<0.5": 2.3809523809523809, "mid_level_0.5-2": 4.7619047619047619, "tall_2+": 0.0 }, "geometry": { "type": "Point", "coordinates": [ 0.663831840606493, 52.775335785342392 ] } },
{ "type": "Feature", "properties": { "max_height": 0.01250457763671875, "mean_height": 0.00041743688052520156, "std_height": 0.0020359556656330824, "count_pixels": 42, "percent_cover": 0.28386050283860503, "percent_above_0.1m": 0.0, "low_level_<0.5": 0.0, "mid_level_0.5-2": 0.0, "tall_2+": 0.0 }, "geometry": { "type": "Point", "coordinates": [ 0.66403702149131, 52.775331178430761 ] } },
{ "type": "Feature", "properties": { "max_height": 9.0, "mean_height": 1.0730947256088257, "std_height": 2.0291283130645752, "count_pixels": 42, "percent_cover": 0.28386050283860503, "percent_above_0.1m": 38.095238095238095, "low_level_<0.5": 7.1428571428571423, "mid_level_0.5-2": 14.285714285714285, "tall_2+": 16.666666666666664 }, "geometry": { "type": "Point", "coordinates": [ 0.662504741633294, 52.77547348227418 ] } },
{ "type": "Feature", "properties": { "max_height": 0.5124969482421875, "mean_height": 0.031368982046842575, "std_height": 0.089781381189823151, "count_pixels": 42, "percent_cover": 0.28386050283860503, "percent_above_0.1m": 7.1428571428571423, "low_level_<0.5": 4.7619047619047619, "mid_level_0.5-2": 2.3809523809523809, "tall_2+": 0.0 }, "geometry": { "type": "Point", "coordinates": [ 0.662709923391153, 52.775468877650965 ] } },
{ "type": "Feature", "properties": { "max_height": 0.09999847412109375, "mean_height": 0.0032955517526715994, "std_height": 0.016050081700086594, "count_pixels": 44, "percent_cover": 0.29737766964044338, "percent_above_0.1m": 0.0, "low_level_<0.5": 0.0, "mid_level_0.5-2": 0.0, "tall_2+": 0.0 }, "geometry": { "type": "Point", "coordinates": [ 0.662915105092878, 52.775464272673005 ] } },
{ "type": "Feature", "properties": { "max_height": 0.0, "mean_height": 0.0, "std_height": 0.0, "count_pixels": 44, "percent_cover": 0.29737766964044338, "percent_above_0.1m": 0.0, "low_level_<0.5": 0.0, "mid_level_0.5-2": 0.0, "tall_2+": 0.0 }, "geometry": { "type": "Point", "coordinates": [ 0.663120286738527, 52.775459667340563 ] } },
{ "type": "Feature", "properties": { "max_height": 0.0, "mean_height": 0.0, "std_height": 0.0, "count_pixels": 43, "percent_cover": 0.2906190862395242, "percent_above_0.1m": 0.0, "low_level_<0.5": 0.0, "mid_level_0.5-2": 0.0, "tall_2+": 0.0 }, "geometry": { "type": "Point", "coordinates": [ 0.663325468328104, 52.775455061653652 ] } },
{ "type": "Feature", "properties": { "max_height": 1.5550079345703125, "mean_height": 0.058571953326463699, "std_height": 0.24571873247623444, "count_pixels": 42, "percent_cover": 0.28386050283860503, "percent_above_0.1m": 7.1428571428571423, "low_level_<0.5": 4.7619047619047619, "mid_level_0.5-2": 2.3809523809523809, "tall_2+": 0.0 }, "geometry": { "type": "Point", "coordinates": [ 0.663530649861602, 52.775450455612265 ] } },
{ "type": "Feature", "properties": { "max_height": 4.87750244140625, "mean_height": 0.63131022453308105, "std_height": 1.3387261629104614, "count_pixels": 42, "percent_cover": 0.28386050283860503, "percent_above_0.1m": 26.190476190476193, "low_level_<0.5": 0.0, "mid_level_0.5-2": 11.904761904761903, "tall_2+": 14.285714285714285 }, "geometry": { "type": "Point", "coordinates": [ 0.663735831339008, 52.775445849216389 ] } },
{ "type": "Feature", "properties": { "max_height": 0.55999755859375, "mean_height": 0.01904769241809845, "std_height": 0.090416841208934784, "count_pixels": 42, "percent_cover": 0.28386050283860503, "percent_above_0.1m": 4.7619047619047619, "low_level_<0.5": 2.3809523809523809, "mid_level_0.5-2": 2.3809523809523809, "tall_2+": 0.0 }, "geometry": { "type": "Point", "coordinates": [ 0.663941012760334, 52.775441242466052 ] } },
{ "type": "Feature", "properties": { "max_height": 18.567497253417969, "mean_height": 4.4077978134155273, "std_height": 5.7609639167785645, "count_pixels": 42, "percent_cover": 0.28386050283860503, "percent_above_0.1m": 52.380952380952387, "low_level_<0.5": 7.1428571428571423, "mid_level_0.5-2": 7.1428571428571423, "tall_2+": 38.095238095238095 }, "geometry": { "type": "Point", "coordinates": [ 0.662203546288543, 52.775588149192551 ] } },
{ "type": "Feature", "properties": { "max_height": 1.4225006103515625, "mean_height": 0.050773985683917999, "std_height": 0.21853043138980865, "count_pixels": 42, "percent_cover": 0.28386050283860503, "percent_above_0.1m": 9.5238095238095237, "low_level_<0.5": 7.1428571428571423, "mid_level_0.5-2": 2.3809523809523809, "tall_2+": 0.0 }, "geometry": { "type": "Point", "coordinates": [ 0.662408728638402, 52.775583545081268 ] } },
{ "type": "Feature", "properties": { "max_height": 6.4824981689453125, "mean_height": 0.50619035959243774, "std_height": 1.3888396024703979, "count_pixels": 42, "percent_cover": 0.28386050283860503, "percent_above_0.1m": 19.047619047619047, "low_level_<0.5": 4.7619047619047619, "mid_level_0.5-2": 2.3809523809523809, "tall_2+": 11.904761904761903 }, "geometry": { "type": "Point", "coordinates": [ 0.662613910932191, 52.775578940615596 ] } },
{ "type": "Feature", "properties": { "max_height": 0.0, "mean_height": 0.0, "std_height": 0.0, "count_pixels": 40, "percent_cover": 0.27034333603676669, "percent_above_0.1m": 0.0, "low_level_<0.5": 0.0, "mid_level_0.5-2": 0.0, "tall_2+": 0.0 }, "geometry": { "type": "Point", "coordinates": [ 0.662819093169911, 52.775574335795561 ] } },
{ "type": "Feature", "properties": { "max_height": 0.0, "mean_height": 0.0, "std_height": 0.0, "count_pixels": 36, "percent_cover": 0.24330900243309003, "percent_above_0.1m": 0.0, "low_level_<0.5": 0.0, "mid_level_0.5-2": 0.0, "tall_2+": 0.0 }, "geometry": { "type": "Point", "coordinates": [ 0.663024275351558, 52.775569730621136 ] } },
{ "type": "Feature", "properties": { "max_height": 0.0, "mean_height": 0.0, "std_height": 0.0, "count_pixels": 40, "percent_cover": 0.27034333603676669, "percent_above_0.1m": 0.0, "low_level_<0.5": 0.0, "mid_level_0.5-2": 0.0, "tall_2+": 0.0 }, "geometry": { "type": "Point", "coordinates": [ 0.663229457477123, 52.775565125092342 ] } },
{ "type": "Feature", "properties": { "max_height": 0.0, "mean_height": 0.0, "std_height": 0.0, "count_pixels": 41, "percent_cover": 0.27710191943768586, "percent_above_0.1m": 0.0, "low_level_<0.5": 0.0, "mid_level_0.5-2": 0.0, "tall_2+": 0.0 }, "geometry": { "type": "Point", "coordinates": [ 0.663434639546603, 52.775560519209172 ] } },
{ "type": "Feature", "properties": { "max_height": 0.3950042724609375, "mean_height": 0.077024005353450775, "std_height": 0.1144431009888649, "count_pixels": 42, "percent_cover": 0.28386050283860503, "percent_above_0.1m": 30.952380952380953, "low_level_<0.5": 21.428571428571427, "mid_level_0.5-2": 0.0, "tall_2+": 0.0 }, "geometry": { "type": "Point", "coordinates": [ 0.663639821559997, 52.775555912971626 ] } },
{ "type": "Feature", "properties": { "max_height": 7.62939453125e-06, "mean_height": 3.6330450825516891e-07, "std_height": 1.6247472558461595e-06, "count_pixels": 42, "percent_cover": 0.28386050283860503, "percent_above_0.1m": 0.0, "low_level_<0.5": 0.0, "mid_level_0.5-2": 0.0, "tall_2+": 0.0 }, "geometry": { "type": "Point", "coordinates": [ 0.663845003517297, 52.775551306379697 ] } },
{ "type": "Feature", "properties": { "max_height": 0.01250457763671875, "mean_height": 0.0010123479878529906, "std_height": 0.0031375191174447536, "count_pixels": 42, "percent_cover": 0.28386050283860503, "percent_above_0.1m": 0.0, "low_level_<0.5": 0.0, "mid_level_0.5-2": 0.0, "tall_2+": 0.0 }, "geometry": { "type": "Point", "coordinates": [ 0.66405018541851, 52.775546699433413 ] } },
{ "type": "Feature", "properties": { "max_height": 6.8250045776367188, "mean_height": 0.57231718301773071, "std_height": 1.5256389379501343, "count_pixels": 41, "percent_cover": 0.27710191943768586, "percent_above_0.1m": 26.829268292682929, "low_level_<0.5": 9.7560975609756095, "mid_level_0.5-2": 2.4390243902439024, "tall_2+": 12.195121951219512 }, "geometry": { "type": "Point", "coordinates": [ 0.662107532278148, 52.775698211771704 ] } },
{ "type": "Feature", "properties": { "max_height": 0.1399993896484375, "mean_height": 0.012857528403401375, "std_height": 0.034220244735479355, "count_pixels": 42, "percent_cover": 0.28386050283860503, "percent_above_0.1m": 7.1428571428571423, "low_level_<0.5": 0.0, "mid_level_0.5-2": 0.0, "tall_2+": 0.0 }, "geometry": { "type": "Point", "coordinates": [ 0.662312715163796, 52.775693607817338 ] } },
{ "type": "Feature", "properties": { "max_height": 0.0, "mean_height": 0.0, "std_height": 0.0, "count_pixels": 42, "percent_cover": 0.28386050283860503, "percent_above_0.1m": 0.0, "low_level_<0.5": 0.0, "mid_level_0.5-2": 0.0, "tall_2+": 0.0 }, "geometry": { "type": "Point", "coordinates": [ 0.662517897993382, 52.775689003508596 ] } },
{ "type": "Feature", "properties": { "max_height": 0.0, "mean_height": 0.0, "std_height": 0.0, "count_pixels": 42, "percent_cover": 0.28386050283860503, "percent_above_0.1m": 0.0, "low_level_<0.5": 0.0, "mid_level_0.5-2": 0.0, "tall_2+": 0.0 }, "geometry": { "type": "Point", "coordinates": [ 0.662723080766894, 52.775684398845478 ] } },
{ "type": "Feature", "properties": { "max_height": 0.0, "mean_height": 0.0, "std_height": 0.0, "count_pixels": 44, "percent_cover": 0.29737766964044338, "percent_above_0.1m": 0.0, "low_level_<0.5": 0.0, "mid_level_0.5-2": 0.0, "tall_2+": 0.0 }, "geometry": { "type": "Point", "coordinates": [ 0.662928263484336, 52.77567979382799 ] } },
{ "type": "Feature", "properties": { "max_height": 0.0, "mean_height": 0.0, "std_height": 0.0, "count_pixels": 44, "percent_cover": 0.29737766964044338, "percent_above_0.1m": 0.0, "low_level_<0.5": 0.0, "mid_level_0.5-2": 0.0, "tall_2+": 0.0 }, "geometry": { "type": "Point", "coordinates": [ 0.663133446145704, 52.77567518845612 ] } },
{ "type": "Feature", "properties": { "max_height": 13.257499694824219, "mean_height": 5.2416872978210449, "std_height": 5.1620397567749023, "count_pixels": 43, "percent_cover": 0.2906190862395242, "percent_above_0.1m": 62.790697674418603, "low_level_<0.5": 2.3255813953488373, "mid_level_0.5-2": 6.9767441860465116, "tall_2+": 53.488372093023251 }, "geometry": { "type": "Point", "coordinates": [ 0.663338628750983, 52.775670582729866 ] } },
{ "type": "Feature", "properties": { "max_height": 9.2900009155273438, "mean_height": 0.91398781538009644, "std_height": 2.2497217655181885, "count_pixels": 42, "percent_cover": 0.28386050283860503, "percent_above_0.1m": 21.428571428571427, "low_level_<0.5": 4.7619047619047619, "mid_level_0.5-2": 2.3809523809523809, "tall_2+": 14.285714285714285 }, "geometry": { "type": "Point", "coordinates": [ 0.663543811300178, 52.775665976649243 ] } },
{ "type": "Feature", "properties": { "max_height": 0.41249847412109375, "mean_height": 0.068929396569728851, "std_height": 0.11328870058059692, "count_pixels": 42, "percent_cover": 0.28386050283860503, "percent_above_0.1m": 28.571428571428569, "low_level_<0.5": 21.428571428571427, "mid_level_0.5-2": 0.0, "tall_2+": 0.0 }, "geometry": { "type": "Point", "coordinates": [ 0.663748993793284, 52.775661370214252 ] } },
{ "type": "Feature", "properties": { "max_height": 7.62939453125e-06, "mean_height": -5.9218633396085352e-05, "std_height": 0.00038157077506184578, "count_pixels": 42, "percent_cover": 0.28386050283860503, "percent_above_0.1m": 0.0, "low_level_<0.5": 0.0, "mid_level_0.5-2": 0.0, "tall_2+": 0.0 }, "geometry": { "type": "Point", "coordinates": [ 0.663954176230293, 52.77565676342487 ] } },
{ "type": "Feature", "properties": { "max_height": 10.285003662109375, "mean_height": 2.3451135158538818, "std_height": 3.5830228328704834, "count_pixels": 44, "percent_cover": 0.29737766964044338, "percent_above_0.1m": 43.18181818181818, "low_level_<0.5": 2.2727272727272729, "mid_level_0.5-2": 6.8181818181818175, "tall_2+": 31.818181818181817 }, "geometry": { "type": "Point", "coordinates": [ 0.661806334310531, 52.775812877722863 ] } },
{ "type": "Feature", "properties": { "max_height": 17.385002136230469, "mean_height": 5.9266877174377441, "std_height": 6.6924629211425781, "count_pixels": 43, "percent_cover": 0.2906190862395242, "percent_above_0.1m": 58.139534883720934, "low_level_<0.5": 0.0, "mid_level_0.5-2": 6.9767441860465116, "tall_2+": 51.162790697674424 }, "geometry": { "type": "Point", "coordinates": [ 0.662011517788034, 52.775808274279818 ] } },
{ "type": "Feature", "properties": { "max_height": 16.917503356933594, "mean_height": 4.5345239639282227, "std_height": 6.3305344581604004, "count_pixels": 42, "percent_cover": 0.28386050283860503, "percent_above_0.1m": 42.857142857142854, "low_level_<0.5": 2.3809523809523809, "mid_level_0.5-2": 0.0, "tall_2+": 40.476190476190474 }, "geometry": { "type": "Point", "coordinates": [ 0.662216701209477, 52.775803670482375 ] } },
{ "type": "Feature", "properties": { "max_height": 0.0, "mean_height": 0.0, "std_height": 0.0, "count_pixels": 42, "percent_cover": 0.28386050283860503, "percent_above_0.1m": 0.0, "low_level_<0.5": 0.0, "mid_level_0.5-2": 0.0, "tall_2+": 0.0 }, "geometry": { "type": "Point", "coordinates": [ 0.662421884574859, 52.77579906633057 ] } },
{ "type": "Feature", "properties": { "max_height": 0.0, "mean_height": 0.0, "std_height": 0.0, "count_pixels": 42, "percent_cover": 0.28386050283860503, "percent_above_0.1m": 0.0, "low_level_<0.5": 0.0, "mid_level_0.5-2": 0.0, "tall_2+": 0.0 }, "geometry": { "type": "Point", "coordinates": [ 0.662627067884167, 52.775794461824383 ] } },
{ "type": "Feature", "properties": { "max_height": 0.0, "mean_height": 0.0, "std_height": 0.0, "count_pixels": 40, "percent_cover": 0.27034333603676669, "percent_above_0.1m": 0.0, "low_level_<0.5": 0.0, "mid_level_0.5-2": 0.0, "tall_2+": 0.0 }, "geometry": { "type": "Point", "coordinates": [ 0.662832251137413, 52.775789856963812 ] } },
{ "type": "Feature", "properties": { "max_height": 0.0, "mean_height": 0.0, "std_height": 0.0, "count_pixels": 36, "percent_cover": 0.24330900243309003, "percent_above_0.1m": 0.0, "low_level_<0.5": 0.0, "mid_level_0.5-2": 0.0, "tall_2+": 0.0 }, "geometry": { "type": "Point", "coordinates": [ 0.663037434334576, 52.775785251748886 ] } },
{ "type": "Feature", "properties": { "max_height": 9.3899993896484375, "mean_height": 4.8456878662109375, "std_height": 3.1486742496490479, "count_pixels": 40, "percent_cover": 0.27034333603676669, "percent_above_0.1m": 87.5, "low_level_<0.5": 5.0, "mid_level_0.5-2": 10.0, "tall_2+": 72.5 }, "geometry": { "type": "Point", "coordinates": [ 0.663242617475662, 52.775780646179562 ] } },
{ "type": "Feature", "properties": { "max_height": 12.489997863769531, "mean_height": 3.1755497455596924, "std_height": 3.3105266094207764, "count_pixels": 41, "percent_cover": 0.27710191943768586, "percent_above_0.1m": 75.609756097560975, "low_level_<0.5": 0.0, "mid_level_0.5-2": 21.951219512195124, "tall_2+": 53.658536585365859 }, "geometry": { "type": "Point", "coordinates": [ 0.663447800560659, 52.775776040255849 ] } },
{ "type": "Feature", "properties": { "max_height": 6.2425003051757812, "mean_height": 1.1219637393951416, "std_height": 1.8595458269119263, "count_pixels": 42, "percent_cover": 0.28386050283860503, "percent_above_0.1m": 47.619047619047613, "low_level_<0.5": 7.1428571428571423, "mid_level_0.5-2": 9.5238095238095237, "tall_2+": 23.809523809523807 }, "geometry": { "type": "Point", "coordinates": [ 0.663652983589573, 52.775771433977781 ] } },
{ "type": "Feature", "properties": { "max_height": 1.029998779296875, "mean_height": 0.0245241429656744, "std_height": 0.15702874958515167, "count_pixels": 42, "percent_cover": 0.28386050283860503, "percent_above_0.1m": 2.3809523809523809, "low_level_<0.5": 0.0, "mid_level_0.5-2": 2.3809523809523809, "tall_2+": 0.0 }, "geometry": { "type": "Point", "coordinates": [ 0.663858166562392, 52.775766827345322 ] } },
{ "type": "Feature", "properties": { "max_height": 9.790008544921875, "mean_height": 1.2939379215240479, "std_height": 2.3372316360473633, "count_pixels": 40, "percent_cover": 0.27034333603676669, "percent_above_0.1m": 35.0, "low_level_<0.5": 0.0, "mid_level_0.5-2": 10.0, "tall_2+": 25.0 }, "geometry": { "type": "Point", "coordinates": [ 0.6619155028182, 52.775918336716899 ] } },
{ "type": "Feature", "properties": { "max_height": 17.294998168945312, "mean_height": 4.8535976409912109, "std_height": 6.273338794708252, "count_pixels": 41, "percent_cover": 0.27710191943768586, "percent_above_0.1m": 56.09756097560976, "low_level_<0.5": 7.3170731707317067, "mid_level_0.5-2": 4.8780487804878048, "tall_2+": 41.463414634146339 }, "geometry": { "type": "Point", "coordinates": [ 0.662120686775441, 52.775913733076393 ] } },
{ "type": "Feature", "properties": { "max_height": 13.277496337890625, "mean_height": 1.0787500143051147, "std_height": 3.1978054046630859, "count_pixels": 42, "percent_cover": 0.28386050283860503, "percent_above_0.1m": 11.904761904761903, "low_level_<0.5": 0.0, "mid_level_0.5-2": 0.0, "tall_2+": 11.904761904761903 }, "geometry": { "type": "Point", "coordinates": [ 0.662325870676616, 52.775909129081526 ] } },
{ "type": "Feature", "properties": { "max_height": 11.142501831054688, "mean_height": 0.78952372074127197, "std_height": 2.5888805389404297, "count_pixels": 42, "percent_cover": 0.28386050283860503, "percent_above_0.1m": 14.285714285714285, "low_level_<0.5": 2.3809523809523809, "mid_level_0.5-2": 4.7619047619047619, "tall_2+": 7.1428571428571423 }, "geometry": { "type": "Point", "coordinates": [ 0.662531054521732, 52.775904524732276 ] } },
{ "type": "Feature", "properties": { "max_height": 0.0, "mean_height": 0.0, "std_height": 0.0, "count_pixels": 42, "percent_cover": 0.28386050283860503, "percent_above_0.1m": 0.0, "low_level_<0.5": 0.0, "mid_level_0.5-2": 0.0, "tall_2+": 0.0 }, "geometry": { "type": "Point", "coordinates": [ 0.662736238310773, 52.775899920028621 ] } },
{ "type": "Feature", "properties": { "max_height": 0.0, "mean_height": 0.0, "std_height": 0.0, "count_pixels": 44, "percent_cover": 0.29737766964044338, "percent_above_0.1m": 0.0, "low_level_<0.5": 0.0, "mid_level_0.5-2": 0.0, "tall_2+": 0.0 }, "geometry": { "type": "Point", "coordinates": [ 0.662941422043743, 52.775895314970612 ] } },
{ "type": "Feature", "properties": { "max_height": 8.7249984741210938, "mean_height": 4.3424992561340332, "std_height": 2.1015880107879639, "count_pixels": 44, "percent_cover": 0.29737766964044338, "percent_above_0.1m": 93.181818181818173, "low_level_<0.5": 0.0, "mid_level_0.5-2": 11.363636363636363, "tall_2+": 81.818181818181827 }, "geometry": { "type": "Point", "coordinates": [ 0.663146605720633, 52.775890709558219 ] } },
{ "type": "Feature", "properties": { "max_height": 0.0, "mean_height": 0.0, "std_height": 0.0, "count_pixels": 44, "percent_cover": 0.29737766964044338, "percent_above_0.1m": 0.0, "low_level_<0.5": 0.0, "mid_level_0.5-2": 0.0, "tall_2+": 0.0 }, "geometry": { "type": "Point", "coordinates": [ 0.661819487368636, 52.776028399082939 ] } },
{ "type": "Feature", "properties": { "max_height": 0.11750030517578125, "mean_height": 0.014302453026175499, "std_height": 0.03215310350060463, "count_pixels": 43, "percent_cover": 0.2906190862395242, "percent_above_0.1m": 6.9767441860465116, "low_level_<0.5": 0.0, "mid_level_0.5-2": 0.0, "tall_2+": 0.0 }, "geometry": { "type": "Point", "coordinates": [ 0.662024671861679, 52.776023795599372 ] } },
{ "type": "Feature", "properties": { "max_height": 14.00250244140625, "mean_height": 7.1882739067077637, "std_height": 5.9853873252868652, "count_pixels": 42, "percent_cover": 0.28386050283860503, "percent_above_0.1m": 71.428571428571431, "low_level_<0.5": 2.3809523809523809, "mid_level_0.5-2": 7.1428571428571423, "tall_2+": 61.904761904761905 }, "geometry": { "type": "Point", "coordinates": [ 0.662229856298661, 52.776019191761449 ] } },
{ "type": "Feature", "properties": { "max_height": 13.717506408691406, "mean_height": 8.9561300277709961, "std_height": 4.0403828620910645, "count_pixels": 42, "percent_cover": 0.28386050283860503, "percent_above_0.1m": 100.0, "low_level_<0.5": 2.3809523809523809, "mid_level_0.5-2": 7.1428571428571423, "tall_2+": 90.476190476190482 }, "geometry": { "type": "Point", "coordinates": [ 0.662435040679574, 52.776014587569115 ] } },
{ "type": "Feature", "properties": { "max_height": 13.845001220703125, "mean_height": 4.9230360984802246, "std_height": 5.0584197044372559, "count_pixels": 42, "percent_cover": 0.28386050283860503, "percent_above_0.1m": 66.666666666666657, "low_level_<0.5": 4.7619047619047619, "mid_level_0.5-2": 7.1428571428571423, "tall_2+": 54.761904761904766 }, "geometry": { "type": "Point", "coordinates": [ 0.662640225004418, 52.776009983022412 ] } },
{ "type": "Feature", "properties": { "max_height": 3.3849945068359375, "mean_height": 0.099312208592891693, "std_height": 0.53406035900115967, "count_pixels": 40, "percent_cover": 0.27034333603676669, "percent_above_0.1m": 5.0, "low_level_<0.5": 0.0, "mid_level_0.5-2": 2.5, "tall_2+": 2.5 }, "geometry": { "type": "Point", "coordinates": [ 0.662845409273199, 52.776005378121326 ] } },
{ "type": "Feature", "properties": { "max_height": 9.9124984741210938, "mean_height": 4.2169437408447266, "std_height": 2.8667733669281006, "count_pixels": 36, "percent_cover": 0.24330900243309003, "percent_above_0.1m": 80.555555555555557, "low_level_<0.5": 0.0, "mid_level_0.5-2": 5.5555555555555554, "tall_2+": 75.0 }, "geometry": { "type": "Point", "coordinates": [ 0.663050593485895, 52.776000772865864 ] } },
{ "type": "Feature", "properties": { "max_height": 8.0124969482421875, "mean_height": 2.8211872577667236, "std_height": 2.8618273735046387, "count_pixels": 40, "percent_cover": 0.27034333603676669, "percent_above_0.1m": 67.5, "low_level_<0.5": 5.0, "mid_level_0.5-2": 12.5, "tall_2+": 47.5 }, "geometry": { "type": "Point", "coordinates": [ 0.663255777642512, 52.775996167256004 ] } },
{ "type": "Feature", "properties": { "max_height": 0.625, "mean_height": 0.06756126880645752, "std_height": 0.16441117227077484, "count_pixels": 41, "percent_cover": 0.27710191943768586, "percent_above_0.1m": 17.073170731707318, "low_level_<0.5": 4.8780487804878048, "mid_level_0.5-2": 7.3170731707317067, "tall_2+": 0.0 }, "geometry": { "type": "Point", "coordinates": [ 0.662133841440975, 52.776129254370332 ] } },
{ "type": "Feature", "properties": { "max_height": 11.447502136230469, "mean_height": 1.008215069770813, "std_height": 2.676548957824707, "count_pixels": 42, "percent_cover": 0.28386050283860503, "percent_above_0.1m": 16.666666666666664, "low_level_<0.5": 0.0, "mid_level_0.5-2": 0.0, "tall_2+": 16.666666666666664 }, "geometry": { "type": "Point", "coordinates": [ 0.662339026357692, 52.77612465033495 ] } },
{ "type": "Feature", "properties": { "max_height": 13.107498168945312, "mean_height": 3.9397623538970947, "std_height": 4.2213344573974609, "count_pixels": 42, "percent_cover": 0.28386050283860503, "percent_above_0.1m": 57.142857142857139, "low_level_<0.5": 2.3809523809523809, "mid_level_0.5-2": 4.7619047619047619, "tall_2+": 50.0 }, "geometry": { "type": "Point", "coordinates": [ 0.66254421121835, 52.776120045945177 ] } },
{ "type": "Feature", "properties": { "max_height": 8.084991455078125, "mean_height": 1.1510714292526245, "std_height": 2.3211395740509033, "count_pixels": 42, "percent_cover": 0.28386050283860503, "percent_above_0.1m": 26.190476190476193, "low_level_<0.5": 0.0, "mid_level_0.5-2": 0.0, "tall_2+": 21.428571428571427 }, "geometry": { "type": "Point", "coordinates": [ 0.662749396022935, 52.776115441201007 ] } },
{ "type": "Feature", "properties": { "max_height": 7.2325057983398438, "mean_height": 1.8817046880722046, "std_height": 2.3058345317840576, "count_pixels": 44, "percent_cover": 0.29737766964044338, "percent_above_0.1m": 63.636363636363633, "low_level_<0.5": 11.363636363636363, "mid_level_0.5-2": 9.0909090909090917, "tall_2+": 38.636363636363633 }, "geometry": { "type": "Point", "coordinates": [ 0.662954580771445, 52.776110836102475 ] } },
{ "type": "Feature", "properties": { "max_height": 7.475006103515625, "mean_height": 1.7604542970657349, "std_height": 1.912176251411438, "count_pixels": 44, "percent_cover": 0.29737766964044338, "percent_above_0.1m": 86.36363636363636, "low_level_<0.5": 15.909090909090908, "mid_level_0.5-2": 36.363636363636367, "tall_2+": 31.818181818181817 }, "geometry": { "type": "Point", "coordinates": [ 0.663159765463873, 52.776106230649553 ] } },
{ "type": "Feature", "properties": { "max_height": 11.147499084472656, "mean_height": 0.93724977970123291, "std_height": 2.366065502166748, "count_pixels": 40, "percent_cover": 0.27034333603676669, "percent_above_0.1m": 27.5, "low_level_<0.5": 2.5, "mid_level_0.5-2": 15.0, "tall_2+": 10.0 }, "geometry": { "type": "Point", "coordinates": [ 0.662858567577276, 52.776220899268068 ] } },
{ "type": "Feature", "properties": { "max_height": 16.604995727539062, "mean_height": 4.5468063354492188, "std_height": 5.519831657409668, "count_pixels": 36, "percent_cover": 0.24330900243309003, "percent_above_0.1m": 66.666666666666657, "low_level_<0.5": 8.3333333333333321, "mid_level_0.5-2": 13.888888888888889, "tall_2+": 44.444444444444443 }, "geometry": { "type": "Point", "coordinates": [ 0.663063752805515, 52.776216293972084 ] } }
]
}
