{
"type": "FeatureCollection",
"name": "cb1841f244ce_foliage",
"crs": { "type": "name", "properties": { "name": "urn:ogc:def:crs:OGC:1.3:CRS84" } },
"features": [
{ "type": "Feature", "properties": { "max_height": 10.239999771118164, "mean_height": 2.4698610305786133, "std_height": 3.3527975082397461, "count_pixels": 36, "percent_cover": 0.39582188015393077, "percent_above_0.1m": 58.333333333333336, "low_level_<0.5": 8.3333333333333321, "mid_level_0.5-2": 11.111111111111111, "tall_2+": 36.111111111111107 }, "geometry": { "type": "Point", "coordinates": [ 0.343193733152692, 52.583682292116258 ] } },
{ "type": "Feature", "properties": { "max_height": 3.6424999237060547, "mean_height": 0.7359999418258667, "std_height": 0.94126898050308228, "count_pixels": 40, "percent_cover": 0.43980208905992307, "percent_above_0.1m": 62.5, "low_level_<0.5": 20.0, "mid_level_0.5-2": 30.0, "tall_2+": 10.0 }, "geometry": { "type": "Point", "coordinates": [ 0.34339806968765, 52.583678248382853 ] } },
{ "type": "Feature", "properties": { "max_height": 0.14249992370605469, "mean_height": 0.016951218247413635, "std_height": 0.034608043730258942, "count_pixels": 41, "percent_cover": 0.45079714128642112, "percent_above_0.1m": 7.3170731707317067, "low_level_<0.5": 0.0, "mid_level_0.5-2": 0.0, "tall_2+": 0.0 }, "geometry": { "type": "Point", "coordinates": [ 0.34360240617389, 52.583674204297161 ] } },
{ "type": "Feature", "properties": { "max_height": 8.3524999618530273, "mean_height": 2.4055111408233643, "std_height": 2.3812668323516846, "count_pixels": 44, "percent_cover": 0.48378229796591538, "percent_above_0.1m": 65.909090909090907, "low_level_<0.5": 4.5454545454545459, "mid_level_0.5-2": 13.636363636363635, "tall_2+": 47.727272727272727 }, "geometry": { "type": "Point", "coordinates": [ 0.343097313482131, 52.583792103550913 ] } },
{ "type": "Feature", "properties": { "max_height": 9.1399993896484375, "mean_height": 2.566988468170166, "std_height": 3.201603889465332, "count_pixels": 44, "percent_cover": 0.48378229796591538, "percent_above_0.1m": 54.54545454545454, "low_level_<0.5": 4.5454545454545459, "mid_level_0.5-2": 4.5454545454545459, "tall_2+": 43.18181818181818 }, "geometry": { "type": "Point", "coordinates": [ 0.343301650543637, 52.58378805997588 ] } },
{ "type": "Feature", "properties": { "max_height": 0.024999856948852539, "mean_height": -0.0025000544264912605, "std_height": 0.0084047410637140274, "count_pixels": 43, "percent_cover": 0.47278724573941733, "percent_above_0.1m": 0.0, "low_level_<0.5": 0.0, "mid_level_0.5-2": 0.0, "tall_2+": 0.0 }, "geometry": { "type": "Point", "coordinates": [ 0.343505987556575, 52.583784016048497 ] } },
{ "type": "Feature", "properties": { "max_height": 0.0625, "mean_height": 0.007440467830747366, "std_height": 0.015309191308915615, "count_pixels": 42, "percent_cover": 0.46179219351291917, "percent_above_0.1m": 0.0, "low_level_<0.5": 0.0, "mid_level_0.5-2": 0.0, "tall_2+": 0.0 }, "geometry": { "type": "Point", "coordinates": [ 0.343710324520179, 52.583779971769161 ] } },
{ "type": "Feature", "properties": { "max_height": 8.7974987030029297, "mean_height": 2.7897915840148926, "std_height": 2.4685750007629395, "count_pixels": 36, "percent_cover": 0.39582188015393077, "percent_above_0.1m": 72.222222222222214, "low_level_<0.5": 0.0, "mid_level_0.5-2": 11.111111111111111, "tall_2+": 58.333333333333336 }, "geometry": { "type": "Point", "coordinates": [ 0.343205230888345, 52.583897871528499 ] } },
{ "type": "Feature", "properties": { "max_height": 9.3150005340576172, "mean_height": 2.6188125610351562, "std_height": 3.2155003547668457, "count_pixels": 40, "percent_cover": 0.43980208905992307, "percent_above_0.1m": 50.0, "low_level_<0.5": 0.0, "mid_level_0.5-2": 7.5, "tall_2+": 42.5 }, "geometry": { "type": "Point", "coordinates": [ 0.343409568424617, 52.58389382776064 ] } },
{ "type": "Feature", "properties": { "max_height": 0.032500028610229492, "mean_height": -0.0021951780654489994, "std_height": 0.0096461167559027672, "count_pixels": 41, "percent_cover": 0.45079714128642112, "percent_above_0.1m": 0.0, "low_level_<0.5": 0.0, "mid_level_0.5-2": 0.0, "tall_2+": 0.0 }, "geometry": { "type": "Point", "coordinates": [ 0.343613905912321, 52.583889783640402 ] } },
{ "type": "Feature", "properties": { "max_height": 0.10499989986419678, "mean_height": 0.0032737907022237778, "std_height": 0.016916165128350258, "count_pixels": 42, "percent_cover": 0.46179219351291917, "percent_above_0.1m": 2.3809523809523809, "low_level_<0.5": 0.0, "mid_level_0.5-2": 0.0, "tall_2+": 0.0 }, "geometry": { "type": "Point", "coordinates": [ 0.343818243351462, 52.583885739167805 ] } },
{ "type": "Feature", "properties": { "max_height": 10.507499694824219, "mean_height": 3.3461358547210693, "std_height": 3.9839589595794678, "count_pixels": 44, "percent_cover": 0.48378229796591538, "percent_above_0.1m": 52.272727272727273, "low_level_<0.5": 6.8181818181818175, "mid_level_0.5-2": 2.2727272727272729, "tall_2+": 43.18181818181818 }, "geometry": { "type": "Point", "coordinates": [ 0.343313148817234, 52.584003639404031 ] } },
{ "type": "Feature", "properties": { "max_height": 9.9650001525878906, "mean_height": 1.7136627435684204, "std_height": 3.1996057033538818, "count_pixels": 43, "percent_cover": 0.47278724573941733, "percent_above_0.1m": 34.883720930232556, "low_level_<0.5": 4.6511627906976747, "mid_level_0.5-2": 9.3023255813953494, "tall_2+": 20.930232558139537 }, "geometry": { "type": "Point", "coordinates": [ 0.343517486828145, 52.583999595444133 ] } },
{ "type": "Feature", "properties": { "max_height": 10.767499923706055, "mean_height": 0.60845232009887695, "std_height": 2.0341551303863525, "count_pixels": 42, "percent_cover": 0.46179219351291917, "percent_above_0.1m": 16.666666666666664, "low_level_<0.5": 7.1428571428571423, "mid_level_0.5-2": 0.0, "tall_2+": 9.5238095238095237 }, "geometry": { "type": "Point", "coordinates": [ 0.343721824790492, 52.583995551131885 ] } },
{ "type": "Feature", "properties": { "max_height": 2.4350001811981201, "mean_height": 0.75420719385147095, "std_height": 0.67300504446029663, "count_pixels": 41, "percent_cover": 0.45079714128642112, "percent_above_0.1m": 78.048780487804876, "low_level_<0.5": 14.634146341463413, "mid_level_0.5-2": 51.219512195121951, "tall_2+": 7.3170731707317067 }, "geometry": { "type": "Point", "coordinates": [ 0.342808051521276, 52.584121537514775 ] } },
{ "type": "Feature", "properties": { "max_height": 5.869999885559082, "mean_height": 2.3742499351501465, "std_height": 1.8730523586273193, "count_pixels": 40, "percent_cover": 0.43980208905992307, "percent_above_0.1m": 87.5, "low_level_<0.5": 10.0, "mid_level_0.5-2": 25.0, "tall_2+": 52.5 }, "geometry": { "type": "Point", "coordinates": [ 0.343012390152524, 52.584117494419964 ] } },
{ "type": "Feature", "properties": { "max_height": 10.642499923706055, "mean_height": 5.7954163551330566, "std_height": 2.950594425201416, "count_pixels": 36, "percent_cover": 0.39582188015393077, "percent_above_0.1m": 97.222222222222214, "low_level_<0.5": 2.7777777777777777, "mid_level_0.5-2": 5.5555555555555554, "tall_2+": 88.888888888888886 }, "geometry": { "type": "Point", "coordinates": [ 0.343216728735214, 52.584113450972779 ] } },
{ "type": "Feature", "properties": { "max_height": 7.7149991989135742, "mean_height": 2.4883122444152832, "std_height": 2.6708805561065674, "count_pixels": 40, "percent_cover": 0.43980208905992307, "percent_above_0.1m": 67.5, "low_level_<0.5": 7.5, "mid_level_0.5-2": 15.0, "tall_2+": 42.5 }, "geometry": { "type": "Point", "coordinates": [ 0.343421067269343, 52.584109407173223 ] } },
{ "type": "Feature", "properties": { "max_height": 16.124998092651367, "mean_height": 2.780975341796875, "std_height": 4.6254887580871582, "count_pixels": 41, "percent_cover": 0.45079714128642112, "percent_above_0.1m": 58.536585365853654, "low_level_<0.5": 12.195121951219512, "mid_level_0.5-2": 0.0, "tall_2+": 34.146341463414636 }, "geometry": { "type": "Point", "coordinates": [ 0.343625405754904, 52.58410536302128 ] } },
{ "type": "Feature", "properties": { "max_height": 17.0625, "mean_height": 10.364583015441895, "std_height": 3.7517499923706055, "count_pixels": 42, "percent_cover": 0.46179219351291917, "percent_above_0.1m": 100.0, "low_level_<0.5": 0.0, "mid_level_0.5-2": 0.0, "tall_2+": 100.0 }, "geometry": { "type": "Point", "coordinates": [ 0.343829744191893, 52.584101318517 ] } },
{ "type": "Feature", "properties": { "max_height": 1.934999942779541, "mean_height": 0.26499992609024048, "std_height": 0.4289776086807251, "count_pixels": 43, "percent_cover": 0.47278724573941733, "percent_above_0.1m": 39.534883720930232, "low_level_<0.5": 13.953488372093023, "mid_level_0.5-2": 23.255813953488371, "tall_2+": 0.0 }, "geometry": { "type": "Point", "coordinates": [ 0.342915969072661, 52.584227305753679 ] } },
{ "type": "Feature", "properties": { "max_height": 4.7999997138977051, "mean_height": 0.66505676507949829, "std_height": 1.2877590656280518, "count_pixels": 44, "percent_cover": 0.48378229796591538, "percent_above_0.1m": 34.090909090909086, "low_level_<0.5": 4.5454545454545459, "mid_level_0.5-2": 18.181818181818183, "tall_2+": 11.363636363636363 }, "geometry": { "type": "Point", "coordinates": [ 0.343120308178561, 52.584223262466821 ] } },
{ "type": "Feature", "properties": { "max_height": 0.077500104904174805, "mean_height": 0.00096588511951267719, "std_height": 0.014666903764009476, "count_pixels": 44, "percent_cover": 0.48378229796591538, "percent_above_0.1m": 0.0, "low_level_<0.5": 0.0, "mid_level_0.5-2": 0.0, "tall_2+": 0.0 }, "geometry": { "type": "Point", "coordinates": [ 0.343324647235907, 52.584219218827613 ] } },
{ "type": "Feature", "properties": { "max_height": 2.6425001621246338, "mean_height": 0.36941853165626526, "std_height": 0.76581043004989624, "count_pixels": 43, "percent_cover": 0.47278724573941733, "percent_above_0.1m": 23.255813953488371, "low_level_<0.5": 0.0, "mid_level_0.5-2": 13.953488372093023, "tall_2+": 9.3023255813953494 }, "geometry": { "type": "Point", "coordinates": [ 0.343528986244684, 52.584215174836025 ] } },
{ "type": "Feature", "properties": { "max_height": 19.122499465942383, "mean_height": 6.6380352973937988, "std_height": 5.8327455520629883, "count_pixels": 42, "percent_cover": 0.46179219351291917, "percent_above_0.1m": 71.428571428571431, "low_level_<0.5": 0.0, "mid_level_0.5-2": 4.7619047619047619, "tall_2+": 66.666666666666657 }, "geometry": { "type": "Point", "coordinates": [ 0.343733325204891, 52.584211130492086 ] } },
{ "type": "Feature", "properties": { "max_height": 19.134998321533203, "mean_height": 11.999760627746582, "std_height": 4.330718994140625, "count_pixels": 42, "percent_cover": 0.46179219351291917, "percent_above_0.1m": 97.61904761904762, "low_level_<0.5": 0.0, "mid_level_0.5-2": 0.0, "tall_2+": 97.61904761904762 }, "geometry": { "type": "Point", "coordinates": [ 0.34393766411653, 52.584207085795775 ] } },
{ "type": "Feature", "properties": { "max_height": 8.4624996185302734, "mean_height": 1.6974390745162964, "std_height": 2.0653343200683594, "count_pixels": 41, "percent_cover": 0.45079714128642112, "percent_above_0.1m": 58.536585365853654, "low_level_<0.5": 2.4390243902439024, "mid_level_0.5-2": 14.634146341463413, "tall_2+": 39.024390243902438 }, "geometry": { "type": "Point", "coordinates": [ 0.342819547518154, 52.58433711701273 ] } },
{ "type": "Feature", "properties": { "max_height": 2.3774995803833008, "mean_height": 0.58087486028671265, "std_height": 0.70109021663665771, "count_pixels": 40, "percent_cover": 0.43980208905992307, "percent_above_0.1m": 50.0, "low_level_<0.5": 7.5, "mid_level_0.5-2": 40.0, "tall_2+": 2.5 }, "geometry": { "type": "Point", "coordinates": [ 0.343023887147271, 52.584333073886221 ] } },
{ "type": "Feature", "properties": { "max_height": 0.0099999904632568359, "mean_height": -0.00069450004957616329, "std_height": 0.0038011132273823023, "count_pixels": 36, "percent_cover": 0.39582188015393077, "percent_above_0.1m": 0.0, "low_level_<0.5": 0.0, "mid_level_0.5-2": 0.0, "tall_2+": 0.0 }, "geometry": { "type": "Point", "coordinates": [ 0.343228226727831, 52.584329030407346 ] } },
{ "type": "Feature", "properties": { "max_height": 0.004999995231628418, "mean_height": -0.00087503495160490274, "std_height": 0.0028804158791899681, "count_pixels": 40, "percent_cover": 0.43980208905992307, "percent_above_0.1m": 0.0, "low_level_<0.5": 0.0, "mid_level_0.5-2": 0.0, "tall_2+": 0.0 }, "geometry": { "type": "Point", "coordinates": [ 0.343432566259831, 52.584324986576107 ] } },
{ "type": "Feature", "properties": { "max_height": 3.8925001621246338, "mean_height": 0.16743901371955872, "std_height": 0.72673040628433228, "count_pixels": 41, "percent_cover": 0.45079714128642112, "percent_above_0.1m": 7.3170731707317067, "low_level_<0.5": 2.4390243902439024, "mid_level_0.5-2": 0.0, "tall_2+": 4.8780487804878048 }, "geometry": { "type": "Point", "coordinates": [ 0.34363690574326, 52.584320942392509 ] } },
{ "type": "Feature", "properties": { "max_height": 17.297500610351562, "mean_height": 6.7798213958740234, "std_height": 6.7361392974853516, "count_pixels": 42, "percent_cover": 0.46179219351291917, "percent_above_0.1m": 66.666666666666657, "low_level_<0.5": 4.7619047619047619, "mid_level_0.5-2": 4.7619047619047619, "tall_2+": 57.142857142857139 }, "geometry": { "type": "Point", "coordinates": [ 0.34384124517812, 52.584316897856539 ] } },
{ "type": "Feature", "properties": { "max_height": 19.732500076293945, "mean_height": 12.290654182434082, "std_height": 5.3288469314575195, "count_pixels": 42, "percent_cover": 0.46179219351291917, "percent_above_0.1m": 100.0, "low_level_<0.5": 7.1428571428571423, "mid_level_0.5-2": 2.3809523809523809, "tall_2+": 90.476190476190482 }, "geometry": { "type": "Point", "coordinates": [ 0.344045584564404, 52.584312852968203 ] } },
{ "type": "Feature", "properties": { "max_height": 4.5749998092651367, "mean_height": 1.1822092533111572, "std_height": 1.2629992961883545, "count_pixels": 43, "percent_cover": 0.47278724573941733, "percent_above_0.1m": 58.139534883720934, "low_level_<0.5": 4.6511627906976747, "mid_level_0.5-2": 18.604651162790699, "tall_2+": 32.558139534883722 }, "geometry": { "type": "Point", "coordinates": [ 0.342927465641338, 52.584442885230949 ] } },
{ "type": "Feature", "properties": { "max_height": 2.7149999141693115, "mean_height": 0.55244314670562744, "std_height": 0.84198850393295288, "count_pixels": 44, "percent_cover": 0.48378229796591538, "percent_above_0.1m": 40.909090909090914, "low_level_<0.5": 9.0909090909090917, "mid_level_0.5-2": 18.181818181818183, "tall_2+": 11.363636363636363 }, "geometry": { "type": "Point", "coordinates": [ 0.343131805745116, 52.584438841912423 ] } },
{ "type": "Feature", "properties": { "max_height": 0.0049998760223388672, "mean_height": -0.00073867221362888813, "std_height": 0.002695722971111536, "count_pixels": 44, "percent_cover": 0.48378229796591538, "percent_above_0.1m": 0.0, "low_level_<0.5": 0.0, "mid_level_0.5-2": 0.0, "tall_2+": 0.0 }, "geometry": { "type": "Point", "coordinates": [ 0.343336145800337, 52.584434798241517 ] } },
{ "type": "Feature", "properties": { "max_height": 5.6649999618530273, "mean_height": 0.49697676301002502, "std_height": 1.2297202348709106, "count_pixels": 43, "percent_cover": 0.47278724573941733, "percent_above_0.1m": 23.255813953488371, "low_level_<0.5": 4.6511627906976747, "mid_level_0.5-2": 9.3023255813953494, "tall_2+": 9.3023255813953494 }, "geometry": { "type": "Point", "coordinates": [ 0.343540485806988, 52.584430754218246 ] } },
{ "type": "Feature", "properties": { "max_height": 6.3024988174438477, "mean_height": 0.77244043350219727, "std_height": 1.6558226346969604, "count_pixels": 42, "percent_cover": 0.46179219351291917, "percent_above_0.1m": 23.809523809523807, "low_level_<0.5": 2.3809523809523809, "mid_level_0.5-2": 4.7619047619047619, "tall_2+": 16.666666666666664 }, "geometry": { "type": "Point", "coordinates": [ 0.343744825765075, 52.584426709842617 ] } },
{ "type": "Feature", "properties": { "max_height": 18.707498550415039, "mean_height": 10.270833015441895, "std_height": 5.368077278137207, "count_pixels": 42, "percent_cover": 0.46179219351291917, "percent_above_0.1m": 92.857142857142861, "low_level_<0.5": 0.0, "mid_level_0.5-2": 4.7619047619047619, "tall_2+": 88.095238095238088 }, "geometry": { "type": "Point", "coordinates": [ 0.343949165674586, 52.584422665114609 ] } },
{ "type": "Feature", "properties": { "max_height": 14.8125, "mean_height": 5.4932737350463867, "std_height": 4.8570132255554199, "count_pixels": 42, "percent_cover": 0.46179219351291917, "percent_above_0.1m": 97.61904761904762, "low_level_<0.5": 14.285714285714285, "mid_level_0.5-2": 23.809523809523807, "tall_2+": 59.523809523809526 }, "geometry": { "type": "Point", "coordinates": [ 0.344153505535519, 52.584418620034249 ] } },
{ "type": "Feature", "properties": { "max_height": 4.6800003051757812, "mean_height": 1.1224373579025269, "std_height": 1.4345885515213013, "count_pixels": 40, "percent_cover": 0.43980208905992307, "percent_above_0.1m": 52.5, "low_level_<0.5": 10.0, "mid_level_0.5-2": 15.0, "tall_2+": 27.5 }, "geometry": { "type": "Point", "coordinates": [ 0.343035384287756, 52.584548653342821 ] } },
{ "type": "Feature", "properties": { "max_height": 2.6124997138977051, "mean_height": 0.67013877630233765, "std_height": 0.95345449447631836, "count_pixels": 36, "percent_cover": 0.39582188015393077, "percent_above_0.1m": 47.222222222222221, "low_level_<0.5": 2.7777777777777777, "mid_level_0.5-2": 22.222222222222221, "tall_2+": 16.666666666666664 }, "geometry": { "type": "Point", "coordinates": [ 0.3432397248662, 52.584544609832264 ] } },
{ "type": "Feature", "properties": { "max_height": 3.7749998569488525, "mean_height": 0.11124996840953827, "std_height": 0.59456604719161987, "count_pixels": 40, "percent_cover": 0.43980208905992307, "percent_above_0.1m": 5.0, "low_level_<0.5": 0.0, "mid_level_0.5-2": 2.5, "tall_2+": 2.5 }, "geometry": { "type": "Point", "coordinates": [ 0.343444065396083, 52.584540565969334 ] } },
{ "type": "Feature", "properties": { "max_height": 0.86250019073486328, "mean_height": 0.047499995678663254, "std_height": 0.15250353515148163, "count_pixels": 41, "percent_cover": 0.45079714128642112, "percent_above_0.1m": 12.195121951219512, "low_level_<0.5": 9.7560975609756095, "mid_level_0.5-2": 2.4390243902439024, "tall_2+": 0.0 }, "geometry": { "type": "Point", "coordinates": [ 0.343648405877392, 52.584536521754018 ] } },
{ "type": "Feature", "properties": { "max_height": 0.96749997138977051, "mean_height": 0.23249991238117218, "std_height": 0.25242692232131958, "count_pixels": 42, "percent_cover": 0.46179219351291917, "percent_above_0.1m": 57.142857142857139, "low_level_<0.5": 38.095238095238095, "mid_level_0.5-2": 16.666666666666664, "tall_2+": 0.0 }, "geometry": { "type": "Point", "coordinates": [ 0.343852746310133, 52.584532477186364 ] } },
{ "type": "Feature", "properties": { "max_height": 16.340000152587891, "mean_height": 6.7844629287719727, "std_height": 4.747230052947998, "count_pixels": 42, "percent_cover": 0.46179219351291917, "percent_above_0.1m": 85.714285714285708, "low_level_<0.5": 0.0, "mid_level_0.5-2": 9.5238095238095237, "tall_2+": 76.19047619047619 }, "geometry": { "type": "Point", "coordinates": [ 0.344057086694299, 52.584528432266346 ] } },
{ "type": "Feature", "properties": { "max_height": 14.200000762939453, "mean_height": 5.4838685989379883, "std_height": 5.125739574432373, "count_pixels": 42, "percent_cover": 0.46179219351291917, "percent_above_0.1m": 100.0, "low_level_<0.5": 9.5238095238095237, "mid_level_0.5-2": 33.333333333333329, "tall_2+": 57.142857142857139 }, "geometry": { "type": "Point", "coordinates": [ 0.344261427029881, 52.584524386993948 ] } },
{ "type": "Feature", "properties": { "max_height": 2.2574999332427979, "mean_height": 0.38028401136398315, "std_height": 0.67800217866897583, "count_pixels": 44, "percent_cover": 0.48378229796591538, "percent_above_0.1m": 31.818181818181817, "low_level_<0.5": 2.2727272727272729, "mid_level_0.5-2": 18.181818181818183, "tall_2+": 9.0909090909090917 }, "geometry": { "type": "Point", "coordinates": [ 0.343347644510525, 52.584650377645758 ] } },
{ "type": "Feature", "properties": { "max_height": 0.0025000572204589844, "mean_height": -0.00087216286920011044, "std_height": 0.0024638862814754248, "count_pixels": 43, "percent_cover": 0.47278724573941733, "percent_above_0.1m": 0.0, "low_level_<0.5": 0.0, "mid_level_0.5-2": 0.0, "tall_2+": 0.0 }, "geometry": { "type": "Point", "coordinates": [ 0.343551985515071, 52.58464633359079 ] } },
{ "type": "Feature", "properties": { "max_height": 1.4900000095367432, "mean_height": 0.31749996542930603, "std_height": 0.39282512664794922, "count_pixels": 42, "percent_cover": 0.46179219351291917, "percent_above_0.1m": 50.0, "low_level_<0.5": 14.285714285714285, "mid_level_0.5-2": 33.333333333333329, "tall_2+": 0.0 }, "geometry": { "type": "Point", "coordinates": [ 0.343756326471042, 52.584642289183456 ] } },
{ "type": "Feature", "properties": { "max_height": 11.73499870300293, "mean_height": 1.4202377796173096, "std_height": 3.1274745464324951, "count_pixels": 42, "percent_cover": 0.46179219351291917, "percent_above_0.1m": 23.809523809523807, "low_level_<0.5": 0.0, "mid_level_0.5-2": 2.3809523809523809, "tall_2+": 19.047619047619047 }, "geometry": { "type": "Point", "coordinates": [ 0.343960667378438, 52.584638244423786 ] } },
{ "type": "Feature", "properties": { "max_height": 14.667499542236328, "mean_height": 9.9914884567260742, "std_height": 3.3755867481231689, "count_pixels": 42, "percent_cover": 0.46179219351291917, "percent_above_0.1m": 97.61904761904762, "low_level_<0.5": 0.0, "mid_level_0.5-2": 2.3809523809523809, "tall_2+": 95.238095238095227 }, "geometry": { "type": "Point", "coordinates": [ 0.344165008237256, 52.584634199311715 ] } },
{ "type": "Feature", "properties": { "max_height": 13.704999923706055, "mean_height": 3.1193292140960693, "std_height": 4.3101696968078613, "count_pixels": 41, "percent_cover": 0.45079714128642112, "percent_above_0.1m": 92.682926829268297, "low_level_<0.5": 4.8780487804878048, "mid_level_0.5-2": 51.219512195121951, "tall_2+": 31.707317073170731 }, "geometry": { "type": "Point", "coordinates": [ 0.344369349047497, 52.584630153847279 ] } },
{ "type": "Feature", "properties": { "max_height": 2.8350000381469727, "mean_height": 0.58041661977767944, "std_height": 0.90669357776641846, "count_pixels": 36, "percent_cover": 0.39582188015393077, "percent_above_0.1m": 44.444444444444443, "low_level_<0.5": 11.111111111111111, "mid_level_0.5-2": 16.666666666666664, "tall_2+": 13.888888888888889 }, "geometry": { "type": "Point", "coordinates": [ 0.343251223150325, 52.584760189247504 ] } },
{ "type": "Feature", "properties": { "max_height": 1.8799998760223389, "mean_height": 0.63924992084503174, "std_height": 0.70718991756439209, "count_pixels": 40, "percent_cover": 0.43980208905992307, "percent_above_0.1m": 57.5, "low_level_<0.5": 10.0, "mid_level_0.5-2": 45.0, "tall_2+": 0.0 }, "geometry": { "type": "Point", "coordinates": [ 0.343455564678103, 52.584756145352884 ] } },
{ "type": "Feature", "properties": { "max_height": 0.072499752044677734, "mean_height": 0.0047560553066432476, "std_height": 0.015329731628298759, "count_pixels": 41, "percent_cover": 0.45079714128642112, "percent_above_0.1m": 0.0, "low_level_<0.5": 0.0, "mid_level_0.5-2": 0.0, "tall_2+": 0.0 }, "geometry": { "type": "Point", "coordinates": [ 0.343659906157306, 52.584752101105906 ] } },
{ "type": "Feature", "properties": { "max_height": 0.01250004768371582, "mean_height": 0.00023804392549209297, "std_height": 0.0036924108862876892, "count_pixels": 42, "percent_cover": 0.46179219351291917, "percent_above_0.1m": 0.0, "low_level_<0.5": 0.0, "mid_level_0.5-2": 0.0, "tall_2+": 0.0 }, "geometry": { "type": "Point", "coordinates": [ 0.343864247587938, 52.584748056506548 ] } },
{ "type": "Feature", "properties": { "max_height": 2.0824997425079346, "mean_height": 0.044940385967493057, "std_height": 0.31834599375724792, "count_pixels": 42, "percent_cover": 0.46179219351291917, "percent_above_0.1m": 2.3809523809523809, "low_level_<0.5": 0.0, "mid_level_0.5-2": 0.0, "tall_2+": 2.3809523809523809 }, "geometry": { "type": "Point", "coordinates": [ 0.344068588969998, 52.584744011554818 ] } },
{ "type": "Feature", "properties": { "max_height": 7.6400003433227539, "mean_height": 0.2586309015750885, "std_height": 1.1636015176773071, "count_pixels": 42, "percent_cover": 0.46179219351291917, "percent_above_0.1m": 21.428571428571427, "low_level_<0.5": 16.666666666666664, "mid_level_0.5-2": 2.3809523809523809, "tall_2+": 2.3809523809523809 }, "geometry": { "type": "Point", "coordinates": [ 0.344272930303473, 52.584739966250737 ] } },
{ "type": "Feature", "properties": { "max_height": 2.9074997901916504, "mean_height": 0.53676128387451172, "std_height": 0.82938665151596069, "count_pixels": 44, "percent_cover": 0.48378229796591538, "percent_above_0.1m": 38.636363636363633, "low_level_<0.5": 2.2727272727272729, "mid_level_0.5-2": 25.0, "tall_2+": 6.8181818181818175 }, "geometry": { "type": "Point", "coordinates": [ 0.343359143366482, 52.5848659570403 ] } },
{ "type": "Feature", "properties": { "max_height": 2.0275001525878906, "mean_height": 0.4040696918964386, "std_height": 0.63494873046875, "count_pixels": 43, "percent_cover": 0.47278724573941733, "percent_above_0.1m": 39.534883720930232, "low_level_<0.5": 6.9767441860465116, "mid_level_0.5-2": 25.581395348837212, "tall_2+": 2.3255813953488373 }, "geometry": { "type": "Point", "coordinates": [ 0.343563485368922, 52.584861912953649 ] } },
{ "type": "Feature", "properties": { "max_height": 0.23249983787536621, "mean_height": 0.013392811641097069, "std_height": 0.048577431589365005, "count_pixels": 42, "percent_cover": 0.46179219351291917, "percent_above_0.1m": 7.1428571428571423, "low_level_<0.5": 7.1428571428571423, "mid_level_0.5-2": 0.0, "tall_2+": 0.0 }, "geometry": { "type": "Point", "coordinates": [ 0.343767827322794, 52.584857868514646 ] } },
{ "type": "Feature", "properties": { "max_height": 0.017499923706054688, "mean_height": 0.0008928293245844543, "std_height": 0.0054505825974047184, "count_pixels": 42, "percent_cover": 0.46179219351291917, "percent_above_0.1m": 0.0, "low_level_<0.5": 0.0, "mid_level_0.5-2": 0.0, "tall_2+": 0.0 }, "geometry": { "type": "Point", "coordinates": [ 0.343972169228093, 52.584853823723257 ] } },
{ "type": "Feature", "properties": { "max_height": 0.12249994277954102, "mean_height": -0.00053578900406137109, "std_height": 0.020977145060896873, "count_pixels": 42, "percent_cover": 0.46179219351291917, "percent_above_0.1m": 2.3809523809523809, "low_level_<0.5": 0.0, "mid_level_0.5-2": 0.0, "tall_2+": 0.0 }, "geometry": { "type": "Point", "coordinates": [ 0.344176511084808, 52.584849778579489 ] } },
{ "type": "Feature", "properties": { "max_height": 0.82500004768371582, "mean_height": 0.10567068308591843, "std_height": 0.20032979547977448, "count_pixels": 41, "percent_cover": 0.45079714128642112, "percent_above_0.1m": 24.390243902439025, "low_level_<0.5": 14.634146341463413, "mid_level_0.5-2": 9.7560975609756095, "tall_2+": 0.0 }, "geometry": { "type": "Point", "coordinates": [ 0.344380852892946, 52.584845733083377 ] } },
{ "type": "Feature", "properties": { "max_height": 2.2049999237060547, "mean_height": 0.91149985790252686, "std_height": 0.67491477727890015, "count_pixels": 40, "percent_cover": 0.43980208905992307, "percent_above_0.1m": 77.5, "low_level_<0.5": 7.5, "mid_level_0.5-2": 62.5, "tall_2+": 5.0 }, "geometry": { "type": "Point", "coordinates": [ 0.344585194652489, 52.584841687234885 ] } },
{ "type": "Feature", "properties": { "max_height": 4.2950000762939453, "mean_height": 0.68443739414215088, "std_height": 1.1227344274520874, "count_pixels": 40, "percent_cover": 0.43980208905992307, "percent_above_0.1m": 35.0, "low_level_<0.5": 2.5, "mid_level_0.5-2": 17.5, "tall_2+": 15.0 }, "geometry": { "type": "Point", "coordinates": [ 0.343467064105887, 52.584971724726763 ] } },
{ "type": "Feature", "properties": { "max_height": 2.3874995708465576, "mean_height": 0.56152433156967163, "std_height": 0.76159000396728516, "count_pixels": 41, "percent_cover": 0.45079714128642112, "percent_above_0.1m": 46.341463414634148, "low_level_<0.5": 9.7560975609756095, "mid_level_0.5-2": 31.707317073170731, "tall_2+": 4.8780487804878048 }, "geometry": { "type": "Point", "coordinates": [ 0.343671406583002, 52.584967680448081 ] } },
{ "type": "Feature", "properties": { "max_height": 0.20499992370605469, "mean_height": 0.0082142101600766182, "std_height": 0.037202328443527222, "count_pixels": 42, "percent_cover": 0.46179219351291917, "percent_above_0.1m": 4.7619047619047619, "low_level_<0.5": 2.3809523809523809, "mid_level_0.5-2": 0.0, "tall_2+": 0.0 }, "geometry": { "type": "Point", "coordinates": [ 0.343875749011541, 52.58496363581704 ] } },
{ "type": "Feature", "properties": { "max_height": 0.47500002384185791, "mean_height": 0.019583256915211678, "std_height": 0.077712684869766235, "count_pixels": 42, "percent_cover": 0.46179219351291917, "percent_above_0.1m": 4.7619047619047619, "low_level_<0.5": 4.7619047619047619, "mid_level_0.5-2": 0.0, "tall_2+": 0.0 }, "geometry": { "type": "Point", "coordinates": [ 0.344080091391504, 52.58495959083362 ] } },
{ "type": "Feature", "properties": { "max_height": 0.024999856948852539, "mean_height": 0.00035708007635548711, "std_height": 0.0089071420952677727, "count_pixels": 42, "percent_cover": 0.46179219351291917, "percent_above_0.1m": 0.0, "low_level_<0.5": 0.0, "mid_level_0.5-2": 0.0, "tall_2+": 0.0 }, "geometry": { "type": "Point", "coordinates": [ 0.344284433722883, 52.584955545497827 ] } },
{ "type": "Feature", "properties": { "max_height": 0.0099999904632568359, "mean_height": -0.00034890617826022208, "std_height": 0.006137507501989603, "count_pixels": 43, "percent_cover": 0.47278724573941733, "percent_above_0.1m": 0.0, "low_level_<0.5": 0.0, "mid_level_0.5-2": 0.0, "tall_2+": 0.0 }, "geometry": { "type": "Point", "coordinates": [ 0.344488776005676, 52.584951499809677 ] } },
{ "type": "Feature", "properties": { "max_height": 0.4999997615814209, "mean_height": 0.019886255264282227, "std_height": 0.077699422836303711, "count_pixels": 44, "percent_cover": 0.48378229796591538, "percent_above_0.1m": 4.5454545454545459, "low_level_<0.5": 2.2727272727272729, "mid_level_0.5-2": 0.0, "tall_2+": 0.0 }, "geometry": { "type": "Point", "coordinates": [ 0.344693118239882, 52.584947453769111 ] } },
{ "type": "Feature", "properties": { "max_height": 2.372499942779541, "mean_height": 0.72244036197662354, "std_height": 0.80106580257415771, "count_pixels": 42, "percent_cover": 0.46179219351291917, "percent_above_0.1m": 64.285714285714292, "low_level_<0.5": 16.666666666666664, "mid_level_0.5-2": 33.333333333333329, "tall_2+": 11.904761904761903 }, "geometry": { "type": "Point", "coordinates": [ 0.343779328320339, 52.585073447836159 ] } },
{ "type": "Feature", "properties": { "max_height": 0.36750006675720215, "mean_height": 0.011071383953094482, "std_height": 0.057196792215108871, "count_pixels": 42, "percent_cover": 0.46179219351291917, "percent_above_0.1m": 2.3809523809523809, "low_level_<0.5": 2.3809523809523809, "mid_level_0.5-2": 0.0, "tall_2+": 0.0 }, "geometry": { "type": "Point", "coordinates": [ 0.343983671223549, 52.585069403013073 ] } },
{ "type": "Feature", "properties": { "max_height": 0.012499809265136719, "mean_height": -0.0053572030737996101, "std_height": 0.0082116387784481049, "count_pixels": 42, "percent_cover": 0.46179219351291917, "percent_above_0.1m": 0.0, "low_level_<0.5": 0.0, "mid_level_0.5-2": 0.0, "tall_2+": 0.0 }, "geometry": { "type": "Point", "coordinates": [ 0.344188014078174, 52.585065357837614 ] } },
{ "type": "Feature", "properties": { "max_height": 0.30250000953674316, "mean_height": 0.00432923948392272, "std_height": 0.047556217759847641, "count_pixels": 41, "percent_cover": 0.45079714128642112, "percent_above_0.1m": 2.4390243902439024, "low_level_<0.5": 2.4390243902439024, "mid_level_0.5-2": 0.0, "tall_2+": 0.0 }, "geometry": { "type": "Point", "coordinates": [ 0.344392356884222, 52.58506131230979 ] } },
{ "type": "Feature", "properties": { "max_height": 1.932499885559082, "mean_height": 0.21837489306926727, "std_height": 0.52296912670135498, "count_pixels": 40, "percent_cover": 0.43980208905992307, "percent_above_0.1m": 17.5, "low_level_<0.5": 2.5, "mid_level_0.5-2": 15.0, "tall_2+": 0.0 }, "geometry": { "type": "Point", "coordinates": [ 0.344596699641674, 52.585057266429587 ] } },
{ "type": "Feature", "properties": { "max_height": 1.625, "mean_height": 0.38437491655349731, "std_height": 0.55470442771911621, "count_pixels": 36, "percent_cover": 0.39582188015393077, "percent_above_0.1m": 38.888888888888893, "low_level_<0.5": 5.5555555555555554, "mid_level_0.5-2": 33.333333333333329, "tall_2+": 0.0 }, "geometry": { "type": "Point", "coordinates": [ 0.34480104235054, 52.585053220196997 ] } },
{ "type": "Feature", "properties": { "max_height": 2.0774998664855957, "mean_height": 0.39101183414459229, "std_height": 0.6281965970993042, "count_pixels": 42, "percent_cover": 0.46179219351291917, "percent_above_0.1m": 45.238095238095241, "low_level_<0.5": 4.7619047619047619, "mid_level_0.5-2": 23.809523809523807, "tall_2+": 2.3809523809523809 }, "geometry": { "type": "Point", "coordinates": [ 0.34388725058094, 52.585179215117854 ] } },
{ "type": "Feature", "properties": { "max_height": 2.0800001621246338, "mean_height": 0.54749995470046997, "std_height": 0.73210865259170532, "count_pixels": 42, "percent_cover": 0.46179219351291917, "percent_above_0.1m": 45.238095238095241, "low_level_<0.5": 7.1428571428571423, "mid_level_0.5-2": 28.571428571428569, "tall_2+": 4.7619047619047619 }, "geometry": { "type": "Point", "coordinates": [ 0.34409159395882, 52.585175170102751 ] } },
{ "type": "Feature", "properties": { "max_height": 2.4149999618530273, "mean_height": 0.62732136249542236, "std_height": 0.84313356876373291, "count_pixels": 42, "percent_cover": 0.46179219351291917, "percent_above_0.1m": 42.857142857142854, "low_level_<0.5": 4.7619047619047619, "mid_level_0.5-2": 26.190476190476193, "tall_2+": 11.904761904761903 }, "geometry": { "type": "Point", "coordinates": [ 0.344295937288119, 52.585171124735254 ] } },
{ "type": "Feature", "properties": { "max_height": 2.0324997901916504, "mean_height": 0.47238367795944214, "std_height": 0.65506476163864136, "count_pixels": 43, "percent_cover": 0.47278724573941733, "percent_above_0.1m": 41.860465116279073, "low_level_<0.5": 4.6511627906976747, "mid_level_0.5-2": 34.883720930232556, "tall_2+": 2.3255813953488373 }, "geometry": { "type": "Point", "coordinates": [ 0.344500280568824, 52.585167079015385 ] } },
{ "type": "Feature", "properties": { "max_height": 1.8924999237060547, "mean_height": 0.29943168163299561, "std_height": 0.54790014028549194, "count_pixels": 44, "percent_cover": 0.48378229796591538, "percent_above_0.1m": 31.818181818181817, "low_level_<0.5": 11.363636363636363, "mid_level_0.5-2": 20.454545454545457, "tall_2+": 0.0 }, "geometry": { "type": "Point", "coordinates": [ 0.344704623800947, 52.585163032943143 ] } }
]
}
