{
"type": "FeatureCollection",
"name": "db1ad6129444_foliage",
"crs": { "type": "name", "properties": { "name": "urn:ogc:def:crs:OGC:1.3:CRS84" } },
"features": [
{ "type": "Feature", "properties": { "max_height": 9.12249755859375, "mean_height": 1.8469177484512329, "std_height": 2.7456948757171631, "count_pixels": 43, "percent_cover": 0.74652777777777779, "percent_above_0.1m": 53.488372093023251, "low_level_<0.5": 11.627906976744185, "mid_level_0.5-2": 9.3023255813953494, "tall_2+": 30.232558139534881 }, "geometry": { "type": "Point", "coordinates": [ 0.70832250197629, 52.819671192256443 ] } },
{ "type": "Feature", "properties": { "max_height": 5.1875, "mean_height": 0.27897369861602783, "std_height": 1.0033410787582397, "count_pixels": 39, "percent_cover": 0.67708333333333337, "percent_above_0.1m": 12.820512820512819, "low_level_<0.5": 0.0, "mid_level_0.5-2": 5.1282051282051277, "tall_2+": 5.1282051282051277 }, "geometry": { "type": "Point", "coordinates": [ 0.708527885078476, 52.819666504124982 ] } },
{ "type": "Feature", "properties": { "max_height": 13.687496185302734, "mean_height": 4.0588364601135254, "std_height": 5.0680680274963379, "count_pixels": 43, "percent_cover": 0.74652777777777779, "percent_above_0.1m": 53.488372093023251, "low_level_<0.5": 2.3255813953488373, "mid_level_0.5-2": 0.0, "tall_2+": 46.511627906976742 }, "geometry": { "type": "Point", "coordinates": [ 0.708733268123652, 52.819661815638398 ] } },
{ "type": "Feature", "properties": { "max_height": 15.607498168945312, "mean_height": 7.7451157569885254, "std_height": 4.9854817390441895, "count_pixels": 43, "percent_cover": 0.74652777777777779, "percent_above_0.1m": 86.04651162790698, "low_level_<0.5": 2.3255813953488373, "mid_level_0.5-2": 4.6511627906976747, "tall_2+": 79.069767441860463 }, "geometry": { "type": "Point", "coordinates": [ 0.708938651111811, 52.819657126796635 ] } },
{ "type": "Feature", "properties": { "max_height": 1.3974990844726562, "mean_height": 0.11918678134679794, "std_height": 0.31039524078369141, "count_pixels": 40, "percent_cover": 0.69444444444444442, "percent_above_0.1m": 15.0, "low_level_<0.5": 5.0, "mid_level_0.5-2": 10.0, "tall_2+": 0.0 }, "geometry": { "type": "Point", "coordinates": [ 0.708637278426901, 52.819771913278451 ] } },
{ "type": "Feature", "properties": { "max_height": 11.459995269775391, "mean_height": 3.431035041809082, "std_height": 3.7778072357177734, "count_pixels": 41, "percent_cover": 0.71180555555555558, "percent_above_0.1m": 63.414634146341463, "low_level_<0.5": 0.0, "mid_level_0.5-2": 4.8780487804878048, "tall_2+": 51.219512195121951 }, "geometry": { "type": "Point", "coordinates": [ 0.708842661950737, 52.819767224596696 ] } },
{ "type": "Feature", "properties": { "max_height": 5.1899986267089844, "mean_height": 0.43530347943305969, "std_height": 1.0849701166152954, "count_pixels": 41, "percent_cover": 0.71180555555555558, "percent_above_0.1m": 21.951219512195124, "low_level_<0.5": 0.0, "mid_level_0.5-2": 9.7560975609756095, "tall_2+": 9.7560975609756095 }, "geometry": { "type": "Point", "coordinates": [ 0.709048045417547, 52.819762535559768 ] } },
{ "type": "Feature", "properties": { "max_height": 13.724998474121094, "mean_height": 2.7414629459381104, "std_height": 4.2213459014892578, "count_pixels": 41, "percent_cover": 0.71180555555555558, "percent_above_0.1m": 36.585365853658537, "low_level_<0.5": 0.0, "mid_level_0.5-2": 2.4390243902439024, "tall_2+": 34.146341463414636 }, "geometry": { "type": "Point", "coordinates": [ 0.709253428827342, 52.81975784616769 ] } },
{ "type": "Feature", "properties": { "max_height": 11.237499237060547, "mean_height": 1.9051735401153564, "std_height": 2.6126871109008789, "count_pixels": 43, "percent_cover": 0.74652777777777779, "percent_above_0.1m": 53.488372093023251, "low_level_<0.5": 4.6511627906976747, "mid_level_0.5-2": 13.953488372093023, "tall_2+": 34.883720930232556 }, "geometry": { "type": "Point", "coordinates": [ 0.709458812180102, 52.819753156420461 ] } },
{ "type": "Feature", "properties": { "max_height": 1.1249961853027344, "mean_height": 0.060231585055589676, "std_height": 0.19112291932106018, "count_pixels": 43, "percent_cover": 0.74652777777777779, "percent_above_0.1m": 13.953488372093023, "low_level_<0.5": 2.3255813953488373, "mid_level_0.5-2": 4.6511627906976747, "tall_2+": 0.0 }, "geometry": { "type": "Point", "coordinates": [ 0.708952056313512, 52.819872633446074 ] } },
{ "type": "Feature", "properties": { "max_height": 0.14999771118164062, "mean_height": 0.007556648924946785, "std_height": 0.027960935607552528, "count_pixels": 43, "percent_cover": 0.74652777777777779, "percent_above_0.1m": 4.6511627906976747, "low_level_<0.5": 0.0, "mid_level_0.5-2": 0.0, "tall_2+": 0.0 }, "geometry": { "type": "Point", "coordinates": [ 0.709157440258982, 52.819867944213982 ] } },
{ "type": "Feature", "properties": { "max_height": 0.00749969482421875, "mean_height": 0.00030331494053825736, "std_height": 0.0033674919977784157, "count_pixels": 41, "percent_cover": 0.71180555555555558, "percent_above_0.1m": 0.0, "low_level_<0.5": 0.0, "mid_level_0.5-2": 0.0, "tall_2+": 0.0 }, "geometry": { "type": "Point", "coordinates": [ 0.709362824147426, 52.819863254626739 ] } },
{ "type": "Feature", "properties": { "max_height": 0.049999237060546875, "mean_height": 0.0036573642864823341, "std_height": 0.010477686300873756, "count_pixels": 41, "percent_cover": 0.71180555555555558, "percent_above_0.1m": 0.0, "low_level_<0.5": 0.0, "mid_level_0.5-2": 0.0, "tall_2+": 0.0 }, "geometry": { "type": "Point", "coordinates": [ 0.70956820797884, 52.819858564684331 ] } },
{ "type": "Feature", "properties": { "max_height": 3.8324966430664062, "mean_height": 0.15829114615917206, "std_height": 0.64810526371002197, "count_pixels": 41, "percent_cover": 0.71180555555555558, "percent_above_0.1m": 9.7560975609756095, "low_level_<0.5": 4.8780487804878048, "mid_level_0.5-2": 2.4390243902439024, "tall_2+": 2.4390243902439024 }, "geometry": { "type": "Point", "coordinates": [ 0.709773591753221, 52.81985387438678 ] } },
{ "type": "Feature", "properties": { "max_height": 7.1149978637695312, "mean_height": 0.99268162250518799, "std_height": 1.8718737363815308, "count_pixels": 41, "percent_cover": 0.71180555555555558, "percent_above_0.1m": 36.585365853658537, "low_level_<0.5": 9.7560975609756095, "mid_level_0.5-2": 7.3170731707317067, "tall_2+": 19.512195121951219 }, "geometry": { "type": "Point", "coordinates": [ 0.709978975470563, 52.819849183734057 ] } },
{ "type": "Feature", "properties": { "max_height": 19.477493286132812, "mean_height": 4.8057303428649902, "std_height": 6.0002932548522949, "count_pixels": 41, "percent_cover": 0.71180555555555558, "percent_above_0.1m": 60.975609756097562, "low_level_<0.5": 4.8780487804878048, "mid_level_0.5-2": 9.7560975609756095, "tall_2+": 46.341463414634148 }, "geometry": { "type": "Point", "coordinates": [ 0.709061451211985, 52.819978042186563 ] } },
{ "type": "Feature", "properties": { "max_height": 10.237499237060547, "mean_height": 0.57207190990447998, "std_height": 1.780917763710022, "count_pixels": 41, "percent_cover": 0.71180555555555558, "percent_above_0.1m": 19.512195121951219, "low_level_<0.5": 4.8780487804878048, "mid_level_0.5-2": 0.0, "tall_2+": 12.195121951219512 }, "geometry": { "type": "Point", "coordinates": [ 0.709266835636114, 52.81997335275932 ] } },
{ "type": "Feature", "properties": { "max_height": 0.5774993896484375, "mean_height": 0.026045244187116623, "std_height": 0.11774545907974243, "count_pixels": 43, "percent_cover": 0.74652777777777779, "percent_above_0.1m": 4.6511627906976747, "low_level_<0.5": 0.0, "mid_level_0.5-2": 4.6511627906976747, "tall_2+": 0.0 }, "geometry": { "type": "Point", "coordinates": [ 0.709472220003213, 52.819968662976898 ] } },
{ "type": "Feature", "properties": { "max_height": 0.00749969482421875, "mean_height": 0.00017272593686357141, "std_height": 0.0027701309882104397, "count_pixels": 43, "percent_cover": 0.74652777777777779, "percent_above_0.1m": 0.0, "low_level_<0.5": 0.0, "mid_level_0.5-2": 0.0, "tall_2+": 0.0 }, "geometry": { "type": "Point", "coordinates": [ 0.709677604313283, 52.819963972839318 ] } },
{ "type": "Feature", "properties": { "max_height": 0.00749969482421875, "mean_height": 0.00046397364349104464, "std_height": 0.0028149948921054602, "count_pixels": 43, "percent_cover": 0.74652777777777779, "percent_above_0.1m": 0.0, "low_level_<0.5": 0.0, "mid_level_0.5-2": 0.0, "tall_2+": 0.0 }, "geometry": { "type": "Point", "coordinates": [ 0.709882988566312, 52.819959282346581 ] } },
{ "type": "Feature", "properties": { "max_height": 0.17749786376953125, "mean_height": 0.015657123178243637, "std_height": 0.037511598318815231, "count_pixels": 38, "percent_cover": 0.65972222222222221, "percent_above_0.1m": 5.2631578947368416, "low_level_<0.5": 2.6315789473684208, "mid_level_0.5-2": 0.0, "tall_2+": 0.0 }, "geometry": { "type": "Point", "coordinates": [ 0.7100883727623, 52.819954591498693 ] } },
{ "type": "Feature", "properties": { "max_height": 5.2024993896484375, "mean_height": 0.66162669658660889, "std_height": 1.4118990898132324, "count_pixels": 43, "percent_cover": 0.74652777777777779, "percent_above_0.1m": 30.232558139534881, "low_level_<0.5": 9.3023255813953494, "mid_level_0.5-2": 9.3023255813953494, "tall_2+": 11.627906976744185 }, "geometry": { "type": "Point", "coordinates": [ 0.710293756901247, 52.819949900295647 ] } },
{ "type": "Feature", "properties": { "max_height": 19.622501373291016, "mean_height": 6.5094499588012695, "std_height": 5.6140704154968262, "count_pixels": 41, "percent_cover": 0.71180555555555558, "percent_above_0.1m": 78.048780487804876, "low_level_<0.5": 2.4390243902439024, "mid_level_0.5-2": 2.4390243902439024, "tall_2+": 73.170731707317074 }, "geometry": { "type": "Point", "coordinates": [ 0.709376231548948, 52.820078761195731 ] } },
{ "type": "Feature", "properties": { "max_height": 19.877494812011719, "mean_height": 4.2805471420288086, "std_height": 6.2867274284362793, "count_pixels": 41, "percent_cover": 0.71180555555555558, "percent_above_0.1m": 46.341463414634148, "low_level_<0.5": 0.0, "mid_level_0.5-2": 9.7560975609756095, "tall_2+": 36.585365853658537 }, "geometry": { "type": "Point", "coordinates": [ 0.709581616394706, 52.820074071218151 ] } },
{ "type": "Feature", "properties": { "max_height": 0.005001068115234375, "mean_height": 5.9825619246112183e-05, "std_height": 0.0031468900851905346, "count_pixels": 41, "percent_cover": 0.71180555555555558, "percent_above_0.1m": 0.0, "low_level_<0.5": 0.0, "mid_level_0.5-2": 0.0, "tall_2+": 0.0 }, "geometry": { "type": "Point", "coordinates": [ 0.709787001183433, 52.820069380885393 ] } },
{ "type": "Feature", "properties": { "max_height": 0.005001068115234375, "mean_height": 0.00018217504839412868, "std_height": 0.001779562677256763, "count_pixels": 41, "percent_cover": 0.71180555555555558, "percent_above_0.1m": 0.0, "low_level_<0.5": 0.0, "mid_level_0.5-2": 0.0, "tall_2+": 0.0 }, "geometry": { "type": "Point", "coordinates": [ 0.709992385915108, 52.820064690197498 ] } },
{ "type": "Feature", "properties": { "max_height": 0.005001068115234375, "mean_height": 0.0002428380394121632, "std_height": 0.0023302901536226273, "count_pixels": 41, "percent_cover": 0.71180555555555558, "percent_above_0.1m": 0.0, "low_level_<0.5": 0.0, "mid_level_0.5-2": 0.0, "tall_2+": 0.0 }, "geometry": { "type": "Point", "coordinates": [ 0.710197770589753, 52.820059999154417 ] } },
{ "type": "Feature", "properties": { "max_height": 0.86750030517578125, "mean_height": 0.076462537050247192, "std_height": 0.18310932815074921, "count_pixels": 41, "percent_cover": 0.71180555555555558, "percent_above_0.1m": 17.073170731707318, "low_level_<0.5": 12.195121951219512, "mid_level_0.5-2": 4.8780487804878048, "tall_2+": 0.0 }, "geometry": { "type": "Point", "coordinates": [ 0.71040315520734, 52.820055307756192 ] } },
{ "type": "Feature", "properties": { "max_height": 12.882499694824219, "mean_height": 1.285115122795105, "std_height": 2.8242604732513428, "count_pixels": 43, "percent_cover": 0.74652777777777779, "percent_above_0.1m": 34.883720930232556, "low_level_<0.5": 0.0, "mid_level_0.5-2": 16.279069767441861, "tall_2+": 16.279069767441861 }, "geometry": { "type": "Point", "coordinates": [ 0.709691013321911, 52.820179479350493 ] } },
{ "type": "Feature", "properties": { "max_height": 0.01000213623046875, "mean_height": 0.00058054371038451791, "std_height": 0.0038819368928670883, "count_pixels": 43, "percent_cover": 0.74652777777777779, "percent_above_0.1m": 0.0, "low_level_<0.5": 0.0, "mid_level_0.5-2": 0.0, "tall_2+": 0.0 }, "geometry": { "type": "Point", "coordinates": [ 0.709896398589288, 52.820174788822577 ] } },
{ "type": "Feature", "properties": { "max_height": 0.00250244140625, "mean_height": -0.00013220937398727983, "std_height": 0.0013987668789923191, "count_pixels": 38, "percent_cover": 0.65972222222222221, "percent_above_0.1m": 0.0, "low_level_<0.5": 0.0, "mid_level_0.5-2": 0.0, "tall_2+": 0.0 }, "geometry": { "type": "Point", "coordinates": [ 0.710101783799623, 52.820170097939481 ] } },
{ "type": "Feature", "properties": { "max_height": 1.4199981689453125, "mean_height": 0.05970817431807518, "std_height": 0.23049749433994293, "count_pixels": 43, "percent_cover": 0.74652777777777779, "percent_above_0.1m": 9.3023255813953494, "low_level_<0.5": 2.3255813953488373, "mid_level_0.5-2": 4.6511627906976747, "tall_2+": 0.0 }, "geometry": { "type": "Point", "coordinates": [ 0.710307168952914, 52.820165406701243 ] } },
{ "type": "Feature", "properties": { "max_height": 1.4449996948242188, "mean_height": 0.17941762506961823, "std_height": 0.33537924289703369, "count_pixels": 43, "percent_cover": 0.74652777777777779, "percent_above_0.1m": 30.232558139534881, "low_level_<0.5": 13.953488372093023, "mid_level_0.5-2": 13.953488372093023, "tall_2+": 0.0 }, "geometry": { "type": "Point", "coordinates": [ 0.710512554049155, 52.820160715107832 ] } },
{ "type": "Feature", "properties": { "max_height": 0.067501068115234375, "mean_height": 0.0042670643888413906, "std_height": 0.013335227034986019, "count_pixels": 41, "percent_cover": 0.71180555555555558, "percent_above_0.1m": 0.0, "low_level_<0.5": 0.0, "mid_level_0.5-2": 0.0, "tall_2+": 0.0 }, "geometry": { "type": "Point", "coordinates": [ 0.710005796530862, 52.820280196650842 ] } },
{ "type": "Feature", "properties": { "max_height": 0.23749923706054688, "mean_height": 0.032133519649505615, "std_height": 0.063834413886070251, "count_pixels": 41, "percent_cover": 0.71180555555555558, "percent_above_0.1m": 9.7560975609756095, "low_level_<0.5": 9.7560975609756095, "mid_level_0.5-2": 0.0, "tall_2+": 0.0 }, "geometry": { "type": "Point", "coordinates": [ 0.710211182219854, 52.820275505572575 ] } },
{ "type": "Feature", "properties": { "max_height": 1.0349998474121094, "mean_height": 0.19030463695526123, "std_height": 0.25749710202217102, "count_pixels": 41, "percent_cover": 0.71180555555555558, "percent_above_0.1m": 46.341463414634148, "low_level_<0.5": 26.829268292682929, "mid_level_0.5-2": 12.195121951219512, "tall_2+": 0.0 }, "geometry": { "type": "Point", "coordinates": [ 0.710416567851797, 52.820270814139143 ] } },
{ "type": "Feature", "properties": { "max_height": 0.74499893188476562, "mean_height": 0.067092008888721466, "std_height": 0.14644621312618256, "count_pixels": 43, "percent_cover": 0.74652777777777779, "percent_above_0.1m": 16.279069767441861, "low_level_<0.5": 13.953488372093023, "mid_level_0.5-2": 2.3255813953488373, "tall_2+": 0.0 }, "geometry": { "type": "Point", "coordinates": [ 0.710320581175803, 52.820380913096763 ] } }
]
}
